Ref,Spider,Name,Address,City,State,Zipcode,Country,Phone,Website,Hours,Brand,WikiData
EC013,nissan_europe,Automotores y Anexos Nissan Loja,,Loja,Loja,,EC,+593 95 897 2022,,Mo-Fr 09:00-18:00; Sa 10:00-14:00,Nissan,Q20165
,visa,,,LOJA,LOJA,,EC,,,,,
,visa,,,LOJA,LOJA,,EC,,,,,
,visa,,,LOJA,LOJA,,EC,,,,,
,visa,,,LOJA,LOJA,,EC,,,,,
,visa,,,LOJA,LOJA,,EC,,,,,
,visa,,,LOJA,LOJA,,EC,,,,,
,visa,,,LOJA,LOJA,,EC,,,,,
,visa,,,LOJA,LOJA,,EC,,,,,
,visa,,,LOJA,LOJA,,EC,,,,,
,visa,,,LOJA,LOJA,,EC,,,,,
,visa,,,LOJA,LOJA,,EC,,,,,
,visa,,,LOJA,LOJA,,EC,,,,,
,visa,,,LOJA,LOJA,,EC,,,,,
,visa,,,LOJA,LOJA,,EC,,,,,
,visa,,,LOJA,LOJA,,EC,,,,,
,visa,,,LOJA,LOJA,,EC,,,,,
,visa,,,LOJA,LOJA,,EC,,,,,
,visa,,,LOJA,LOJA,,EC,,,,,
,visa,,,LOJA,LOJA,,EC,,,,,
,visa,,,LOJA,LOJA,,EC,,,,,
,visa,,,LOJA,LOJA,,EC,,,,,
,visa,,,LOJA,LOJA,,EC,,,,,
,visa,,,LOJA,LOJA,,EC,,,,,
,visa,,,LOJA,LOJA,,EC,,,,,
,visa,,,LOJA,LOJA,,EC,,,,,
,visa,,,LOJA,LOJA,,EC,,,,,
,visa,,,LOJA,LOJA,,EC,,,,,
,visa,,,LOJA,LOJA,,EC,,,,,
,visa,,,LOJA,LOJA,,EC,,,,,
,visa,,,LOJA,LOJA,,EC,,,,,
,visa,,,LOJA,LOJA,,EC,,,,,
,visa,,,LOJA,LOJA,,EC,,,,,
,visa,,,LOJA,LOJA,,EC,,,,,
,visa,,,LOJA,LOJA,,EC,,,,,
,visa,,,LOJA,LOJA,,EC,,,,,
,visa,,,LOJA,LOJA,,EC,,,,,
,visa,,,LOJA,LOJA,,EC,,,,,
,visa,,,LOJA,LOJA,,EC,,,,,
,visa,,,LOJA,LOJA,,EC,,,,,
,visa,,,LOJA,LOJA,,EC,,,,,
,visa,,,LOJA,LOJA,,EC,,,,,
,visa,,,LOJA,LOJA,,EC,,,,,
,visa,,,LOJA,LOJA,,EC,,,,,
,visa,,,LOJA,LOJA,,EC,,,,,
,visa,,,LOJA,LOJA,,EC,,,,,
,visa,,,LOJA,LOJA,,EC,,,,,
,visa,,,LOJA,LOJA,,EC,,,,,
,visa,,,LOJA,LOJA,,EC,,,,,
,visa,,,LOJA,LOJA,,EC,,,,,
,visa,,,LOJA,LOJA,,EC,,,,,
,visa,,,LOJA,LOJA,,EC,,,,,
,visa,,,LOJA,LOJA,,EC,,,,,
,visa,,,LOJA,LOJA,,EC,,,,,
,visa,,,LOJA,LOJA,,EC,,,,,
,visa,,,LOJA,LOJA,,EC,,,,,
,visa,,,LOJA,LOJA,,EC,,,,,
,visa,,,LOJA,LOJA,,EC,,,,,
,visa,,,LOJA,LOJA,,EC,,,,,
,visa,,,LOJA,LOJA,,EC,,,,,
,visa,,,LOJA,LOJA,,EC,,,,,
,visa,,,LOJA,LOJA,,EC,,,,,
,visa,,,LOJA,LOJA,,EC,,,,,
,visa,,,LOJA,LOJA,,EC,,,,,
,visa,,,LOJA,LOJA,,EC,,,,,
,visa,,,LOJA,LOJA,,EC,,,,,
,visa,,,VILCABAMBA,LOJA,,EC,,,,,
,visa,,,SARAGURO,LOJA,,EC,,,,,
,visa,,,LOJA,LOJA,,EC,,,,,
,visa,,,MALACATOS,LOJA,,EC,,,,,
,visa,,,LOJA,LOJA,,EC,,,,,
,visa,,,CATAMAYO,LOJA,,EC,,,,,
,visa,,,LOJA,LOJA,,EC,,,,,
,visa,,,CATAMAYO,LOJA,,EC,,,,,
,visa,,,CATAMAYO,LOJA,,EC,,,,,
,visa,,,CATAMAYO,LOJA,,EC,,,,,
,visa,,,CATAMAYO,LOJA,,EC,,,,,
,visa,,,CATAMAYO,LOJA,,EC,,,,,
,visa,,,CARIAMANGA,LOJA,,EC,,,,,
,visa,,,CHAGUARPAMBA,LOJA,,EC,,,,,
,visa,,,PALTAS,LOJA,,EC,,,,,
,visa,,,CATACOCHA,LOJA,,EC,,,,,
,visa,,,MACARÁ,LOJA,,EC,,,,,
,visa,,,PUYANGO,LOJA,,EC,,,,,
,visa,,,ALAMOR,LOJA,,EC,,,,,
e132ceb6d91f47b165d1494854bdadae,western_union,CIS PAGO AGIL DIATI,,Loja,LOJA,,EC,+593 99 753 0981,https://location.westernunion.com/ec/loja/loja/e132ceb6d91f47b165d1494854bdadae,Mo-Su 08:00-20:00,Western Union,Q861042
9e6e79396c0a81ffad9281ebddcb6685,western_union,ERCO - SUMAYPAMBA,,Saraguro,LOJA,,EC,+593 7-301-3957,https://location.westernunion.com/ec/loja/saraguro/9e6e79396c0a81ffad9281ebddcb6685,Mo-Fr 09:00-16:30; Sa-Su 09:00-14:00,Western Union,Q861042
237b39b8ef0ed2cad50b46d4ee4b518f,western_union,SRNP PILAR Y NANDA LOJA,,Loja,LOJA,,EC,+593 4-371-0050,https://location.westernunion.com/ec/loja/loja/237b39b8ef0ed2cad50b46d4ee4b518f,Mo-Su 08:00-21:00,Western Union,Q861042
e5b806eb651061862fcc6527699c41f0,western_union,CIS PAGO AGIL COMERCIAL EL GRANERO,,Puyango,LOJA,,EC,+593 98 615 5399,https://location.westernunion.com/ec/loja/puyango/e5b806eb651061862fcc6527699c41f0,Mo-Su 08:00-20:00,Western Union,Q861042
e9be24d0589d157822b00e18f2e92c35,western_union,SRNP ESTUDIO CONTABLE SISALIMA LOJA,,Puyango,LOJA,,EC,+593 4-371-0050,https://location.westernunion.com/ec/loja/puyango/e9be24d0589d157822b00e18f2e92c35,Mo-Su 08:00-21:00,Western Union,Q861042
13c5a0d7fc544cd553cada94e676c879,western_union,CIS PAG COAC DE LA PEQUE�A EM PUYANGO,,Puyango,LOJA,,EC,(+0593) 9-987884312,https://location.westernunion.com/ec/loja/puyango/13c5a0d7fc544cd553cada94e676c879,Mo-Su 08:00-20:00,Western Union,Q861042
09fe99a477d2cc466a86a353f181dbac,western_union,COAC 23 DE ENERO,,Alamor,LOJA,,EC,+593 7-268-0827,https://location.westernunion.com/ec/loja/alamor/09fe99a477d2cc466a86a353f181dbac,Mo-Su 08:00-18:00,Western Union,Q861042
33e6254745b1d0b863c44b425b8a3dc0,western_union,COAC CREDIAMIGO SAN LUCAS,,Loja,LOJA,,EC,+593 7-256-4172,https://location.westernunion.com/ec/loja/loja/33e6254745b1d0b863c44b425b8a3dc0,Mo-Su 08:00-18:00,Western Union,Q861042
27a6802000b11ecd515edf7324dab99b,western_union,CISLATAM PINDAL,,Pindal,LOJA,,EC,+593 7-255-3157,https://location.westernunion.com/ec/loja/pindal/27a6802000b11ecd515edf7324dab99b,Mo-Su 07:00-20:00,Western Union,Q861042
2168df779b8fda7e01e2441b7cff4ba0,western_union,CIS PAG COAC DE LA PEQUE�A EM PINDAL,,Pindal,LOJA,,EC,(+0593) 9-987884312,https://location.westernunion.com/ec/loja/pindal/2168df779b8fda7e01e2441b7cff4ba0,Mo-Su 08:00-20:00,Western Union,Q861042
3243291ae672e5302147459c26a939b6,western_union,JC COMPUTERS,,Pindal,LOJA,,EC,+593 4-371-0050,https://location.westernunion.com/ec/loja/pindal/3243291ae672e5302147459c26a939b6,Mo-Sa 08:00-18:00; Su 08:00-14:00,Western Union,Q861042
93dd0c1bf2b5d302d84488baee46f618,western_union,CIS FIA COAC MARCABELI ORIANGA,,Paltas,LOJA,,EC,+593 7-295-6171,https://location.westernunion.com/ec/loja/paltas/93dd0c1bf2b5d302d84488baee46f618,Mo-Sa 08:00-17:30,Western Union,Q861042
11ad0bf6f70ed8803e625287cccf67be,western_union,CIS IGO MARGEORY CALDERON,,Puyango,LOJA,,EC,(+593) 9-990034056,https://location.westernunion.com/ec/loja/puyango/11ad0bf6f70ed8803e625287cccf67be,Mo-Su 07:30-21:00,Western Union,Q861042
a7b0d27ab28b5d66419bd047028608a5,western_union,CIS FIA COAC SANTA ROSA ALAMOR,,Puyango,LOJA,,EC,(+593) 7-2944200-6055,https://location.westernunion.com/ec/loja/puyango/a7b0d27ab28b5d66419bd047028608a5,Mo-Sa 07:30-18:00,Western Union,Q861042
31b9834d003ddd3b721927891a2ad8f1,western_union,CIS PGM CYBER CENTRAL ALAMOR,,Puyango,LOJA,,EC,(+593) 9-968288318,https://location.westernunion.com/ec/loja/puyango/31b9834d003ddd3b721927891a2ad8f1,Mo-Su 07:30-21:30,Western Union,Q861042
fce917f86c19a5f6b5cff84fdd196660,western_union,BANCO DE AUSTRO LOJA,,Catamayo,LOJA,,EC,+593 7-267-6806,https://location.westernunion.com/ec/loja/catamayo/fce917f86c19a5f6b5cff84fdd196660,Mo-Su 09:00-20:00,Western Union,Q861042
dcfeb9e659a31b96faa6893da74068e4,western_union,LOZANO QUIZPHE LORENA VERONICA,,Catamayo,LOJA,,EC,+593 98 814 7757,https://location.westernunion.com/ec/loja/catamayo/dcfeb9e659a31b96faa6893da74068e4,Mo-Su 08:00-20:00,Western Union,Q861042
ddc66193a952aa036182bf101f7ea040,western_union,11 DE JUNIO - CATAMAYO,,Catamayo,LOJA,,EC,+593 7-293-7076,https://location.westernunion.com/ec/loja/catamayo/ddc66193a952aa036182bf101f7ea040,Mo-Fr 08:00-18:00; Sa 08:00-13:00,Western Union,Q861042
5e76737240c23a938e5594ccb60f5e95,western_union,COOPERATIVA JEP - CATAMAYO,,Catamayo,LOJA,,EC,+593 7-413-5000,https://location.westernunion.com/ec/loja/catamayo/5e76737240c23a938e5594ccb60f5e95,Mo-Fr 08:00-18:00,Western Union,Q861042
0c529439e8feb9f6995f963671ce121b,western_union,CL010 ISIDRO AYORA CATAMAYO,,Catamayo,LOJA,,EC,+593 4-371-0050,https://location.westernunion.com/ec/loja/catamayo/0c529439e8feb9f6995f963671ce121b,Mo-Su 08:00-21:00,Western Union,Q861042
ef58ddd18a3c90183215a3d4cd677837,western_union,JARDIN AZUAYO - CATAMAYO,,Loja,LOJA,,EC,+593 7-283-3255,https://location.westernunion.com/ec/loja/loja/ef58ddd18a3c90183215a3d4cd677837,Mo-Fr 08:00-16:00; Sa 08:00-13:00,Western Union,Q861042
580d72b93c7f65dce6b77e6baf2921e9,western_union,CIS PAG COAC DE LA PEQUE�A EM YANTZAZA,,Yantzaza,LOJA,,EC,(+0593) 9-987884312,https://location.westernunion.com/ec/loja/yantzaza/580d72b93c7f65dce6b77e6baf2921e9,Mo-Su 08:00-20:00,Western Union,Q861042
c529c20a14da02399f9574d2d56c8d71,western_union,JAIR EXPRESS,,Macara,LOJA,,EC,+593 7-269-5373,https://location.westernunion.com/ec/loja/macara/c529c20a14da02399f9574d2d56c8d71,Mo-Fr 09:00-17:00,Western Union,Q861042
5d84551b31dc110c63ba4726eab59d40,western_union,FORTUNA - SARAGURO,,Saraguro,LOJA,,EC,+593 7-220-0480,https://location.westernunion.com/ec/loja/saraguro/5d84551b31dc110c63ba4726eab59d40,Mo-Fr 08:00-15:00; Sa-Su 08:00-13:00,Western Union,Q861042
3d11b7791e7770da6bd8b51085a9b7f9,western_union,SARACOOP,,Saraguro,LOJA,,EC,+593 7-220-0672,https://location.westernunion.com/ec/loja/saraguro/3d11b7791e7770da6bd8b51085a9b7f9,Mo-Fr 07:00-18:00; Sa-Su 08:00-14:00,Western Union,Q861042
ed10b44367837e01e985ebfbc8aac753,western_union,CIS PGM CARMEN TENE,,Saraguro,LOJA,,EC,+593 98 700 4921,https://location.westernunion.com/ec/loja/saraguro/ed10b44367837e01e985ebfbc8aac753,Mo-Fr 08:00-19:00; Sa-Su 08:00-14:00,Western Union,Q861042
f064168a7db5c54c210f1feae3b90102,western_union,CIS PAG COAC DE LA PEQUE�A EM SARAGURO,,Saraguro,LOJA,,EC,(+0593) 9-987884312,https://location.westernunion.com/ec/loja/saraguro/f064168a7db5c54c210f1feae3b90102,Mo-Su 08:00-20:00,Western Union,Q861042
9970e7234427bc0a5b4318db0dab5f31,western_union,COOPERATIVA DE AHORRO Y CREDITO SEMILLA,,Saraguro,LOJA,,EC,+593 4-371-0050,https://location.westernunion.com/ec/loja/saraguro/9970e7234427bc0a5b4318db0dab5f31,Mo-Su 08:00-17:00,Western Union,Q861042
c765ac1aa331b2c4a63d642aa8a601ff,western_union,SRNP COOP SEMILLA DEL PROGRESO SARAGURO,,Saraguro,LOJA,,EC,+593 7-223-3600,https://location.westernunion.com/ec/loja/saraguro/c765ac1aa331b2c4a63d642aa8a601ff,Mo-Su 09:00-19:00,Western Union,Q861042
0b6261ef11c96fdd19a1da6f625eb30c,western_union,SRNP MEGA TIENDA DEL SUR SARAGURO,,Saraguro,LOJA,,EC,+593 4-371-0050,https://location.westernunion.com/ec/loja/saraguro/0b6261ef11c96fdd19a1da6f625eb30c,Mo-Su 08:00-21:00,Western Union,Q861042
883c9f50d26526b881ecfa15745cae13,western_union,JARDIN AZUAYO - MANU,,Saraguro,LOJA,,EC,(+593) 01,https://location.westernunion.com/ec/loja/saraguro/883c9f50d26526b881ecfa15745cae13,Mo-Fr 08:00-16:00; Su 08:00-13:00,Western Union,Q861042
71190f3e95a5aa9b66942d647a9dacff,western_union,JARDIN AZUAYO - SARAGURO,,Saraguro,LOJA,,EC,+593 7-220-0083,https://location.westernunion.com/ec/loja/saraguro/71190f3e95a5aa9b66942d647a9dacff,Mo-Fr 08:00-16:00; Su 08:00-13:00,Western Union,Q861042
3201710ba2e6444aee69bcead11db176,western_union,PAGO AGIL TIENDAS 089,,Saraguro,LOJA,,EC,+593 7-220-0103,https://location.westernunion.com/ec/loja/saraguro/3201710ba2e6444aee69bcead11db176,Mo-Fr 08:00-16:00; Sa 09:00-13:00,Western Union,Q861042
6b573f5366163aa84ae9d4a28d714e05,western_union,FARMACIA D ALESSANDRO,,Zapotillo,LOJA,,EC,+593 4-371-0059,https://location.westernunion.com/ec/loja/zapotillo/6b573f5366163aa84ae9d4a28d714e05,Mo-Su 08:00-19:00,Western Union,Q861042
2b7c37d27b0bc30ec450270175f3c505,western_union,CIS GDP INTERNET CYBER EL PIRATA,,Zapotillo,LOJA,,EC,(+0593) 9-992036128,https://location.westernunion.com/ec/loja/zapotillo/2b7c37d27b0bc30ec450270175f3c505,Mo-Fr 08:30-19:00; Sa 08:30-09:30; Su 18:00-09:30,Western Union,Q861042
0d59089353387231b3aea4d156b357e5,western_union,COAC LAS LAGUNAS,,Saraguro,LOJA,,EC,+593 7-220-0073,https://location.westernunion.com/ec/loja/saraguro/0d59089353387231b3aea4d156b357e5,Mo-Fr 08:00-17:30; Sa-Su 09:00-13:30,Western Union,Q861042
ed43b13456e20c071fefcd3a6369cdc7,western_union,COAC ECOSUR,,Saraguro,LOJA,,EC,+593 7-220-0694,https://location.westernunion.com/ec/loja/saraguro/ed43b13456e20c071fefcd3a6369cdc7,Mo-Fr 08:00-18:00; Sa-Su 08:00-14:00,Western Union,Q861042
7a5b92f661f6a56b298c665549a0ddab,western_union,CIS PAG COAC AUSTRO SARAGURO LTDA,,Saraguro,LOJA,,EC,+593 7-220-0323,https://location.westernunion.com/ec/loja/saraguro/7a5b92f661f6a56b298c665549a0ddab,Mo-Su 08:00-20:00,Western Union,Q861042
1d5aa4664f22eafbd83ad515f71b67a8,western_union,SRNP TIA 364 PLAZA DEL VALLE,,Loja,LOJA,,EC,+593 4-259-8830,https://location.westernunion.com/ec/loja/loja/1d5aa4664f22eafbd83ad515f71b67a8,Mo-Su 08:00-19:00,Western Union,Q861042
288ffec1cab3e6a1ae4392477ddfe5e5,western_union,ACTIVA TIA HIPER VALLE LOJA,,Loja,LOJA,,EC,+593 1800 937 837,https://location.westernunion.com/ec/loja/loja/288ffec1cab3e6a1ae4392477ddfe5e5,Mo-Su 09:00-19:00,Western Union,Q861042
9cf5b0f758bd6cd796640140a2d580ba,western_union,COOPERATIVA JEP - LOJA 3,,Loja,LOJA,,EC,+593 7-413-5000,https://location.westernunion.com/ec/loja/loja/9cf5b0f758bd6cd796640140a2d580ba,Mo-Su 08:00-18:00,Western Union,Q861042
9004afc3142ac4e35326d1330ebe33ca,western_union,CIS BAZAR FERNANDITA,,Sozoranga,LOJA,,EC,+593 7-266-0225,https://location.westernunion.com/ec/loja/sozoranga/9004afc3142ac4e35326d1330ebe33ca,Mo-Su 07:00-21:00,Western Union,Q861042
f39fdf6428d8f2130e118b0fae638ef6,western_union,RECAUDOMONEY CIA LTDA,,Loja,LOJA,,EC,+593 4-371-0050,https://location.westernunion.com/ec/loja/loja/f39fdf6428d8f2130e118b0fae638ef6,Mo-Su 07:00-22:00,Western Union,Q861042
6e0ccb4cc42848708ba567cc50abe350,western_union,CIS GDP MIRIAN JUAREZ,,Loja,LOJA,,EC,(+593) 9-987288704,https://location.westernunion.com/ec/loja/loja/6e0ccb4cc42848708ba567cc50abe350,Mo-Fr 08:30-19:00; Sa-Su 09:30-18:00,Western Union,Q861042
0a11d836f035b86f1feb0555f6270cd1,western_union,CIS GDP TANIA LOPEZ,,Loja,LOJA,,EC,(+0593) 9-991835448,https://location.westernunion.com/ec/loja/loja/0a11d836f035b86f1feb0555f6270cd1,Mo-Fr 08:30-19:00; Sa-Su 09:30-18:00,Western Union,Q861042
6e5813009c3866446bc123d8f83847eb,western_union,CIS GDP BRIGGETTE HUACA,,Loja,LOJA,,EC,+593 99 339 7240,https://location.westernunion.com/ec/loja/loja/6e5813009c3866446bc123d8f83847eb,Mo-Fr 08:30-19:00; Sa-Su 09:30-18:00,Western Union,Q861042
45deade1077c79aa197f22b48a9bbaac,western_union,SRNP LAVANDA NET LOJA,,Loja,LOJA,,EC,+593 4-371-0050,https://location.westernunion.com/ec/loja/loja/45deade1077c79aa197f22b48a9bbaac,Mo-Su 08:00-21:00,Western Union,Q861042
dc4c27b4fd615713a763a31f22907190,western_union,CIS PAGO AGIL PANALERA M Y O,,Loja,LOJA,,EC,(+593) 9-993611535,https://location.westernunion.com/ec/loja/loja/dc4c27b4fd615713a763a31f22907190,Mo-Su 08:00-20:00,Western Union,Q861042
72723331093db0d1f2a76113f95ad12f,western_union,CIS PAG COAC CHIBULEO LOJA LTDA,,Loja,LOJA,,EC,+593 96 070 5766,https://location.westernunion.com/ec/loja/loja/72723331093db0d1f2a76113f95ad12f,Mo-Su 08:00-20:00,Western Union,Q861042
5e3f71934e663607aa78028a2f408f22,western_union,BANCO DE AUSTRO LOJA,,Loja,LOJA,,EC,+593 7-258-1716,https://location.westernunion.com/ec/loja/loja/5e3f71934e663607aa78028a2f408f22,Mo-Su 09:00-20:00,Western Union,Q861042
f5497e9784d52c9ef613a493bf896e67,western_union,SRNP COOP AHORRO Y CREDITO CR,,Loja,LOJA,,EC,+593 4-371-0050,https://location.westernunion.com/ec/loja/loja/f5497e9784d52c9ef613a493bf896e67,Mo-Su 08:00-21:00,Western Union,Q861042
5a7a0b9b51528135b47cc745c8277d69,western_union,CIS MULTIPAGOS ESPINOSA,,Loja,LOJA,,EC,(+593) 9-980414627,https://location.westernunion.com/ec/loja/loja/5a7a0b9b51528135b47cc745c8277d69,Mo-Fr 07:00-21:00; Sa 08:00-20:00; Su 21:00-19:00,Western Union,Q861042
b73090ee35a6c9fad5451c4966e08997,western_union,PASTAZA - LOJA,,Loja,LOJA,,EC,+593 7-288-7960,https://location.westernunion.com/ec/loja/loja/b73090ee35a6c9fad5451c4966e08997,Mo-Fr 08:30-17:00; Sa-Su 08:30-12:30,Western Union,Q861042
c38cfe5d1877070b2f4e1e19738322a2,western_union,CIS GDP HOOVER ESCOBAR,,Loja,LOJA,,EC,(+0593) 9-990841032,https://location.westernunion.com/ec/loja/loja/c38cfe5d1877070b2f4e1e19738322a2,Mo-Fr 08:30-19:00; Sa-Su 09:30-18:00,Western Union,Q861042
4f9d92ce19858e7ad92061ee5ca45646,western_union,CIS PAG COAC DE LA PEQUE�A EM MATRIZ,,Loja,LOJA,,EC,(+0593) 9-987884312,https://location.westernunion.com/ec/loja/loja/4f9d92ce19858e7ad92061ee5ca45646,Mo-Su 08:00-20:00,Western Union,Q861042
6849c339c4caac729174cd99b4802066,western_union,FL002 COLON LOJA,,Loja,LOJA,,EC,+593 4-371-0050,https://location.westernunion.com/ec/loja/loja/6849c339c4caac729174cd99b4802066,Mo-Su 08:00-21:00,Western Union,Q861042
bf91afcf6e93e8d38bbb301539534f6f,western_union,FORTUNA - MATRIZ,,Loja,LOJA,,EC,+593 2-572-9542,https://location.westernunion.com/ec/loja/loja/bf91afcf6e93e8d38bbb301539534f6f,Mo-Fr 08:00-15:00; Sa-Su 08:00-13:00,Western Union,Q861042
4994a879396f20c5069e86f2abe883df,western_union,CIS PAGO AGIL FARMACIA TU SALUD,,Loja,LOJA,,EC,(+593) 9-994014360,https://location.westernunion.com/ec/loja/loja/4994a879396f20c5069e86f2abe883df,Mo-Su 08:00-20:00,Western Union,Q861042
c6d1d6f96c2f4d264d61f6fb75d20e7e,western_union,SRNP PAGO MAGICO EXPRESS LOJA,,Loja,LOJA,,EC,+593 4-371-0050,https://location.westernunion.com/ec/loja/loja/c6d1d6f96c2f4d264d61f6fb75d20e7e,Mo-Su 08:00-21:00,Western Union,Q861042
32c8d51b50442921c41a10882ec5f5f7,western_union,YANTZAZA - AGENCIA LOJA,,Loja,LOJA,,EC,+593 7-230-0111,https://location.westernunion.com/ec/loja/loja/32c8d51b50442921c41a10882ec5f5f7,Mo-Fr 08:00-17:00; Sa 08:00-12:00,Western Union,Q861042
e0f3ef45345eda4d6ec3bcd8b2641576,western_union,CIS FIA COAC CRISTO REY CENTRO,,Loja,LOJA,,EC,+593 7-258-3060,https://location.westernunion.com/ec/loja/loja/e0f3ef45345eda4d6ec3bcd8b2641576,Mo-Fr 08:00-17:00; Sa-Su 08:00-13:00,Western Union,Q861042
e6175736783b05c6ecf9b4a74fefce6e,western_union,FL003 JUAN DE SALINAS LOJA,,Loja,LOJA,,EC,+593 4-371-0050,https://location.westernunion.com/ec/loja/loja/e6175736783b05c6ecf9b4a74fefce6e,Mo-Su 08:00-21:00,Western Union,Q861042
58a9e8429eb960403c046db7c4089dde,western_union,CIS PAG COAC DE LA PEQUE�A EM LOJA,,Loja,LOJA,,EC,(+0593) 9-987884312,https://location.westernunion.com/ec/loja/loja/58a9e8429eb960403c046db7c4089dde,Mo-Su 08:00-20:00,Western Union,Q861042
aab23cef6798780ef4b0310af04e936a,western_union,SRNP MARCIA ROMAN LOJA,,Loja,LOJA,,EC,+593 4-371-0050,https://location.westernunion.com/ec/loja/loja/aab23cef6798780ef4b0310af04e936a,Mo-Su 08:00-21:00,Western Union,Q861042
efaec0cd9235fd4a94684d6be0cad235,western_union,SRNP MARCIA ROMAN LOJA,,Loja,LOJA,,EC,+593 4-371-0050,https://location.westernunion.com/ec/loja/loja/efaec0cd9235fd4a94684d6be0cad235,Mo-Su 08:00-21:00,Western Union,Q861042
2dba810104ec3e029d36ddcba54f8f6a,western_union,COOPERATIVA CREDIAMIGO,,Loja,LOJA,,EC,+593 7-265-3140,https://location.westernunion.com/ec/loja/loja/2dba810104ec3e029d36ddcba54f8f6a,Mo-Fr 08:00-17:30; Sa 08:30-13:00; Su 08:00-13:00,Western Union,Q861042
6999997095c91f2a0141b10a09c3885a,western_union,COOPERATIVA JEP - LOJA,,Loja,LOJA,,EC,+593 7-413-5000,https://location.westernunion.com/ec/loja/loja/6999997095c91f2a0141b10a09c3885a,Mo-Su 08:00-18:00,Western Union,Q861042
e77783c8360b0d0a94e40c62e7b517b2,western_union,SRNP COOP CACVIL LOJA,,Loja,LOJA,,EC,+593 1800 937 837,https://location.westernunion.com/ec/loja/loja/e77783c8360b0d0a94e40c62e7b517b2,Mo-Su 08:00-17:00,Western Union,Q861042
c4ef71cde198c4fcf430ef60133483f0,western_union,CIS PAG COAC OBRAS PUBLICAS FISCALES,,Loja,LOJA,,EC,(+0593) 9-993290033,https://location.westernunion.com/ec/loja/loja/c4ef71cde198c4fcf430ef60133483f0,Mo-Su 08:00-20:00,Western Union,Q861042
4e14cb252a6cc5751f506eaceac7f478,western_union,CIS PAGO AGIL TRAMITER,,Loja,LOJA,,EC,(+0593) 9-998869010,https://location.westernunion.com/ec/loja/loja/4e14cb252a6cc5751f506eaceac7f478,Mo-Su 08:00-20:00,Western Union,Q861042
a74c91cd80ffaf3ac93316bf329fa241,western_union,SRNP GIPACO SA LOJA,,Loja,LOJA,,EC,+593 1800 937 837,https://location.westernunion.com/ec/loja/loja/a74c91cd80ffaf3ac93316bf329fa241,Mo-Su 09:00-19:00,Western Union,Q861042
166b281d2a566a155ad1fb4db7b559ff,western_union,CIS COLIBRI,,Loja,LOJA,,EC,(+593) 2-985700681,https://location.westernunion.com/ec/loja/loja/166b281d2a566a155ad1fb4db7b559ff,Mo-Fr 08:00-21:00; Sa-Su 08:00-20:00,Western Union,Q861042
d03a87ee7be6685b0a986e40bb1e3dfa,western_union,CIS PAGO AGIL UNIPAGOS,,Loja,LOJA,,EC,(+593) 9-967121407,https://location.westernunion.com/ec/loja/loja/d03a87ee7be6685b0a986e40bb1e3dfa,Mo-Su 08:00-20:00,Western Union,Q861042
42d666312b646a37b8ac876e2627e51d,western_union,SRNP TIA 114 LOJA,,Loja,LOJA,,EC,+593 4-371-0050,https://location.westernunion.com/ec/loja/loja/42d666312b646a37b8ac876e2627e51d,Mo-Su 08:00-21:00,Western Union,Q861042
ca80967bf171a8df5ffc226ebb04eda6,western_union,CIS GDP PEPON BARATON,,Loja,LOJA,,EC,(+0593) 9-994865569,https://location.westernunion.com/ec/loja/loja/ca80967bf171a8df5ffc226ebb04eda6,Mo-Fr 08:30-19:00; Sa-Su 09:30-18:00,Western Union,Q861042
5caf6eb00a989ab012e9dc89ad54546a,western_union,COAC PADRE JULIAN LORENTE CENTRO,,Loja,LOJA,,EC,+593 5-257-1135,https://location.westernunion.com/ec/loja/loja/5caf6eb00a989ab012e9dc89ad54546a,Mo-Su 08:00-20:00,Western Union,Q861042
03d7054b34df6cf6ab912da688aa1796,western_union,SRNP DIF CA FL006 GARCIA MORENO CELICA,,Celica,Loja,,EC,+593 4-371-0050,https://location.westernunion.com/ec/loja/celica/03d7054b34df6cf6ab912da688aa1796,Mo-Su 08:00-21:00,Western Union,Q861042
42d43766b975b9c22a1c2e576d07e1b2,western_union,SRNP IMNOVACEL F& G CHAGUARPAMBA,,Chaguarpamba,LOJA,,EC,(+593) 7-991519028,https://location.westernunion.com/ec/loja/chaguarpamba/42d43766b975b9c22a1c2e576d07e1b2,Mo-Su 08:00-21:00,Western Union,Q861042
a290393d1ade2c3a2b9753e692203d3b,western_union,CIS GDP OMAR LUDENA,,Celica,LOJA,,EC,+593 98 296 7482,https://location.westernunion.com/ec/loja/celica/a290393d1ade2c3a2b9753e692203d3b,Mo-Fr 08:30-19:00; Sa-Su 09:30-18:00,Western Union,Q861042
1a6f978e4830c5e5c60cf39597402a2f,western_union,CIS PGM CELLSHOP CELICA,,Celica,LOJA,,EC,(+593) 9-982207703,https://location.westernunion.com/ec/loja/celica/1a6f978e4830c5e5c60cf39597402a2f,Mo-Su 07:00-20:00,Western Union,Q861042
c3299dcc789fd5f36441f61fa53e1d9d,western_union,CIS PGM COMERCIAL LUCIANA,,Celica,LOJA,,EC,+593 95 913 0513,https://location.westernunion.com/ec/loja/celica/c3299dcc789fd5f36441f61fa53e1d9d,Mo-Su 08:00-21:00,Western Union,Q861042
27b7c821fd91d825a17b96c93c1c76aa,western_union,CIS PAGO AGIL COMERCIAL SANTIAGO,,Celica,LOJA,,EC,+593 98 500 2102,https://location.westernunion.com/ec/loja/celica/27b7c821fd91d825a17b96c93c1c76aa,Mo-Su 08:00-20:00,Western Union,Q861042
e36ddbe71113ff6fcf5873d5f3652f6f,western_union,D Y A SYSTEMS CELICA,,Celica,LOJA,,EC,+593 7-265-7357,https://location.westernunion.com/ec/loja/celica/e36ddbe71113ff6fcf5873d5f3652f6f,Mo-Fr 08:00-16:00; Sa 09:00-13:00,Western Union,Q861042
1e423648e1ee151a7664e3a9944637d4,western_union,CIS PGM CELICA BERMEO,,Celica,LOJA,,EC,+593 7-265-7180,https://location.westernunion.com/ec/loja/celica/1e423648e1ee151a7664e3a9944637d4,Mo-Su 07:30-19:00,Western Union,Q861042
20a115c47a2beaba6c646a871ba6df2e,western_union,CIS GDP MAR Y SOL,,Loja,LOJA,,EC,(+593) 9-993821276,https://location.westernunion.com/ec/loja/loja/20a115c47a2beaba6c646a871ba6df2e,Mo-Fr 08:30-19:00; Sa-Su 09:30-18:00,Western Union,Q861042
ac0ffa0c82cda32cf4693b638fc787c1,western_union,COOPERATIVA CREDIAMIGO SUR,,Loja,LOJA,,EC,+593 7-256-4177,https://location.westernunion.com/ec/loja/loja/ac0ffa0c82cda32cf4693b638fc787c1,Mo-Fr 08:30-16:30,Western Union,Q861042
7e4740addd844f6de12c9918315db39b,western_union,JARDIN AZUAYO - LOJA,,Loja,LOJA,,EC,+593 7-258-6503,https://location.westernunion.com/ec/loja/loja/7e4740addd844f6de12c9918315db39b,Mo-Fr 08:00-16:00; Sa 08:00-13:00,Western Union,Q861042
887641f9d5e05c853b60b73f2e8eb7bb,western_union,CIS PAGO AGIL CLICK PAGOS,,Loja,LOJA,,EC,+593 99 692 4778,https://location.westernunion.com/ec/loja/loja/887641f9d5e05c853b60b73f2e8eb7bb,Mo-Su 08:00-20:00,Western Union,Q861042
e2b16d154924bc60649f116438629d6e,western_union,CIS PAG COAC DE LA PEQUE�A EM SAN SEBAS,,Loja,LOJA,,EC,(+0593) 9-987884312,https://location.westernunion.com/ec/loja/loja/e2b16d154924bc60649f116438629d6e,Mo-Su 08:00-20:00,Western Union,Q861042
2b0067731c5d9a495bec0e6b2f69af2a,western_union,CIS KAREN REYES,,Loja,LOJA,,EC,(+593) 9-969742202,https://location.westernunion.com/ec/loja/loja/2b0067731c5d9a495bec0e6b2f69af2a,Mo-Fr 07:00-21:00; Sa 08:00-20:00; Su 21:00-19:00,Western Union,Q861042
c9eb244219479d8dfae8275e30dc3197,western_union,FL001 MERCADILLO LOJA,,Loja,LOJA,,EC,+593 4-371-0050,https://location.westernunion.com/ec/loja/loja/c9eb244219479d8dfae8275e30dc3197,Mo-Su 08:00-21:00,Western Union,Q861042
dc56b922c149b545d17bc92efb0e36aa,western_union,CIS GDP MINIMARKET DUNAMIS,,Loja,LOJA,,EC,(+0593) 9-987010564,https://location.westernunion.com/ec/loja/loja/dc56b922c149b545d17bc92efb0e36aa,Mo-Fr 08:30-19:00; Sa-Su 09:30-18:00,Western Union,Q861042
9b2b3aa914b0a3bd99a64d6c2558e841,western_union,CIS GDP ESSENCI BOUTIQUE,,Loja,LOJA,,EC,(+0593) 9-985906857,https://location.westernunion.com/ec/loja/loja/9b2b3aa914b0a3bd99a64d6c2558e841,Mo-Fr 08:30-19:00; Sa-Su 09:30-18:00,Western Union,Q861042
f57dd87bb06c900552dd8925db9d5b93,western_union,CREA,,Loja,LOJA,,EC,+593 4-371-0050,https://location.westernunion.com/ec/loja/loja/f57dd87bb06c900552dd8925db9d5b93,Mo-Fr 08:00-17:00; Sa-Su 08:00-13:00,Western Union,Q861042
d2446808887ec7c3be6e667bb4d26fed,western_union,COAC PADRE JULIAN LORENTE MATRIZ,,Loja,LOJA,,EC,+593 5-257-1135,https://location.westernunion.com/ec/loja/loja/d2446808887ec7c3be6e667bb4d26fed,Mo-Su 08:00-20:00,Western Union,Q861042
c23906623677d83314601630a3e61538,western_union,PAGO RAPIDO,,Loja,LOJA,,EC,+593 99 030 0910,https://location.westernunion.com/ec/loja/loja/c23906623677d83314601630a3e61538,Mo-Sa 08:00-20:30; Su 08:00-13:00,Western Union,Q861042
2147a6d53eac039210329f94db82aca9,western_union,CIS PAG COAC DE LA PEQUE�A EM CATACOCHA,,Loja,LOJA,,EC,(+0593) 9-987884312,https://location.westernunion.com/ec/loja/loja/2147a6d53eac039210329f94db82aca9,Mo-Su 08:00-20:00,Western Union,Q861042
63f4e2eb5546f2aa6aeae84152428080,western_union,SRNP SULEMA SALAZAR PALTAS,,Paltas,LOJA,,EC,+593 1800 937 837,https://location.westernunion.com/ec/loja/paltas/63f4e2eb5546f2aa6aeae84152428080,Mo-Su 09:00-18:00,Western Union,Q861042
bd9c41bf20567de330e37925a7acd7d1,western_union,SRNP CADECOM AV VEINTIMILLA MACARA,,Loja,LOJA,,EC,+593 1800 937 837,https://location.westernunion.com/ec/loja/loja/bd9c41bf20567de330e37925a7acd7d1,Mo-Su 09:00-18:00,Western Union,Q861042
26167c5a374a0adb4262d04cc8498ac4,western_union,CIS PAGO AGIL GIANNY S,,Macara,LOJA,,EC,(+593) 9-993781513,https://location.westernunion.com/ec/loja/macara/26167c5a374a0adb4262d04cc8498ac4,Mo-Su 08:00-20:00,Western Union,Q861042
22fe30b7726d5dfe87950138429acea8,western_union,CIS PAG COAC DE LA PEQUE�A EM MACARA,,Macara,LOJA,,EC,(+0593) 9-987884312,https://location.westernunion.com/ec/loja/macara/22fe30b7726d5dfe87950138429acea8,Mo-Su 08:00-20:00,Western Union,Q861042
a8530ece79113bfeb3a4079cd9bef4d4,western_union,CIS PAGO AGIL ZOILA VIDAL,,Macara,LOJA,,EC,+593 98 096 0738,https://location.westernunion.com/ec/loja/macara/a8530ece79113bfeb3a4079cd9bef4d4,Mo-Su 08:00-20:00,Western Union,Q861042
11ca25d38e9a617a2abdab266d47c9c6,western_union,PAGO AGIL TIENDAS 085,,Gonzanama,LOJA,,EC,+593 7-266-4491,https://location.westernunion.com/ec/loja/gonzanama/11ca25d38e9a617a2abdab266d47c9c6,Mo-Fr 08:00-16:00; Sa 09:00-13:00,Western Union,Q861042
d431f892046c7e624debace3fa6cda2e,western_union,COOP AYC GONZANAMA,,Gonzanama,LOJA,,EC,+593 7-266-4456,https://location.westernunion.com/ec/loja/gonzanama/d431f892046c7e624debace3fa6cda2e,Mo-Fr 08:00-16:30; Su 08:00-11:00,Western Union,Q861042
21178564eba6e1c7775b23414d3a93d2,western_union,COAC PADRE JULIAN LORENTE GONZANAMA,,Gonzanama,LOJA,,EC,+593 5-257-1135,https://location.westernunion.com/ec/loja/gonzanama/21178564eba6e1c7775b23414d3a93d2,Mo-Su 08:00-20:00,Western Union,Q861042
ff5e9c190d3f0ca5706b724fbc61da2e,western_union,CIS PAGO AGIL TIENDA LUNITA,,Catamayo,LOJA,,EC,(+0593) 9-985712434,https://location.westernunion.com/ec/loja/catamayo/ff5e9c190d3f0ca5706b724fbc61da2e,Mo-Su 08:00-20:00,Western Union,Q861042
35efd8970c767579792d15e4132ba4c7,western_union,CIS GDP ENMA CHINCHAY,,Loja,LOJA,,EC,(+0593) 9-981003875,https://location.westernunion.com/ec/loja/loja/35efd8970c767579792d15e4132ba4c7,Mo-Fr 08:30-19:00; Sa 08:30-09:30; Su 18:00-09:30,Western Union,Q861042
b3e53cae71f83cc035ea4ebd6d3ea404,western_union,CIS PAG COAC PADRE JULIAN LORENTE SUCRE,,Loja,LOJA,,EC,+593 96 739 1291,https://location.westernunion.com/ec/loja/loja/b3e53cae71f83cc035ea4ebd6d3ea404,Mo-Su 08:00-20:00,Western Union,Q861042
ef45f3bceead5e42cc760d1a787f18c4,western_union,SRNP TUPUNTOXPRESS LOJA,,Loja,LOJA,,EC,+593 4-371-0050,https://location.westernunion.com/ec/loja/loja/ef45f3bceead5e42cc760d1a787f18c4,Mo-Su 08:00-21:00,Western Union,Q861042
060879633ff2847344cda0f769f430b6,western_union,SRNP TECNIXPRESS CELULARES LOJA,,Loja,LOJA,,EC,+593 4-371-0050,https://location.westernunion.com/ec/loja/loja/060879633ff2847344cda0f769f430b6,Mo-Su 08:00-21:00,Western Union,Q861042
174da0fdb67cedc7fae5f6ebaba4e1f2,western_union,CIS GDP FERRETERIA EL GATO,,Loja,LOJA,,EC,+593 95 996 4691,https://location.westernunion.com/ec/loja/loja/174da0fdb67cedc7fae5f6ebaba4e1f2,Mo-Sa 07:30-20:00; Su 07:30-16:00,Western Union,Q861042
f8ed9f2fd80bd40ca8ce6368d2e2e3d3,western_union,SRNP DIF CRUZ AZUL CL014 GRAN C  LOJA,,Loja,LOJA,,EC,+593 4-373-1390,https://location.westernunion.com/ec/loja/loja/f8ed9f2fd80bd40ca8ce6368d2e2e3d3,Mo-Su 08:00-22:00,Western Union,Q861042
481cae07cd23f50337a9aa13c1582609,western_union,CIS PAGO AGIL CYBER JAMILETH,,Loja,LOJA,,EC,+593 99 455 2202,https://location.westernunion.com/ec/loja/loja/481cae07cd23f50337a9aa13c1582609,Mo-Su 08:00-20:00,Western Union,Q861042
6a4c58b6d1539355d9f99f1429a29d68,western_union,CIS MERINO GIOMARA,,Loja,LOJA,,EC,(+593) 9-980147534,https://location.westernunion.com/ec/loja/loja/6a4c58b6d1539355d9f99f1429a29d68,Mo-Fr 07:30-21:00; Sa 08:00-20:00; Su 09:00-19:00,Western Union,Q861042
4ab20e6c65916bb5fe7639d3a8c2b672,western_union,SRNP COMERCIAL JIMENEZ LOJA,,Loja,LOJA,,EC,+593 4-371-0050,https://location.westernunion.com/ec/loja/loja/4ab20e6c65916bb5fe7639d3a8c2b672,Mo-Su 08:00-20:00,Western Union,Q861042
939f2193ef4adaba7fc8d2a1995e136d,western_union,CIS PAG COAC DE LA PEQUE�A EM VALLE,,Loja,LOJA,,EC,(+0593) 9-987884312,https://location.westernunion.com/ec/loja/loja/939f2193ef4adaba7fc8d2a1995e136d,Mo-Su 08:00-20:00,Western Union,Q861042
725ccc100f7cbb4734a6c0764bb3cc96,western_union,G G SYSTEN,,Loja,LOJA,,EC,+593 4-371-0050,https://location.westernunion.com/ec/loja/loja/725ccc100f7cbb4734a6c0764bb3cc96,Mo-Su 08:00-22:00,Western Union,Q861042
418f1743a3e00c2bac642a0b56ae7669,western_union,SRNP BCO PACIFICO AGENCIA LOJA,,Loja,LOJA,,EC,+593 1800 937 837,https://location.westernunion.com/ec/loja/loja/418f1743a3e00c2bac642a0b56ae7669,Mo-Su 09:00-17:00,Western Union,Q861042
3f54fb8cc6298f6fad852e4fe8ded0e5,western_union,CIS PAGO AGIL PAPELERIA CREATIVA,,Loja,LOJA,,EC,(+0593) 9-961827887,https://location.westernunion.com/ec/loja/loja/3f54fb8cc6298f6fad852e4fe8ded0e5,Mo-Su 08:00-20:00,Western Union,Q861042
d77ad2a19d27b0711f5ad7c69f02831d,western_union,TIA HIPER VALLE AV ORILLAS DE ZAMOR LOJA,,Loja,LOJA,,EC,+593 1800 628 749,https://location.westernunion.com/ec/loja/loja/d77ad2a19d27b0711f5ad7c69f02831d,Mo-Su 09:00-18:00,Western Union,Q861042
7ace37dd07fb85b17457f1494a59bef7,western_union,CIS PAG COAC DE LA PEQUE�A EM CALVAS,,Calvas,LOJA,,EC,(+0593) 9-987884312,https://location.westernunion.com/ec/loja/calvas/7ace37dd07fb85b17457f1494a59bef7,Mo-Su 08:00-20:00,Western Union,Q861042
dc9ab3ac9636c6ebc1fb4ebefb644eaa,western_union,COAC CREDIAMIGO GONZANAMA,,Gonzanama,LOJA,,EC,+593 7-266-4490,https://location.westernunion.com/ec/loja/gonzanama/dc9ab3ac9636c6ebc1fb4ebefb644eaa,Mo-Fr 08:00-18:00; Sa-Su 08:00-13:00,Western Union,Q861042
2f3d0bf8100a6c7039edfb5da41c31f2,western_union,CIS FIA COAC CRISTO REY MATRIZ,,Loja,LOJA,,EC,+593 7-272-2781,https://location.westernunion.com/ec/loja/loja/2f3d0bf8100a6c7039edfb5da41c31f2,Mo-Fr 08:00-17:00,Western Union,Q861042
c96838175172150ee121ffa67a4a89d8,western_union,CIS VIL LICOR STORE,,Catamayo,LOJA,,EC,(+593) 9-994350417,https://location.westernunion.com/ec/loja/catamayo/c96838175172150ee121ffa67a4a89d8,Mo-Su 08:00-20:00,Western Union,Q861042
5713352291dd132f8fd6420c3bf03521,western_union,CIS PAG COAC DE LA PEQUE�A EM CATAMAYO,,Catamayo,LOJA,,EC,(+0593) 9-987884312,https://location.westernunion.com/ec/loja/catamayo/5713352291dd132f8fd6420c3bf03521,Mo-Su 08:00-20:00,Western Union,Q861042
e522b15ac21c3c57bdbc82840f9b4a48,western_union,CIS DOLORES JARAMILLO,,Catamayo,LOJA,,EC,(+593) 9-992413005,https://location.westernunion.com/ec/loja/catamayo/e522b15ac21c3c57bdbc82840f9b4a48,Mo-Fr 07:00-19:00; Sa 08:00-20:00; Su 09:00-19:00,Western Union,Q861042
9cafa8e2d34bec7b8b6862c5aa102e74,western_union,SRNP TIA 362 CATAMAYO,,Catamayo,LOJA,,EC,+593 4-259-8830,https://location.westernunion.com/ec/loja/catamayo/9cafa8e2d34bec7b8b6862c5aa102e74,Mo-Su 08:00-19:00,Western Union,Q861042
83b7eb99a3b8005132190b8620849dfe,western_union,ACTIVA TIA ISIDRO AYORA CATAMAYO,,Catamayo,LOJA,,EC,+593 1800 937 837,https://location.westernunion.com/ec/loja/catamayo/83b7eb99a3b8005132190b8620849dfe,Mo-Su 09:00-19:00,Western Union,Q861042
02924d896e9bdb8d3f5aad6c4891b53f,western_union,COAC PADRE JULIAN LORENTE CATAMAYO,,Catamayo,LOJA,,EC,+593 5-257-1135,https://location.westernunion.com/ec/loja/catamayo/02924d896e9bdb8d3f5aad6c4891b53f,Mo-Su 08:00-20:00,Western Union,Q861042
1a166c9f6a275c2f9964e8b9f5a9369d,western_union,COAC CATAMAYO,,Catamayo,LOJA,,EC,(+593) 7-677195,https://location.westernunion.com/ec/loja/catamayo/1a166c9f6a275c2f9964e8b9f5a9369d,Mo-Su 08:00-18:00,Western Union,Q861042
75c4e4e321035c49e76cf342b278f2b7,western_union,MASTER PAGOS,,Catamayo,LOJA,,EC,+593 4-371-0050,https://location.westernunion.com/ec/loja/catamayo/75c4e4e321035c49e76cf342b278f2b7,Mo-Su 08:00-20:00,Western Union,Q861042
5f769a6752982ebd8e29c85adb891682,western_union,CIS FIA COOP NAMBACOLA,,Gonzanama,LOJA,,EC,+593 7-302-4230,https://location.westernunion.com/ec/loja/gonzanama/5f769a6752982ebd8e29c85adb891682,Mo-Fr 08:00-18:00; Sa 08:00-14:00,Western Union,Q861042
9fff22375e86dab688d4fb2101cec8fe,western_union,COAC PADRE JULIAN LORENTE AMALUZA,,Espindola,LOJA,,EC,+593 5-257-1135,https://location.westernunion.com/ec/loja/espindola/9fff22375e86dab688d4fb2101cec8fe,Mo-Su 08:00-20:00,Western Union,Q861042
3ce34f2986de20116eb3aba7d4b06b50,western_union,COPY PLUS,,Loja,LOJA,,EC,+593 4-371-0050,https://location.westernunion.com/ec/loja/loja/3ce34f2986de20116eb3aba7d4b06b50,Mo-Su 08:00-18:00,Western Union,Q861042
47eebf8e902495499712c198e8a49fda,western_union,CACPE BIBLIAN LTDA,,Loja,LOJA,,EC,+593 4-371-0050,https://location.westernunion.com/ec/loja/loja/47eebf8e902495499712c198e8a49fda,Mo-Su 08:00-18:00,Western Union,Q861042
14e454195554c01ba8c353c3f18d2b43,western_union,LOJA PLAZA DE LA INDEPENDENCIA,,Loja,LOJA,,EC,+593 7-257-4469,https://location.westernunion.com/ec/loja/loja/14e454195554c01ba8c353c3f18d2b43,Mo-Su 09:00-20:00,Western Union,Q861042
0eb08a963c9ac6dba31d3f813db83ba3,western_union,SRNP FE FARM ECONOMICAS EL SAGRARIO LOJA,,Loja,LOJA,,EC,+593 4-371-0050,https://location.westernunion.com/ec/loja/loja/0eb08a963c9ac6dba31d3f813db83ba3,Mo-Su 08:00-21:00,Western Union,Q861042
22a42ac0b7ff574046ca55ab4329f4d1,western_union,CREA,,Loja,LOJA,,EC,+593 4-371-0050,https://location.westernunion.com/ec/loja/loja/22a42ac0b7ff574046ca55ab4329f4d1,Mo-Fr 08:00-17:00; Sa-Su 08:00-13:00,Western Union,Q861042
fc919fae139b23ef35f6f8328eaa062e,western_union,CIS FIA COAC MARCABELI EL SAGRARIO,,Loja,LOJA,,EC,+593 7-295-6171,https://location.westernunion.com/ec/loja/loja/fc919fae139b23ef35f6f8328eaa062e,Mo-Sa 08:30-17:30,Western Union,Q861042
3c0b48cca55863045f121ec0f13d4e1a,western_union,CB Cooperativa - LOJA,,Loja,LOJA,,EC,+593 7-370-2740,https://location.westernunion.com/ec/loja/loja/3c0b48cca55863045f121ec0f13d4e1a,Mo-Fr 08:00-18:00; Sa 08:00-17:00,Western Union,Q861042
d17f3b4d90aca51ec2314d37b6b516b8,western_union,SRNP DIF CA CL015 24 DE MAYO LOJA,,Loja,Loja,,EC,+593 4-371-0050,https://location.westernunion.com/ec/loja/loja/d17f3b4d90aca51ec2314d37b6b516b8,Mo-Su 07:00-23:00,Western Union,Q861042
cda4e97a9c8cac5d597962184ff7014e,western_union,SRNP DIF CA CL015 24 DE MAYO LOJA,,Loja,Loja,,EC,+593 4-371-0050,https://location.westernunion.com/ec/loja/loja/cda4e97a9c8cac5d597962184ff7014e,Mo-Su 07:00-23:00,Western Union,Q861042
d6f83d5b2bedc62edadf2e279f6986d5,western_union,SRNP PAGO EXPRESS LOJA,,Loja,LOJA,,EC,+593 4-371-0050,https://location.westernunion.com/ec/loja/loja/d6f83d5b2bedc62edadf2e279f6986d5,Mo-Su 08:00-21:00,Western Union,Q861042
f97ffd492c541a9712e20bfde57a0fdc,western_union,WU S&M TOURS,,Loja,LOJA,,EC,+593 7-272-3467,https://location.westernunion.com/ec/loja/loja/f97ffd492c541a9712e20bfde57a0fdc,Mo-Fr 08:30-19:00; Sa-Su 09:00-18:00,Western Union,Q861042
eaa4a10d36fc7c5f1293fd4513a694b6,western_union,ACTIVA AG SUCRE LOJA,,Loja,LOJA,,EC,+593 7-256-0108,https://location.westernunion.com/ec/loja/loja/eaa4a10d36fc7c5f1293fd4513a694b6,Mo-Sa 09:00-18:00,Western Union,Q861042
5b37bfd3796d9075d9264d04c2e85f7b,western_union,SRNP PAYPLUS LOJA,,Loja,LOJA,,EC,+593 4-371-0050,https://location.westernunion.com/ec/loja/loja/5b37bfd3796d9075d9264d04c2e85f7b,Mo-Su 08:00-21:00,Western Union,Q861042
c7f65415e7af9a2b019a1e2be6654591,western_union,CIS PAGO AGIL MONIN SERVICIOS,,Loja,LOJA,,EC,+593 97 921 3134,https://location.westernunion.com/ec/loja/loja/c7f65415e7af9a2b019a1e2be6654591,Mo-Su 08:00-20:00,Western Union,Q861042
b8dba83f632e219c3bf23941a993eb5f,western_union,CIS PAGO AGIL PAPELERIA Y BAZAR STEFY,,Loja,LOJA,,EC,(+0593) 9-988444049,https://location.westernunion.com/ec/loja/loja/b8dba83f632e219c3bf23941a993eb5f,Mo-Su 08:00-20:00,Western Union,Q861042
879697c07c908a7892c12e9fb7b9be55,western_union,FULLPAGOS EXPRESS,,Loja,LOJA,,EC,+593 98 192 6421,https://location.westernunion.com/ec/loja/loja/879697c07c908a7892c12e9fb7b9be55,Mo-Fr 08:00-19:00; Sa-Su 08:00-15:00,Western Union,Q861042
25ce7e5bc68d91c6f4af6b5212235ad2,western_union,CIS GDP FERNANDO CHAMBA,,Loja,LOJA,,EC,(+0593) 9-986442544,https://location.westernunion.com/ec/loja/loja/25ce7e5bc68d91c6f4af6b5212235ad2,Mo-Fr 08:30-19:00; Sa-Su 09:30-18:00,Western Union,Q861042
142e7f4a558041b31821e7393382798c,western_union,CIS PAGO AGIL PAPELERIA SAN ANTONIO,,Loja,LOJA,,EC,+593 96 013 5930,https://location.westernunion.com/ec/loja/loja/142e7f4a558041b31821e7393382798c,Mo-Su 08:00-20:00,Western Union,Q861042
db9091621c3708d1d3e1104dab0bf6ed,western_union,SRNP PAGO SEGURO LOJA,,Loja,LOJA,,EC,+593 4-371-0050,https://location.westernunion.com/ec/loja/loja/db9091621c3708d1d3e1104dab0bf6ed,Mo-Su 08:00-21:00,Western Union,Q861042
65106d3c9087a934c34195426038d1f4,western_union,CIS GDP GLOBO COPIAS,,Loja,LOJA,,EC,(+593) 9-983481674,https://location.westernunion.com/ec/loja/loja/65106d3c9087a934c34195426038d1f4,Mo-Fr 08:30-19:00; Sa-Su 09:30-18:00,Western Union,Q861042
0daf435957b10ebb3708fa953670519c,western_union,SRNP SERVILOJA EC LOJA,,Loja,LOJA,,EC,+593 4-371-0050,https://location.westernunion.com/ec/loja/loja/0daf435957b10ebb3708fa953670519c,Mo-Su 08:00-21:00,Western Union,Q861042
1878e7b176a579efa87f490befb6d174,western_union,PHARMACYS PL001 MALL DON DANIEL LOJA,,Loja,LOJA,,EC,+593 4-371-0050,https://location.westernunion.com/ec/loja/loja/1878e7b176a579efa87f490befb6d174,Mo-Su 08:00-21:00,Western Union,Q861042
ee5fee6a2f82a6bf6af349cbb638c4e2,western_union,SRNP ZUMRECAUDA CPN AG LOJA,,Loja,LOJA,,EC,+593 4-371-0050,https://location.westernunion.com/ec/loja/loja/ee5fee6a2f82a6bf6af349cbb638c4e2,Mo-Su 08:00-21:00,Western Union,Q861042
d889468488758812f3d78efc2e2e968d,western_union,CLIC BAZAR,,Loja,LOJA,,EC,+593 4-371-0050,https://location.westernunion.com/ec/loja/loja/d889468488758812f3d78efc2e2e968d,Mo-Fr 07:00-20:00; Sa-Su 09:00-20:00,Western Union,Q861042
49786cf1b31f9f39529d7f3781519c7a,western_union,CIS PAG COAC DE LA PEQUE�A EM AV UNIVERS,,Loja,LOJA,,EC,(+0593) 9-987884312,https://location.westernunion.com/ec/loja/loja/49786cf1b31f9f39529d7f3781519c7a,Mo-Su 08:00-20:00,Western Union,Q861042
c2d94c3c8f7a363eeb62bec744088a3c,western_union,CIS FIA COAC CRISTO REY SUR,,Loja,LOJA,,EC,+593 7-258-3164,https://location.westernunion.com/ec/loja/loja/c2d94c3c8f7a363eeb62bec744088a3c,Mo-Fr 08:00-17:00,Western Union,Q861042
cc5f6a72abd855a5a6e4e07bde26b776,western_union,CIS GDP RYS MULTISERVICIOS,,Loja,LOJA,,EC,(+593) 9-982642066,https://location.westernunion.com/ec/loja/loja/cc5f6a72abd855a5a6e4e07bde26b776,Mo-Fr 08:30-19:00; Sa-Su 09:30-18:00,Western Union,Q861042
fcf1d9124b9a19070cec27647b53be38,western_union,SRNP COOP CACVIL MATRIZ VILCABAMBA,,Loja,LOJA,,EC,+593 1800 937 837,https://location.westernunion.com/ec/loja/loja/fcf1d9124b9a19070cec27647b53be38,Mo-Sa 08:00-16:00; Su 08:00-12:00,Western Union,Q861042
c75d6c6c8da3cf4027365b87e70400fc,western_union,CIS PAG COAC DE LA PEQUE�A EM VILCABAMBA,,Loja,LOJA,,EC,(+0593) 9-987884312,https://location.westernunion.com/ec/loja/loja/c75d6c6c8da3cf4027365b87e70400fc,Mo-Su 08:00-20:00,Western Union,Q861042
c84ace0538a6b7964c47e85b2a57ebd7,western_union,RUIZ GAONA ANABEL MERCEDES,,Vilcabamba,LOJA,,EC,+593 99 843 0738,https://location.westernunion.com/ec/loja/vilcabamba/c84ace0538a6b7964c47e85b2a57ebd7,Mo-Su 08:00-20:00,Western Union,Q861042
7db9eda7656e5d011fe9ec4de8bfd7dc,western_union,COAC QUILANGA LTDA,,Quilanga,LOJA,,EC,+593 7-225-4040,https://location.westernunion.com/ec/loja/quilanga/7db9eda7656e5d011fe9ec4de8bfd7dc,Mo-Fr 08:30-17:00; Su 09:00-12:00,Western Union,Q861042
7c89ad7ffc8aa1de967ff12f209540c0,western_union,CIS GDP TIENDA SARITA,,Loja,LOJA,,EC,(+0593) 9-999639559,https://location.westernunion.com/ec/loja/loja/7c89ad7ffc8aa1de967ff12f209540c0,Mo-Fr 08:30-19:00; Sa-Su 09:30-18:00,Western Union,Q861042
f369c3ecf57bddc81b8ef1be0865ddda,western_union,CIS PAG COAC DE LA PEQUE�A EM MALACATOS,,Loja,LOJA,,EC,(+0593) 9-987884312,https://location.westernunion.com/ec/loja/loja/f369c3ecf57bddc81b8ef1be0865ddda,Mo-Su 08:00-20:00,Western Union,Q861042
547e7a460d8699b2f7c01e147db28581,western_union,CIS PGM JAHIR SAAVEDRA,,Calvas,LOJA,,EC,(+0593) 9-994295079,https://location.westernunion.com/ec/loja/calvas/547e7a460d8699b2f7c01e147db28581,Mo-Su 08:00-20:00,Western Union,Q861042
9a47a4df5e753097d93c08e40c4ef32c,western_union,CALVA PAUCAR BYRON FABIAN,,Calvas,LOJA,,EC,+593 7-268-8102,https://location.westernunion.com/ec/loja/calvas/9a47a4df5e753097d93c08e40c4ef32c,Mo-Su 08:00-20:00,Western Union,Q861042
bde9911362e6ed384438c08a5f34f965,western_union,PAGO AGIL TIENDAS 092,,Calvas,LOJA,,EC,+593 7-268-8240,https://location.westernunion.com/ec/loja/calvas/bde9911362e6ed384438c08a5f34f965,Mo-Fr 08:00-16:00; Sa 09:00-13:00,Western Union,Q861042
4f2a3b903d92ea769b25036670b9b6fc,western_union,CIS PGM MUEBLERIA EL CISNE,,Calvas,LOJA,,EC,+593 98 695 5622,https://location.westernunion.com/ec/loja/calvas/4f2a3b903d92ea769b25036670b9b6fc,Mo-Sa 08:00-20:00; Su 08:00-13:00,Western Union,Q861042
36b28ff07da752196540dc6f17327137,western_union,CIS PGM ALO TVEO,,Calvas,LOJA,,EC,(+0593) 9-969863690,https://location.westernunion.com/ec/loja/calvas/36b28ff07da752196540dc6f17327137,Mo-Su 08:00-20:00,Western Union,Q861042
f372eef51a8b7fa214d25a451941b272,western_union,SRNP BERTHA JIMENEZ CARIAMANGA,,Cariamanga,LOJA,,EC,+593 4-371-0050,https://location.westernunion.com/ec/loja/cariamanga/f372eef51a8b7fa214d25a451941b272,Mo-Su 08:00-21:00,Western Union,Q861042
117dac2cc936e49eb24394492d790fd8,western_union,CIS PAGO AGIL LA NUBE,,Calvas,LOJA,,EC,+593 98 210 5970,https://location.westernunion.com/ec/loja/calvas/117dac2cc936e49eb24394492d790fd8,Mo-Su 08:00-20:00,Western Union,Q861042
255f07601d1e9ce9bf32392ac70cc7f7,western_union,CIS GDP INTERNUBE,,Calvas,LOJA,,EC,(+593) 9-994871562,https://location.westernunion.com/ec/loja/calvas/255f07601d1e9ce9bf32392ac70cc7f7,Mo-Fr 08:30-19:00; Sa-Su 09:30-18:00,Western Union,Q861042
b7e3b419c8e767ef173064d31a645872,western_union,COAC PADRE JULIAN LORENTE CARIAMANGA,,Calvas,LOJA,,EC,+593 5-257-1135,https://location.westernunion.com/ec/loja/calvas/b7e3b419c8e767ef173064d31a645872,Mo-Su 08:00-20:00,Western Union,Q861042
ac9757a81ee1ef26ba77d736e5e9029c,western_union,SRNP LABANDA NET LOJA,,Loja,LOJA,,EC,+593 4-371-0050,https://location.westernunion.com/ec/loja/loja/ac9757a81ee1ef26ba77d736e5e9029c,Mo-Su 08:00-21:00,Western Union,Q861042
17e08795358969f8278690c644060c01,western_union,SRNP VIRTUAL STORE LOJA,,Loja,LOJA,,EC,+593 4-371-0050,https://location.westernunion.com/ec/loja/loja/17e08795358969f8278690c644060c01,Mo-Su 08:00-21:00,Western Union,Q861042
