Ref,Spider,Name,Address,City,State,Zipcode,Country,Phone,Website,Hours,Brand,WikiData
1587,anytime_fitness,Anytime Fitness,,Great Bend,KS,,US,+1 620-793-8700,https://www.anytimefitness.com/gyms/1587/great-bend-ks-67530/,,Anytime Fitness,Q4778364
https://locations.arbys.com/ks/greatbend/3413-10th-st.html,arbys_us,"Arby's Fast-Food Drive Through Near You in Great Bend, KS",,Great Bend,KS,,US,+1 620-792-2717,https://locations.arbys.com/ks/greatbend/3413-10th-st.html,Mo-Su 09:30-23:00,Arby's,Q630866
14254,asics_us,Hibbett Sports,3709 10th St,Great Bend,KS,,US,+1 620-792-2585,,,asics,Q327247
1633,autozone_us,AutoZone Auto Parts Great Bend,,Great Bend,KS,,US,+1 620-792-5542,https://www.autozone.com/locations/ks/great-bend/2219-10th-st.html,Mo-Sa 07:30-21:00; Su 09:00-20:00,AutoZone,Q4826087
9676,bluerhino,TruServ - Waters True Value #075531,,Great Bend,KS,,US,+1 620-792-4301,,,Blue Rhino,Q65681213
167945,bluerhino,Sutherland Lumber #3702,,Great Bend,KS,,US,+1 620-792-2900,,,Blue Rhino,Q65681213
226097,bluerhino,Bomgaar's #136,,Great Bend,KS,,US,+1 620-792-7700,,,Blue Rhino,Q65681213
178239,bluerhino,Kwik Shop #753,,Great Bend,KS,,US,+1 620-792-1521,,,Blue Rhino,Q65681213
185665,bluerhino,Dillons #51- Fuel Site,,Great Bend,KS,,US,+1 620-792-3591,,,Blue Rhino,Q65681213
153687,bluerhino,Walgreens #07818,,Great Bend,KS,,US,+1 620-792-4467,,,Blue Rhino,Q65681213
9772,bluerhino,Dillons #51,,Great Bend,KS,,US,+1 620-792-3591,,,Blue Rhino,Q65681213
1740,bluerhino,Walmart #0770 - Supercenter,,Great Bend,KS,,US,+1 620-792-3632,,,Blue Rhino,Q65681213
203381,bluerhino,CASEY'S GENERAL STORE #2289,,GREAT BEND,KS,,US,+1 620-793-5310,,,Blue Rhino,Q65681213
178233,bluerhino,Kwik Shop #747,,Great Bend,KS,,US,+1 620-793-6213,,,Blue Rhino,Q65681213
9732,bluerhino,Dillons #3,,Great Bend,KS,,US,+1 620-793-7887,,,Blue Rhino,Q65681213
203361,bluerhino,CASEY'S GENERAL STORE #1905,,GREAT BEND,KS,,US,+1 620-793-5714,,,Blue Rhino,Q65681213
33483,bluerhino,Love's #011,,Great Bend,KS,,US,+1 620-792-6731,,,Blue Rhino,Q65681213
https://local.buckle.com/ks/greatbend/clothing-11.html,buckle_us,Great Bend Men’s & Women’s Clothing,,Great Bend,KS,,US,+1 620-793-9338,https://local.buckle.com/ks/greatbend/clothing-11.html,Mo-Sa 10:00-18:00; Su 13:00-17:00,Buckle,Q4983306
9023,cenex,The Great Bend Coop Assn,,Great Bend,KS,,US,+1 620-793-3531,,24/7,Cenex,Q62127191
9029,cenex,The Great Bend Coop Assn,,Great Bend,KS,,US,+1 620-792-5037,,24/7,Cenex,Q62127191
05820,chevrolet,"MARMIE CHEVROLET, GMC",,GREAT BEND,KS,,US,+1 620-792-8266,https://www.marmiegm.com,Mo-Fr 08:00-17:30; Sa 08:00-12:00,Chevrolet,Q29570
63635,citi,ATM LANDMARK NATIONAL BANK,,Great Bend,KS,,US,,,,Citibank,Q857063
61769,citi,ATM Kwik Shop,,Great Bend,KS,,US,,,,Citibank,Q857063
90716,citi,ATM Walgreens,,Great Bend,KS,,US,,,,Citibank,Q857063
61747,citi,ATM Kwik Shop,,Great Bend,KS,,US,,,,Citibank,Q857063
36403,citi,ATM Barton Cc-Physical Education Bldg Kirkman Hal,,Great Bend,KS,,US,,,,Citibank,Q857063
63624,citi,ATM LANDMARK NATIONAL BANK,,Great Bend,KS,,US,,,,Citibank,Q857063
80338170,cricket_wireless,Cricket Wireless Authorized Retailer,,Great Bend,KS,,US,+1 620-797-5001,https://www.cricketwireless.com/stores/ll/US/KS/Great-Bend/3511-10th-St,Mo-Fr 09:00-19:00; Sa 10:00-19:00; Su 12:00-17:00,Cricket Wireless,Q5184987
2381,dollartree,DollarTree,,Great Bend,KS,,US,+1 620-603-7011,,Mo-Sa 09:00-21:00; Su 09:00-20:00,Dollar Tree,Q5289230
6325,dominos_pizza_us,Domino's Pizza,,Great Bend,KS,,US,+1 620-400-5030,https://pizza.dominos.com/kansas/great-bend/3703-10-st-ste-3703,Mo-Th 10:30-24:00; Fr-Sa 10:30-01:00; Su 10:30-24:00,Domino's,Q839466
https://www.edwardjones.com/us-en/financial-advisor/kris-sundahl,edwardjones,Kris Sundahl,,Great Bend,KS,,US,+1 620-603-0340,https://www.edwardjones.com/us-en/financial-advisor/kris-sundahl,Mo-Th 08:00-17:00; Fr 08:00-16:00,Edward Jones,Q5343830
520616,eg_america_us,Kwik Shop,,Great Bend,KS,,US,+1 620-793-6213,https://www.kwikshop.com/find-us/generic-store-page/?id=350747,,Kwik Shop,Q6450417
520622,eg_america_us,Kwik Shop,,Great Bend,KS,,US,+1 620-792-1521,https://www.kwikshop.com/find-us/generic-store-page/?id=350753,,Kwik Shop,Q6450417
E1516Q,enterprise,Great Bend Municipal Airport Offsite,,Great Bend,KS,,US,+1 620-793-9992,,,Enterprise Rent-A-Car,Q17085454
Motorcraft2495USAEnglish,ford,Marmie Ford Lincoln,,Kansas,KS,,US,+1 620-793-5427,,,Ford,Q44294
https://www.ford.com/dealerships/dealer-details/ks/great-bend/marmie-ford/,ford_dealers_us,Marmie Ford,,Great Bend,KS,,US,+1 620-400-0091,https://www.ford.com/dealerships/dealer-details/ks/great-bend/marmie-ford/,Mo-Fr 08:00-18:00; Sa 08:00-12:00,Ford Motor Company,Q44294
8503,fresenius_kidney_care_us,Fresenius Kidney Care Great Bend,,Great Bend,KS,,US,+1 800-881-5101,https://www.freseniuskidneycare.com/dialysis-centers/kansas/8503,Mo 05:30-16:30; Tu 10:00-16:00; We 05:30-16:30; Th 10:00-16:00; Fr 05:30-16:30,,
da6c7be7-458a-e111-8dde-005056934050,goodwill,1705 Main St Store #30,,Great Bend,KS,,US,+1 620-792-4000,https://www.goodwill.org/locator/location/?store=ZGE2YzdiZTctNDU4YS1lMTExLThkZGUtMDA1MDU2OTM0MDUw&lat=MzguMzY4OA==&lng=LTk4Ljc2NTE3,,Goodwill,Q5583655
https://www.harborfreight.com/storelocator/4903-10th-street-great-bend-67530?number=3461,harborfreight,"Harbor Freight Tools Great Bend, KS",,Great Bend,KS,,US,+1 620-282-6464,https://www.harborfreight.com/storelocator/4903-10th-street-great-bend-67530?number=3461,Mo-Sa 08:00-20:00; Su 09:00-18:00,Harbor Freight Tools,Q5654601
26762,h_r_block,H&R Block,,Great Bend,KS,,US,+1 620-793-9361,https://www.hrblock.com/local-tax-offices/kansas/great-bend/2023-lakin/26762/,,H&R Block,Q5627799
https://office.jacksonhewitt.com/#27579697,jackson_hewitt,Jackson Hewitt,,Great Bend,KS,,US,+1 620-275-8299,https://office.jacksonhewitt.com/tax-preparation-services-locations/en/ks/great-bend/3503-10th-st/50770,Mo-Sa 11:00-19:00; Su 13:00-17:00,Jackson Hewitt,Q6117132
https://locations.jimmyjohns.com/ks/greatbend/sandwiches-4411.html,jimmy_johns,Jimmy John's,,Great Bend,KS,,US,+1 620-796-5307,https://locations.jimmyjohns.com/ks/greatbend/sandwiches-4411.html,,Jimmy John's,Q1689380
https://locations.kfc.com/#11248196,kfc,Chicken Nuggets Near Great Bend,,Great Bend,KS,,US,,https://locations.kfc.com/ks/great-bend/2917-west-tenth/chickennugget,Mo-Su 10:00-22:00,KFC,Q524757
5356,little_free_library,Jared Chandler #5356 Great bend KS,,Great bend,KS,,US,,,,Little Free Library,Q6650101
59353,little_free_library,Mary Ann June #59353 Great Bend KS,,Great Bend,KS,,US,,,,Little Free Library,Q6650101
11,loves,Site 11,,Great Bend,KS,,US,+1 620-792-6731,,,Love's,Q1872496
https://locations.maurices.com/#11688650,maurices,maurices Great Bend Plz,,Great Bend,KS,,US,+1 620-793-3699,https://locations.maurices.com/us/ks/great-bend/3511-10th-st,Mo-We 10:00-19:00; Th-Fr 10:00-20:00; Sa 10:00-19:00; Su 12:00-17:00,maurices,Q6793571
https://locations.oreillyauto.com/ks/greatbend/check-engine-light-testing-336.html,oreilly,Your Great Bend O'Reilly Auto Parts Store,,Great Bend,KS,,US,+1 620-792-5270,https://locations.oreillyauto.com/ks/greatbend/check-engine-light-testing-336.html,Mo-Sa 07:30-21:00; Su 08:00-21:00,O'Reilly Auto Parts,Q7071951
https://locations.oreillyauto.com/ks/greatbend/wiper-installation-336.html,oreilly,Your Great Bend O'Reilly Auto Parts Store,,Great Bend,KS,,US,+1 620-792-5270,https://locations.oreillyauto.com/ks/greatbend/wiper-installation-336.html,Mo-Sa 07:30-21:00; Su 08:00-21:00,O'Reilly Auto Parts,Q7071951
https://locations.oreillyauto.com/ks/greatbend/battery-testing-336.html,oreilly,Your Great Bend O'Reilly Auto Parts Store,,Great Bend,KS,,US,+1 620-792-5270,https://locations.oreillyauto.com/ks/greatbend/battery-testing-336.html,Mo-Sa 07:30-21:00; Su 08:00-21:00,O'Reilly Auto Parts,Q7071951
https://locations.oreillyauto.com/ks/greatbend/autopartes-336.html,oreilly,Tu tienda O'Reilly Auto Parts en Great Bend,,Great Bend,KS,,US,+1 620-792-5270,https://locations.oreillyauto.com/ks/greatbend/autopartes-336.html,Mo-Sa 07:30-21:00; Su 08:00-21:00,O'Reilly Auto Parts,Q7071951
0000888701,phillips_66_conoco_76,CERVS GREAT BEND,,GREAT BEND,KS,,US,+1 620-793-4268,,,Phillips 66,Q1656230
ks_great-bend_2006-n-main-street,pizza_hut_us,2006 N. Main Street,,Great Bend,KS,,US,+1 620-792-7161,https://locations.pizzahut.com/ks/great-bend/2006-n-main-street,,Pizza Hut,Q191615
troys-color-clinic-46378,ppgpaints,TROY'S COLOR CLINIC,,"Great Bend, ",KS,,US,+1 620-792-5186,https://www.ppgpaints.com/store-locator/us/kansas/great-bend-paint-stores/troys-color-clinic-46378,,PPG Paints,Q83891559
1697,rentacenter,Rent-A-Center,,Great Bend,KS,,US,+1 620-792-6069,https://locations.rentacenter.com/kansas/great-bend/3727-10th-st/,Mo-Sa 10:00-18:00,Rent-A-Center,Q7313497
227,scooters_coffee_us,10th & Grant,,Great Bend,KS,,US,+1 620-282-5067,,Mo-Su 06:00-19:00,Scooter's Coffee,Q117280308
https://restaurants.subway.com/#14909841,subway,Subway,,Great Bend Barton,KS,,US,+1 620-792-2255,https://restaurants.subway.com/united-states/ks/great-bend/2723-w-10th-st,Mo-Su 09:00-22:00,Subway,Q244457
https://locations.tacobell.com/#6143964,taco_bell,Taco Bell,,Great Bend,KS,,US,+1 620-792-7449,https://locations.tacobell.com/ks/great-bend/3607-west-10th-street.html,Mo-Su 07:00-24:00,Taco Bell,Q752941
7227,upsstore,Westside Market,5523 10th Street,Great Bend,KS,,US,+1 620-796-5324,https://locations.theupsstore.com/ks/great-bend/5523-10th-street,,UPS Store,Q7771029
1365494,usps,GREAT BEND,,GREAT BEND,KS,,US,+1 620-792-4381,,Mo-Fr 08:30-17:00; Sa 08:30-12:00,United States Postal Service,Q668687
6753000005,usps_collection_boxes,USPS COLLECTION BOX - BLUE BOX,1649 K 96 HWY,GREAT BEND,KS,,US,,,,United States Postal Service,Q668687
6753000026,usps_collection_boxes,USPS COLLECTION BOX - BLUE BOX,3503 10TH ST,GREAT BEND,KS,,US,,,,United States Postal Service,Q668687
6753000010,usps_collection_boxes,USPS COLLECTION BOX - BLUE BOX,3600 BROADWAY AVE,GREAT BEND,KS,,US,,,,United States Postal Service,Q668687
6753000028,usps_collection_boxes,USPS COLLECTION BOX - PO LOBBY,2100 16TH ST,GREAT BEND,KS,,US,,,,United States Postal Service,Q668687
6753000025,usps_collection_boxes,USPS COLLECTION BOX - PO LOBBY,2100 16TH ST,GREAT BEND,KS,,US,,,,United States Postal Service,Q668687
6753000021,usps_collection_boxes,USPS COLLECTION BOX - BLUE BOX,2100 16TH ST,GREAT BEND,KS,,US,,,,United States Postal Service,Q668687
6753000007,usps_collection_boxes,USPS COLLECTION BOX - BLUE BOX,1321 MAIN ST,GREAT BEND,KS,,US,,,,United States Postal Service,Q668687
6753000008,usps_collection_boxes,USPS COLLECTION BOX - BLUE BOX,1811 MAIN ST,GREAT BEND,KS,,US,,,,United States Postal Service,Q668687
,visa,,,GREAT BEND,KS,,US,,,,,
,visa,,,GREAT BEND,KS,,US,,,,,
,visa,,,GREAT BEND,KS,,US,,,,,
,visa,,,GREAT BEND,KS,,US,,,,,
,visa,,,GREAT BEND,KS,,US,,,,,
,visa,,,GREAT BEND,KS,,US,,,,,
,visa,,,GREAT BEND,KS,,US,,,,,
,visa,,,GREAT BEND,KS,,US,,,,,
,visa,,,GREAT BEND,KS,,US,,,,,
,visa,,,GREAT BEND,KS,,US,,,,,
,visa,,,GREAT BEND,KS,,US,,,,,
,visa,,,GREAT BEND,KS,,US,,,,,
,visa,,,GREAT BEND,KS,,US,,,,,
,visa,,,GREAT BEND,KS,,US,,,,,
,visa,,,GREAT BEND,KS,,US,,,,,
,visa,,,GREAT BEND,KS,,US,,,,,
,visa,,,GREAT BEND,KS,,US,,,,,
,visa,,,GREAT BEND,KS,,US,,,,,
,visa,,,GREAT BEND,KS,,US,,,,,
,visa,,,GREAT BEND,KS,,US,,,,,
,visa,,,GREAT BEND,KS,,US,,,,,
,visa,,,GREAT BEND,KS,,US,,,,,
,visa,,,GREAT BEND,KS,,US,,,,,
,visa,,,GREAT BEND,KS,,US,,,,,
https://www.walgreens.com/locator/walgreens-3920+10th+st-great+bend-ks-67530/id=7818,walgreens,Walgreens,,Great Bend,KS,,US,+1 620-792-4467,https://www.walgreens.com/locator/walgreens-3920+10th+st-great+bend-ks-67530/id=7818,Mo-Sa 08:00-21:00; Su 09:00-21:00,Walgreens,Q1591889
https://locations.wendys.com/#9252667,wendys,"Wendy's Great Bend in Great Bend, KS",,Great Bend,KS,,US,+1 620-400-0184,https://locations.wendys.com/united-states/ks/great-bend/3519-w-10th-st,"Mo-Su 06:30-10:30,07:00-22:00",Wendy's,Q550258
