Ref,Spider,Name,Address,City,State,Zipcode,Country,Phone,Website,Hours,Brand,WikiData
242,biedronka_pl,Biedronka,,Będzin,,,PL,,"https://www.biedronka.pl/pl/shop,id,242",Mo-Sa 06:00-22:00,Biedronka,Q857182
485,biedronka_pl,Biedronka,,Będzin,,,PL,,"https://www.biedronka.pl/pl/shop,id,485",Mo-Sa 06:00-22:00,Biedronka,Q857182
2064,biedronka_pl,Biedronka,,Będzin,,,PL,,"https://www.biedronka.pl/pl/shop,id,2064",Mo-Sa 05:00-23:00,Biedronka,Q857182
682,biedronka_pl,Biedronka,,Będzin,,,PL,,"https://www.biedronka.pl/pl/shop,id,682",Mo-Sa 05:00-23:00,Biedronka,Q857182
260,biedronka_pl,Biedronka,,Będzin,,,PL,,"https://www.biedronka.pl/pl/shop,id,260",Mo-Sa 05:00-23:00,Biedronka,Q857182
2082,biedronka_pl,Biedronka,,Będzin,,,PL,,"https://www.biedronka.pl/pl/shop,id,2082",Mo-Sa 05:00-23:00,Biedronka,Q857182
"https://www.brw.pl/siec-sprzedazy/salon,salon-firmowy-black-red-white,bedzin,521.html",black_red_white_pl,Salon Firmowy Black Red White - Będzin,,Będzin,,,PL,+48 84 685 02 02,"https://www.brw.pl/siec-sprzedazy/salon,salon-firmowy-black-red-white,bedzin,521.html",Mo-Su 10:00-20:00,Black Red White,Q4921546
2000428660,bp,ZAMEK,,BEDZIN,,,PL,+48 727 011 804,,24/7,BP,Q152057
bedzin,da_grasso_pl,Będzin,,Będzin,,,PL,32 760 93 67;696 133 614;504 915 354,https://www.dagrasso.pl/bedzin,Mo-Th 11:00-22:00; Fr-Sa 11:00-23:00; Su 12:00-22:00,Da Grasso,Q11692586
100706,delikatesy_centrum_pl,BĘDZIN ŻWIRKI I WIGURY,,Będzin,,,PL,,,Mo-Sa 06:00-21:00,Delikatesy Centrum,Q11693824
444,epaka_pl,,,Będzin,,,PL,+48 880 300 810,https://bedzin.epaka.pl,Mo-Fr 09:00-17:00,Epaka.pl,Q123028724
P447,jysk,Będzin,,Będzin,,,PL,+48 507 242 477,https://jysk.pl/znajdz-sklep?storeId=P447,Mo-Sa 10:00-19:00,JYSK,Q138913
PL4760,kaufland,Kaufland Będzin,,Będzin,,,PL,+48 800 300 062,https://www.kaufland.pl/dla-klienta/sklepy/bedzin-4760.html,Mo-Th 06:00-22:00; Fr 00:00-22:00; Sa 06:00-22:00,Kaufland,Q685967
7040,kik,KiK,,Bedzin,,,PL,+48 881 985 040,,Mo-Sa 09:00-20:00; Su 10:00-18:00,KiK,Q883965
9226,lewiatan_pl,Lewiatan,,Będzin,,,PL,,https://www.lewiatan.pl/znajdz-sklep/lewiatan-bedzin-narutowicza-5,,Lewiatan,Q11755396
1962,lidl_pl,Lidl,,Będzin,,,PL,,,Mo-Sa 06:00-22:00; Su 09:00-19:00,Lidl,Q151954
MBPLA194,millennium_bank_pl,MBPLA194,,Będzin,,,PL,,,,Bank Millennium,Q4855947
MBPLA195,millennium_bank_pl,MBPLA195,,Będzin,,,PL,,,,Bank Millennium,Q4855947
RCNN0ZC1,millennium_bank_pl,RCNN0ZC1,,Będzin,,,PL,,,,Bank Millennium,Q4855947
RNET4369,millennium_bank_pl,RNET4369,,Będzin,,,PL,,,,Bank Millennium,Q4855947
RNET4587,millennium_bank_pl,RNET4587,,Będzin,,,PL,,,,Bank Millennium,Q4855947
RNETA137,millennium_bank_pl,RNETA137,,Będzin,,,PL,,,,Bank Millennium,Q4855947
RNETA019,millennium_bank_pl,RNETA019,,Będzin,,,PL,,,,Bank Millennium,Q4855947
RNET4682,millennium_bank_pl,RNET4682,,Będzin,,,PL,,,,Bank Millennium,Q4855947
RNET4683,millennium_bank_pl,RNET4683,,Będzin,,,PL,,,,Bank Millennium,Q4855947
70186718,moneygram,BANK POCZTOWY - BEDZIN - ODDZIAL,,BEDZIN,,,PL,+48 52 349 94 99,,Mo-Fr 06:00-22:00; Sa 08:00-20:00; Su 00:00-24:00,MoneyGram,Q1944412
65073988,moneygram,UP BEDZIN 1 - POCZTA POLSKA,,BEDZIN,,,PL,+48 32 363 58 05,,Mo-Fr 06:00-22:00; Sa-Su 08:00-20:00,MoneyGram,Q1944412
70965667,moneygram,FUP BEDZIN 1 - POCZTA POLSKA,,SOSNOWIEC,,,PL,+48 32 363 41 21,,Mo-Fr 06:00-22:00; Sa-Su 08:00-20:00,MoneyGram,Q1944412
70983063,moneygram,FUP BEDZIN 1 - POCZTA POLSKA,,BEDZIN,,,PL,+48 32 267 37 50,,Mo-Fr 06:00-22:00; Sa 08:00-20:00; Su 00:00-24:00,MoneyGram,Q1944412
70965049,moneygram,FUP BEDZIN 1 - POCZTA POLSKA,,BEDZIN,,,PL,+48 32 267 48 14,,Mo-Fr 06:00-22:00; Sa 08:00-20:00; Su 00:00-24:00,MoneyGram,Q1944412
https://www.netto.pl/sklepy/bedzin/al-hugona-kollataja-103/1f405b6fa5444a0f8a6557b77f217484/,netto_salling,Netto Będzin,,Będzin,,,PL,+48 531 994 994,https://www.netto.pl/sklepy/bedzin/al-hugona-kollataja-103/1f405b6fa5444a0f8a6557b77f217484/,Mo-Th 06:00-21:00; Fr-Sa 06:00-22:00,Netto,Q552652
26827,orange_pl,Orange Będzin,,Będzin,,,PL,+48 508 330 315,https://salony.orange.pl/pl/orange-b%C4%99dzin-26827,Mo-Fr 09:00-17:00; Sa 09:00-14:00,Orange,Q1431486
867523,orlen_paczka_pl,,,Będzin,,,PL,,,,Orlen Paczka,Q110457879
732901,orlen_paczka_pl,,,Będzin,,,PL,,,,Orlen Paczka,Q110457879
705506,orlen_paczka_pl,,,Będzin,,,PL,,,Mo-Sa 07:00-22:00,Orlen Paczka,Q110457879
266059,orlen_paczka_pl,,,Będzin,,,PL,,,Mo-Fr 07:00-16:00; Sa 07:00-13:00,Orlen Paczka,Q110457879
515298,orlen_paczka_pl,,,Będzin,,,PL,,,,Orlen Paczka,Q110457879
399318,orlen_paczka_pl,,,Będzin,,,PL,,,,Orlen Paczka,Q110457879
112135,orlen_paczka_pl,,,Będzin,,,PL,,,,Orlen Paczka,Q110457879
283120,orlen_paczka_pl,,,Będzin,,,PL,,,,Orlen Paczka,Q110457879
257210,orlen_paczka_pl,,,Będzin,,,PL,,,,Orlen Paczka,Q110457879
166797,orlen_paczka_pl,,,Będzin,,,PL,,,,Orlen Paczka,Q110457879
203794,orlen_paczka_pl,,,Preczów,,,PL,,,Mo-Fr 06:00-21:00; Sa 06:00-20:00; Su 09:00-20:00,Orlen Paczka,Q110457879
938722,orlen_paczka_pl,,,Będzin,,,PL,,,,Orlen Paczka,Q110457879
338289,orlen_paczka_pl,,,Będzin,,,PL,,,Mo-Su 06:00-24:00,Orlen Paczka,Q110457879
650612,orlen_paczka_pl,,,Będzin,,,PL,,,,Orlen Paczka,Q110457879
478990,orlen_paczka_pl,,,Będzin,,,PL,,,Mo-Fr 06:00-17:00; Sa 07:00-13:00,Orlen Paczka,Q110457879
862401,orlen_paczka_pl,,,Będzin,,,PL,,,,Orlen Paczka,Q110457879
171905,orlen_paczka_pl,,,Będzin,,,PL,,,Mo-Sa 06:00-20:00,Orlen Paczka,Q110457879
61617911_001-renault,renault,TANDEM SP. Z O.O.,,BĘDZIN,,,PL,+48 32 267 27 67,,,Renault,Q6686
61617911_001-dacia,renault,TANDEM SP. Z O.O.,,BĘDZIN,,,PL,+48 32 267 27 67,,,Dacia,Q27460
1522678,santander_pl,Placówka Partnerska nr 1 w Będzinie,,Będzin,,,PL,+48 32 761 46 09,,Mo-Fr 09:30-16:30,Santander,Q806653
BP_EXT_22713,totalenergies,ZAMEK,,Będzin,,,PL,,https://store.totalenergies.fr/en_EN/BP_EXT_22713,,BP,Q152057
,visa,,,SOSNOWIEC,,,PL,,,,,
,visa,,,BĘDZIN,,,PL,,,,,
,visa,,,CZELADŹ,,,PL,,,,,
,visa,,,BĘDZIN,,,PL,,,,,
,visa,,,BEDZIN,,,PL,,,,,
,visa,,,BĘDZIN,,,PL,,,,,
,visa,,,BĘDZIN,,,PL,,,,,
,visa,,,BĘDZIN,,,PL,,,,,
,visa,,,BĘDZIN,,,PL,,,,,
,visa,,,BĘDZIN,,,PL,,,,,
,visa,,,BĘDZIN,,,PL,,,,,
ID00733,zabka_pl,Żabka,,Będzin,,,PL,,,Mo-Sa 06:00-23:00; Su 09:00-21:00,Żabka,Q2589061
ID01394,zabka_pl,Żabka,,Będzin,,,PL,,,Mo-Sa 06:00-23:00; Su 10:00-22:00,Żabka,Q2589061
ID02765,zabka_pl,Żabka,,Będzin,,,PL,,,Mo-Sa 06:00-23:00; Su 10:00-20:00,Żabka,Q2589061
ID03082,zabka_pl,Żabka,,Będzin,,,PL,,,Mo-Sa 06:00-23:00; Su 10:00-22:00,Żabka,Q2589061
ID03110,zabka_pl,Żabka,,Będzin,,,PL,,,Mo-Sa 06:00-23:00,Żabka,Q2589061
ID04215,zabka_pl,Żabka,,Będzin,,,PL,,,Mo-Sa 06:00-23:00; Su 10:00-22:00,Żabka,Q2589061
ID05040,zabka_pl,Żabka,,Będzin,,,PL,,,Mo-Sa 06:00-23:00; Su 11:00-20:00,Żabka,Q2589061
ID05091,zabka_pl,Żabka,,Będzin,,,PL,,,Mo-Su 06:00-23:00,Żabka,Q2589061
ID05642,zabka_pl,Żabka,,Będzin,,,PL,,,Mo-Sa 06:00-23:00,Żabka,Q2589061
ID06880,zabka_pl,Żabka,,Będzin,,,PL,,,Mo-Sa 06:00-23:00; Su 10:00-22:00,Żabka,Q2589061
ID08382,zabka_pl,Żabka,,Będzin,,,PL,,,Mo-Sa 06:00-23:00,Żabka,Q2589061
ID0A714,zabka_pl,Żabka,,Będzin,,,PL,,,Mo-Sa 06:00-23:00,Żabka,Q2589061
ID0B030,zabka_pl,Żabka,,Będzin,,,PL,,,Mo-Sa 06:00-23:00,Żabka,Q2589061
ID0C126,zabka_pl,Żabka,,Będzin,,,PL,,,Mo-Sa 06:00-23:00; Su 11:00-20:00,Żabka,Q2589061
ID0C641,zabka_pl,Żabka,,Będzin,,,PL,,,Mo-Sa 06:00-23:00; Su 11:00-21:00,Żabka,Q2589061
ID0C651,zabka_pl,Żabka,,Będzin,,,PL,,,Mo-Sa 06:00-23:00; Su 08:00-22:00,Żabka,Q2589061
ID0C773,zabka_pl,Żabka,,Będzin,,,PL,,,Mo-Sa 06:00-23:00; Su 11:00-20:00,Żabka,Q2589061
