Ref,Spider,Name,Address,City,State,Zipcode,Country,Phone,Website,Hours,Brand,WikiData
72138382,moneygram,NEW BUTWAL MONEY TRANSFER - BUTWAL SUB M,,BUTWAL SUB METRO,,,NP,+977 71-410395,,Mo-Su 09:00-19:00,MoneyGram,Q1944412
72249417,moneygram,SIDDHARTHA BANK LIMITED - #SRSBL01 - AMA,,RUPANDEHI,,,NP,+977 71-541650,,Mo-Su 07:00-19:00,MoneyGram,Q1944412
72218930,moneygram,NEW MANUSPA ENTERPRISES - BUTWAL SUB MET,,BUTWAL SUB METRO,,,NP,+977 71-509010,,Mo-Su 08:00-19:00,MoneyGram,Q1944412
72337196,moneygram,SHINE DEVELOPMENT BANK - #SRSDB05 - AMAR,,RUPANDEHI,,,NP,+977 71-542856,,Mo-Su 07:00-19:00,MoneyGram,Q1944412
72339495,moneygram,NMB BANK LIMITED - #SRNMB34 - BUTWAL,,RUPANDEHI,,,NP,+977 71-547202,,Mo-Su 07:00-19:00,MoneyGram,Q1944412
72400117,moneygram,BHATBHATENI MONEY TRANSFER PVT. LTD. - R,,RUPANDEHI,,,NP,+977 1-4265167,,Mo-Fr 10:00-18:00; Sa 10:00-17:00; Su 10:00-18:00,MoneyGram,Q1944412
72408669,moneygram,ALEX MONEY TRANSFER TOURS AND TRAVELS PV,,BUTWAL,,,NP,+977 984-7193287,,Mo-Su 09:00-19:00,MoneyGram,Q1944412
72412723,moneygram,BHATBHATENI MONEY TRANSFER PVT. LTD. - R,,RUPANDEHI,,,NP,+977 1-4265167,,Mo-Fr 10:00-18:00; Sa 10:00-17:00; Su 10:00-18:00,MoneyGram,Q1944412
72414051,moneygram,EAST WEST TRADERS - BUTWAL,,BUTWAL,,,NP,+977 71-544503,,Mo-Su 09:00-19:00,MoneyGram,Q1944412
72513622,moneygram,JUNTARA SAVING & CREDIT CO-OPERATIVE LTD,,RUPANDEHI,,,NP,+977 71-547618,,Mo-Su 07:00-19:00,MoneyGram,Q1944412
72659188,moneygram,GANDAKI BIKAS BANK LIMITED - RUPANDEHI -,,RUPANDEHI,,,NP,+977 71-545520,,Mo-Fr 10:00-18:00; Sa 10:00-17:00; Su 10:00-18:00,MoneyGram,Q1944412
72933228,moneygram,NIC ASIA BANK LIMITED - #SRNIC121 - BUTW,,RUPANDEHI,,,NP,+977 1-5111177,,Mo-Su 07:00-19:00,MoneyGram,Q1944412
73503178,moneygram,BEST FINANCE COMPANY LTD - RUPANDEHI - A,,RUPANDEHI,,,NP,+977 71-534288,,Mo-Fr 10:00-18:00; Sa 10:00-17:00; Su 10:00-18:00,MoneyGram,Q1944412
73503165,moneygram,BEST FINANCE COMPANY LTD - RUPANDEHI - M,,RUPANDEHI,,,NP,+977 71-551590,,Mo-Fr 10:00-18:00; Sa 10:00-17:00; Su 10:00-18:00,MoneyGram,Q1944412
73509266,moneygram,NIC ASIA BANK LIMITED - #SRNIC121 - BUTW,,RUPANDEHI,,,NP,+977 1-5111177,,Mo-Su 07:00-19:00,MoneyGram,Q1944412
73611060,moneygram,BEST FINANCE COMPANY LIMITED - #GMEBFCL0,,BUTWAL,,,NP,+977 71-534288,,Mo-Su 07:00-19:00,MoneyGram,Q1944412
73611073,moneygram,BEST FINANCE COMPANY LIMITED - #GMEBFCL0,,BUTWAL,,,NP,+977 71-551590,,Mo-Su 07:00-19:00,MoneyGram,Q1944412
73620828,moneygram,SHINE DEVELOPMENT BANK - #SRSDB50 - CORP,,RUPANDEHI,,,NP,+977 71-415501,,Mo-Su 07:00-19:00,MoneyGram,Q1944412
74435371,moneygram,SHINE RESUNGA DEVELOPMENT BANK LTD - RUP,,RUPANDEHI,,,NP,+977 71-415502,,Mo-Su 07:00-19:00,MoneyGram,Q1944412
74441404,moneygram,BUTWAL FAST SUB REMIT PVT. LTD - RUPANDE,,RUPANDEHI,,,NP,+977 71-539505,,Mo-Su 07:00-19:00,MoneyGram,Q1944412
74475085,moneygram,NMB BANK LIMITED - #SRNMB97 - DEVINAGAR,,RUPANDEHI,,,NP,+977 71-410214,,Mo-Su 07:00-19:00,MoneyGram,Q1944412
70429242,moneygram,CITY EXPRESS MONEY TRANSFER PVT. LTD - B,,BUTWAL,,,NP,+977 71-540999,,Mo-Su 09:00-19:00,MoneyGram,Q1944412
74803385,moneygram,T AND T BUSINESS LINK PVT LTD - RUPANDEH,,RUPANDEHI,,,NP,+977 71-410588,,Mo-Th 08:00-18:00; Fr-Sa 08:00-15:00; Su 08:00-18:00,MoneyGram,Q1944412
70659423,moneygram,KUMARI BANK LTD - BUTWAL - BUTWAL,,BUTWAL,,,NP,977551546,,Mo-Fr 10:00-18:00; Sa 10:00-17:00; Su 10:00-18:00,MoneyGram,Q1944412
74803259,moneygram,BHOLE MONEY TRANSFER - RUPANDEHI - BUTWA,,RUPANDEHI,,,NP,+977 71-532742,,Mo-Th 08:00-18:00; Fr-Sa 08:00-15:00; Su 08:00-18:00,MoneyGram,Q1944412
74809596,moneygram,SHREE SAMBHAV MONEY TRANSFER - RUPANDEHI,,RUPANDEHI,,,NP,+977 981-6463113,,Mo-Th 08:00-18:00; Fr-Sa 08:00-15:00; Su 08:00-18:00,MoneyGram,Q1944412
71055563,moneygram,KUMARI BANK LTD - BUTWAL,,BUTWAL,,,NP,546022,,Mo-Fr 10:00-18:00; Sa 10:00-17:00; Su 10:00-18:00,MoneyGram,Q1944412
71055709,moneygram,KUMARI BANK LTD - BUTWAL,,BUTWAL,,,NP,414350,,Mo-Fr 10:00-18:00; Sa 10:00-17:00; Su 10:00-18:00,MoneyGram,Q1944412
71055657,moneygram,KUMARI BANK LTD - BUTWAL,,BUTWAL,,,NP,544609,,Mo-Fr 10:00-18:00; Sa 10:00-17:00; Su 10:00-18:00,MoneyGram,Q1944412
71091307,moneygram,MEGA BANK NEPAL LIMITED - #URNP2022 - RU,,RUPANDEHI,,,NP,+977 71-549900,,Mo-Su 07:00-19:00,MoneyGram,Q1944412
71091514,moneygram,SANIMA BANK LIMITED - #URNP2042 - DHANSU,,DHANSUA,,,NP,+977 41-530472,,Mo-Su 07:00-19:00,MoneyGram,Q1944412
71103570,moneygram,PRIME COMMERCIAL BANK LIMITED - RUPANDEH,,RUPANDEHI,,,NP,+977 71-541694,,Mo-Su 07:00-19:00,MoneyGram,Q1944412
45197826,moneygram,AM PM TRADERS - #URNP002,,RUPANDEHI,,,NP,544552,,Mo-Su 07:00-19:00,MoneyGram,Q1944412
45198388,moneygram,EAST-WEST TRADERS - #URNP036,,RUPANDEHI,,,NP,+977 71-544503,,Mo-Su 07:00-19:00,MoneyGram,Q1944412
45716854,moneygram,OM BHATTARAI MONEY NETWORK - #URNP22,,RUPANDEHI,,,NP,+977 71-548282,,Mo-Su 07:00-19:00,MoneyGram,Q1944412
65516827,moneygram,EVEREST BANK - #URPN519 - BUTWAL,,RUPANDEHI,,,NP,+977 71-543661,,Mo-Su 07:00-19:00,MoneyGram,Q1944412
65764381,moneygram,INVESTMENT BANK - BUTWAL - #13,,RUPANDEHI,,,NP,+977 71-549991,,Mo-Su 07:00-19:00,MoneyGram,Q1944412
66787956,moneygram,EKATA MONEY NETWORK PVT LTD,,BUTWAL,,,NP,+977 71-544503,,Mo-Su 07:00-19:00,MoneyGram,Q1944412
66794729,moneygram,KHANAL KHADHYA KENDRA,,RUPANDEHI,,,NP,+977 71-527884,,Mo-Su 07:00-19:00,MoneyGram,Q1944412
66796866,moneygram,PANDEY SUPPLIERS,,RUPANDEHI,,,NP,+977 71-522958,,Mo-Su 07:00-19:00,MoneyGram,Q1944412
67068933,moneygram,CITIZENS BANK INTERNATIONAL LTD. - BUTWA,,RUPANDEHI,,,NP,+977 71-540681,,Mo-Su 07:00-19:00,MoneyGram,Q1944412
67106565,moneygram,NCD BANK BUTWAL - RUPANDEHI,,RUPANDEHI,,,NP,+977 71-541817,,Mo-Su 07:00-19:00,MoneyGram,Q1944412
71195708,moneygram,BANK OF KATHMANDU LTD. - RUPANDEHI,,RUPANDEHI,,,NP,541571,,Mo-Su 07:00-19:00,MoneyGram,Q1944412
71680051,moneygram,NCD BANK LIMITED - #URNP2210 - RUPANDEHI,,RUPANDEHI,,,NP,+977 71-400009,,Mo-Su 07:00-19:00,MoneyGram,Q1944412
71711629,moneygram,MEGA BANK NEPAL LIMITED - #URNP2262 - RU,,RUPANDEHI,,,NP,719857033442,,Mo-Su 07:00-19:00,MoneyGram,Q1944412
67090464,moneygram,MEGA BANK NEPAL LIMITED,,RUPANDEHI,,,NP,+977 71-551601,,Mo-Su 07:00-19:00,MoneyGram,Q1944412
