Ref,Spider,Name,Address,City,State,Zipcode,Country,Phone,Website,Hours,Brand,WikiData
https://local.acmemarkets.com/#5603068,albertsons,ACME Markets,,Newtown Square,PA,,US,+1 610-353-8018,https://local.acmemarkets.com/pa/newtown-square/3590-w-chester-pike.html,Mo-Su 07:00-23:00,ACME Markets,Q341975
19557,asics_us,The Running Place,3551 West Chester Pike,Newtown Square,PA,,US,+1 610-353-8826,,,asics,Q327247
https://locations.atipt.com/newtown-square-pa,ati_physical_therapy,ATI Physical Therapy Newtown Square 518,,Newtown Square,PA,,US,+1 484-420-2680,https://locations.atipt.com/newtown-square-pa,,ATI Physical Therapy,Q50039703
139870,bluerhino,Giant Food #6526 - GC,,Newtown Square,PA,,US,+1 610-325-2478,,,Blue Rhino,Q65681213
35063,bluerhino,Allied Petroleum of Newtown Square,,Newtown Square,PA,,US,+1 610-325-7760,,,Blue Rhino,Q65681213
158054,bluerhino,C & J Automotive II,,Newtown Square,PA,,US,+1 610-353-2290,,,Blue Rhino,Q65681213
https://locations.bonefishgrill.com/#15502851,bonefishgrill,"Bonefish Grill Edgmont, PA",,Newtown Square,PA,,US,+1 610-355-1784,https://locations.bonefishgrill.com/pennsylvania/newtown-square/4889-w.-chester-pike,Mo-Th 16:00-22:00; Fr-Sa 11:00-23:00; Su 11:00-21:00,Bonefish Grill,Q4941599
22130,cadillac,HILL CADILLAC,,Newtown Square,PA,,US,+1 610-356-4900,https://www.hillcadillac.com,Mo-Th 09:00-19:00; Fr 09:00-18:00; Sa 09:00-17:00,Cadillac,Q27436
22344687,chase_us,Newtown Square - New branch,,Newtown Square,PA,,US,+1 610-557-5014,https://locator.chase.com/pa/newtown-square/3604-west-chester-pike,Mo-Fr 09:00-17:00; Sa 09:00-13:00,Chase,Q524629
pa_newtown-square_3741-w-chester-pike,chipotle, ,,Newtown Square,PA,,US,+1 610-353-1715,https://locations.chipotle.com/pa/newtown-square/3741-w-chester-pike,,Chipotle,Q465751
060522,citizens_us,Citizens Newtown Square,,Newtown Square,PA,,US,+1 610-356-3623,,Mo-Fr 09:00-16:00; Sa 09:00-12:00,Citizens,Q5122694
ATM-968,citizens_us,,,Newtown Square,PA,,US,,,,Citizens,Q5122694
ATM-579,citizens_us,,,Newtown Square,PA,,US,+1 610-356-3623,,24/7,Citizens,Q5122694
233,cvs_us,CVS Pharmacy,,Newtown Square,PA,,US,+1 610-353-2061,https://www.cvs.com/store-locator/newtown-square-pa-pharmacies/3930-west-chester-pike-newtown-square-pa-19073/storeid=233,Mo-Su 08:00-22:00,CVS Pharmacy,Q2078880
9129,dominos_pizza_us,Domino's Pizza,,Newtown Square,PA,,US,+1 610-979-1700,https://pizza.dominos.com/pennsylvania/newtown-square/4811-west-chester-pike,Mo-Th 10:30-24:00; Fr-Sa 10:30-01:00; Su 10:30-24:00,Domino's,Q839466
350446,dunkin_us,Dunkin',,Newtown Square,PA,,US,+1 484-424-9190,https://locations.dunkindonuts.com/en/pa/newtown-square/20-n-newtown-street-rd/350446,Mo-Fr 05:00-21:00; Sa 05:00-20:00; Su 05:00-19:00,Dunkin',Q847743
E11771,enterprise,Newtown Square,,Newtown Square,PA,,US,+1 610-325-5445,,,Enterprise Rent-A-Car,Q17085454
E117VZ,enterprise,Newtown Square Van Rental,,Newtown Sq,PA,,US,+1 610-325-5445,,,Enterprise Rent-A-Car,Q17085454
200311353,exxonmobil,DON'S SERVICE STATION,,NEWTOWN SQUARE,PA,,US,+1 610-356-1616,https://www.exxon.com/en/find-station/mobil-newtownsquare-pa-donsservicestation-200311353,Mo-Su 06:30-21:00,Mobil,Q109676002
https://locations.fivebelow.com/pa/newtown-square/4847-west-chester-pike,five_below,Five Below Edgmont Square Shopping Center,,Newtown Square,PA,,US,,https://locations.fivebelow.com/pa/newtown-square/4847-west-chester-pike,Mo-Sa 10:00-20:00; Su 11:00-18:00,Five Below,Q5455836
#6526,giantfoodstores,GIANT Newtown Square,,Newtown Square,PA,,US,+1 610-325-2478,https://stores.giantfoodstores.com/pa/newtown-square/4855-west-chester-pike,Mo-Su 06:00-22:00,Giant,Q5558332
a9e0ebc9-32cf-e411-b4ab-0050568924e6,goodwill,Newtown Square ADC,,Newtown Square,PA,,US,+1 484-428-3972,https://www.goodwill.org/locator/location/?store=YTllMGViYzktMzJjZi1lNDExLWI0YWItMDA1MDU2ODkyNGU2&lat=MzkuOTc4MTI=&lng=LTc1LjQzMzEz,,Goodwill,Q5583655
https://salons.greatclips.com/us/pa/newtown-square/3521-west-chester-pike,greatclips,Great Clips,,Newtown Square,PA,,US,+1 484-427-7106,https://salons.greatclips.com/us/pa/newtown-square/3521-west-chester-pike,Mo-Fr 09:00-19:00; Sa 09:00-18:00; Su 09:00-17:00,Great Clips,Q5598967
4048,gulf_pr_us,7189 GULF,,Newtown Square,PA,,US,+1 610-353-2290,https://www.gulfoil.com/7189-gulf,,Gulf Oil,Q5617505
17511,mattress_firm_us,Mattress Firm Newtown Square,,Newtown Square,PA,,US,+1 610-353-4427,https://www.mattressfirm.com/en-us/stores/pa/newtown-square/168022/,,Mattress Firm,Q6791878
https://locations.modpizza.com/#23558353,modpizza,MOD Pizza Ellis Preserve,,Newtown Square,PA,,US,+1 484-420-2895,https://locations.modpizza.com/usa/pa/newtown-square/3741-west-chester-pike,Mo-Th 10:30-22:00; Fr-Sa 10:30-23:00; Su 10:30-22:00,MOD Pizza,Q19903469
https://www.publicstorage.com/self-storage-pa-newtown-square/1966.html,public_storage_us,Public Storage,,Newtown Square,PA,,US,+1 610-492-7148,https://www.publicstorage.com/self-storage-pa-newtown-square/1966.html,,Public Storage,Q1156045
81111,ritasitalianice,Ritaâ€™s of Edgmont PA,,Edgmont,PA,,US,+1 484-420-6172,https://www.ritasice.com/location/ritas-of-edgmont-pa/,,Rita's Italian Ice,Q7336456
11116,rite_aid_us,Rite Aid #11116 Newtown Square,,Newtown Square,PA,,US,+1 610-353-0294,https://locations2.riteaid.com.yext-cdn.com/pa/newtown-square/3599-west-chester-pike.html,Mo-Su 08:00-22:00,Rite Aid,Q3433273
175,the_exercise_coach_us,The Exercise Coach,,Newtown Square,PA,,US,+1 484-224-2828,https://exercisecoach.com/newtown-square/,,The Exercise Coach,Q121502262
227D,tmobile_us,W Chester Pk & S Newtown St Rd,,Newtown Square,PA,,US,+1 484-388-4884,https://www.t-mobile.com/store-locator/pa/newtown-square/w-chester-pk-s-newtown-st-rd,,T-Mobile,Q3511885
3051,upsstore,Newtown Square,3553 W Chester Pike,Newtown Square,PA,,US,+1 610-359-6250,https://locations.theupsstore.com/pa/newtown-square/3553-w-chester-pike,,UPS Store,Q7771029
1451494,usps,NEWTOWN SQ CARRIER ANNEX,,NEWTOWN SQUARE,PA,,US,+1 610-355-0782,,,United States Postal Service,Q668687
1436552,usps,NEWTOWN SQUARE,,NEWTOWN SQUARE,PA,,US,+1 610-355-0782,,Mo-Fr 08:30-16:30; Sa 09:00-12:00,United States Postal Service,Q668687
1907300052,usps_collection_boxes,USPS COLLECTION BOX - BLUE BOX,4799 WEST CHESTER PIKE,NEWTOWN SQUARE,PA,,US,,,,United States Postal Service,Q668687
1907300047,usps_collection_boxes,USPS COLLECTION BOX - BLUE BOX,1 PRITCHARD PL,NEWTOWN SQUARE,PA,,US,,,,United States Postal Service,Q668687
1907300051,usps_collection_boxes,USPS COLLECTION BOX - BLUE BOX,4621 WEST CHESTER PIKE,NEWTOWN SQUARE,PA,,US,,,,United States Postal Service,Q668687
1907300054,usps_collection_boxes,USPS COLLECTION BOX - BLUE BOX,3815 WEST CHESTER PIKE,NEWTOWN SQUARE,PA,,US,,,,United States Postal Service,Q668687
1907300048,usps_collection_boxes,USPS COLLECTION BOX - BLUE BOX,3730 WEST CHESTER PIKE,NEWTOWN SQUARE,PA,,US,,,,United States Postal Service,Q668687
1907300055,usps_collection_boxes,USPS COLLECTION BOX - BLUE BOX,14 CAMPUS BLVD,NEWTOWN SQUARE,PA,,US,,,,United States Postal Service,Q668687
1907300049,usps_collection_boxes,USPS COLLECTION BOX - BLUE BOX,20 BISHOP HOLLOW RD,NEWTOWN SQUARE,PA,,US,,,,United States Postal Service,Q668687
1907300045,usps_collection_boxes,USPS COLLECTION BOX - BLUE BOX,8 SAINT ALBANS AVE,NEWTOWN SQUARE,PA,,US,,,,United States Postal Service,Q668687
1907300062,usps_collection_boxes,USPS COLLECTION BOX - PO LOBBY,3576 WEST CHESTER PIKE,NEWTOWN SQUARE,PA,,US,,,,United States Postal Service,Q668687
1907300044,usps_collection_boxes,USPS COLLECTION BOX - BLUE BOX,3537 WEST CHESTER PIKE,NEWTOWN SQUARE,PA,,US,,,,United States Postal Service,Q668687
1907300058,usps_collection_boxes,USPS COLLECTION BOX - PO LOBBY,3576 WEST CHESTER PIKE,NEWTOWN SQUARE,PA,,US,,,,United States Postal Service,Q668687
1907300040,usps_collection_boxes,USPS COLLECTION BOX - BLUE BOX,3576 WEST CHESTER PIKE,NEWTOWN SQUARE,PA,,US,,,,United States Postal Service,Q668687
1907300050,usps_collection_boxes,USPS COLLECTION BOX - BLUE BOX,40 S NEWTOWN STREET RD,NEWTOWN SQUARE,PA,,US,,,,United States Postal Service,Q668687
1907300043,usps_collection_boxes,USPS COLLECTION BOX - BLUE BOX,3312 RODNEY DR,NEWTOWN SQUARE,PA,,US,,,,United States Postal Service,Q668687
1907300041,usps_collection_boxes,USPS COLLECTION BOX - BLUE BOX,3131 WEST CHESTER PIKE,NEWTOWN SQUARE,PA,,US,,,,United States Postal Service,Q668687
https://vcahospitals.com/wellington,vca,VCA Wellington Animal Hospital and Family Pet Resort,,Newtown Square,PA,,US,+1 610-886-1234,https://vcahospitals.com/wellington,Mo-Th 08:00-20:00; Fr 08:00-19:00; Sa 08:00-17:00,VCA,Q7906620
A00000246116,verizon_us,Cellular Sales Newtown Square,,NEWTOWN SQUARE,PA,,US,+1 610-353-4212,https://www.verizon.com/stores/details/pennsylvania/newtown-square/cellular-sales-newtown-square-1702022/,Mo-Sa 09:00-20:00; Su 11:00-18:00,Verizon,Q919641
,visa,,,PHILADELPHIA,PA,,US,,,,,
,visa,,,NEWTOWN SQUARE,PA,,US,,,,,
,visa,,,NEWTOWN SQUARE,PA,,US,,,,,
,visa,,,NEWTOWN SQUARE,PA,,US,,,,,
,visa,,,NEWTOWN SQUARE,PA,,US,,,,,
,visa,,,NEWTON SQUARE,PA,,US,,,,,
,visa,,,NEWTOWN SQUARE,PA,,US,,,,,
,visa,,,NEWTOWN SQUIRE,PA,,US,,,,,
,visa,,,NEWTOWN SQUARE,PA,,US,,,,,
,visa,,,NEWTOWN SQUAR,PA,,US,,,,,
,visa,,,NEWTOWN SQUAR,PA,,US,,,,,
,visa,,,NEWTOWN SQUARE,PA,,US,,,,,
,visa,,,NEWTOWN SQUARE,PA,,US,,,,,
,visa,,,NEWTOWN SQUARE,PA,,US,,,,,
,visa,,,NEWTOWN SQUARE,PA,,US,,,,,
,visa,,,NEWTOWN SQUARE,PA,,US,,,,,
,visa,,,NEWTOWN SQUARE,PA,,US,,,,,
,visa,,,NEWTOWN SQUARE,PA,,US,,,,,
,visa,,,NEWTOWN SQUARE,PA,,US,,,,,
,visa,,,NEWTOWN SQUARE,PA,,US,,,,,
,visa,,,NEWTOWN SQUARE,PA,,US,,,,,
,visa,,,NEWTON SQUARE,PA,,US,,,,,
,visa,,,NEWTON SQUARE,PA,,US,,,,,
,visa,,,EDGMONT,PA,,US,,,,,
,visa,,,NEWTOWN SQUARE,PA,,US,,,,,
,visa,,,NEWTOWN SQUARE,PA,,US,,,,,
,visa,,,NEWTOWN SQUARE,PA,,US,,,,,
,visa,,,NEWTOWN SQ,PA,,US,,,,,
,visa,,,NEWTOWN SQ,PA,,US,,,,,
,visa,,,NEWTOWN SQUARE,PA,,US,,,,,
,visa,,,NEWTOWN SQUARE,PA,,US,,,,,
,visa,,,NEWTOWN SQUAR,PA,,US,,,,,
694,visionworks,Visionworks Edgmont Square,,Newtown Square,PA,,US,+1 610-359-8131,https://locations.visionworks.com/ll/US/PA/Newtown-Square/4891-W-Chester-Pike,Mo-Sa 10:00-18:30,Visionworks,Q5422607
3515__WEST__CHESTER__PIKE_NEWTOWN__SQUARE_PA_19073,wellsfargo,Wells Fargo,3515 WEST CHESTER PIKE,NEWTOWN SQUARE,PA,,US,+1 610-356-2265,https://www.wellsfargo.com/locator/bank/3515__WEST__CHESTER__PIKE_NEWTOWN__SQUARE_PA_19073/,Mo-Fr 09:00-17:00,Wells Fargo,Q744149
newtown,whole_foods,Newtown,3737 West Chester Pike,Newtown Square,PA,,US,+1 610-848-7200,https://www.wholefoodsmarket.com/stores/newtown,Mo-Su 08:00-21:00,Whole Foods,Q1809448
