Ref,Spider,Name,Address,City,State,Zipcode,Country,Phone,Website,Hours,Brand,WikiData
https://stores.advanceautoparts.com/tn/pigeon-forge/250-wears-valley-rd,advance_auto_parts_us,Advance Auto Parts,,Pigeon Forge,TN,,US,+1 865-453-0472,https://stores.advanceautoparts.com/tn/pigeon-forge/250-wears-valley-rd,Mo-Sa 07:30-21:00; Su 09:00-20:00,Advance Auto Parts,Q4686051
https://locations.arbys.com/tn/pigeonforge/3652-parkway.html,arbys_us,"Arby's Fast-Food Drive Through Near You in Pigeon Forge, TN",,Pigeon Forge,TN,,US,+1 865-453-6966,https://locations.arbys.com/tn/pigeonforge/3652-parkway.html,Mo-Th 09:30-01:00; Fr-Sa 09:30-02:00; Su 09:30-01:00,Arby's,Q630866
https://locations.auntieannes.com/#7005,auntie_annes,Auntie Anne's The Island in Pigeon Forge,,Pigeon Forge,TN,,US,+1 865-286-7002,https://locations.auntieannes.com/tn/pigeon-forge/131-the-island-drive,Mo-Su 11:00-23:00,Auntie Anne's,Q4822010
3892,autozone_us,AutoZone Auto Parts Pigeon Forge,,Pigeon Forge,TN,,US,+1 865-428-1405,https://www.autozone.com/locations/tn/pigeon-forge/257-wears-valley-rd.html,Mo-Sa 07:30-21:00; Su 08:00-21:00,AutoZone,Q4826087
https://locations.baskinrobbins.com/tn/pigeon-forge/3668-parkway-360881-br,baskin_robbins_us,Baskin-Robbins™,,Pigeon Forge,TN,,US,+1 865-453-3337,https://locations.baskinrobbins.com/tn/pigeon-forge/3668-parkway-360881-br,Mo-Su 11:00-22:00,Baskin-Robbins,Q584601
https://locations.baskinrobbins.com/tn/pigeon-forge/3270-parkway-348663-br,baskin_robbins_us,Baskin-Robbins™,,Pigeon Forge,TN,,US,+1 865-428-1770,https://locations.baskinrobbins.com/tn/pigeon-forge/3270-parkway-348663-br,Mo-Su 11:00-22:00,Baskin-Robbins,Q584601
682,bealls_us,Bealls,,Pigeon Forge,TN,,US,+1 865-365-3210,https://stores.bealls.com/tn/pigeonforge/clothing-store-682.html,Mo-Th 09:00-21:00; Fr-Sa 09:00-21:30; Su 10:00-20:00,Bealls,Q4876153
163219,bluerhino,Family Dollar #09179,,Pigeon Forge,TN,,US,+1 865-428-5722,,,Blue Rhino,Q65681213
208886,bluerhino,Weigels #1091,,Pigeon Forge,TN,,US,+1 865-839-9969,,,Blue Rhino,Q65681213
5011,bluerhino,Kroger #536 - Nashville,,Pigeon Forge,TN,,US,+1 865-429-0874,,,Blue Rhino,Q65681213
185929,bluerhino,Kroger #536 - Nashville- Fuel Site,,Pigeon Forge,TN,,US,+1 865-286-6368,,,Blue Rhino,Q65681213
152546,bluerhino,Walgreens #7048,,Pigeon Forge,TN,,US,+1 865-429-8801,,,Blue Rhino,Q65681213
145145,bluerhino,ZOOMERZ #975,,Pigeon Forge,TN,,US,+1 865-453-7056,,,Blue Rhino,Q65681213
214691,bluerhino,Casey's General Store #4226,,Pigeon Forge,TN,,US,+1 865-908-4161,,,Blue Rhino,Q65681213
28233,bluerhino,J & B Market,,Pigeon Forge,TN,,US,+1 865-453-1807,,,Blue Rhino,Q65681213
04646625035863786300100000000000,bp,BP,,Pigeon Forge,TN,,US,+1 865-428-9767,,24/7,BP,Q152057
52686330335103786300100000000000,bp,BP,,Pigeon Forge,TN,,US,+1 865-453-9088,,24/7,BP,Q152057
22728,burgerking,Burger King,,Pigeon Forge,TN,,US,+1 865-446-4614,https://www.bk.com/store-locator/store/restaurant_62912,Mo-Sa 06:00-22:00; Su 07:00-22:00,Burger King,Q177054
1368,carinos,Pigeon Forge,2425 Parkway,Pigeon Forge,TN,,US,+1 865-868-0790,https://www.carinos.com/locations/pigeon-forge/,Mo-Th 11:00-21:00; Fr-Sa 11:00-22:00; Su 11:00-21:00,Carino's Italian,Q5039637
//locations.carters.com/tn/pigeon-forge/carters-pigeon-forge-tn,carters_us,Carter's Pigeon Forge,,Pigeon Forge,TN,,US,+1 865-429-1506,https://locations.carters.com/tn/pigeon-forge/carters-pigeon-forge-tn,Mo-Th 10:00-18:00; Fr-Sa 10:00-21:00; Su 11:00-17:00,Carter's,Q5047083
38970,citi,ATM Casey's,,Pigeon Forge,TN,,US,,,,Citibank,Q857063
90005,citi,ATM Walgreens,,Pigeon Forge,TN,,US,,,,Citibank,Q857063
49440,citi,ATM CVS,,Pigeon Forge,TN,,US,,,,Citibank,Q857063
54977,citi,ATM Fastop Market,,Pigeon Forge,TN,,US,,,,Citibank,Q857063
95000,citi,ATM Weigels #91-1,,Pigeon Forge,TN,,US,,,,Citibank,Q857063
95001,citi,ATM Weigels #91-2,,Pigeon Forge,TN,,US,,,,Citibank,Q857063
3348,cookout,PIGEON FORGE TN,,PIGEON FORGE,TN,,US,,,Mo-Th 10:30-03:00; Fr-Sa 10:30-04:00; Su 10:30-03:00,Cookout,Q5166992
80076112,cricket_wireless,Cricket Wireless Authorized Retailer,,Pigeon Forge,TN,,US,+1 865-366-1456,https://www.cricketwireless.com/stores/ll/US/TN/Pigeon-Forge/2642-Teaster-Ln,Mo-Fr 10:00-19:00; Sa 10:00-17:00; Su 13:00-17:00,Cricket Wireless,Q5184987
6267,cvs_us,CVS Pharmacy,,Pigeon Forge,TN,,US,+1 865-429-6410,https://www.cvs.com/store-locator/pigeon-forge-tn-pharmacies/2415-parkway-pigeon-forge-tn-37863/storeid=6267,Mo-Su 08:00-00:00,CVS Pharmacy,Q2078880
249380,dennys,Denny's,,Pigeon Forge,TN,,US,+1 865-428-6767,https://locations.dennys.com/TN/PIGEON-FORGE/249380,24/7,Denny's,Q1189695
6189,dominos_pizza_us,Domino's Pizza,,Pigeon Forge,TN,,US,+1 865-429-1818,https://pizza.dominos.com/tennessee/pigeon-forge/2888-parkway,Mo-Th 10:30-24:00; Fr-Sa 10:30-01:00; Su 10:30-24:00,Domino's,Q839466
363225,dunkin_us,Dunkin',,Pigeon Forge,TN,,US,+1 865-263-7840,https://locations.dunkindonuts.com/en/tn/pigeon-forge/3262-parkway/363225,Mo-Sa 05:00-21:00; Su 06:00-21:00,Dunkin',Q847743
350441,dunkin_us,Dunkin',,Pigeon Forge,TN,,US,+1 865-365-1396,https://locations.dunkindonuts.com/en/tn/pigeon-forge/2209-parkway/350441,Mo-Su 05:00-21:00,Dunkin',Q847743
https://www.edwardjones.com/us-en/financial-advisor/jonathan-johnson3,edwardjones,Jonathan Johnson,,Pigeon Forge,TN,,US,+1 865-428-5855,https://www.edwardjones.com/us-en/financial-advisor/jonathan-johnson3,Mo-Th 08:00-17:00; Fr 08:00-16:30,Edward Jones,Q5343830
29179,family_dollar_us,FAMILY DOLLAR #9179,,Pigeon Forge,TN,,US,+1 865-280-6496,https://www.familydollar.com/locations/tn/pigeon-forge/29179/,Mo-Su 08:00-22:00,Family Dollar,Q5433101
https://local.fedex.com/#25203549,fedex,,,Pigeon Forge,TN,,US,+1 800-463-3339,https://local.fedex.com/en-us/tn/pigeon-forge/amhwa,,FedEx,Q459477
https://restaurants.fiveguys.com/#15552732,five_guys_us,Five Guys Walden's Landing,,Pigeon Forge,TN,,US,+1 865-453-1445,https://restaurants.fiveguys.com/2526-parkway,"Mo-Su 11:00-21:30,11:00-22:00",Five Guys,Q1131810
https://www.goldencorral.com/locations/location-detail/779/golden-corral-parkway/,golden_corral,"Golden Corral 779, Pigeon forge, TN",,Pigeon forge,TN,,US,+1 865-453-1827,https://www.goldencorral.com/locations/location-detail/779/golden-corral-parkway/,,Golden Corral,Q4039560
1505336,hardees_us,Hardee's,,Pigeon Forge,TN,,US,+1 865-774-7687,https://locations.hardees.com/tn/pigeon-forge/3046-parkway,,Hardee's,Q1585088
Location46,hardrock,Hard Rock Cafe Pigeon Forge,,Pigeon Forge,TN,,US,+1 865-430-7625,https://cafe.hardrock.com/pigeon-forge/,,Hard Rock Cafe,Q918151
tyspfru-tru-pigeon-forge,hilton,Tru by Hilton Pigeon Forge,,,TN,,US,+1 865-365-2390,https://www.hilton.com/ar/hotels/tyspfru-tru-pigeon-forge/,,Tru by Hilton,Q24907770
pgfhtht-home2-suites-pigeon-forge,hilton,Home2 Suites by Hilton Pigeon Forge,,,TN,,US,+1 865-429-8500,https://www.hilton.com/ar/hotels/pgfhtht-home2-suites-pigeon-forge/,,Home2 Suites by Hilton,Q5887912
pgfgigi-hilton-garden-inn-pigeon-forge,hilton,Hilton Garden Inn Pigeon Forge,,,TN,,US,+1 865-366-5250,https://www.hilton.com/ar/hotels/pgfgigi-hilton-garden-inn-pigeon-forge/,,Hilton Garden Inn,Q1162859
1658,honey_baked,HoneyBaked of Pigeon Forge,,Pigeon Forge,TN,,US,+1 865-429-4267,https://www.honeybaked.com/stores/1658,,Honey Baked Ham,Q5893363
tn_pigeon-forge_breakfast-3636-pkwy-4494,ihop,IHOP Breakfast Restaurants Near You at 3636 Pkwy,,Pigeon Forge,TN,,US,+1 865-429-2335,https://restaurants.ihop.com/en-us/tn/pigeon-forge/breakfast-3636-pkwy-4494,,IHOP,Q1185675
https://locations.kfc.com/#11248304,kfc,Chicken Nuggets Near Pigeon Forge,,Pigeon Forge,TN,,US,,https://locations.kfc.com/tn/pigeon-forge/3984-parkway/chickennugget,,KFC,Q524757
159796,marathon_petroleum_us,Jimmys Market 24,,PIGEON FORGE,TN,,US,+1 865-453-4741,,,Marathon,Q458363
156541,marathon_petroleum_us,J AND B MARKET,,PIGEON FORGE,TN,,US,+1 865-366-7247,,,Marathon,Q458363
TYSCP,marriott,Courtyard Pigeon Forge,,Pigeon Forge,TN,,US,+1 865-366-3201,https://www.marriott.com/TYSCP,,Courtyard by Marriott,Q1053170
TYSFF,marriott,Fairfield Inn & Suites Pigeon Forge,,Pigeon Forge,TN,,US,+1 865-409-5999,https://www.marriott.com/TYSFF,,Fairfield by Marriott,Q5430314
TYSRK,marriott,Residence Inn Pigeon Forge,,Pigeon Forge,TN,,US,+1 865-277-0411,https://www.marriott.com/TYSRK,,Residence Inn by Marriott,Q7315394
TYSSP,marriott,SpringHill Suites Pigeon Forge,,Pigeon Forge,TN,,US,+1 865-453-4514,https://www.marriott.com/TYSSP,,SpringHill Suites,Q7580351
3784-parkway,mcalisters_deli,McAlister's Deli Pigeon Forge ,,Pigeon Forge,TN,,US,+1 865-908-9020,https://locations.mcalistersdeli.com/tn/pigeon-forge/3784-parkway,Mo-Su 10:30-20:00,McAlister's Deli,Q17020829
https://locations.oreillyauto.com/tn/pigeonforge/check-engine-light-testing-5298.html,oreilly,Your Pigeon Forge O'Reilly Auto Parts Store,,Pigeon Forge,TN,,US,+1 865-505-0472,https://locations.oreillyauto.com/tn/pigeonforge/check-engine-light-testing-5298.html,Mo-Sa 07:00-21:00; Su 09:00-21:00,O'Reilly Auto Parts,Q7071951
https://locations.oreillyauto.com/tn/pigeonforge/wiper-installation-5298.html,oreilly,Your Pigeon Forge O'Reilly Auto Parts Store,,Pigeon Forge,TN,,US,+1 865-505-0472,https://locations.oreillyauto.com/tn/pigeonforge/wiper-installation-5298.html,Mo-Sa 07:00-21:00; Su 09:00-21:00,O'Reilly Auto Parts,Q7071951
https://locations.oreillyauto.com/tn/pigeonforge/battery-testing-5298.html,oreilly,Your Pigeon Forge O'Reilly Auto Parts Store,,Pigeon Forge,TN,,US,+1 865-505-0472,https://locations.oreillyauto.com/tn/pigeonforge/battery-testing-5298.html,Mo-Sa 07:00-21:00; Su 09:00-21:00,O'Reilly Auto Parts,Q7071951
https://locations.oreillyauto.com/tn/pigeonforge/autopartes-5298.html,oreilly,Tu tienda O'Reilly Auto Parts en Pigeon Forge,,Pigeon Forge,TN,,US,+1 865-505-0472,https://locations.oreillyauto.com/tn/pigeonforge/autopartes-5298.html,Mo-Sa 07:00-21:00; Su 09:00-21:00,O'Reilly Auto Parts,Q7071951
//locations.oshkosh.com/tn/pigeon-forge/oshkosh-pigeon-forge-tn,oshkosh_us,Oshkosh B'gosh Pigeon Forge,,Pigeon Forge,TN,,US,+1 865-429-1506,https://locations.oshkosh.com/tn/pigeon-forge/oshkosh-pigeon-forge-tn,Mo-Th 10:00-18:00; Fr-Sa 10:00-21:00; Su 11:00-17:00,OshKosh B'gosh,Q1417347
https://locations.papajohns.com/#10693312,papa_johns,Papa John's,,Pigeon Forge,TN,,US,+1 865-428-7600,https://locations.papajohns.com/united-states/tn/37863/pigeon-forge/3152-parkway-14,Mo-Th 09:30-24:00; Fr-Sa 09:30-01:00; Su 09:30-24:00,Papa John's Pizza,Q2759586
tn_pigeon-forge_3710-parkway,pizza_hut_us,3710 Parkway,,Pigeon Forge,TN,,US,+1 865-428-2400,https://locations.pizzahut.com/tn/pigeon-forge/3710-parkway,,Pizza Hut,Q191615
restaurant_85227,popeyes_us_fr,Popeyes,"2616 Parkway Pigeon Forge, Tennessee 37863 - USA",Pigeon Forge,TN,,US,+1 865-365-4699,https://www.popeyes.com/store-locator/store/restaurant_85227,Mo-Th 10:00-21:00; Fr-Sa 10:00-22:00; Su 10:00-21:00,Popeyes,Q1330910
ppg-paints-9298-21829,ppgpaints,PPG Paints 9298,,"Pigeon Forge, ",TN,,US,+1 865-908-0366,https://www.ppgpaints.com/store-locator/us/tennessee/pigeon-forge-paint-stores/ppg-paints-9298-21829,,PPG Paints,Q83891559
81098,ritasitalianice,Rita’s of Pigeon Forge TN,,Pigeon Forge,TN,,US,+1 865-366-1468,https://www.ritasice.com/location/ritas-of-pigeon-forge-tn/,,Rita's Italian Ice,Q7336456
https://restaurants.subway.com/#14901438,subway,Subway,,Pigeon Forge Sevier,TN,,US,+1 865-429-3077,https://restaurants.subway.com/united-states/tn/pigeon-forge/335-wears-valley-rd,Mo-Su 09:00-22:30,Subway,Q244457
https://restaurants.subway.com/#14897767,subway,Subway Wynn's Mountain Village,,Pigeon Forge Sevier,TN,,US,+1 865-428-7700,https://restaurants.subway.com/united-states/tn/pigeon-forge/3536-parkway,Mo-Fr 09:00-22:00; Sa 09:00-23:00; Su 09:00-22:00,Subway,Q244457
https://restaurants.subway.com/#14901403,subway,Subway BP Gas Station/C-Store,,Pigeon Forge Sevier,TN,,US,+1 865-429-2709,https://restaurants.subway.com/united-states/tn/pigeon-forge/2586-parkway,,Subway,Q244457
https://restaurants.subway.com/#14908278,subway,Subway Shell Gas Station/C-Store,,Pigeon Forge Sevier,TN,,US,+1 865-444-0591,https://restaurants.subway.com/united-states/tn/pigeon-forge/2540-veteran's-boulevard,Mo-Su 09:00-23:00,Subway,Q244457
0682698600,sunoco_us,Sunoco,,PIGEON FORGE,TN,,US,+1 865-428-4700,,Mo-Sa 07:00-00:00; Su 07:00-23:00,Sunoco,Q1423218
35162,sweetfrog_us,sweetFrog Store 35162,,Pigeon Forge,TN,,US,+1 865-365-1745,https://www.sweetfrog.com/stores/frozen-yogurt-pigeon-forge/35162,Mo-Th 11:00-22:00; Fr-Sa 11:00-23:00; Su 11:00-22:00,sweetFrog,Q16952110
https://locations.tacobell.com/#6144160,taco_bell,Taco Bell,,Pigeon Forge,TN,,US,+1 865-908-1193,https://locations.tacobell.com/tn/pigeon-forge/3310-parkway.html,Mo-Th 09:00-01:00; Fr-Sa 09:00-02:00; Su 09:00-01:00,Taco Bell,Q752941
https://locations.tacobell.com/#6145301,taco_bell,Taco Bell,,Pigeon Forge,TN,,US,+1 865-428-1740,https://locations.tacobell.com/tn/pigeon-forge/206-wears-valley-road.html,Mo-Th 07:00-24:00; Fr-Sa 07:00-01:00; Su 07:00-24:00,Taco Bell,Q752941
pigeon-forge,tijuanaflats,Pigeon Forge - Tijuana Flats,,Pigeon Forge,TN,,US,+1 865-286-5698,https://www.tijuanaflats.com/locations/pigeon-forge,,Tijuana Flats,Q7801833
101476,tjx,Pigeon Forge,3062 Teaster Ln,Pigeon Forge,TN,,US,+1 865-428-3664,,Mo-Sa 09:30-21:30; Su 10:00-20:00,Marshalls,Q15903261
2234,upsstore,Pigeon Forge,3152 Parkway Ste 13,Pigeon Forge,TN,,US,+1 865-428-7225,https://locations.theupsstore.com/tn/pigeon-forge/3152-parkway,,UPS Store,Q7771029
1437231,usps,PIGEON FORGE,,PIGEON FORGE,TN,,US,+1 865-429-1859,,Mo-Fr 08:30-16:00; Sa 10:00-12:00,United States Postal Service,Q668687
3786300012,usps_collection_boxes,USPS COLLECTION BOX - BLUE BOX,220 WEARS VALLEY RD,PIGEON FORGE,TN,,US,,,,United States Postal Service,Q668687
3786300013,usps_collection_boxes,USPS COLLECTION BOX - BLUE BOX,2470 PARKWAY,PIGEON FORGE,TN,,US,,,,United States Postal Service,Q668687
3786300019,usps_collection_boxes,USPS COLLECTION BOX - PO LOBBY,3235 RENA ST,PIGEON FORGE,TN,,US,,,,United States Postal Service,Q668687
3786300016,usps_collection_boxes,USPS COLLECTION BOX - PO LOBBY,3235 RENA ST,PIGEON FORGE,TN,,US,,,,United States Postal Service,Q668687
3786300015,usps_collection_boxes,USPS COLLECTION BOX - BLUE BOX,3235 RENA ST,PIGEON FORGE,TN,,US,,,,United States Postal Service,Q668687
3786300004,usps_collection_boxes,USPS COLLECTION BOX - BLUE BOX,3601 PARKWAY,PIGEON FORGE,TN,,US,,,,United States Postal Service,Q668687
3786300005,usps_collection_boxes,USPS COLLECTION BOX - BLUE BOX,3685 PARKWAY,PIGEON FORGE,TN,,US,,,,United States Postal Service,Q668687
,visa,,,PIGEON FORGE,TN,,US,,,,,
,visa,,,PIDGEON FORGE,TN,,US,,,,,
,visa,,,PIGEON FORGE,TN,,US,,,,,
,visa,,,PIGEON FORGE,TN,,US,,,,,
,visa,,,PIGEON FORGE,TN,,US,,,,,
,visa,,,PIGEON FORGE,TN,,US,,,,,
,visa,,,PIGEON FORGE,TN,,US,,,,,
,visa,,,PIGEON FORGE,TN,,US,,,,,
,visa,,,PIGEON FORGE,TN,,US,,,,,
,visa,,,PIGEON FORGE,TN,,US,,,,,
,visa,,,PIGEON FORGE,TN,,US,,,,,
,visa,,,PIGEON FORGE,TN,,US,,,,,
,visa,,,PIGEON FORGE,TN,,US,,,,,
,visa,,,PIGEON FORGE,TN,,US,,,,,
,visa,,,PIGEON FORGE,TN,,US,,,,,
,visa,,,PIGEON FORGE,TN,,US,,,,,
,visa,,,PIGEON FORGE,TN,,US,,,,,
,visa,,,PIGEON FORGE,TN,,US,,,,,
,visa,,,PIGEON FORGE,TN,,US,,,,,
,visa,,,PIGEON FORGE,TN,,US,,,,,
,visa,,,PIGEON FORGE,TN,,US,,,,,
,visa,,,PIGEON FORGE,TN,,US,,,,,
,visa,,,PIGEON FORGE,TN,,US,,,,,
,visa,,,PIGEON FORGE,TN,,US,,,,,
,visa,,,PIGEON FORGE,TN,,US,,,,,
,visa,,,PIGEON FORGE,TN,,US,,,,,
,visa,,,PIGEON FORGE,TN,,US,,,,,
,visa,,,PIGEON FORGE,TN,,US,,,,,
,visa,,,PIGEON FORGE,TN,,US,,,,,
,visa,,,PIGEON FORGE,TN,,US,,,,,
,visa,,,PIGEON FORGE,TN,,US,,,,,
,visa,,,PIGEON FORGE,TN,,US,,,,,
,visa,,,PIGEON FORGE,TN,,US,,,,,
,visa,,,PIGEON FORGE,TN,,US,,,,,
,visa,,,PIGEON FORGE,TN,,US,,,,,
,visa,,,PIGEON FORGE,TN,,US,,,,,
,visa,,,PIGEON FORGE,TN,,US,,,,,
,visa,,,PIGEON FORGE,TN,,US,,,,,
,visa,,,PIGEON FORGE,TN,,US,,,,,
,visa,,,PIGEON FORGE,TN,,US,,,,,
,visa,,,PIGEON FORGE,TN,,US,,,,,
,visa,,,PIGEON FORGE,TN,,US,,,,,
,visa,,,PIGEON FORGE,TN,,US,,,,,
,visa,,,PIGEON FORGE,TN,,US,,,,,
,visa,,,PIGEON FORGE,TN,,US,,,,,
,visa,,,PIGEON FORGE,TN,,US,,,,,
,visa,,,PIGEON FORGE,TN,,US,,,,,
,visa,,,PIGEON FORGE,TN,,US,,,,,
,visa,,,PIGEON FORGE,TN,,US,,,,,
,visa,,,PIGEON FORGE,TN,,US,,,,,
,visa,,,PIGEON FORGE,TN,,US,,,,,
,visa,,,PIGEON FORGE,TN,,US,,,,,
,visa,,,PIGEON FORGE,TN,,US,,,,,
,visa,,,PIGEON FORGE,TN,,US,,,,,
,visa,,,PIGEON FORGE,TN,,US,,,,,
,visa,,,PIGEON FORGE,TN,,US,,,,,
,visa,,,PIGEON FORGE,TN,,US,,,,,
,visa,,,PIGEON FORGE,TN,,US,,,,,
,visa,,,PIGEON FORGE,TN,,US,,,,,
,visa,,,PIGEON FORGE,TN,,US,,,,,
,visa,,,PIGEON FORGE,TN,,US,,,,,
,visa,,,PIGEON FORGE,TN,,US,,,,,
,visa,,,PIGEON FORGE,TN,,US,,,,,
,visa,,,PIGEON FORGE,TN,,US,,,,,
,visa,,,PIGEON FORGE,TN,,US,,,,,
,visa,,,PIGEON FORGE,TN,,US,,,,,
,visa,,,PIGEON FORGE,TN,,US,,,,,
,visa,,,PIGEON FORGE,TN,,US,,,,,
,visa,,,PIGEON FORGE,TN,,US,,,,,
,visa,,,PIGEON FORGE,TN,,US,,,,,
,visa,,,PIGEON FORGE,TN,,US,,,,,
,visa,,,PIGEON FORGE,TN,,US,,,,,
,visa,,,PIGEON FORGE,TN,,US,,,,,
,visa,,,PIGEON FORGE,TN,,US,,,,,
,visa,,,PIGEON FORGE,TN,,US,,,,,
,visa,,,PIGEON FORGE,TN,,US,,,,,
,visa,,,PIGEON FORGE,TN,,US,,,,,
,visa,,,PIGEON FORGE,TN,,US,,,,,
,visa,,,PIGEON FORGE,TN,,US,,,,,
,visa,,,PIGEON FORGE,TN,,US,,,,,
,visa,,,PIGEON FORGE,TN,,US,,,,,
,visa,,,PIGEON FORGE,TN,,US,,,,,
,visa,,,PIGEON FORGE,TN,,US,,,,,
,visa,,,PIGEON FORGE,TN,,US,,,,,
,visa,,,PIGEON FORGE,TN,,US,,,,,
,visa,,,PIGEON FORGE,TN,,US,,,,,
,visa,,,PIGEON FORGE,TN,,US,,,,,
,visa,,,PIGEON FORGE,TN,,US,,,,,
,visa,,,PIGEON FORGE,TN,,US,,,,,
,visa,,,PIGEON FORGE,TN,,US,,,,,
,visa,,,PIGEON FORGE,TN,,US,,,,,
,visa,,,PIGEON FORGE,TN,,US,,,,,
,visa,,,PIGEON FORGE,TN,,US,,,,,
,visa,,,PIGEON FORGE,TN,,US,,,,,
,visa,,,PIGEON FORGE,TN,,US,,,,,
,visa,,,PIGEON FORGE,TN,,US,,,,,
,visa,,,PIDGEON FORGE,TN,,US,,,,,
,visa,,,PIGEON FORGE,TN,,US,,,,,
,visa,,,PIGEON FORGE,TN,,US,,,,,
,visa,,,PIGEON FORGE,TN,,US,,,,,
,visa,,,PIGEON FORGE,TN,,US,,,,,
,visa,,,PIGEON FORGE,TN,,US,,,,,
,visa,,,PIGEON FORGE,TN,,US,,,,,
,visa,,,PIGEON FORGE,TN,,US,,,,,
,visa,,,PIGEON FORGE,TN,,US,,,,,
,visa,,,PIGEON FORGE,TN,,US,,,,,
,visa,,,PIGEON FORGE,TN,,US,,,,,
,visa,,,PIGEON FORGE,TN,,US,,,,,
,visa,,,PIGEON FORGE,TN,,US,,,,,
,visa,,,PIGEON FORGE,TN,,US,,,,,
,visa,,,PIGEON FORGE,TN,,US,,,,,
,visa,,,PIGEON FORGE,TN,,US,,,,,
,visa,,,SEVIERVILLE,TN,,US,,,,,
,visa,,,PIGEON FORGE,TN,,US,,,,,
,visa,,,PIGEON FORGE,TN,,US,,,,,
,visa,,,PIGEON FORGE,TN,,US,,,,,
,visa,,,PIGEON FORGE,TN,,US,,,,,
,visa,,,KINGSTON,TN,,US,,,,,
,visa,,,PIGEON FORGE,TN,,US,,,,,
2113,waffle_house_us,Waffle House #2113,,PIGEON FORGE,TN,,US,+1 865-286-9831,https://locations.wafflehouse.com/pigeonforge-tn-2113,24/7,Waffle House,Q1701206
https://www.walgreens.com/locator/walgreens-3071+parkway-pigeon+forge-tn-37863/id=7048,walgreens,Walgreens,,Pigeon Forge,TN,,US,+1 865-429-7127,https://www.walgreens.com/locator/walgreens-3071+parkway-pigeon+forge-tn-37863/id=7048,Mo-Su 06:00-24:00,Walgreens,Q1591889
https://locations.wendys.com/#9254941,wendys,"Wendy's Pigeon Forge in Pigeon Forge, TN",,Pigeon Forge,TN,,US,+1 865-365-0880,https://locations.wendys.com/united-states/tn/pigeon-forge/3644-parkway,"Mo-Su 06:30-10:30,09:00-22:00",Wendy's,Q550258
a18216a68489a27d86c8103e079758c6,western_union,FOOD CITY #665,,Pigeon Forge,TN,,US,+1 865-505-8306,https://location.westernunion.com/us/tn/pigeon-forge/a18216a68489a27d86c8103e079758c6,Mo-Su 07:00-22:00,Western Union,Q861042
5e4bf5ec176a9b436d059d2bfe320356,western_union,RIVERS MARKET,,Pigeon Forge,TN,,US,+1 865-365-1864,https://location.westernunion.com/us/tn/pigeon-forge/5e4bf5ec176a9b436d059d2bfe320356,Mo-Su 09:00-21:00,Western Union,Q861042
fe5856692236f14cc7161bca21c146db,western_union,IRH PIGEON FORGE,,Pigeon Forge,TN,,US,+1 608-963-2853,https://location.westernunion.com/us/tn/pigeon-forge/fe5856692236f14cc7161bca21c146db,Mo-Th 10:00-17:00; Fr 10:00-23:00; Sa 16:00-23:00; Su 13:00-21:00,Western Union,Q861042
f94ea642cb42af670e3961df84c6276b,western_union,RIVERS MARKET,,Pigeon Forge,TN,,US,+1 865-365-1834,https://location.westernunion.com/us/tn/pigeon-forge/f94ea642cb42af670e3961df84c6276b,Mo-Su 09:00-21:00,Western Union,Q861042
