Ref,Spider,Name,Address,City,State,Zipcode,Country,Phone,Website,Hours,Brand,WikiData
17039401,anatomie,The Greenbriar,,White Sulphur Springs,WV,,US,+1 844-837-2466,https://www.greenbrier.com/,,Anatomie,Q115608133
165198,bluerhino,Family Dollar #01710,,White Sulphur Springs,WV,,US,+1 304-520-3886,,,Blue Rhino,Q65681213
139753,bluerhino,Little General Store #2210,,White Sulphur Springs,WV,,US,+1 304-536-4019,,,Blue Rhino,Q65681213
214455,bluerhino,Par Mar Store #185 (Shell),,White Sulphur Springs,WV,,US,+1 304-536-4064,,,Blue Rhino,Q65681213
196337,bluerhino,Go-Mart #119,,White Sulphur Springs,WV,,US,+1 304-536-2200,,,Blue Rhino,Q65681213
188256,bluerhino,Walgreens #19961,,White Sulphur Spgs,WV,,US,+1 304-536-2350,,,Blue Rhino,Q65681213
12185,bluerhino,Food Lion #826,,White Sulphur Spr,WV,,US,+1 304-536-9103,,,Blue Rhino,Q65681213
67672,citi,ATM PEOPLES BANK,,White Sulphur Sprin,WV,,US,,,,Citibank,Q857063
67513,citi,ATM PEOPLES BANK,,White Sulphur Sprin,WV,,US,,,,Citibank,Q857063
88560,citi,ATM Walgreens,,White Sulphur Spgs,WV,,US,,,,Citibank,Q857063
21710,family_dollar_us,FAMILY DOLLAR #1710,,White Sulphur Spring,WV,,US,+1 304-956-6028,https://www.familydollar.com/locations/wv/white-sulphur-spring/21710/,Mo-Sa 09:00-22:00; Su 09:00-21:00,Family Dollar,Q5433101
https://local.fedex.com/#25203148,fedex,,,White Sulphur Springs,WV,,US,+1 800-463-3339,https://local.fedex.com/en-us/wv/white-sulphur-springs/bkwlo,,FedEx,Q459477
1503451,hardees_us,Hardee's,,White Sulphur Spring,WV,,US,+1 304-536-3243,https://locations.hardees.com/wv/white-sulphur-spring/9-alvon-rd,,Hardee's,Q1585088
46382,h_r_block,H&R Block,,White Sulphur Spgs,WV,,US,+1 304-536-3159,https://www.hrblock.com/local-tax-offices/west-virginia/white-sulphur-spgs/814-e-main-st/46382/,,H&R Block,Q5627799
US107,longchamp_us,Yarid'S,,WHITE SULPHUR SPRINGS,WV,,US,+1 888-271-3363,,,Longchamp,Q1869471
157397,marathon_petroleum_us,LITTLE GENERAL STORE 2210,,WHITE SULPHUR SPRNG,WV,,US,+1 304-536-4019,,,Marathon,Q458363
1387538,usps,WHITE SULPHUR SPRINGS,,WHITE SULPHUR SPRINGS,WV,,US,+1 304-536-2581,,"Mo-Fr 09:00-13:00,14:00-16:30; Sa 10:00-12:30",United States Postal Service,Q668687
2498600013,usps_collection_boxes,USPS COLLECTION BOX - BLUE BOX,200 POCAHONTAS TRL,WHT SULPHUR S,WV,,US,,,,United States Postal Service,Q668687
2498600000,usps_collection_boxes,USPS COLLECTION BOX - PO LOBBY,857 MAIN ST E,WHT SULPHUR S,WV,,US,,,,United States Postal Service,Q668687
2498600002,usps_collection_boxes,USPS COLLECTION BOX - BLUE BOX,857 MAIN ST E,WHT SULPHUR S,WV,,US,,,,United States Postal Service,Q668687
2498600016,usps_collection_boxes,USPS COLLECTION BOX - PO LOBBY,857 MAIN ST E,WHT SULPHUR S,WV,,US,,,,United States Postal Service,Q668687
,visa,,,NEOLA,WV,,US,,,,,
,visa,,,WHITE SULPHUR SPIRNGS,WV,,US,,,,,
,visa,,,WHITE SULPHUR,WV,,US,,,,,
,visa,,,WHITE SULPHUR SPRINGS,WV,,US,,,,,
,visa,,,WHITE SULPHUR SPRING,WV,,US,,,,,
,visa,,,WHITE SULPHUR SPGS,WV,,US,,,,,
,visa,,,WHITE SULPHUR SPRINGS,WV,,US,,,,,
,visa,,,WHITE SULPHUR SPRINGS,WV,,US,,,,,
,visa,,,WHITE SULPHUR SPRINGS,WV,,US,,,,,
,visa,,,WHITE SULPHUR,WV,,US,,,,,
,visa,,,WHITE SULPHUR SPRINGS,WV,,US,,,,,
,visa,,,WHITE SULPHUR SPRINGS,WV,,US,,,,,
,visa,,,WHITE SULPHUR SPRINGS,WV,,US,,,,,
,visa,,,WHITE SULPHUR SPRINGS,WV,,US,,,,,
,visa,,,WHITE SULPHER SPRINGS,WV,,US,,,,,
,visa,,,WHITE SULPHUR SPRINGS,WV,,US,,,,,
,visa,,,WHITE SULPHUR SPRINGS,WV,,US,,,,,
,visa,,,WHITE SULPHUR SPRINGS,WV,,US,,,,,
,visa,,,WHITE SULPHUR SPRINGS,WV,,US,,,,,
,visa,,,WHITE SULPHER SPRINGS,WV,,US,,,,,
,visa,,,WHITE SULPHUR SPRINGS,WV,,US,,,,,
https://www.walgreens.com/locator/walgreens-198+pocahontas+trl-white+sulphur+springs-wv-24986/id=19961,walgreens,Walgreens,,White Sulphur Springs,WV,,US,+1 304-536-2350,https://www.walgreens.com/locator/walgreens-198+pocahontas+trl-white+sulphur+springs-wv-24986/id=19961,Mo-Su 09:00-21:00,Walgreens,Q1591889
1084cf66711e97db0c577037a6a42277,western_union,FOOD LION #826,,White Sulphur Springs,WV,,US,+1 304-536-9103,https://location.westernunion.com/us/wv/white-sulphur-springs/1084cf66711e97db0c577037a6a42277,Mo-Su 07:00-22:00,Western Union,Q861042
cda5c230f5c9e94bd447373c439b3ef1,western_union,WALGREENS #19961,,White Sulphur Springs,WV,,US,+1 304-536-1496,https://location.westernunion.com/us/wv/white-sulphur-springs/cda5c230f5c9e94bd447373c439b3ef1,Mo-Fr 08:00-21:00; Sa 08:00-20:00; Su 08:00-19:00,Western Union,Q861042
2861ea4d1974a7ff28211b54ea4a4de1,western_union,PAR MAR #185,,White Sulphur Springs,WV,,US,+1 304-536-3128,https://location.westernunion.com/us/wv/white-sulphur-springs/2861ea4d1974a7ff28211b54ea4a4de1,,Western Union,Q861042
