Ref,Spider,Name,Address,City,State,Zipcode,Country,Phone,Website,Hours,Brand,WikiData
4686,action,La Châtre,,La Châtre,,,FR,,https://www.action.com/fr-fr/points-de-vente/la-chatre/,,Action,Q2634111
7672,carrefour_fr,Market La Châtre,,La Chatre,,,FR,+33 2 54 48 05 24,https://www.carrefour.fr/magasin/market-la-chatre,Mo-Sa 08:30-19:00; Su 09:00-12:00,Carrefour Market,Q2689639
83626,century_21_fr,CENTURY 21 Agence de l'Europe,,LA CHATRE,,,FR,+33 2 54 48 10 66,https://www.century21.fr/trouver_agence/agence/83626/,,Century 21,Q1054480
https://www.credit-agricole.fr/particulier/agence/centre-ouest/la-forge-7568.html,credit_agricole,Crédit Agricole,,Vicq-Exemplet,,,FR,,https://www.credit-agricole.fr/particulier/agence/centre-ouest/la-forge-7568.html,Mo 07:00-20:00; Tu-Fr 00:00-20:00; Sa 00:00-17:00,Credit Agricole,Q590952
https://www.credit-agricole.fr/particulier/agence/centre-ouest/la-chatre-5558.html,credit_agricole,Crédit Agricole,,LA CHATRE,,,FR,+33 2 18 03 40 10,https://www.credit-agricole.fr/particulier/agence/centre-ouest/la-chatre-5558.html,"Tu-We 08:45-12:30,14:00-18:00; Th 08:45-12:30,15:00-18:00; Fr 08:45-12:30,14:00-18:00; Sa 08:45-12:30",Credit Agricole,Q590952
https://www.credit-agricole.fr/particulier/agence/centre-ouest/hotel-prevautel-7566.html,credit_agricole,Crédit Agricole,,Verneuil-sur-Igneraie,,,FR,,https://www.credit-agricole.fr/particulier/agence/centre-ouest/hotel-prevautel-7566.html,"Mo-Su 00:00-12:30,12:30-24:00",Credit Agricole,Q590952
https://www.credit-agricole.fr/particulier/agence/centre-ouest/epicerie-la-grillade-7569.html,credit_agricole,Crédit Agricole,,Montgivray,,,FR,,https://www.credit-agricole.fr/particulier/agence/centre-ouest/epicerie-la-grillade-7569.html,"Mo-Fr 07:30-14:00,17:00-21:00; Sa 08:00-14:00",Credit Agricole,Q590952
https://www.credit-agricole.fr/particulier/agence/centre-ouest/boulangerie-prevautel-7570.html,credit_agricole,Crédit Agricole,,Thevet-Saint-Julien,,,FR,,https://www.credit-agricole.fr/particulier/agence/centre-ouest/boulangerie-prevautel-7570.html,"Mo-Tu 07:00-13:00,16:00-19:00; Th-Sa 07:00-13:00,16:00-19:00; Su 07:00-13:00",Credit Agricole,Q590952
https://www.credit-agricole.fr/particulier/agence/centre-ouest/boulangerie-7567.html,credit_agricole,Crédit Agricole,,SAINT-CHRISTOPHE-EN BOUCHERIE,,,FR,,https://www.credit-agricole.fr/particulier/agence/centre-ouest/boulangerie-7567.html,"Mo-Sa 06:30-13:30,16:00-19:15",Credit Agricole,Q590952
https://www.credit-agricole.fr/particulier/agence/centre-ouest/blanchard-jacqueline-7565.html,credit_agricole,Crédit Agricole,,LA BERTHENOUX,,,FR,,https://www.credit-agricole.fr/particulier/agence/centre-ouest/blanchard-jacqueline-7565.html,"Mo-Su 00:00-12:30,12:30-24:00",Credit Agricole,Q590952
https://www.credit-agricole.fr/particulier/agence/centre-ouest/automate-inter-le-magny-699.html,credit_agricole,Crédit Agricole,,LE MAGNY,,,FR,,https://www.credit-agricole.fr/particulier/agence/centre-ouest/automate-inter-le-magny-699.html,,Credit Agricole,Q590952
https://www.credit-agricole.fr/particulier/agence/centre-ouest/automate-inter-le-magny-6771.html,credit_agricole,Crédit Agricole,,Le Magny,,,FR,,https://www.credit-agricole.fr/particulier/agence/centre-ouest/automate-inter-le-magny-6771.html,"Mo-Su 00:00-12:30,12:30-24:00",Credit Agricole,Q590952
482,croix_rouge_francaise_fr,UNITE LOCALE DE LA CHATRE,,LA CHATRE,,,FR,,https://www.croix-rouge.fr/unite-locale-de-la-chatre,Tu-Th 14:00-17:00,Croix-Rouge française,Q3003244
3116,lidl_fr,LA CHATRE,,LA CHATRE,,,FR,,,Mo-Sa 08:30-19:30; Su 08:30-12:15,Lidl,Q151954
1635,mcdonalds_fr,LA CHATRE,,LA CHÂTRE,,,FR,,https://www.mcdonalds.fr/restaurants/mcdonalds-la-chatre/1635,Mo-Th 10:30-23:00; Fr-Sa 10:30-24:00; Su 10:00-23:00,McDonald's,Q38076
929-opticien-la-chatre-optical-center,optical_center,Opticien LA CHÂTRE Optical Center,,LA CHATRE,,,FR,+33 2 42 17 11 11,https://opticien.optical-center.fr/929-opticien-la-chatre-optical-center,Mo-Sa 09:00-19:00,Optical Center,Q3354448
25002642_001-renault,renault,SAS DAVID BOUSTON,,LA CHATRE,,,FR,+33 2 54 48 38 38,,,Renault,Q6686
25002642_001-dacia,renault,SAS DAVID BOUSTON,,LA CHATRE,,,FR,+33 2 54 48 38 38,,,Dacia,Q27460
NF080164,totalenergies,PNEUS EUROPE SERVICES,,LA CHATRE,,,FR,+33 2 54 48 04 10,https://store.totalenergies.fr/en_EN/NF080164,"Mo-Fr 08:00-12:30,14:00-19:00; Sa 08:00-12:30,14:00-17:00",Total Access,Q154037
NF955061,totalenergies,INDEPENDANT SANS ENSEIGNE,,MONTGIVRAY,,,FR,,https://store.totalenergies.fr/en_EN/NF955061,,,
,visa,,,LA CHATRE,,,FR,,,,,
,visa,,,LA CHATRE,,,FR,,,,,
,visa,,,LA CHATRE,,,FR,,,,,
,visa,,,LA CHATRE,,,FR,,,,,
,visa,,,LA CHATRE,,,FR,,,,,
,visa,,,LA CHATRE,,,FR,,,,,
,visa,,,LA CHATRE,,,FR,,,,,
