Ref,Spider,Name,Address,City,State,Zipcode,Country,Phone,Website,Hours,Brand,WikiData
326,anytime_fitness,Anytime Fitness,,Minneapolis,MN,,US,+1 612-455-4100,https://www.anytimefitness.com/gyms/326/minneapolis-mn-55414/,,Anytime Fitness,Q4778364
19213,asics_us,Mill City Running,411 E Hennepin Ave,Minneapolis,MN,,US,+1 612-378-6001,,Mo-Th 11:00-19:00; Fr 11:00-18:00; Sa 10:00-17:00; Su 11:00-17:00,asics,Q327247
https://locators.bankofamerica.com/mn/minneapolis/atm-minneapolis-110196.html,bankofamerica,Bank of America Walk-Up ATM | Eriks Bikes And Boards - Dinkytown,,Minneapolis,MN,,US,+1 844-401-8500,https://locators.bankofamerica.com/mn/minneapolis/atm-minneapolis-110196.html,,Bank of America,Q487907
https://locators.bankofamerica.com/mn/minneapolis/sales-office-atm-minneapolis-110211.html,bankofamerica,Bank of America Bank of America Advanced Center™Virtual Banking & Separate ATM | Washington and Huron,,Minneapolis,MN,,US,+1 763-237-3903,https://locators.bankofamerica.com/mn/minneapolis/sales-office-atm-minneapolis-110211.html,Mo-Fr 09:00-17:00; Sa 09:00-15:00,Bank of America,Q487907
https://locators.bankofamerica.com/mn/minneapolis/sales-office-atm-minneapolis-110921.html,bankofamerica,Bank of America Bank of America Advanced Center™Virtual Banking & Separate ATM | Saint Anthony Main,,Minneapolis,MN,,US,,https://locators.bankofamerica.com/mn/minneapolis/sales-office-atm-minneapolis-110921.html,Mo-Fr 09:00-17:00; Sa 09:00-15:00,Bank of America,Q487907
35540,blaze_pizza,Blaze Pizza Minneapolis,,Minneapolis,MN,,US,+1 612-295-0835,https://blazepizza.olo.com/menu/blaze-pizza-minneapolis/,,Blaze Pizza,Q23016666
239106,bluerhino,Circle K #2746468,,Minneapolis,MN,,US,+1 612-331-9031,,,Blue Rhino,Q65681213
130819,bluerhino,"University Service, Inc.",,Minneapolis,MN,,US,+1 612-331-7587,,,Blue Rhino,Q65681213
198488,bluerhino,Speedway #4173,,Minneapolis,MN,,US,+1 612-379-7829,,,Blue Rhino,Q65681213
720-washington-avenue-se,brueggers,Bruegger's Bagels Stadium Village II,,Minneapolis,MN,,US,+1 612-378-2145,https://locations.brueggers.com/us/mn/minneapolis/720-washington-avenue-se,Mo-Su 07:00-15:00,Bruegger's,Q4978656
228-east-hennepin-avenue,brueggers,Bruegger's Bagels East Hennepin,,Minneapolis,MN,,US,+1 612-617-9617,https://locations.brueggers.com/us/mn/minneapolis/228-east-hennepin-avenue,Mo-Su 06:00-14:00,Bruegger's,Q4978656
13390769,chase_us,Washington and Harvard - New branch,,Minneapolis,MN,,US,+1 612-852-9774,https://locator.chase.com/mn/minneapolis/606-washington-ave-se,Mo-Fr 09:00-17:00; Sa 09:00-13:00,Chase,Q524629
mn_minneapolis_800-washington-ave-se,chipotle, ,,Minneapolis,MN,,US,+1 612-378-7078,https://locations.chipotle.com/mn/minneapolis/800-washington-ave-se,,Chipotle,Q465751
mn_minneapolis_225-e-hennepin-ave,chipotle, ,,Minneapolis,MN,,US,+1 612-331-6330,https://locations.chipotle.com/mn/minneapolis/225-e-hennepin-ave,,Chipotle,Q465751
92246,citi,ATM Walgreens,,Minneapolis,MN,,US,,,,Citibank,Q857063
52990,citi,ATM CVS,,Minneapolis,MN,,US,,,,Citibank,Q857063
34045,citi,ATM AFFINITY PLUS FCU,,Minneapolis,MN,,US,,,,Citibank,Q857063
34046,citi,ATM AFFINITY PLUS FCU,,Minneapolis,MN,,US,,,,Citibank,Q857063
34048,citi,ATM AFFINITY PLUS FCU,,Minneapolis,MN,,US,,,,Citibank,Q857063
34047,citi,ATM AFFINITY PLUS FCU,,Minneapolis,MN,,US,,,,Citibank,Q857063
36784,citi,ATM BLAZE CU,,Minneapolis,MN,,US,,,,Citibank,Q857063
85204,citi,ATM TRUSTONE FINANCIAL CREDIT UNION,,Minneapolis,MN,,US,,,,Citibank,Q857063
85191,citi,ATM TRUSTONE FINANCIA,,Minneapolis,MN,,US,,,,Citibank,Q857063
77996,citi,ATM Speedway,,Minneapolis,MN,,US,,,,Citibank,Q857063
81580,citi,ATM Target,,Minneapolis,MN,,US,,,,Citibank,Q857063
,credit_union_us,Blaze CU-Spire CU,,Minneapolis,MN,,US,+1 651-215-3500,,Mo-Th 09:00-05:00; Fr 09:00-06:00,,
17671,cvs_us,CVS Pharmacy,,Minneapolis,MN,,US,+1 612-355-3858,https://www.cvs.com/store-locator/minneapolis-mn-pharmacies/1329-5th-street-se-minneapolis-mn-55414/storeid=17671,"Mo-Fr 09:00-13:30,14:00-19:00; Sa 09:00-13:30,14:00-17:00; Su 11:00-13:30,14:00-17:00",CVS Pharmacy,Q2078880
8941,cvs_us,CVS Pharmacy,,Minneapolis,MN,,US,+1 612-331-4240,https://www.cvs.com/store-locator/minneapolis-mn-pharmacies/880-washington-ave-se-minneapolis-mn-55414/storeid=8941,Mo-Su 08:00-22:00,CVS Pharmacy,Q2078880
1901,dominos_pizza_us,Domino's Pizza,,Minneapolis,MN,,US,+1 612-331-3030,https://pizza.dominos.com/minnesota/minneapolis/215-se-oak-st,Mo-Th 10:00-24:00; Fr-Sa 10:00-01:00; Su 10:00-24:00,Domino's,Q839466
1000001180,extra_space_storage,Minneapolis self storage at 1227 E Hennepin Ave,,Minneapolis,MN,,US,+1 612-293-3597,https://www.extraspace.com/storage/facilities/us/minnesota/minneapolis/1000001180/,Mo-Fr 09:30-18:00; Sa 09:00-17:30,Extra Space Storage,Q5422162
Motorcraft4965USAEnglish,ford,"Parts Midwest, Inc.",,Minnesota,MN,,US,,,,Ford,Q44294
https://salons.greatclips.com/us/mn/minneapolis/1312-5th-st-se,greatclips,Great Clips,,Minneapolis,MN,,US,+1 612-379-0430,https://salons.greatclips.com/us/mn/minneapolis/1312-5th-st-se,Mo-Fr 09:00-19:00; Sa 10:00-18:00; Su 10:00-16:00,Great Clips,Q5598967
msputgi-hilton-garden-inn-minneapolis-university-area,hilton,Hilton Garden Inn Minneapolis University Area,,,MN,,US,+1 612-504-3000,https://www.hilton.com/ar/hotels/msputgi-hilton-garden-inn-minneapolis-university-area/,,Hilton Garden Inn,Q1162859
29698,huntingtonbank,Dinkytown,,Minneapolis,MN,,US,+1 612-317-4821,https://www.huntington.com/Community/branch-info?locationId=29698,Mo-Fr 09:00-17:00; Sa-Su 00:00-00:00,Huntington Bank,Q798819
https://locations.jimmyjohns.com/mn/minneapolis/sandwiches-256.html,jimmy_johns,Jimmy John's,,Minneapolis,MN,,US,+1 612-331-8000,https://locations.jimmyjohns.com/mn/minneapolis/sandwiches-256.html,,Jimmy John's,Q1689380
https://locations.jimmyjohns.com/mn/minneapolis/sandwiches-1623.html,jimmy_johns,Jimmy John's,,Minneapolis,MN,,US,+1 612-331-7827,https://locations.jimmyjohns.com/mn/minneapolis/sandwiches-1623.html,,Jimmy John's,Q1689380
000855,kindercare,University KinderCare,,Minneapolis,MN,,US,,https://www.kindercare.com/our-centers/minneapolis/mn/000855,,KinderCare Learning Centers,Q6410551
1,lundsandbyerlys,Northeast Minneapolis,25 University Ave SE,Minneapolis,MN,,US,+1 612-548-3820,/our-stores/locations/northeast-minneapolis/,,Lunds & Byerlys,Q19903424
https://locations.noodles.com/mn/minneapolis/820-washington-ave-se.html,noodles_and_company_us,Noodles & Company Stadium,,Minneapolis,MN,,US,+1 612-331-4865,https://locations.noodles.com/mn/minneapolis/820-washington-ave-se.html,Mo-We 10:30-21:00; Th 10:30-22:00; Fr-Sa 10:30-23:00; Su 10:30-21:00,Noodles and Company,Q7049673
https://locations.noodles.com/mn/minneapolis/300-e-hennepin-ave.html,noodles_and_company_us,Noodles & Company Nordeast,,Minneapolis,MN,,US,+1 612-378-6011,https://locations.noodles.com/mn/minneapolis/300-e-hennepin-ave.html,Mo-Su 10:30-21:00,Noodles and Company,Q7049673
https://locations.papajohns.com/#10692248,papa_johns,Papa John's,,Minneapolis,MN,,US,+1 612-379-8890,https://locations.papajohns.com/united-states/mn/55414/minneapolis/2639-university-ave-se,Mo-Th 10:00-01:00; Fr-Sa 10:00-03:00; Su 10:00-01:00,Papa John's Pizza,Q2759586
136776,potbelly_sandwich,Dinkytown,,Minneapolis,MN,,US,+1 612-331-0191,,Mo-Th 09:00-21:00; Fr-Sa 09:00-22:00; Su 10:00-21:00,Potbelly Sandwich Shop,Q7234777
https://locations.qdoba.com/us/mn/minneapolis/324-14th-ave-se.html,qdoba,QDOBA Dinkytown,,Minneapolis,MN,,US,+1 612-379-3100,https://locations.qdoba.com/us/mn/minneapolis/324-14th-ave-se.html,Mo-We 10:30-22:00; Th-Sa 10:30-23:00; Su 10:30-22:00,Qdoba,Q1363885
https://restaurants.subway.com/#15299775,subway,Subway University of Minnesota,,Minneapolis,MN,,US,+1 800-888-4848,https://restaurants.subway.com/united-states/mn/minneapolis/4-oak-st-&-1925-university,,Subway,Q244457
https://restaurants.subway.com/#1032142050,subway,Subway 1412 5th St SE,,Minneapolis,MN,,US,+1 952-209-7827,https://restaurants.subway.com/united-states/mn/minneapolis/1412-5th-st-se,Mo-We 08:00-22:00; Th-Sa 08:00-24:00; Su 08:00-22:00,Subway,Q244457
2760,sweetgreen_us,University of Minnesota,,Minneapolis,MN,,US,+1 763-363-4385,https://order.sweetgreen.com/university-of-minnesota/,Mo-Su 10:30-21:00,Sweetgreen,Q18636413
1519894,usps,DINKYTOWN,,MINNEAPOLIS,MN,,US,+1 612-378-0709,,"Mo-Fr 09:00-14:00,15:00-17:00",United States Postal Service,Q668687
1385499,usps,UNIVERSITY,,MINNEAPOLIS,MN,,US,+1 612-378-0625,,Mo-Fr 08:30-17:00; Sa 09:00-13:00,United States Postal Service,Q668687
5541400050,usps_collection_boxes,USPS COLLECTION BOX - BLUE BOX,401 E HENNEPIN AVE,MINNEAPOLIS,MN,,US,,,,United States Postal Service,Q668687
5541400031,usps_collection_boxes,USPS COLLECTION BOX - BLUE BOX,309 6TH ST SE,MINNEAPOLIS,MN,,US,,,,United States Postal Service,Q668687
5541400114,usps_collection_boxes,USPS COLLECTION BOX - BLUE BOX,1024 27TH AVE SE,MINNEAPOLIS,MN,,US,,,,United States Postal Service,Q668687
5541400071,usps_collection_boxes,USPS COLLECTION BOX - BLUE BOX,3301 COMO AVE SE,MINNEAPOLIS,MN,,US,,,,United States Postal Service,Q668687
5541400101,usps_collection_boxes,USPS COLLECTION BOX - BLUE BOX,2818 COMO AVE SE,MINNEAPOLIS,MN,,US,,,,United States Postal Service,Q668687
5541400046,usps_collection_boxes,USPS COLLECTION BOX - BLUE BOX,1900 COMO AVE SE,MINNEAPOLIS,MN,,US,,,,United States Postal Service,Q668687
5541400090,usps_collection_boxes,USPS COLLECTION BOX - BLUE BOX,1227 E HENNEPIN AVE,MINNEAPOLIS,MN,,US,,,,United States Postal Service,Q668687
5541400045,usps_collection_boxes,USPS COLLECTION BOX - BLUE BOX,1500 COMO AVE SE,MINNEAPOLIS,MN,,US,,,,United States Postal Service,Q668687
5541400087,usps_collection_boxes,USPS COLLECTION BOX - BLUE BOX,739 KASOTA AVE SE,MINNEAPOLIS,MN,,US,,,,United States Postal Service,Q668687
5541400115,usps_collection_boxes,USPS COLLECTION BOX - BLUE BOX,2000 ELM ST SE,MINNEAPOLIS,MN,,US,,,,United States Postal Service,Q668687
5541400086,usps_collection_boxes,USPS COLLECTION BOX - BLUE BOX,701 KASOTA AVE SE,MINNEAPOLIS,MN,,US,,,,United States Postal Service,Q668687
5541400113,usps_collection_boxes,USPS COLLECTION BOX - BLUE BOX,680 KASOTA AVE SE,MINNEAPOLIS,MN,,US,,,,United States Postal Service,Q668687
5541400084,usps_collection_boxes,USPS COLLECTION BOX - BLUE BOX,1700 ELM ST SE,MINNEAPOLIS,MN,,US,,,,United States Postal Service,Q668687
5541400100,usps_collection_boxes,USPS COLLECTION BOX - BLUE BOX,1075 10TH AVE SE,MINNEAPOLIS,MN,,US,,,,United States Postal Service,Q668687
5541400072,usps_collection_boxes,USPS COLLECTION BOX - BLUE BOX,530 KASOTA AVE SE,MINNEAPOLIS,MN,,US,,,,United States Postal Service,Q668687
5541400092,usps_collection_boxes,USPS COLLECTION BOX - BLUE BOX,516 15TH AVE SE,MINNEAPOLIS,MN,,US,,,,United States Postal Service,Q668687
5541400049,usps_collection_boxes,USPS COLLECTION BOX - BLUE BOX,1316 5TH ST SE,MINNEAPOLIS,MN,,US,,,,United States Postal Service,Q668687
5541400116,usps_collection_boxes,USPS COLLECTION BOX - PO LOBBY,1316 5TH ST SE,MINNEAPOLIS,MN,,US,,,,United States Postal Service,Q668687
5541400118,usps_collection_boxes,USPS COLLECTION BOX - PO LOBBY,1316 5TH ST SE,MINNEAPOLIS,MN,,US,,,,United States Postal Service,Q668687
5541400022,usps_collection_boxes,USPS COLLECTION BOX - BLUE BOX,2221 UNIVERSITY AVE SE,MINNEAPOLIS,MN,,US,,,,United States Postal Service,Q668687
5541400063,usps_collection_boxes,USPS COLLECTION BOX - BLUE BOX,1425 UNIVERSITY AVE SE,MINNEAPOLIS,MN,,US,,,,United States Postal Service,Q668687
5541400064,usps_collection_boxes,USPS COLLECTION BOX - BLUE BOX,15 CHURCH ST SE,MINNEAPOLIS,MN,,US,,,,United States Postal Service,Q668687
5541400024,usps_collection_boxes,USPS COLLECTION BOX - BLUE BOX,2701 UNIVERSITY AVE SE,MINNEAPOLIS,MN,,US,,,,United States Postal Service,Q668687
5541400026,usps_collection_boxes,USPS COLLECTION BOX - BLUE BOX,2811 UNIVERSITY AVE SE,MINNEAPOLIS,MN,,US,,,,United States Postal Service,Q668687
5541400067,usps_collection_boxes,USPS COLLECTION BOX - BLUE BOX,2811 UNIVERSITY AVE SE,MINNEAPOLIS,MN,,US,,,,United States Postal Service,Q668687
5541400117,usps_collection_boxes,USPS COLLECTION BOX - PO LOBBY,2811 UNIVERSITY AVE SE,MINNEAPOLIS,MN,,US,,,,United States Postal Service,Q668687
5541400028,usps_collection_boxes,USPS COLLECTION BOX - BLUE BOX,3001 UNIVERSITY AVE SE,MINNEAPOLIS,MN,,US,,,,United States Postal Service,Q668687
5541400030,usps_collection_boxes,USPS COLLECTION BOX - BLUE BOX,3300 UNIVERSITY AVE SE,MINNEAPOLIS,MN,,US,,,,United States Postal Service,Q668687
5541400054,usps_collection_boxes,USPS COLLECTION BOX - BLUE BOX,500 ERIE ST SE,MINNEAPOLIS,MN,,US,,,,United States Postal Service,Q668687
5541400062,usps_collection_boxes,USPS COLLECTION BOX - BLUE BOX,3400 UNIVERSITY AVE SE,MINNEAPOLIS,MN,,US,,,,United States Postal Service,Q668687
5541400094,usps_collection_boxes,USPS COLLECTION BOX - BLUE BOX,202 2ND ST SE,MINNEAPOLIS,MN,,US,,,,United States Postal Service,Q668687
5541400059,usps_collection_boxes,USPS COLLECTION BOX - BLUE BOX,43 MAIN ST SE,MINNEAPOLIS,MN,,US,,,,United States Postal Service,Q668687
5541400096,usps_collection_boxes,USPS COLLECTION BOX - BLUE BOX,312 CENTRAL AVE SE,MINNEAPOLIS,MN,,US,,,,United States Postal Service,Q668687
5541400056,usps_collection_boxes,USPS COLLECTION BOX - BLUE BOX,1500 FRANKLIN AVE SE,MINNEAPOLIS,MN,,US,,,,United States Postal Service,Q668687
,visa,,,DULUTH,MN,,US,,,,,
,visa,,,MINNEAPOLIS,MN,,US,,,,,
,visa,,,MINNEAPOLIS,MN,,US,,,,,
,visa,,,MINNEAPOLIS,MN,,US,,,,,
,visa,,,MINNEAPOLIS,MN,,US,,,,,
,visa,,,MINNEAPOLIS,MN,,US,,,,,
,visa,,,MINNEAPOLIS,MN,,US,,,,,
,visa,,,MINNEAPOLIS,MN,,US,,,,,
,visa,,,MINNEAPOLIS,MN,,US,,,,,
,visa,,,MINNEAPOLIS,MN,,US,,,,,
,visa,,,MINNEAPOLIS,MN,,US,,,,,
,visa,,,MINNEAPOLIS,MN,,US,,,,,
,visa,,,MPLS,MN,,US,,,,,
,visa,,,MINNEAPOLIS,MN,,US,,,,,
,visa,,,MINNEAPOLIS,MN,,US,,,,,
,visa,,,MINNEAPOLIS,MN,,US,,,,,
,visa,,,MINNEAPOLIS,MN,,US,,,,,
,visa,,,MINNEAPOLIS,MN,,US,,,,,
,visa,,,MINNEAPOLIS,MN,,US,,,,,
,visa,,,MINNEAPOLIS,MN,,US,,,,,
,visa,,,MINNEAPOLIS,MN,,US,,,,,
,visa,,,MINNEAPOLIS,MN,,US,,,,,
,visa,,,MINNEAPOLIS,MN,,US,,,,,
,visa,,,MINNEAPOLIS,MN,,US,,,,,
,visa,,,MINNEAPOLIS,MN,,US,,,,,
,visa,,,MINNEAPOLIS,MN,,US,,,,,
,visa,,,MINNEAPOLIS,MN,,US,,,,,
,visa,,,MINNEAPOLIS,MN,,US,,,,,
,visa,,,MINNEAPOLIS,MN,,US,,,,,
,visa,,,MINNEAPOLIS,MN,,US,,,,,
,visa,,,MINNEAPOLIS,MN,,US,,,,,
,visa,,,MINNEAPOLIS,MN,,US,,,,,
,visa,,,MINNEAPOLIS,MN,,US,,,,,
,visa,,,MINNEAPOLIS,MN,,US,,,,,
,visa,,,MINNEAPOLIS,MN,,US,,,,,
,visa,,,MINNEAPOLIS,MN,,US,,,,,
,visa,,,MINNEAPOLIS,MN,,US,,,,,
,visa,,,MINNEAPOLIS,MN,,US,,,,,
,visa,,,MINNEAPOLIS,MN,,US,,,,,
,visa,,,MINNEAPOLIS,MN,,US,,,,,
,visa,,,MINNEAPOLIS,MN,,US,,,,,
,visa,,,MINNEAPOLIS,MN,,US,,,,,
,visa,,,MINNEAPOLIS,MN,,US,,,,,
,visa,,,MINNEAPOLIS,MN,,US,,,,,
,visa,,,MINNEAPOLIS,MN,,US,,,,,
,visa,,,MINNEAPOLIS,MN,,US,,,,,
,visa,,,MINNEAPOLIS,MN,,US,,,,,
,visa,,,MPLS,MN,,US,,,,,
,visa,,,MINNEAPOLIS,MN,,US,,,,,
,visa,,,MINNEAPOLIS,MN,,US,,,,,
,visa,,,MINNEAPOLIS,MN,,US,,,,,
,visa,,,MINNEAPOLIS,MN,,US,,,,,
,visa,,,MINNEAPOLIS,MN,,US,,,,,
,visa,,,MINNEAPOLIS,MN,,US,,,,,
,visa,,,MINNEAPOLIS,MN,,US,,,,,
,visa,,,MINNEAPOLIS,MN,,US,,,,,
,visa,,,MINNEAPOLIS,MN,,US,,,,,
,visa,,,MINNEAPOLIS,MN,,US,,,,,
,visa,,,MINNEAPOLIS,MN,,US,,,,,
https://www.walgreens.com/locator/walgreens-630+washington+ave+se-minneapolis-mn-55414/id=15655,walgreens,Walgreens,,Minneapolis,MN,,US,+1 612-379-3364,https://www.walgreens.com/locator/walgreens-630+washington+ave+se-minneapolis-mn-55414/id=15655,Mo-Su 08:00-22:00,Walgreens,Q1591889
612__WASHINGTON__AVE__SE_MINNEAPOLIS_MN_55414,wellsfargo,Wells Fargo,612 WASHINGTON AVE SE,MINNEAPOLIS,MN,,US,+1 612-217-6509,https://www.wellsfargo.com/locator/bank/612__WASHINGTON__AVE__SE_MINNEAPOLIS_MN_55414/,Mo-Fr 09:00-17:00,Wells Fargo,Q744149
425__E__HENNEPIN__AVE_MINNEAPOLIS_MN_55414,wellsfargo,,425 E HENNEPIN AVE,MINNEAPOLIS,MN,,US,+1 800-869-3557,https://www.wellsfargo.com/locator/bank/425__E__HENNEPIN__AVE_MINNEAPOLIS_MN_55414/,,Wells Fargo,Q744149
3357__UNIVERSITY__AVE__SE_MINNEAPOLIS_MN_55414,wellsfargo,,3357 UNIVERSITY AVE SE,MINNEAPOLIS,MN,,US,+1 800-869-3557,https://www.wellsfargo.com/locator/bank/3357__UNIVERSITY__AVE__SE_MINNEAPOLIS_MN_55414/,,Wells Fargo,Q744149
25__UNIVERSITY__AVE__SE_MINNEAPOLIS_MN_55414,wellsfargo,,25 UNIVERSITY AVE SE,MINNEAPOLIS,MN,,US,+1 800-869-3557,https://www.wellsfargo.com/locator/bank/25__UNIVERSITY__AVE__SE_MINNEAPOLIS_MN_55414/,,Wells Fargo,Q744149
281,whitecastle,MPLS 29,,Minneapolis,MN,,US,+1 612-379-4935,https://www.whitecastle.com/locations/281,24/7,White Castle,Q1244034
