Ref,Spider,Name,Address,City,State,Zipcode,Country,Phone,Website,Hours,Brand,WikiData
gdps_vst-0651108,activ_fitness_ch,Activ Fitness,,Dübendorf,,,CH,+41 43 333 86 50,https://www.activfitness.ch/studios/activ-fitness-duebendorf/,,Activ Fitness,Q123747318
gdps_vst-0651124,activ_fitness_ch,Activ Fitness,,Dübendorf,,,CH,+41 44 545 12 10,https://www.activfitness.ch/studios/activ-fitness-stettbach/,,Activ Fitness,Q123747318
SWB-4,aldi_sud_ch,ALDI,"Im Schossacher 24, Dübendorf, 8600",Dübendorf,,,CH,+41 44 820 72 65,,Mo-Sa 07:30-20:00,ALDI,Q41171672
1579146347,bp,BP Tankstelle Dübendorf,,Dübendorf,,,CH,,,,BP,Q152057
strehlgasse-11-8600-duebendorf,denner_ch,Denner,,Dübendorf,,,CH,+41 58 999 13 80,https://www.denner.ch/de/filialen/denner-filiale-und-oeffnungszeiten/store/strehlgasse-11-8600-duebendorf/,Mo-Sa 07:30-20:00,Denner,Q379911
neuweg-4-8600-duebendorf,denner_ch,Denner,,Dübendorf,,,CH,+41 58 999 04 20,https://www.denner.ch/de/filialen/denner-filiale-und-oeffnungszeiten/store/neuweg-4-8600-duebendorf/,Mo-Sa 07:00-20:00,Denner,Q379911
wallisellenstrasse-17-8600-duebendorf,denner_ch,Denner,,Dübendorf,,,CH,+41 58 999 06 61,https://www.denner.ch/de/filialen/denner-filiale-und-oeffnungszeiten/store/wallisellenstrasse-17-8600-duebendorf/,Mo-Sa 08:00-20:00,Denner,Q379911
FordSU58200  CHE,ford,Emil Frey AG - Dübendorf,,Duebendorf,,,CH,+41 44 802 88 88,www.ford-duebendorf-emilfrey.ch,,Ford,Q44294
sharedmobility.ch:carvelo2go:1ca43100-6508-494f-e967-56cb23cb5da9,gbfs,Feins Bio Dübendorf,,,,,CH,,https://www.sharedmobility.ch/info,,sharedmobility.ch,
sharedmobility.ch:carvelo2go:39950ab2-1120-4be8-afb6-7c1c9c216243,gbfs,Stettbacher Café,,,,,CH,,https://www.sharedmobility.ch/info,,sharedmobility.ch,
sharedmobility.ch:carvelo2go:3cf28949-c174-4353-8974-b2874e50f639,gbfs,ZwiBack Bistro,,,,,CH,,https://www.sharedmobility.ch/info,,sharedmobility.ch,
publibike:905a8b58-34e9-4fd4-a004-1c233dbe2920,gbfs,Oberdorf,,,,,CH,,https://www.publibike.ch,,PubliBike,
publibike:08833752-92d0-4a1b-99d6-7a26003ee08f,gbfs,Flugplatz Dübendorf,,,,,CH,,https://www.publibike.ch,,PubliBike,
publibike:5f6e9a45-c170-4ebc-8a70-91696ceb6155,gbfs,Stadthaus Dübendorf,,,,,CH,,https://www.publibike.ch,,PubliBike,
publibike:83c484f5-a13c-4b0f-969e-8f0c585ba2c6,gbfs,Bahnhof Dübendorf,,,,,CH,,https://www.publibike.ch,,PubliBike,
publibike:54b28f07-8df9-44de-95e5-1d4c8860fbac,gbfs,Sonnental,,,,,CH,,https://www.publibike.ch,,PubliBike,
publibike:3bdd49d4-3441-47ac-96ce-bdad213b84cf,gbfs,Eawag,,,,,CH,,https://www.publibike.ch,,PubliBike,
112,lidl_ch,Lidl,,Dübendorf,,,CH,,,Mo-We 07:30-20:00; Th 07:30-21:00; Fr-Sa 07:30-20:00,Lidl,Q151954
0150082_1170_pickmup_smvmpmubox,migros_ch,PickMup Box,,Dübendorf,,,CH,+41 58 543 95 30,https://filialen.migros.ch/de/box-m-duebendorf-stettbach-duebendorf-stettbach,Mo-Sa 07:00-20:00,PickMup Box,Q115679275
0150082_super,migros_ch,Migros,,Dübendorf,,,CH,+41 58 563 95 30,https://filialen.migros.ch/de/migros-supermarkt-duebendorf-stettbach,Mo-Sa 07:00-20:00,Migros,Q115661152
4797230_mno,migros_ch,Migrolino,,Dübendorf,,,CH,+41 61 512 17 17,https://filialen.migros.ch/de/migrolino-duebendorf-zur-schmiede,Mo-Fr 06:00-22:00; Sa 07:00-22:00,Migrolino,Q56745088
4797044_mno,migros_ch,Migrolino,,Dübendorf,,,CH,+41 44 820 31 20,https://filialen.migros.ch/de/migrolino-duebendorf-sonnental,Mo-Su 06:00-22:00,Migrolino,Q56745088
4797359_mno,migros_ch,Migrolino,,Dübendorf,,,CH,+41 44 821 34 72,https://filialen.migros.ch/de/migrolino-duebendorf-im-giessen,Mo-Fr 05:30-24:00; Sa-Su 06:00-24:00,Migrolino,Q56745088
0150424_mica,migros_ch,Micasa,,Dübendorf,,,CH,+41 44 824 10 50,https://filialen.migros.ch/de/micasa-duebendorf-hochbord-nord,Mo-Fr 09:00-20:00; Sa 09:00-18:00,Micasa,Q1926676
0150148_super,migros_ch,Migros,,Dübendorf,,,CH,+41 44 820 43 01,https://filialen.migros.ch/de/migros-supermarkt-duebendorf-hochbord-nord,Mo-Fr 09:00-20:00; Sa 09:00-18:00,Migros,Q115661152
4797229_mno,migros_ch,Migrolino,,Dübendorf,,,CH,+41 61 512 17 02,https://filialen.migros.ch/de/migrolino-duebendorf-buehlwiesen,Mo-Fr 05:30-23:00; Sa-Su 07:00-23:00,Migrolino,Q56745088
4797313_mno,migros_ch,Migrolino,,Dübendorf,,,CH,+41 58 563 33 00,https://filialen.migros.ch/de/migrolino-duebendorf,Mo-Sa 06:00-22:00; Su 07:00-22:00,Migrolino,Q56745088
0150054_1293_pickmup_247pmubox,migros_ch,PickMup Box,,Dübendorf,,,CH,+41 58 543 96 40,https://filialen.migros.ch/de/24-7-box-m-duebendorf-duebendorf,24/7,PickMup Box,Q115679275
0150054_super,migros_ch,Migros,,Dübendorf,,,CH,+41 58 543 96 40,https://filialen.migros.ch/de/migros-supermarkt-duebendorf,Mo-Sa 08:00-20:00,Migros,Q115661152
0150054_flori,migros_ch,Florissimo,,Dübendorf,,,CH,+41 58 543 96 40,https://filialen.migros.ch/de/florissimo-duebendorf,Mo-Sa 08:00-20:00,Florissimo,Q115659418
74344242,moneygram,ASFIMED - DUBENDORF,,DUBENDORF,,,CH,+41 43 321 27 27,,Mo-Sa 08:30-17:30; Su 00:00-24:00,MoneyGram,Q1944412
2840,valora,Avec,,Dübendorf,,,CH,,,,Avec,Q103863974
95,valora,k kiosk,,Dübendorf,,,CH,,,,k kiosk,Q60381703
89,valora,k kiosk,,Dübendorf,,,CH,,,,k kiosk,Q60381703
,visa,,,DUEBENDORF,,,CH,,,,,
,visa,,,DUEBENDORF,,,CH,,,,,
,visa,,,DUEBENDORF,,,CH,,,,,
,visa,,,DUBENDORF,,,CH,,,,,
