Ref,Spider,Name,Address,City,State,Zipcode,Country,Phone,Website,Hours,Brand,WikiData
https://stores.advanceautoparts.com/md/hampstead/2320-hanover-pike,advance_auto_parts_us,Advance Auto Parts,,Hampstead,MD,,US,+1 410-374-5052,https://stores.advanceautoparts.com/md/hampstead/2320-hanover-pike,Mo-Sa 07:30-21:00; Su 09:00-20:00,Advance Auto Parts,Q4686051
4677,autozone_us,AutoZone Auto Parts Hampstead,,Hampstead,MD,,US,+1 443-507-9020,https://www.autozone.com/locations/md/hampstead/2215-hanover-pike.html,Mo-Sa 08:00-20:00; Su 09:00-19:00,AutoZone,Q4826087
45103,bluerhino,Walmart #2850,,Hampstead,MD,,US,+1 410-374-5344,,,Blue Rhino,Q65681213
185327,bluerhino,Weis #128,,Hampstead,MD,,US,+1 410-374-1745,,,Blue Rhino,Q65681213
53183,bluerhino,A-Town Inc.,,Hampstead,MD,,US,+1 410-374-3314,,,Blue Rhino,Q65681213
23534,coldstone_creamery,Cold Stone Creamery,,Hampstead,MD,,US,+1 410-374-3303,https://www.coldstonecreamery.com/stores/23534,,Cold Stone Creamery,Q1094923
4220,cvs_us,CVS Pharmacy,,Hampstead,MD,,US,+1 410-239-3750,https://www.cvs.com/store-locator/hampstead-md-pharmacies/2311-hanover-pike-hampstead-md-21074/storeid=4220,Mo-Sa 08:00-22:00; Su 08:00-21:00,CVS Pharmacy,Q2078880
6080,dominos_pizza_us,Domino's Pizza,,Hampstead,MD,,US,+1 410-374-1600,https://pizza.dominos.com/maryland/hampstead/2275-hanover-pike,Mo-Th 10:30-23:00; Fr-Sa 10:30-24:00; Su 10:30-23:00,Domino's,Q839466
336356,dunkin_us,Dunkin',,Hampstead,MD,,US,+1 410-374-1425,https://locations.dunkindonuts.com/en/md/hampstead/822-south-main-st/336356,Mo-Sa 04:00-19:00; Su 05:00-18:00,Dunkin',Q847743
343700,dunkin_us,Dunkin',,Hampstead,MD,,US,+1 410-374-3175,https://locations.dunkindonuts.com/en/md/hampstead/2320-n-hanover-pike/343700,Mo-Sa 06:00-18:30; Su 06:30-18:00,Dunkin',Q847743
https://www.edwardjones.com/us-en/financial-advisor/matt-colender,edwardjones,Matt Colender,,Hampstead,MD,,US,+1 443-508-5002,https://www.edwardjones.com/us-en/financial-advisor/matt-colender,Mo-Fr 08:30-17:00,Edward Jones,Q5343830
19376,h_r_block,H&R Block,,Hampstead,MD,,US,+1 410-374-6060,https://www.hrblock.com/local-tax-offices/maryland/hampstead/roberts-field-shopping-center/19376/,,H&R Block,Q5627799
https://office.jacksonhewitt.com/#27579015,jackson_hewitt,Jackson Hewitt,,Hampstead,MD,,US,+1 410-374-9440,https://office.jacksonhewitt.com/tax-preparation-services-locations/en/md/hampstead/1150-south-main-street/11458,Mo-Fr 09:00-21:00; Sa 09:00-17:00; Su 13:00-16:00,Jackson Hewitt,Q6117132
https://locations.kfc.com/#11248772,kfc,Chicken Nuggets Near Hampstead,,Hampstead,MD,,US,,https://locations.kfc.com/md/hampstead/2309-hanover-pike/chickennugget,Mo-Su 11:00-20:00,KFC,Q524757
159856,marathon_petroleum_us,Hampstead Marathon,,Hampstead,MD,,US,+1 443-962-4354,,,Marathon,Q458363
17301,mattress_firm_us,Mattress Firm Hampstead,,Hampstead,MD,,US,+1 410-374-8665,https://www.mattressfirm.com/en-us/stores/md/hampstead/152018/,,Mattress Firm,Q6791878
https://locations.mtb.com/#25083138,mt_bank_us,M&T Bank,,,MD,,US,+1 443-507-5800,https://locations.mtb.com/md/hampstead/bank-branches-and-atms-hampstead-md-6209.html,Mo-Th 09:00-17:00; Fr 09:00-18:00; Sa 09:00-12:00,M&T Bank,Q3272257
https://locations.papajohns.com/#10691666,papa_johns,Papa John's,,Hampstead,MD,,US,+1 410-374-1666,https://locations.papajohns.com/united-states/md/21074/hampstead/2319-b-hanover-pike,Mo-Th 10:30-22:00; Fr-Sa 10:30-23:00; Su 11:00-22:00,Papa John's Pizza,Q2759586
704331,penske,Green&#39;S Garage,,HAMPSTEAD,MD,,US,+1 410-229-0070,https://www.pensketruckrental.com/locations/us/maryland/hampstead/704331/,,Penske,Q81234570
md_hampstead_761-hanover-pike,pizza_hut_us,761 Hanover Pike,,Hampstead,MD,,US,+1 410-239-7771,https://locations.pizzahut.com/md/hampstead/761-hanover-pike,,Pizza Hut,Q191615
81396,ritasitalianice,Ritaâ€™s of Hampstead MD,,Hampstead,MD,,US,+1 443-639-2534,https://www.ritasice.com/location/ritas-of-hampstead-md/,,Rita's Italian Ice,Q7336456
32785,seven_eleven_ca_us,7-Eleven Store,,Hampstead,MD,,US,+1 410-239-0822,https://www.7-eleven.com/locations/md/hampstead/125-hanover-pike-32785,,7-Eleven,Q259340
2412,shellrecharge,BGE-N Carroll Branch Library,,Hampstead,MD,,US,,,,Shell Recharge,Q105883058
2746,shellrecharge,BGE - Hampstead,,Hampstead,MD,,US,,,,Shell Recharge,Q105883058
https://restaurants.subway.com/#14901304,subway,Subway,,Hampstead Carroll,MD,,US,+1 443-508-2515,https://restaurants.subway.com/united-states/md/hampstead/2275-hanover-pike,Mo-Th 08:30-21:30; Fr-Sa 08:30-22:00; Su 08:30-20:00,Subway,Q244457
https://restaurants.subway.com/#14898770,subway,Subway Jiffy Mart,,Hampstead Carroll,MD,,US,+1 410-876-0790,https://restaurants.subway.com/united-states/md/hampstead/1155-s-main-st,Mo-Fr 06:00-22:00; Sa 07:00-22:00; Su 08:00-22:00,Subway,Q244457
https://locations.tacobell.com/#23029685,taco_bell,Taco Bell,,Hampstead,MD,,US,+1 410-374-8653,https://locations.tacobell.com/md/hampstead/2309-hanover-pike.html,Mo-Th 10:30-22:00; Fr-Sa 10:30-23:00; Su 10:30-22:00,Taco Bell,Q752941
361G,tmobile_us,North Carroll Plaza,,Hampstead,MD,,US,+1 443-639-8547,https://www.t-mobile.com/store-locator/md/hampstead/north-carroll-plaza,,T-Mobile,Q3511885
6471,true_value_us,Carroll County True Value,,Hampstead,MD,,US,+1 410-374-4876,http://www.truevalue.com/carrollcounty,,True Value,Q7847545
1366092,usps,HAMPSTEAD,,HAMPSTEAD,MD,,US,+1 410-374-3035,,Mo-Fr 08:30-17:00; Sa 08:30-12:00,United States Postal Service,Q668687
2107400005,usps_collection_boxes,USPS COLLECTION BOX - BLUE BOX,721 HANOVER PIKE,HAMPSTEAD,MD,,US,,,,United States Postal Service,Q668687
2107400001,usps_collection_boxes,USPS COLLECTION BOX - BLUE BOX,4229 NORTH WOODS TRAIL,HAMPSTEAD,MD,,US,,,,United States Postal Service,Q668687
2107400007,usps_collection_boxes,USPS COLLECTION BOX - PO LOBBY,4229 NORTH WOODS TRAIL,HAMPSTEAD,MD,,US,,,,United States Postal Service,Q668687
2107400003,usps_collection_boxes,USPS COLLECTION BOX - BLUE BOX,4111 LOWER BECKLEYSVILLE RD,HAMPSTEAD,MD,,US,,,,United States Postal Service,Q668687
2107400002,usps_collection_boxes,USPS COLLECTION BOX - BLUE BOX,1200 N MAIN ST,HAMPSTEAD,MD,,US,,,,United States Postal Service,Q668687
2107400011,usps_collection_boxes,USPS COLLECTION BOX - PO LOBBY,4005 HOUCK AVE,HAMPSTEAD,MD,,US,,,,United States Postal Service,Q668687
2107400004,usps_collection_boxes,USPS COLLECTION BOX - BLUE BOX,2328 HANOVER PIKE,HAMPSTEAD,MD,,US,,,,United States Postal Service,Q668687
A00000236585,verizon_us,Wireless Zone Hampstead,,Hampstead,MD,,US,+1 410-374-5930,https://www.verizon.com/stores/details/maryland/hampstead/tcc-hampstead-1567822/,Mo-Sa 10:00-20:00; Su 10:00-18:00,Verizon,Q919641
,visa,,,HAMPSTEAD,MD,,US,,,,,
,visa,,,HAMPSTEAD,MD,,US,,,,,
,visa,,,HAMPSTEAD,MD,,US,,,,,
,visa,,,HAMPSTEAD,MD,,US,,,,,
,visa,,,HAMPSTEAD,MD,,US,,,,,
,visa,,,HAMPSTEAD,MD,,US,,,,,
,visa,,,HAMPSTEAD,MD,,US,,,,,
,visa,,,HAMPSTEAD,MD,,US,,,,,
,visa,,,HAMPSTEAD,MD,,US,,,,,
,visa,,,HAMPSTEAD,MD,,US,,,,,
,visa,,,HAMPSTEAD,MD,,US,,,,,
,visa,,,HAMPSTEAD,MD,,US,,,,,
,visa,,,HAMPSTEAD,MD,,US,,,,,
,visa,,,HAMPSTEAD,MD,,US,,,,,
,visa,,,HAMPSTEAD,MD,,US,,,,,
,visa,,,HAMPSTEAD,MD,,US,,,,,
,visa,,,HAMPSTEAD,MD,,US,,,,,
,visa,,,HAMPSTEAD,MD,,US,,,,,
,visa,,,HAMPSTEAD,MD,,US,,,,,
,visa,,,HAMPSTEAD,MD,,US,,,,,
,visa,,,HAMPSTEAD,MD,,US,,,,,
https://locations.wendys.com/#9252793,wendys,"Wendy's Hampstead in Hampstead, MD",,Hampstead,MD,,US,+1 410-374-1638,https://locations.wendys.com/united-states/md/hampstead/4224-north-woods-trl,"Mo-Su 06:30-10:30,07:00-22:00",Wendy's,Q550258
a1e4a0636393499ed1ccb9685bc1ae4e,western_union,7-ELEVEN #32785,,Hampstead,MD,,US,+1 410-239-0822,https://location.westernunion.com/us/md/hampstead/a1e4a0636393499ed1ccb9685bc1ae4e,,Western Union,Q861042
b0021435c8f4cad080db6c3c68285e50,western_union,WEIS #139,,Hampstead,MD,,US,+1 410-374-1440,https://location.westernunion.com/us/md/hampstead/b0021435c8f4cad080db6c3c68285e50,Mo-Su 09:00-18:00,Western Union,Q861042
cb594090f7161ae56b484ddc302b4efc,western_union,WALMART #002850,,Hampstead,MD,,US,+1 410-374-5344,https://location.westernunion.com/us/md/hampstead/cb594090f7161ae56b484ddc302b4efc,Mo-Su 07:00-21:00,Western Union,Q861042
