Ref,Spider,Name,Address,City,State,Zipcode,Country,Phone,Website,Hours,Brand,WikiData
Ford58350INDen,ford,"Shree Sai Ford, Jabalpur",,Jabalpur,,,IN,+91 86575 10971,,,Ford,Q44294
67119633,moneygram,MANAPPURAM FINANCE - #2571 - JABALPUR,,JABALPUR,,,IN,8667612620781,,Mo-Sa 10:00-19:00; Su 10:00-16:00,MoneyGram,Q1944412
67498532,moneygram,THOMAS COOK INDIA LTD - #JABALPUR - JABA,,JABALPUR,,,IN,+91 761 400 3889,,Mo-Sa 09:30-18:30; Su 00:00-24:00,MoneyGram,Q1944412
73291914,moneygram,MUTHOOT FINANCE LTD - #4408 - JABALPUR -,,JABALPUR,,,IN,+91 761 404 6237,,Mo-Su 09:00-19:00,MoneyGram,Q1944412
73321237,moneygram,MUTHOOT FINCORP LIMITED - #F2238 - BALDE,,JABALPUR,,,IN,+91 76124 10092,,Mo-Sa 09:00-17:30; Su 00:00-24:00,MoneyGram,Q1944412
73398794,moneygram,PARTH ONLINE SERVICES,,JABALPUR,,,IN,+91 94243 21625,,Mo-Su 08:00-21:00,MoneyGram,Q1944412
73421412,moneygram,BYTE SHOPPE,,JABALPUR,,,IN,+91 98270 16690,,Mo-Su 08:00-21:00,MoneyGram,Q1944412
73537335,moneygram,PAUL MERCHANTS LIMITED,,JABALPUR,,,IN,+91 93177 14277,,Mo-Su 08:00-21:00,MoneyGram,Q1944412
73740902,moneygram,FCC COMPUTER,,JABALPUR,,,IN,+91 99816 99463,,Mo-Su 08:00-21:00,MoneyGram,Q1944412
73747633,moneygram,JABALPUR TOURS AND TRAVELS,,JABALPUR,,,IN,+91 91315 79950,,Mo-Su 08:00-21:00,MoneyGram,Q1944412
73745693,moneygram,ROHITASH SALES,,JABALPUR,,,IN,+91 70894 78143,,Mo-Su 08:00-21:00,MoneyGram,Q1944412
72968905,moneygram,PAVAN GUPTA,,JABALPUR,,,IN,+91 94246 24879,,Mo-Su 08:00-21:00,MoneyGram,Q1944412
72967757,moneygram,UMESH E SERVICES,,JABALPUR,,,IN,+91 94078 85500,,Mo-Su 08:00-21:00,MoneyGram,Q1944412
74045868,moneygram,A2 TOURS AND TRAVELS,,JABALPUR,,,IN,+91 99886 64498,,Mo-Su 08:00-21:00,MoneyGram,Q1944412
74175343,moneygram,ESAF SMALL FINANCE BANK LIMITED - JABALP,,JABALPUR,,,IN,+91 87146 06853,,Mo-Sa 09:30-17:30; Su 00:00-24:00,MoneyGram,Q1944412
74945858,moneygram,KAMNA CYBER JUNCTION,,JABALPUR,,,IN,+91 94078 23211,,Mo-Su 05:00-23:00,MoneyGram,Q1944412
66575252,moneygram,MANAPPURAM FINANCE - #1534,,JABALPUR,,,IN,+91 761 326 4878,,Mo-Sa 10:00-19:00; Su 10:00-16:00,MoneyGram,Q1944412
66871024,moneygram,MANAPPURAM FINANCE - #2229 - JABALPUR,,JABALPUR,,,IN,+91 76126 20678,,Mo-Sa 10:00-19:00; Su 10:00-16:00,MoneyGram,Q1944412
66941417,moneygram,MANAPPURAM FINANCE - #2229 - JABALPUR,,JABALPUR,,,IN,+91 76126 20678,,Mo-Sa 10:00-19:00; Su 10:00-16:00,MoneyGram,Q1944412
,visa,,,JABALPUR,,,IN,,,,,
,visa,,,JABALPUR,,,IN,,,,,
,visa,,,MADHYA PRADESH,,,IN,,,,,
,visa,,,JABALPUR,,,IN,,,,,
