Ref,Spider,Name,Address,City,State,Zipcode,Country,Phone,Website,Hours,Brand,WikiData
213,america_today,Bruxelles Woluwe (AT & AT Junior),,Bruxelles,,,BE,+32 2 771 26 36,,Mo-Th 10:00-19:00; Fr 10:00-20:00; Sa 10:00-19:00,America Today,Q97011125
2020,carrefour_be,Carrefour express Metro Roodebeek,,Woluwe St Lambert,,,BE,,https://winkels.carrefour.be/nl/s/carrefour/carrefour-express-metro-roodebeek/2020,Mo-Th 07:00-20:00; Fr-Sa 08:00-20:00; Su 07:00-20:00,Carrefour Express,Q2940190
31,carrefour_be,Carrefour express WOLUWE SAINT,,Bruxelles-Brussel,,,BE,,https://winkels.carrefour.be/nl/s/carrefour/carrefour-express-woluwe-saint/31,Mo-Fr 08:00-20:00; Sa 09:00-13:00; Su 08:00-20:00,Carrefour Express,Q2940190
121,carrefour_be,Carrefour market TOMBERG (WOLUWE),,Tomberg (Woluwé St L,,,BE,,https://winkels.carrefour.be/nl/s/carrefour/carrefour-market-tomberg-woluwe/121,Mo-Fr 08:30-20:00; Su 08:30-20:00,Carrefour Market,Q2689639
1386,carrefour_be,Carrefour express GEORGES HENRI,,WOLUWE ST LAMBERT,,,BE,,https://winkels.carrefour.be/nl/s/carrefour/carrefour-express-georges-henri/1386,Mo-We 07:00-20:00; Th-Fr 08:00-20:00; Su 07:00-20:00,Carrefour Express,Q2940190
1473,carrefour_be,Carrefour express ST LUC,,Woluwé St Lambert,,,BE,,https://winkels.carrefour.be/nl/s/carrefour/carrefour-express-st-luc/1473,Mo-Th 07:00-20:00; Fr-Sa 09:00-18:00; Su 07:00-20:00,Carrefour Express,Q2940190
19,carrefour_be,Carrefour express STOCKEL,,BRUXELLES,,,BE,,https://winkels.carrefour.be/nl/s/carrefour/carrefour-express-stockel/19,Mo-We 07:00-20:00; Th-Fr 08:00-20:00; Su 07:00-20:00,Carrefour Express,Q2940190
6,cora,Cora Woluwe,,Woluwe,,,BE,+32 2 778 18 11,https://www.cora.be/fr/6,Mo-Th 08:30-20:00; Fr 08:30-21:00; Sa 08:30-20:00,Cora,Q686643
BE0293,c_and_a,Woluwe,"Woluwedal 70/ bus18, 1200 Woluwe",Woluwe,,,BE,,https://www.c-and-a.com/stores/be-nl/vlaams-brabant/woluwe/woluwedal-70--bus18.html,Mo 10:00-19:00; Tu 10:00-19:00; We 10:00-19:00; Th 10:00-19:00; Fr 10:00-20:00; Sa 10:00-19:00,C&A,Q701338
3803,dats24_be,DATS 24 WOLUWE-SAINT-LAMBERT,146 RUE VERVLOESEM WOLUWE-ST-LAMBERT 1200,WOLUWE-ST-LAMBERT,,,BE,,,,DATS 24,Q15725576
http://stores.delhaize.be/fr/delhaize-roodebeek,delhaize_be,Delhaize Roodebeek,,Woluwe-Saint-Lambert,,,BE,+32 2 779 56 03,http://stores.delhaize.be/fr/delhaize-roodebeek,Mo-Th 08:00-20:00; Fr 08:00-21:00; Sa 08:00-20:00,Delhaize,Q1184173
http://stores.delhaize.be/fr/proxy-delhaize-stockel,delhaize_be,Proxy Delhaize Stockel,,Woluwe-Saint-Lambert,,,BE,+32 2 771 32 02,http://stores.delhaize.be/fr/proxy-delhaize-stockel,Mo-Tu 07:00-20:00; Th-Fr 07:00-20:00; Sa-Su 08:00-20:00,Delhaize,Q1184173
http://stores.delhaize.be/fr/proxy-delhaize-roi-chevalier,delhaize_be,Proxy Delhaize Roi Chevalier,,Woluwe-Saint-Lambert,,,BE,+32 2 779 55 42,http://stores.delhaize.be/fr/proxy-delhaize-roi-chevalier,Mo-We 08:00-20:00; Fr-Su 08:00-20:00,Delhaize,Q1184173
http://stores.delhaize.be/fr/shop-and-go-delhaize-metro-montgomery,delhaize_be,Shop & Go Delhaize Metro Montgomery,,Woluwe-Saint-Pierre,,,BE,+32 2 771 02 69,http://stores.delhaize.be/fr/shop-and-go-delhaize-metro-montgomery,Mo-Sa 06:00-22:00; Su 07:00-22:00,Delhaize,Q1184173
http://stores.delhaize.be/fr/proxy-delhaize-woluwe,delhaize_be,Proxy Delhaize Woluwe,,Woluwe-Saint-Lambert,,,BE,+32 2 771 17 61,http://stores.delhaize.be/fr/proxy-delhaize-woluwe,Mo 12:00-20:00; Tu-Sa 08:00-20:00; Su 08:00-19:00,Delhaize,Q1184173
http://stores.delhaize.be/fr/proxy-delhaize-marcel-thiry,delhaize_be,Proxy Delhaize Marcel Thiry,,Woluwé-Saint-Lambert,,,BE,+32 2 511 19 77,http://stores.delhaize.be/fr/proxy-delhaize-marcel-thiry,Mo-Su 07:30-20:00,Delhaize,Q1184173
http://stores.delhaize.be/fr/proxy-delhaize-linthout,delhaize_be,Proxy Delhaize Linthout,,Woluwe-Saint-Lambert,,,BE,+32 2 735 06 90,http://stores.delhaize.be/fr/proxy-delhaize-linthout,Mo-We 08:00-20:00; Fr-Sa 08:00-20:00; Su 08:30-20:00,Delhaize,Q1184173
1995353,di,Di Saint Luc,"10, Avenue Hippocrate, WOLUWE ST LAMBERT, 1200",WOLUWE ST LAMBERT,,,BE,+32 2 772 45 55,https://www.di.be/fr/di-saint-luc.html,,Di,
1995063,di,Di Woluwe Shopping,"202, Rue St Lambert, BRUXELLES, 1200",BRUXELLES,,,BE,+32 2 772 84 89,https://www.di.be/fr/di-woluwe-shopping.html,,Di,
1994733,di,Di Georges Henri,"194-196, Avenue Georges Henri, WOLUWE ST-LAMBERT, 1200",WOLUWE ST-LAMBERT,,,BE,+32 2 770 90 26,https://www.di.be/fr/di-georges-henri.html,,Di,
31166,dominos_pizza_be,Domino's Pizza Brussel Woluwe,,Woluwe,,,BE,,https://www.dominos.be/nl/winkel/be-brusselwoluwe-31166,,Domino's,Q839466
100361799,exxonmobil,Esso Woluwe-Saint-Lambert,,WOLUWE-ST-LAMBERT,,,BE,+32 15 61 15 11,https://www.esso.be/nl-be/find-station/esso-woluwe-st-lambert-essowoluwesaintlambert-100361799,Mo-Fr 07:00-19:00; Sa 08:00-13:00,Esso,Q867662
BE060,longchamp,Inno Woluwe,,WOLUWE-SAINT-LAMBERT,,,BE,+32 473 13 11 68,,,Longchamp,Q1869471
BE017,longchamp,Gilance,,BRUXELLES,,,BE,+32 2 781 19 07,,,Longchamp,Q1869471
100,neuhaus,Neuhaus Saint-Luc,,Brussels,,,BE,+32 2 734 45 00,https://www.neuhauschocolates.com/en_US/stores/detail?store=100,Mo-Fr 09:30-18:00,Neuhaus,Q1813801
20,neuhaus,Neuhaus Woluwe Shopping ,,Brussels,,,BE,+32 2 763 13 89,https://www.neuhauschocolates.com/en_US/stores/detail?store=20,Mo-Th 10:00-19:00; Fr 10:00-20:00; Sa 10:00-19:00,Neuhaus,Q1813801
https://stores.petit-bateau.com/#9115807,petit_bateau,Petit Bateau Woluwe,,Bruxelles,,,BE,+32 2 771 76 02,https://stores.petit-bateau.com/belgium/bruxelles/boulevard-de-la-woluwe-70,Mo-Th 10:00-19:00; Fr 10:00-20:00; Sa 10:00-19:00,Petit Bateau,Q3377090
R382,pizza_hut_be,Delivery Woluwé,"Av. Georges-Henri 361, Woluwe St- Lambert, 1200",Woluwe St- Lambert,,,BE,+32 2 732 18 50,http://www.pizzahut.be/store/delivery-woluwe,Mo 11:30-22:30; Tu-Th 11:30-22:00; Fr-Sa 11:30-22:30; Su 11:30-22:00,Pizza Hut,Q191615
120,quick_be_lu,Kraainem,,Bruxelles,,,BE,+32 2 772 74 59,https://www.quick.be/fr/restaurant/kraainem,Mo-Su 11:00-00:00,Quick,Q286494
145,quick_be_lu,Woluwe Shopping Center,,Bruxelles,,,BE,+32 2 770 90 58,https://www.quick.be/fr/restaurant/woluwe-shopping-center,Mo-Sa 10:00-21:30; Su 11:00-21:30,Quick,Q286494
05600628_001-renault,renault,GARAGE TOBY,,BRUXELLES-BRUSSEL,,,BE,+32 2 734 49 27,,,Renault,Q6686
05600628_001-dacia,renault,GARAGE TOBY,,BRUXELLES-BRUSSEL,,,BE,+32 2 734 49 27,,,Dacia,Q27460
https://stores.superdry.com/#17290819,superdry,Superdry  Woluwe,,Brussel,,,BE,+32 2 771 89 62,https://stores.superdry.com/be/brussel/boulevard-de-la-woluwe-70/bte-61-woluwe-shopping-center,Mo-Th 10:00-19:00; Fr 10:00-20:00; Sa 10:00-19:00,Superdry,Q1684445
NB001153,totalenergies,WOLUWE-ST-LAMBERT TRANSAMAL SC,,WOLUWE-ST-LAMBERT,,,BE,+32 2 762 97 13,https://store.totalenergies.fr/en_EN/NB001153,Mo-Fr 07:30-19:00; Sa-Su 09:30-17:00,TotalEnergies,Q154037
NB010216,totalenergies,AVIA WOLUWE ST LAMBERT,,BRUXELLES,,,BE,,https://store.totalenergies.fr/en_EN/NB010216,,Avia,Q300147
NB010220,totalenergies,SHELL WOLUWE ST LAMBERT,,BRUXELLES,,,BE,,https://store.totalenergies.fr/en_EN/NB010220,,Shell,Q110716465
108,veritas_be,VERITAS - SHOPPING CENTER WOLUWE,"Woluwedal 70 bus 46, Bruxelles (Woluwe),  1200, Belgique",Bruxelles (Woluwe),,,BE,+32 2 770 76 76,https://www.veritas.be/fr_be/stores/veritas-shopping-center-woluwe,Tu-Fr 10:00-19:00; Sa 10:00-20:00; Su 10:00-19:00,Veritas,Q56239194
,visa,,,WOLUWE-SAINT-LAMBERT,,,BE,,,,,
,visa,,,WOLUWE-SAINT-LAMBERT,,,BE,,,,,
,visa,,,WOLUWE-SAINT-LAMBERT,,,BE,,,,,
