Ref,Spider,Name,Address,City,State,Zipcode,Country,Phone,Website,Hours,Brand,WikiData
4a3e5f86350c8940533da8338b1a24aa,western_union,IFIC BANK LIMITED,,Kushtia,KHULNA,,BD,+880 1779-359736,https://location.westernunion.com/bd/khulna/kushtia/4a3e5f86350c8940533da8338b1a24aa,Mo-Th 10:00-17:00; Su 10:00-17:00,Western Union,Q861042
68c194b01adbe03eeb0c7792178e0127,western_union,ISLAMI BANK BANGLADESH LIMITED,,Khulna,KHULNA,,BD,+880 1729-039265,https://location.westernunion.com/bd/khulna/khulna/68c194b01adbe03eeb0c7792178e0127,Mo-Th 10:00-18:00; Sa-Su 10:00-18:00,Western Union,Q861042
93af901a6e20133287ac6a07fffc751f,western_union,FIRST SECURITY ISLAMI BANK LTD,,Narail,KHULNA,,BD,+880 1708-160269,https://location.westernunion.com/bd/khulna/narail/93af901a6e20133287ac6a07fffc751f,Mo-Th 10:00-17:00; Sa-Su 10:00-17:00,Western Union,Q861042
aa587e9f8031a4d99e60fd0906b03f16,western_union,IFIC BANK LIMITED,,Kushtia,KHULNA,,BD,+880 1774-290158,https://location.westernunion.com/bd/khulna/kushtia/aa587e9f8031a4d99e60fd0906b03f16,Mo-Th 10:00-17:00; Su 10:00-17:00,Western Union,Q861042
3dc50939a36ccdb3eb06a8a70eab11de,western_union,A R ENTERPRISE,,Meherpur,KHULNA,,BD,+880 1711-473677,https://location.westernunion.com/bd/khulna/meherpur/3dc50939a36ccdb3eb06a8a70eab11de,Mo-Su 08:00-21:00,Western Union,Q861042
090f43ab39fb36ac564b5ce34748fe5b,western_union,DUTCH BANGLA BANK LTD,,Kushtia,KHULNA,,BD,+880 1715-351222,https://location.westernunion.com/bd/khulna/kushtia/090f43ab39fb36ac564b5ce34748fe5b,Mo-Th 09:30-17:30; Fr-Sa 09:30-14:30; Su 09:30-17:30,Western Union,Q861042
644f2cec14c8b55eb54674efabc2dff8,western_union,SATBARIA AGENT BANKING OUTLET,,Kushtia,KHULNA,,BD,+880 1931-240152,https://location.westernunion.com/bd/khulna/kushtia/644f2cec14c8b55eb54674efabc2dff8,Mo-Su 08:00-21:00,Western Union,Q861042
29cec7f7394e07fc7a4d64e889422dd6,western_union,ROKOMARY STORE,,Kushtia,KHULNA,,BD,+880 1710-242012,https://location.westernunion.com/bd/khulna/kushtia/29cec7f7394e07fc7a4d64e889422dd6,Mo-Th 09:30-17:30; Fr-Sa 09:30-14:30; Su 09:30-17:30,Western Union,Q861042
2350aee5563833bcdb9aa98ba9f0c865,western_union,BABU ENTERPRISE,,Meherpur,KHULNA,,BD,+880 1716-240688,https://location.westernunion.com/bd/khulna/meherpur/2350aee5563833bcdb9aa98ba9f0c865,Mo-Su 08:00-21:00,Western Union,Q861042
66950c919470c91ba403dc14c96a58cf,western_union,ISLAMI BANK BANGLADESHN LIMITED,,Kushtia,KHULNA,,BD,+880 1713-340095,https://location.westernunion.com/bd/khulna/kushtia/66950c919470c91ba403dc14c96a58cf,Mo-Th 10:00-18:00; Sa-Su 10:00-18:00,Western Union,Q861042
af5edbadf400a8fe297dad68837a9672,western_union,MODHUMOTI BANK LIMITED,,Kustia,KHULNA,,BD,+880 1912-756583,https://location.westernunion.com/bd/khulna/kustia/af5edbadf400a8fe297dad68837a9672,Mo-Th 10:00-17:00; Fr 09:30-15:00; Sa 09:30-17:00; Su 10:00-17:00,Western Union,Q861042
7774a85e95a90f2d77808e8b14ea838e,western_union,BANGLADESH KRISHI BANK,,Meherpur,KHULNA,,BD,+880 1712-725280,https://location.westernunion.com/bd/khulna/meherpur/7774a85e95a90f2d77808e8b14ea838e,Mo-Su 09:00-17:00,Western Union,Q861042
f940b9f37cd09cf67e44150427d6becf,western_union,ASA,,Meherpur,KHULNA,,BD,+880 1730-065486,https://location.westernunion.com/bd/khulna/meherpur/f940b9f37cd09cf67e44150427d6becf,Mo-Th 08:00-19:00; Sa-Su 08:00-19:00,Western Union,Q861042
3635a4fe9291462d5ea944f900b8eae7,western_union,ISLAMI BANK BANGLADESHN LIMITED,,Meherpur,KHULNA,,BD,+880 1714-082126,https://location.westernunion.com/bd/khulna/meherpur/3635a4fe9291462d5ea944f900b8eae7,Mo-Th 10:00-18:00; Sa-Su 10:00-18:00,Western Union,Q861042
b0dda94095477dfab9596347b4a0201f,western_union,ASA,,Meherpur,KHULNA,,BD,+880 1730-093196,https://location.westernunion.com/bd/khulna/meherpur/b0dda94095477dfab9596347b4a0201f,Mo-Th 08:00-19:00; Sa-Su 08:00-19:00,Western Union,Q861042
5adbac26b47aff12b3b236cf67f822a7,western_union,IFIC BANK LIMITED,,Meherpur,Khulna,,BD,+880 1315-927414,https://location.westernunion.com/bd/khulna/meherpur/5adbac26b47aff12b3b236cf67f822a7,Mo-Th 10:00-17:00; Su 10:00-17:00,Western Union,Q861042
3b6b97f728625c544e0a3d12a9efb705,western_union,IFIC BANK LIMITED,,Meherpur,KHULNA,,BD,+880 1759-567740,https://location.westernunion.com/bd/khulna/meherpur/3b6b97f728625c544e0a3d12a9efb705,Mo-Th 10:00-17:00; Su 10:00-17:00,Western Union,Q861042
e9e76e2e188fb40fed76d85e2e4e29e7,western_union,M S SHAKIL ENTERPRISE,,Meherpur,KHULNA,,BD,+880 1911-087871,https://location.westernunion.com/bd/khulna/meherpur/e9e76e2e188fb40fed76d85e2e4e29e7,Mo-Th 09:30-17:30; Fr-Sa 09:30-14:30; Su 09:30-17:30,Western Union,Q861042
287f5a708ccee0b014c26add76b9f578,western_union,DUTCH BANGLA BANK LTD,,Meherpur,KHULNA,,BD,+880 1847-415224,https://location.westernunion.com/bd/khulna/meherpur/287f5a708ccee0b014c26add76b9f578,Mo-Th 09:30-17:00; Su 09:30-17:00,Western Union,Q861042
bed08cf99b3a96fc62e4f89ac1ac988f,western_union,AYAN ENTERPRISE,,Kushtia,KHULNA,,BD,+880 1736-668668,https://location.westernunion.com/bd/khulna/kushtia/bed08cf99b3a96fc62e4f89ac1ac988f,Mo-Th 09:30-17:30; Fr-Sa 09:30-14:30; Su 09:30-17:30,Western Union,Q861042
7fd6b2cf51621e2557f8312097eb8a83,western_union,IFIC BANK LIMITED,,Meherpur,KHULNA,,BD,+880 1918-293610,https://location.westernunion.com/bd/khulna/meherpur/7fd6b2cf51621e2557f8312097eb8a83,Mo-Th 10:00-17:00; Su 10:00-17:00,Western Union,Q861042
7757591de275f5df0fd52e33acc6df2c,western_union,BRAC BANK LIMITED,,Meherpur,KHULNA,,BD,+880 1711-312912,https://location.westernunion.com/bd/khulna/meherpur/7757591de275f5df0fd52e33acc6df2c,Mo-Su 08:00-21:00,Western Union,Q861042
1f4a229abdeb9115cebff3fe3a648bcd,western_union,IFIC BANK LIMITED,,Meherpur,KHULNA,,BD,+880 1731-254166,https://location.westernunion.com/bd/khulna/meherpur/1f4a229abdeb9115cebff3fe3a648bcd,Mo-Th 10:00-17:00; Su 10:00-17:00,Western Union,Q861042
032d08b4cbf3c7790dfb61ce1249efe6,western_union,IFIC BANK LIMITED,,Meherpur,KHULNA,,BD,+880 1759-567740,https://location.westernunion.com/bd/khulna/meherpur/032d08b4cbf3c7790dfb61ce1249efe6,Mo-Th 10:00-17:00; Su 10:00-17:00,Western Union,Q861042
ec97c4d6e78fd28cfab6a81d44881892,western_union,GLOBAL ENTERPRISE,,Kushtia,KHULNA,,BD,+880 1712-856488,https://location.westernunion.com/bd/khulna/kushtia/ec97c4d6e78fd28cfab6a81d44881892,Mo-Su 08:00-21:00,Western Union,Q861042
3718b6329b5e41aa4a17c16bdd5ed1d4,western_union,AGRANI BANK LIMITED,,Meherpur,KHULNA,,BD,+880 1868-198966,https://location.westernunion.com/bd/khulna/meherpur/3718b6329b5e41aa4a17c16bdd5ed1d4,Mo-Th 10:00-16:30; Fr 09:30-15:00; Sa 09:30-17:00; Su 10:00-16:30,Western Union,Q861042
c1e7c8d32322741a2394d37d70169432,western_union,M S NIJABOT TRADERS,,Meherpur,KHULNA,,BD,+880 1712-261811,https://location.westernunion.com/bd/khulna/meherpur/c1e7c8d32322741a2394d37d70169432,Mo-Su 08:00-21:00,Western Union,Q861042
afcd99de5ab74a3fca6c3c7c94924ec2,western_union,SUMAYA TELECOM AND COSMETICS,,Meherpur,KHULNA,,BD,+880 1783-458080,https://location.westernunion.com/bd/khulna/meherpur/afcd99de5ab74a3fca6c3c7c94924ec2,Mo-Th 09:30-17:30; Fr-Sa 09:30-14:30; Su 09:30-17:30,Western Union,Q861042
5fadf31fd467a1626d3776776c6fcb07,western_union,ISLAMI BANK BANGLADESH LIMITED,,Kushtia,KHULNA,,BD,+880 1729-039315,https://location.westernunion.com/bd/khulna/kushtia/5fadf31fd467a1626d3776776c6fcb07,Mo-Th 10:00-18:00; Sa-Su 10:00-18:00,Western Union,Q861042
01e4055c5814499c73f655948b5865ae,western_union,KUSHTIA MIRPUR BAZAR UPOSHAKHA,,Kushtia,KHULNA,,BD,+880 1835-555111,https://location.westernunion.com/bd/khulna/kushtia/01e4055c5814499c73f655948b5865ae,Mo-Th 10:00-17:00; Su 10:00-17:00,Western Union,Q861042
fd744db5cf2016a8a9a79bc4113e9577,western_union,BISWAS TRADERS AND TELECOM,,Meherpur,KHULNA,,BD,+880 1731-787654,https://location.westernunion.com/bd/khulna/meherpur/fd744db5cf2016a8a9a79bc4113e9577,Mo-Th 09:30-17:30; Fr-Sa 09:30-14:30; Su 09:30-17:30,Western Union,Q861042
771b9c335651926d0fa23c67ec024e4a,western_union,SONALI BANK LIMITED,,Chuadanga,KHULNA,,BD,+880 1714-132965,https://location.westernunion.com/bd/khulna/chuadanga/771b9c335651926d0fa23c67ec024e4a,Mo-Th 10:00-16:00; Fr-Sa 09:00-16:00; Su 10:00-16:00,Western Union,Q861042
4c06a41919a43e298fc94114b8936e8e,western_union,M S MASTER TRADERS,,Kushtia,KHULNA,,BD,+880 1754-096777,https://location.westernunion.com/bd/khulna/kushtia/4c06a41919a43e298fc94114b8936e8e,Mo-Su 07:00-23:00,Western Union,Q861042
d72b7800ac4b464c595cdc34c36a0528,western_union,ISLAMI BANK BANGLADESHN LIMITED,,Kushtia,KHULNA,,BD,+880 1714-098450,https://location.westernunion.com/bd/khulna/kushtia/d72b7800ac4b464c595cdc34c36a0528,Mo-Th 10:00-18:00; Sa-Su 10:00-18:00,Western Union,Q861042
f0087a839de907b4f1ca367bdb1da783,western_union,IFIC BANK LIMITED,,Meherpur,Khulna,,BD,+880 1622-504470,https://location.westernunion.com/bd/khulna/meherpur/f0087a839de907b4f1ca367bdb1da783,Mo-Th 10:00-17:00; Su 10:00-17:00,Western Union,Q861042
9c8595482c11d797a8f177659b12c29c,western_union,IFIC BANK LIMITED,,Kushtia,KHULNA,,BD,+880 7162-550,https://location.westernunion.com/bd/khulna/kushtia/9c8595482c11d797a8f177659b12c29c,Mo-Th 10:00-17:00; Su 10:00-17:00,Western Union,Q861042
2b79614b437fb8d91d11e53be04bb4f9,western_union,IFIC BANK LIMITED,,Kushtia,KHULNA,,BD,+880 1730-709791,https://location.westernunion.com/bd/khulna/kushtia/2b79614b437fb8d91d11e53be04bb4f9,Mo-Th 10:00-17:00; Su 10:00-17:00,Western Union,Q861042
1a70d062f89e96cafb246c08c3931eb2,western_union,ISLAMI BANK BANGLADESHN LIMITED,,Kushtia,KHULNA,,BD,+880 1711-889916,https://location.westernunion.com/bd/khulna/kushtia/1a70d062f89e96cafb246c08c3931eb2,Mo-Th 10:00-18:00; Sa-Su 10:00-18:00,Western Union,Q861042
9e1892af9ebdea28b38a240f3efdfbcf,western_union,N S ENTERPRISE,,Chuadanga,KHULNA,,BD,+880 1714-907004,https://location.westernunion.com/bd/khulna/chuadanga/9e1892af9ebdea28b38a240f3efdfbcf,Mo-Su 08:00-21:00,Western Union,Q861042
b2e1d757099d1529839b6d38d293d513,western_union,IFIC BANK LIMITED,,Chuadanga,Khulna,,BD,+880 1923-296003,https://location.westernunion.com/bd/khulna/chuadanga/b2e1d757099d1529839b6d38d293d513,Mo-Th 10:00-17:00; Su 10:00-17:00,Western Union,Q861042
3c6861fa898b2842754d39a68d07af63,western_union,IFIC BANK LIMITED,,Kushtia,KHULNA,,BD,+880 1714-083642,https://location.westernunion.com/bd/khulna/kushtia/3c6861fa898b2842754d39a68d07af63,Mo-Th 10:00-17:00; Su 10:00-17:00,Western Union,Q861042
943a30da17fa42fa3e07f4fae7fb437e,western_union,AB BANK LIMITED,,Kushtia,KHULNA,,BD,+880 7161-980,https://location.westernunion.com/bd/khulna/kushtia/943a30da17fa42fa3e07f4fae7fb437e,Mo-Th 09:30-17:00; Su 09:30-17:00,Western Union,Q861042
1ac13c6a4dba6ffada8108bdc1531cd5,western_union,IFIC BANK LIMITED,,Kusthia,KHULNA,,BD,+880 1723-002321,https://location.westernunion.com/bd/khulna/kusthia/1ac13c6a4dba6ffada8108bdc1531cd5,Mo-Th 10:00-17:00; Su 10:00-17:00,Western Union,Q861042
b1d48ec8faffca45071842fb944c16f7,western_union,ASA,,Kustia,KHULNA,,BD,+880 1730-098571,https://location.westernunion.com/bd/khulna/kustia/b1d48ec8faffca45071842fb944c16f7,Mo-Th 08:00-19:00; Sa-Su 08:00-19:00,Western Union,Q861042
68030bc17aa7f5187907f63ecbf8047c,western_union,ASA,,Chuadanga,KHULNA,,BD,+880 1730-065402,https://location.westernunion.com/bd/khulna/chuadanga/68030bc17aa7f5187907f63ecbf8047c,Mo-Th 08:00-19:00; Sa-Su 08:00-19:00,Western Union,Q861042
b33f1fe228aac4e15ef809601804d293,western_union,IFIC BANK LIMITED,,Kushtia,KHULNA,,BD,+880 1920-444454,https://location.westernunion.com/bd/khulna/kushtia/b33f1fe228aac4e15ef809601804d293,Mo-Th 10:00-17:00; Su 10:00-17:00,Western Union,Q861042
200b754b238b6951a4e2b5f98d6bc6a7,western_union,BRAC BANK LTD,,Chuadanga,KHULNA,,BD,+880 1716-140373,https://location.westernunion.com/bd/khulna/chuadanga/200b754b238b6951a4e2b5f98d6bc6a7,Mo-Su 08:00-21:00,Western Union,Q861042
d5f869766e5c72783680d177cb3af89b,western_union,KAJAL TELECOM,,Kushtia,KHULNA,,BD,+880 1717-405677,https://location.westernunion.com/bd/khulna/kushtia/d5f869766e5c72783680d177cb3af89b,Mo-Th 09:30-17:30; Fr-Sa 09:30-14:30; Su 09:30-17:30,Western Union,Q861042
30001b0061bff6230af3609ba294cb5d,western_union,ISLAMI BANK BANGLADESHN LIMITED,,Chuadanga,KHULNA,,BD,+880 1998-707053,https://location.westernunion.com/bd/khulna/chuadanga/30001b0061bff6230af3609ba294cb5d,Mo-Th 10:00-18:00; Sa-Su 10:00-18:00,Western Union,Q861042
a6d9d3639a41334c175c7e07e1c91757,western_union,ASA,,Chuadanga,KHULNA,,BD,+880 1730-065403,https://location.westernunion.com/bd/khulna/chuadanga/a6d9d3639a41334c175c7e07e1c91757,Mo-Th 08:00-19:00; Sa-Su 08:00-19:00,Western Union,Q861042
cdfd2b8e69fc2bc891becdaa2b832992,western_union,NAIM TELECOM,,Kushtia,KHULNA,,BD,+880 1721-244660,https://location.westernunion.com/bd/khulna/kushtia/cdfd2b8e69fc2bc891becdaa2b832992,Mo-Su 08:00-21:00,Western Union,Q861042
0783c0f3b188136a7dc69230ec07f09a,western_union,ISLAMI BANK BANGLADESHN LIMITED,,Kushtia,KHULNA,,BD,+880 1714-004856,https://location.westernunion.com/bd/khulna/kushtia/0783c0f3b188136a7dc69230ec07f09a,Mo-Th 10:00-18:00; Sa-Su 10:00-18:00,Western Union,Q861042
32dc790950f82eea6ccf7cec8772b07e,western_union,M S TAFIM ENTERPRISE,,Chuadanga,KHULNA,,BD,+880 1921-151845,https://location.westernunion.com/bd/khulna/chuadanga/32dc790950f82eea6ccf7cec8772b07e,Mo-Su 07:00-23:00,Western Union,Q861042
97a61452be3a4e824d1f9c14d776f19a,western_union,M S M K ENTERPRISE,,Chuadanga,KHULNA,,BD,+880 1718-848829,https://location.westernunion.com/bd/khulna/chuadanga/97a61452be3a4e824d1f9c14d776f19a,Mo-Th 09:30-17:30; Fr-Sa 09:30-14:30; Su 09:30-17:30,Western Union,Q861042
751b8f24500a7fcd93e316bad5d26c1c,western_union,IFIC BANK LIMITED,,Chuadanga,Khulna,,BD,+880 1705-668665,https://location.westernunion.com/bd/khulna/chuadanga/751b8f24500a7fcd93e316bad5d26c1c,Mo-Th 10:00-17:00; Su 10:00-17:00,Western Union,Q861042
abf2b1fe77b4929eabee2e01529dbd6d,western_union,IFIC BANK LIMITED,,Chuadanga,KHULNA,,BD,+880 1581-501787,https://location.westernunion.com/bd/khulna/chuadanga/abf2b1fe77b4929eabee2e01529dbd6d,Mo-Th 10:00-17:00; Su 10:00-17:00,Western Union,Q861042
deea4a6c5307f686ecd757e2e10253dd,western_union,MS COLOURS POINT,,Chuadanga,KHULNA,,BD,+880 1716-410501,https://location.westernunion.com/bd/khulna/chuadanga/deea4a6c5307f686ecd757e2e10253dd,Mo-Th 09:30-17:30; Fr-Sa 09:30-14:30; Su 09:30-17:30,Western Union,Q861042
b776e90ba16ec74ba716d9ff0caef10f,western_union,ISLAMI BANK BANGLADESHN LIMITED,,Chuadanga,KHULNA,,BD,+880 1711-432089,https://location.westernunion.com/bd/khulna/chuadanga/b776e90ba16ec74ba716d9ff0caef10f,Mo-Th 10:00-18:00; Sa-Su 10:00-18:00,Western Union,Q861042
9db99abce6af887948085db6036a7f61,western_union,ASA,,Chuadanga,KHULNA,,BD,+880 1730-065390,https://location.westernunion.com/bd/khulna/chuadanga/9db99abce6af887948085db6036a7f61,Mo-Th 08:00-19:00; Sa-Su 08:00-19:00,Western Union,Q861042
6044374f4aa8a21fdf8c63e7a77e80ff,western_union,SOUTHEAST BANK LIMITED,,Chuadanga,KHULNA,,BD,+880 1934-448917,https://location.westernunion.com/bd/khulna/chuadanga/6044374f4aa8a21fdf8c63e7a77e80ff,Mo-Th 09:00-17:00; Sa-Su 09:00-17:00,Western Union,Q861042
ac575078da240558fe72d921550dce5d,western_union,IFIC BANK LIMITED,,Chuadanga,KHULNA,,BD,+880 1521-434142,https://location.westernunion.com/bd/khulna/chuadanga/ac575078da240558fe72d921550dce5d,Mo-Th 10:00-17:00; Su 10:00-17:00,Western Union,Q861042
d8aff94dd5d078163c5ab653b9ae0d83,western_union,PUBALI BANK LIMITED,,Kustia,KHULNA,,BD,+880 1713-072870,https://location.westernunion.com/bd/khulna/kustia/d8aff94dd5d078163c5ab653b9ae0d83,Mo-Th 10:00-16:00; Su 10:00-16:00,Western Union,Q861042
ebae59208c74c0121e6c4cbfa7626d9e,western_union,KHOKSHA UPOSHAKHA,,Kushtia,KHULNA,,BD,+880 1913-245495,https://location.westernunion.com/bd/khulna/kushtia/ebae59208c74c0121e6c4cbfa7626d9e,Mo-Th 10:00-17:00; Su 10:00-17:00,Western Union,Q861042
6f0736b13b50c1ca73c439c36f68011c,western_union,IFIC BANK LIMITED,,Kushtia,KHULNA,,BD,+880 1957-075521,https://location.westernunion.com/bd/khulna/kushtia/6f0736b13b50c1ca73c439c36f68011c,Mo-Th 10:00-17:00; Su 10:00-17:00,Western Union,Q861042
c0f9885df3ab8ced8ae2be676bfe3d23,western_union,ASA,,Khulna,KHULNA,,BD,+880 1730-098574,https://location.westernunion.com/bd/khulna/khulna/c0f9885df3ab8ced8ae2be676bfe3d23,Mo-Th 08:00-19:00; Sa-Su 08:00-19:00,Western Union,Q861042
b943d6864109dc1642db59f62347d7ab,western_union,ISLAMI BANK BANGLADESH LIMITED,,Jhenaidah,KHULNA,,BD,+880 1729-039325,https://location.westernunion.com/bd/khulna/jhenaidah/b943d6864109dc1642db59f62347d7ab,Mo-Th 10:00-18:00; Sa-Su 10:00-18:00,Western Union,Q861042
47d829d54dab6d4fcfe8cff67d7716de,western_union,IFIC BANK LIMITED,,Jhinaidah,KHULNA,,BD,+880 1729-193007,https://location.westernunion.com/bd/khulna/jhinaidah/47d829d54dab6d4fcfe8cff67d7716de,Mo-Th 10:00-17:00; Su 10:00-17:00,Western Union,Q861042
0da4a3cef5887959e01e30122643bc33,western_union,BRAC BANK LTD,,Chuadanga,KHULNA,,BD,+880 1923-790079,https://location.westernunion.com/bd/khulna/chuadanga/0da4a3cef5887959e01e30122643bc33,Mo-Su 08:00-21:00,Western Union,Q861042
c92ada0e1fb5d05931e1aebaaae108a8,western_union,BRAC BANK LIMITED,,Jhenaidha,KHULNA,,BD,+880 451-63622,https://location.westernunion.com/bd/khulna/jhenaidha/c92ada0e1fb5d05931e1aebaaae108a8,Mo-Th 09:00-17:00; Fr 09:30-15:00; Sa 09:30-17:00; Su 09:00-17:00,Western Union,Q861042
cfcd66b8101e7735a5745958eca6b023,western_union,IFIC BANK LIMITED,,Chuadanga,KHULNA,,BD,+880 1749-519425,https://location.westernunion.com/bd/khulna/chuadanga/cfcd66b8101e7735a5745958eca6b023,Mo-Th 10:00-17:00; Su 10:00-17:00,Western Union,Q861042
9dd2df067ddc7a6a372fcdf223eb7da9,western_union,ISLAMI BANK BANGLADESHN LIMITED,,Jhenaidah,KHULNA,,BD,+880 1730-333622,https://location.westernunion.com/bd/khulna/jhenaidah/9dd2df067ddc7a6a372fcdf223eb7da9,Mo-Th 10:00-18:00; Sa-Su 10:00-18:00,Western Union,Q861042
8ba1fdfe4e37996c4f11cfc23102f990,western_union,BRAC BANK LTD,,Chuadanga,KHULNA,,BD,+880 1988-807595,https://location.westernunion.com/bd/khulna/chuadanga/8ba1fdfe4e37996c4f11cfc23102f990,Mo-Su 08:00-21:00,Western Union,Q861042
f587832b88a4c26281dc609910d9564b,western_union,ASA,,Chuadanga,KHULNA,,BD,+880 1730-065418,https://location.westernunion.com/bd/khulna/chuadanga/f587832b88a4c26281dc609910d9564b,Mo-Th 08:00-19:00; Sa-Su 08:00-19:00,Western Union,Q861042
2fe36132f2d5e68e8cf42c2f3c8b3a5c,western_union,BRAC BANK LTD,,Jhenaidah,KHULNA,,BD,+880 1916-108412,https://location.westernunion.com/bd/khulna/jhenaidah/2fe36132f2d5e68e8cf42c2f3c8b3a5c,Mo-Su 08:00-21:00,Western Union,Q861042
f79e6fae1780fc4c82a76f076c35bcad,western_union,FIRST SECURITY ISLAMI BANK LTD,,Jhenaidah,KHULNA,,BD,+880 1992-044268,https://location.westernunion.com/bd/khulna/jhenaidah/f79e6fae1780fc4c82a76f076c35bcad,Mo-Th 10:00-17:00; Sa-Su 10:00-17:00,Western Union,Q861042
eba7b82997b5ae10e4da2e5204d44bfa,western_union,IFIC BANK LIMITED,,Jhenaidah,KHULNA,,BD,+880 1316-434873,https://location.westernunion.com/bd/khulna/jhenaidah/eba7b82997b5ae10e4da2e5204d44bfa,Mo-Th 10:00-17:00; Su 10:00-17:00,Western Union,Q861042
670f43ba9dd96070bca88bd7223da11d,western_union,ISLAMI BANK BANGLADESHN LIMITED,,Chuadanga,KHULNA,,BD,+880 1730-703854,https://location.westernunion.com/bd/khulna/chuadanga/670f43ba9dd96070bca88bd7223da11d,Mo-Th 10:00-18:00; Sa-Su 10:00-18:00,Western Union,Q861042
c6db9fa3e70b62b34f1496f953938e88,western_union,IFIC BANK LIMITED,,Chuadanga,KHULNA,,BD,+880 1724-046969,https://location.westernunion.com/bd/khulna/chuadanga/c6db9fa3e70b62b34f1496f953938e88,Mo-Th 10:00-17:00; Su 10:00-17:00,Western Union,Q861042
948d121af3cee459a477a583a1149f81,western_union,SBAC BANK LIMITED,,Chuadanga,KHULNA,,BD,+880 1718-279646,https://location.westernunion.com/bd/khulna/chuadanga/948d121af3cee459a477a583a1149f81,Mo-Th 10:00-18:00; Sa 10:00-14:00; Su 10:00-18:00,Western Union,Q861042
9765e44bd9cd61244d6bd6734b49ea51,western_union,IFIC BANK LIMITED,,Chuadanga,KHULNA,,BD,+880 1919-590056,https://location.westernunion.com/bd/khulna/chuadanga/9765e44bd9cd61244d6bd6734b49ea51,Mo-Th 10:00-17:00; Su 10:00-17:00,Western Union,Q861042
5935cdc98ad9facf892682f9aee924fd,western_union,ISLAMI BANK BANGLADESHN LIMITED,,Jessore,KHULNA,,BD,+880 1713-349927,https://location.westernunion.com/bd/khulna/jessore/5935cdc98ad9facf892682f9aee924fd,Mo-Th 10:00-18:00; Sa-Su 10:00-18:00,Western Union,Q861042
2d8eeacae246dc53ba79c7ee76815524,western_union,IFIC BANK LIMITED,,Jhenidah,KHULNA,,BD,+880 1719-266133,https://location.westernunion.com/bd/khulna/jhenidah/2d8eeacae246dc53ba79c7ee76815524,Mo-Th 10:00-17:00; Su 10:00-17:00,Western Union,Q861042
3733ef21a2ba527269f9994c352a359f,western_union,TARIQUE TRADERS,,Jhenaidah,KHULNA,,BD,+880 1923-726141,https://location.westernunion.com/bd/khulna/jhenaidah/3733ef21a2ba527269f9994c352a359f,Mo-Th 09:30-17:30; Fr-Sa 09:30-14:30; Su 09:30-17:30,Western Union,Q861042
a6c8df9443ba011d92a3c53dceec5779,western_union,MIZAN BIPONI SHOE GLARY & TELECOM,,Jhenaidah,KHULNA,,BD,+880 1716-403103,https://location.westernunion.com/bd/khulna/jhenaidah/a6c8df9443ba011d92a3c53dceec5779,Mo-Su 07:00-23:00,Western Union,Q861042
4985f98eef034aabd7df766b17fd3317,western_union,ISLAMI BANK BANGLADESH LIMITED,,Magura,KHULNA,,BD,+880 1313-084351,https://location.westernunion.com/bd/khulna/magura/4985f98eef034aabd7df766b17fd3317,Mo-Th 10:00-18:00; Sa 10:00-14:00; Su 10:00-18:00,Western Union,Q861042
5f2bcd04e10573496a0893145d3079b0,western_union,MA BABA TALECOM,,Jhenaidah,KHULNA,,BD,+880 1790-141954,https://location.westernunion.com/bd/khulna/jhenaidah/5f2bcd04e10573496a0893145d3079b0,Mo-Th 09:30-17:30; Fr-Sa 09:30-14:30; Su 09:30-17:30,Western Union,Q861042
caf37ded45ea08cc5a8ed44f5e4404d3,western_union,HATFAZILPUR UPOSHAKHA,,Jhenidah,KHULNA,,BD,+880 1930-352006,https://location.westernunion.com/bd/khulna/jhenidah/caf37ded45ea08cc5a8ed44f5e4404d3,Mo-Th 10:00-17:00; Su 10:00-17:00,Western Union,Q861042
e7e87858d92ed6512c85c512fc3fd10d,western_union,AKASH TRADERS,,Jhenaidah,KHULNA,,BD,+880 1719-193522,https://location.westernunion.com/bd/khulna/jhenaidah/e7e87858d92ed6512c85c512fc3fd10d,Mo-Th 09:30-17:30; Fr-Sa 09:30-14:30; Su 09:30-17:30,Western Union,Q861042
d92c2e558b1eaf1b786a18effa014f77,western_union,AB BANK LIMITED,,Jhenaidah,KHULNA,,BD,+880 451-64041,https://location.westernunion.com/bd/khulna/jhenaidah/d92c2e558b1eaf1b786a18effa014f77,Mo-Th 09:30-17:00; Su 09:30-17:00,Western Union,Q861042
78ab592545dd0e0d0f15db4cd521ff9c,western_union,ISLAMI BANK BANGLADESHN LIMITED,,Jhenaidah,KHULNA,,BD,+880 1730-097282,https://location.westernunion.com/bd/khulna/jhenaidah/78ab592545dd0e0d0f15db4cd521ff9c,Mo-Th 10:00-18:00; Sa-Su 10:00-18:00,Western Union,Q861042
bf18fe60069c51afcc944e8cdcfd1ff3,western_union,ISLAMI BANK BANGLADESHN LIMITED,,Jhenaidah,KHULNA,,BD,+880 1711-889918,https://location.westernunion.com/bd/khulna/jhenaidah/bf18fe60069c51afcc944e8cdcfd1ff3,Mo-Th 10:00-18:00; Sa-Su 10:00-18:00,Western Union,Q861042
a60ff13cb462a3eaa872694a69a7414d,western_union,IFIC BANK LIMITED,,Satkhira,KHULNA,,BD,+880 1521-498715,https://location.westernunion.com/bd/khulna/satkhira/a60ff13cb462a3eaa872694a69a7414d,Mo-Th 10:00-17:00; Su 10:00-17:00,Western Union,Q861042
25741d07ea0aa4c33e3aca5852a3349a,western_union,MODHUMOTI BANK LIMITED,,Jhenaidah,KHULNA,,BD,(+880) 02-1971350395,https://location.westernunion.com/bd/khulna/jhenaidah/25741d07ea0aa4c33e3aca5852a3349a,Mo-Th 10:00-16:00; Fr 09:30-15:00; Sa 09:30-17:00; Su 10:00-16:00,Western Union,Q861042
5aa15a797464e82b260c7efc504e6af1,western_union,MERCANTILE BANK LIMITED,,Jhenaidah,KHULNA,,BD,+880 1712-556692,https://location.westernunion.com/bd/khulna/jhenaidah/5aa15a797464e82b260c7efc504e6af1,Mo-Th 10:00-18:00; Sa 10:00-14:00; Su 10:00-18:00,Western Union,Q861042
5e0c89d8f2ff521a40aee353732d98b7,western_union,BRAC BANK LTD,,Jhenaidah,KHULNA,,BD,+880 1918-294243,https://location.westernunion.com/bd/khulna/jhenaidah/5e0c89d8f2ff521a40aee353732d98b7,Mo-Su 08:00-21:00,Western Union,Q861042
f64c522616c38f2cad77a2257a04ce5a,western_union,ISLAMI BANK BANGLADESHN LIMITED,,Jhenaidah,KHULNA,,BD,+880 1713-237853,https://location.westernunion.com/bd/khulna/jhenaidah/f64c522616c38f2cad77a2257a04ce5a,Mo-Th 10:00-18:00; Sa-Su 10:00-18:00,Western Union,Q861042
f2655d15b38808e96f4e595bafe0b810,western_union,IFIC BANK LIMITED,,Magura,KHULNA,,BD,+880 1778-070000,https://location.westernunion.com/bd/khulna/magura/f2655d15b38808e96f4e595bafe0b810,Mo-Th 10:00-17:00; Su 10:00-17:00,Western Union,Q861042
00fbafb19b1093021fa4823a508c556a,western_union,BISWAS AND BROTHERS TRADERS,,Magura,KHULNA,,BD,+880 1924-395672,https://location.westernunion.com/bd/khulna/magura/00fbafb19b1093021fa4823a508c556a,Mo-Su 08:00-21:00,Western Union,Q861042
b2f17f90622651ad1a9add971c0ad2a7,western_union,IFIC BANK LIMITED,,Magura,KHULNA,,BD,+880 1636-077598,https://location.westernunion.com/bd/khulna/magura/b2f17f90622651ad1a9add971c0ad2a7,Mo-Su 10:00-17:00,Western Union,Q861042
ff40621efd59a4f180d85e74090a2e63,western_union,IFIC BANK LIMITED,,Jhenaidah,KHULNA,,BD,+880 1912-607650,https://location.westernunion.com/bd/khulna/jhenaidah/ff40621efd59a4f180d85e74090a2e63,Mo-Th 10:00-17:00; Su 10:00-17:00,Western Union,Q861042
947f0caafa86f0fb3ff5c476f46b50be,western_union,BASIC BANK LIMITED,,Jhenaidah,KHULNA,,BD,+880 1717-008732,https://location.westernunion.com/bd/khulna/jhenaidah/947f0caafa86f0fb3ff5c476f46b50be,Mo-Th 10:00-17:00; Sa-Su 10:00-17:00,Western Union,Q861042
6d3d81d27cd55282ba5c5f577fbc4818,western_union,BRAC BANK LTD,,Jhenaidah,KHULNA,,BD,+880 1918-294243,https://location.westernunion.com/bd/khulna/jhenaidah/6d3d81d27cd55282ba5c5f577fbc4818,Mo-Su 08:00-21:00,Western Union,Q861042
26deed9c8e063cb0afc7c7620e09d68c,western_union,AGRANI BANK LIMITED,,Jhenidah,KHULNA,,BD,(+880) 02-452465366,https://location.westernunion.com/bd/khulna/jhenidah/26deed9c8e063cb0afc7c7620e09d68c,Mo-Th 09:00-17:00; Fr 09:30-15:00; Sa 09:30-17:00; Su 09:00-17:00,Western Union,Q861042
c415a2da7439020b14e81b34c1cb78ea,western_union,BRAC BANK VOIRABA AGENT BANKING OUTLET,,Jhenaidah,KHULNA,,BD,+880 1756-445544,https://location.westernunion.com/bd/khulna/jhenaidah/c415a2da7439020b14e81b34c1cb78ea,Mo-Su 08:00-21:00,Western Union,Q861042
bc0b969e8490e9ff7015128d8b05aa6e,western_union,IFIC BANK LIMITED,,Jhenaidah,KHULNA,,BD,+880 1786-349354,https://location.westernunion.com/bd/khulna/jhenaidah/bc0b969e8490e9ff7015128d8b05aa6e,Mo-Th 10:00-17:00; Su 10:00-17:00,Western Union,Q861042
e87a7db9d99f7629e8291fdd55942432,western_union,IFIC BANK LIMITED,,Magura,Khulna,,BD,+880 1401-408017,https://location.westernunion.com/bd/khulna/magura/e87a7db9d99f7629e8291fdd55942432,Mo-Th 10:00-17:00; Su 10:00-17:00,Western Union,Q861042
fef8a73c974cc3c88addbec0dd481343,western_union,IFIC BANK LIMITED,,Jhenaidah,KHULNA,,BD,+880 1798-220616,https://location.westernunion.com/bd/khulna/jhenaidah/fef8a73c974cc3c88addbec0dd481343,Mo-Th 10:00-17:00; Su 10:00-17:00,Western Union,Q861042
8c80a5a4ce3c7e5cd345baf7ce455d0c,western_union,SHAHJALAL ISLAMI BANK LIMITED,,Jhenaidah,KHULNA,,BD,+880 1755-556400,https://location.westernunion.com/bd/khulna/jhenaidah/8c80a5a4ce3c7e5cd345baf7ce455d0c,Mo-Th 09:00-17:00; Sa-Su 09:00-17:00,Western Union,Q861042
945a32215fecdb277f75b6d470afb33f,western_union,BRAC BANK LTD,,Jhenaidah,KHULNA,,BD,+880 1717-337060,https://location.westernunion.com/bd/khulna/jhenaidah/945a32215fecdb277f75b6d470afb33f,Mo-Su 08:00-21:00,Western Union,Q861042
686c31ca904fb8fa7a978f6f1af830cb,western_union,IFIC BANK LIMITED,,Jhinaidah,KHULNA,,BD,(+880) 04523-56697,https://location.westernunion.com/bd/khulna/jhinaidah/686c31ca904fb8fa7a978f6f1af830cb,Mo-Th 10:00-17:00; Su 10:00-17:00,Western Union,Q861042
2759d4dcf633c03fc2e96ee45af0c1a9,western_union,ISLAMI BANK BANGLADESHN LIMITED,,Jhenaidah,KHULNA,,BD,+880 1713-425933,https://location.westernunion.com/bd/khulna/jhenaidah/2759d4dcf633c03fc2e96ee45af0c1a9,Mo-Th 10:00-18:00; Sa-Su 10:00-18:00,Western Union,Q861042
a24721295488054569263995a0d881fc,western_union,M/STUHIN GARMENTS AND BASTRO BITAN,,Jhenaidah,KHULNA,,BD,+880 1778-005046,https://location.westernunion.com/bd/khulna/jhenaidah/a24721295488054569263995a0d881fc,Mo-Su 08:00-21:00,Western Union,Q861042
6fe4b1e3ddb3d2a7247a1a977ec32634,western_union,SBAC BANK LIMITED,,Jessore,KHULNA,,BD,+880 1713-452289,https://location.westernunion.com/bd/khulna/jessore/6fe4b1e3ddb3d2a7247a1a977ec32634,Mo-Th 10:00-17:00; Fr 09:30-15:00; Sa 09:30-17:00; Su 09:00-17:00,Western Union,Q861042
e4ff2591fa4896c403f0f2c0023f912c,western_union,ISLAMI BANK BANGLADESHN LIMITED,,Magura,KHULNA,,BD,+880 1714-025934,https://location.westernunion.com/bd/khulna/magura/e4ff2591fa4896c403f0f2c0023f912c,Mo-Th 10:00-18:00; Sa-Su 10:00-18:00,Western Union,Q861042
5da9d79d6861908740a02a3f438adcaa,western_union,M/S SHABUDDIN TRADERS,,Jhenaidah,KHULNA,,BD,+880 1719-628115,https://location.westernunion.com/bd/khulna/jhenaidah/5da9d79d6861908740a02a3f438adcaa,Mo-Su 07:00-23:00,Western Union,Q861042
3b99576521f7035d879d4a53545bb4bb,western_union,ISLAMI BANK BANGLADESHN LIMITED,,Jessore,KHULNA,,BD,+880 1713-335786,https://location.westernunion.com/bd/khulna/jessore/3b99576521f7035d879d4a53545bb4bb,Mo-Th 10:00-18:00; Sa-Su 10:00-18:00,Western Union,Q861042
571765f51c516724dc4d383dba0f8c11,western_union,ROHANTRADERS,,Jhenaidah,KHULNA,,BD,+880 1716-951164,https://location.westernunion.com/bd/khulna/jhenaidah/571765f51c516724dc4d383dba0f8c11,Mo-Th 09:30-17:30; Fr-Sa 09:30-14:30; Su 09:30-17:30,Western Union,Q861042
593f7be930be17496a41b1a156ae572b,western_union,HAY ENTERPRISE,,Jhenaidah,KHULNA,,BD,+880 1718-040101,https://location.westernunion.com/bd/khulna/jhenaidah/593f7be930be17496a41b1a156ae572b,Mo-Su 08:00-21:00,Western Union,Q861042
07f3fbc19b9cdfe850f7220ae347752a,western_union,BAROBAZAR UPOSHAKHA,,Jhenaidah,KHULNA,,BD,+880 1737-760856,https://location.westernunion.com/bd/khulna/jhenaidah/07f3fbc19b9cdfe850f7220ae347752a,Mo-Th 10:00-17:00; Su 10:00-17:00,Western Union,Q861042
07f915fabd895be0e35f763581ecc13f,western_union,BRAC BANK LIMITED,,Jessore,KHULNA,,BD,+880 481-62992,https://location.westernunion.com/bd/khulna/jessore/07f915fabd895be0e35f763581ecc13f,Mo-Th 09:00-17:00; Fr 09:30-15:00; Sa 09:30-17:00; Su 09:00-17:00,Western Union,Q861042
c4995fcae7fb410a4268ad15446d066c,western_union,IFIC BANK LIMITED,,Jashore,KHULNA,,BD,+880 1521-412219,https://location.westernunion.com/bd/khulna/jashore/c4995fcae7fb410a4268ad15446d066c,Mo-Th 10:00-17:00; Su 10:00-17:00,Western Union,Q861042
cf0a4d5d7542c05e6967c16ba82559cd,western_union,SATRUJITPUR BAZAR UPOSHAKHA,,Magura,KHULNA,,BD,+880 1716-458399,https://location.westernunion.com/bd/khulna/magura/cf0a4d5d7542c05e6967c16ba82559cd,Mo-Th 10:00-17:00; Su 10:00-17:00,Western Union,Q861042
00aeb726b2d947c6cff8a33ef9e322bc,western_union,AGRANI BANK LIMITED,,Magura,KHULNA,,BD,+880 1792-557922,https://location.westernunion.com/bd/khulna/magura/00aeb726b2d947c6cff8a33ef9e322bc,Mo-Su 10:00-16:00,Western Union,Q861042
5c26d794addd9330ea853b2cee8fc90d,western_union,AL MAMUN TRADERS,,Magura,KHULNA,,BD,+880 1728-603390,https://location.westernunion.com/bd/khulna/magura/5c26d794addd9330ea853b2cee8fc90d,Mo-Su 07:00-23:00,Western Union,Q861042
f647d0900c55d6704105fdf0a8f0d419,western_union,TAMIM ENTERPRISE,,Magura,KHULNA,,BD,+880 1770-117085,https://location.westernunion.com/bd/khulna/magura/f647d0900c55d6704105fdf0a8f0d419,Mo-Su 07:00-23:00,Western Union,Q861042
90cc8e6a3c03bf043dc5d79fe768140c,western_union,IFIC BANK LIMITED,,Jashore,KHULNA,,BD,+880 1778-070000,https://location.westernunion.com/bd/khulna/jashore/90cc8e6a3c03bf043dc5d79fe768140c,Mo-Th 10:00-17:00; Su 10:00-17:00,Western Union,Q861042
7c7aba250166b9dfdf0028261a715acb,western_union,ASA,,Jessore,KHULNA,,BD,+880 1730-099419,https://location.westernunion.com/bd/khulna/jessore/7c7aba250166b9dfdf0028261a715acb,Mo-Th 08:00-19:00; Sa-Su 08:00-19:00,Western Union,Q861042
df964f13c8663599b039676151ed0787,western_union,SEMA TELECOM,,Magura,KHULNA,,BD,+880 1716-781182,https://location.westernunion.com/bd/khulna/magura/df964f13c8663599b039676151ed0787,Mo-Th 09:30-17:30; Fr-Sa 09:30-14:30; Su 09:30-17:30,Western Union,Q861042
d1a92ad45e9a66596ba324cd6f50134a,western_union,ISLAMI BANK BANGLADESHN LIMITED,,Jessore,KHULNA,,BD,+880 1711-889923,https://location.westernunion.com/bd/khulna/jessore/d1a92ad45e9a66596ba324cd6f50134a,Mo-Th 10:00-18:00; Sa-Su 10:00-18:00,Western Union,Q861042
f6111e1d1b9acbc056941d28f56c0203,western_union,BRAC BANK LTD,,Magura,KHULNA,,BD,+880 1732-649715,https://location.westernunion.com/bd/khulna/magura/f6111e1d1b9acbc056941d28f56c0203,Mo-Su 08:00-21:00,Western Union,Q861042
45ca0de8535eed4638c032d5eacfac42,western_union,ASA,,Khulna,KHULNA,,BD,+880 1730-099570,https://location.westernunion.com/bd/khulna/khulna/45ca0de8535eed4638c032d5eacfac42,Mo-Th 08:00-19:00; Sa-Su 08:00-19:00,Western Union,Q861042
8a0182019aa896cef0929628438468b0,western_union,ISLAMI BANK BANGLADESHN LIMITED,,Jessore,KHULNA,,BD,+880 1711-889958,https://location.westernunion.com/bd/khulna/jessore/8a0182019aa896cef0929628438468b0,Mo-Th 10:00-18:00; Sa-Su 10:00-18:00,Western Union,Q861042
fad533ea56d755b781ccdeed486bda8f,western_union,AB BANK LIMITED,,Jashore,KHULNA,,BD,(+880) 04228-75664,https://location.westernunion.com/bd/khulna/jashore/fad533ea56d755b781ccdeed486bda8f,Mo-Th 09:30-17:00; Su 09:30-17:00,Western Union,Q861042
60b276dfeeebd4e14d2cd81788e256b7,western_union,DUTCH BANGLA BANK LTD,,Jessore,KHULNA,,BD,+880 1847-278106,https://location.westernunion.com/bd/khulna/jessore/60b276dfeeebd4e14d2cd81788e256b7,Mo-Th 09:30-17:00; Su 09:30-17:00,Western Union,Q861042
f26750fcf811287319d60bcc7e8e8097,western_union,IFIC BANK LIMITED,,Jashore,KHULNA,,BD,+880 1926-202712,https://location.westernunion.com/bd/khulna/jashore/f26750fcf811287319d60bcc7e8e8097,Mo-Th 10:00-17:00; Su 10:00-17:00,Western Union,Q861042
6ed21aa1117b9d134a298a1233ae9887,western_union,IFIC BANK LIMITED,,Magura,KHULNA,,BD,+880 1742-073828,https://location.westernunion.com/bd/khulna/magura/6ed21aa1117b9d134a298a1233ae9887,Mo-Th 10:00-17:00; Su 10:00-17:00,Western Union,Q861042
66530b40d297b688941319f77ddf061d,western_union,ISLAMI BANK BANGLADESH LIMITED,,Jessore,KHULNA,,BD,+880 1966-672114,https://location.westernunion.com/bd/khulna/jessore/66530b40d297b688941319f77ddf061d,Mo-Th 10:00-18:00; Sa-Su 10:00-18:00,Western Union,Q861042
e8d6c715f93162093ccf0bfec676f12d,western_union,MINHA ELECTRIC AND ELECTRONICS,,Magura,KHULNA,,BD,+880 1729-353516,https://location.westernunion.com/bd/khulna/magura/e8d6c715f93162093ccf0bfec676f12d,Mo-Su 07:00-23:00,Western Union,Q861042
82c28dba6d9fa001fac7c988cc95e9ee,western_union,BRAC BANK LIMITED,,Jessore,KHULNA,,BD,(+880) 04228-76345,https://location.westernunion.com/bd/khulna/jessore/82c28dba6d9fa001fac7c988cc95e9ee,Mo-Th 09:00-17:00; Fr 09:30-15:00; Sa 09:30-17:00; Su 09:00-17:00,Western Union,Q861042
aa72132cbdb97a5e9714902196db6daf,western_union,BRAC BANK LTD,,Jessore,KHULNA,,BD,+880 1732-957373,https://location.westernunion.com/bd/khulna/jessore/aa72132cbdb97a5e9714902196db6daf,Mo-Su 08:00-21:00,Western Union,Q861042
5a37932f1eb24c96a5fea2c418226ff2,western_union,NOHATA BAZAR-MAGURA UPOSHAKHA,,Magura,KHULNA,,BD,+880 1946-571658,https://location.westernunion.com/bd/khulna/magura/5a37932f1eb24c96a5fea2c418226ff2,Mo-Th 10:00-17:00; Su 10:00-17:00,Western Union,Q861042
b11aa9b93f2d95cf3be79a0694725210,western_union,GLOBAL ISLAMI BANK LTD,,Jashore,KHULNA,,BD,+880 1714-731778,https://location.westernunion.com/bd/khulna/jashore/b11aa9b93f2d95cf3be79a0694725210,Mo-Th 10:00-17:00; Su 10:00-17:00,Western Union,Q861042
d05a66437d3a78395a06e822d307d33e,western_union,AB BANK LIMITED,,Jashore,KHULNA,,BD,(+880) 04225-71255,https://location.westernunion.com/bd/khulna/jashore/d05a66437d3a78395a06e822d307d33e,Mo-Th 09:30-17:00; Su 09:30-17:00,Western Union,Q861042
af86657f2188c0fad4aef99eb4aa4ed6,western_union,IFIC BANK LIMITED,,Jashore,KHULNA,,BD,+880 1710-125196,https://location.westernunion.com/bd/khulna/jashore/af86657f2188c0fad4aef99eb4aa4ed6,Mo-Th 10:00-17:00; Su 10:00-17:00,Western Union,Q861042
71a36022e0c5e652a4b8fc5f76b85a05,western_union,ASA,,Jessore,KHULNA,,BD,+880 1730-099447,https://location.westernunion.com/bd/khulna/jessore/71a36022e0c5e652a4b8fc5f76b85a05,Mo-Th 08:00-19:00; Sa-Su 08:00-19:00,Western Union,Q861042
9e9af0a7213eeeca490e70ca512bca94,western_union,ISLAMI BANK BANGLADESHN LIMITED,,Jessore,KHULNA,,BD,+880 1711-889914,https://location.westernunion.com/bd/khulna/jessore/9e9af0a7213eeeca490e70ca512bca94,Mo-Th 10:00-18:00; Sa-Su 10:00-18:00,Western Union,Q861042
9a32f8ee0d8bd757707278699cb6ee0a,western_union,FARUK COMPUTER AND MOBILE,,Jashore,KHULNA,,BD,+880 1722-898573,https://location.westernunion.com/bd/khulna/jashore/9a32f8ee0d8bd757707278699cb6ee0a,Mo-Th 09:30-17:30; Fr-Sa 09:30-14:30; Su 09:30-17:30,Western Union,Q861042
5d5a04875cb46b840bee6abfaad11cb4,western_union,IFIC BANK LIMITED,,Jessore,KHULNA,,BD,+880 421-68762,https://location.westernunion.com/bd/khulna/jessore/5d5a04875cb46b840bee6abfaad11cb4,Mo-Th 10:00-17:00; Su 10:00-17:00,Western Union,Q861042
66de8bc58f348f9d399109d431a168a1,western_union,GLOBAL ISLAMI BANK LTD,,Jashore,KHULNA,,BD,+880 1716-354675,https://location.westernunion.com/bd/khulna/jashore/66de8bc58f348f9d399109d431a168a1,Mo-Th 10:00-17:00; Su 10:00-17:00,Western Union,Q861042
d4049f6f1d127276fc608edaa83e71c5,western_union,BRAC BANK LTD,,Jashore,KHULNA,,BD,+880 1712-710336,https://location.westernunion.com/bd/khulna/jashore/d4049f6f1d127276fc608edaa83e71c5,Mo-Su 08:00-21:00,Western Union,Q861042
78d80891b19be4d7b1f15f3eda0448d1,western_union,ASA,,Jessore,KHULNA,,BD,+880 1730-099438,https://location.westernunion.com/bd/khulna/jessore/78d80891b19be4d7b1f15f3eda0448d1,Mo-Th 08:00-19:00; Sa-Su 08:00-19:00,Western Union,Q861042
899ba14d457c0ea6c946af505f3d593d,western_union,MEGHNA BANK LIMITED,,Jessore,KHULNA,,BD,+880 2-9857251,https://location.westernunion.com/bd/khulna/jessore/899ba14d457c0ea6c946af505f3d593d,Mo-Th 09:00-17:00; Sa-Su 09:00-17:00,Western Union,Q861042
8495ceb7127409e70fece8c82906ab60,western_union,ICB ISLAMIC BANK LIMITED,,Jessore,KHULNA,,BD,+880 1929-445385,https://location.westernunion.com/bd/khulna/jessore/8495ceb7127409e70fece8c82906ab60,Mo-Th 10:00-18:00; Fr 09:30-15:00; Sa 09:30-17:00; Su 10:00-18:00,Western Union,Q861042
c2da55eb0fd051cb87a9605d77271d54,western_union,IFIC BANK LIMITED,,Jessore,KHULNA,,BD,+880 1714-067620,https://location.westernunion.com/bd/khulna/jessore/c2da55eb0fd051cb87a9605d77271d54,Mo-Th 10:00-17:00; Su 10:00-17:00,Western Union,Q861042
26b78bda79f9c5d106b1f8ac8ea1f97c,western_union,ISLAMI BANK BANGLADESHN LIMITED,,Jessore,KHULNA,,BD,+880 1714-040031,https://location.westernunion.com/bd/khulna/jessore/26b78bda79f9c5d106b1f8ac8ea1f97c,Mo-Th 10:00-18:00; Sa-Su 10:00-18:00,Western Union,Q861042
fd1dd6c7b2d54c2eac9f7f1217de45ae,western_union,IFIC BANK LIMITED,,Jashore,KHULNA,,BD,+880 1566-023492,https://location.westernunion.com/bd/khulna/jashore/fd1dd6c7b2d54c2eac9f7f1217de45ae,Mo-Th 10:00-17:00; Su 10:00-17:00,Western Union,Q861042
16058246e872a41faa356ea444dd5281,western_union,IFIC BANK LIMITED,,Khulna,KHULNA,,BD,+880 1710-674191,https://location.westernunion.com/bd/khulna/khulna/16058246e872a41faa356ea444dd5281,Mo-Th 10:00-17:00; Su 10:00-17:00,Western Union,Q861042
48f83d771b3e28498c053e8dc4f70a1d,western_union,ISLAMI BANK BANGLADESHN LIMITED,,Jessore,KHULNA,,BD,+880 1713-358526,https://location.westernunion.com/bd/khulna/jessore/48f83d771b3e28498c053e8dc4f70a1d,Mo-Th 10:00-18:00; Sa-Su 10:00-18:00,Western Union,Q861042
8627d03c468b81873fb4c3f4699bd14b,western_union,BRAC BANK LTD,,Satkhira,KHULNA,,BD,+880 1719-634790,https://location.westernunion.com/bd/khulna/satkhira/8627d03c468b81873fb4c3f4699bd14b,Mo-Su 08:00-21:00,Western Union,Q861042
b63aa5f22bba6b434286448618fc48f9,western_union,SOUTHEAST BANK LIMITED,,Jessore,KHULNA,,BD,(+880) 02-1714480102,https://location.westernunion.com/bd/khulna/jessore/b63aa5f22bba6b434286448618fc48f9,Mo-Th 09:00-17:00; Sa-Su 09:00-17:00,Western Union,Q861042
7dcfe23efaf1b3b57d9b4dfe97ce7fa0,western_union,BISWAS ENTERPRISE,,Magura,KHULNA,,BD,+880 1783-749822,https://location.westernunion.com/bd/khulna/magura/7dcfe23efaf1b3b57d9b4dfe97ce7fa0,Mo-Th 09:30-17:30; Fr-Sa 09:30-14:30; Su 09:30-17:30,Western Union,Q861042
ed83a80361525614876c7124da449079,western_union,ASA,,Norail,KHULNA,,BD,+880 1730-099794,https://location.westernunion.com/bd/khulna/norail/ed83a80361525614876c7124da449079,Mo-Th 08:00-19:00; Sa-Su 08:00-19:00,Western Union,Q861042
c33389f49fe10c7f124a45d830fbfe68,western_union,M S KAMAL FISHERIES,,Jashore,KHULNA,,BD,+880 1711-981698,https://location.westernunion.com/bd/khulna/jashore/c33389f49fe10c7f124a45d830fbfe68,Mo-Su 08:00-21:00,Western Union,Q861042
41693f02c341d3ad4e62b15eb6fe263f,western_union,DUTCH BANGLA BANK LTD,,Narail,KHULNA,,BD,+880 1847-278130,https://location.westernunion.com/bd/khulna/narail/41693f02c341d3ad4e62b15eb6fe263f,Mo-Su 08:00-18:00,Western Union,Q861042
d3437931724b49bebcd39f6266d1c791,western_union,ISLAMI BANK BANGLADESHN LIMITED,,Narail,KHULNA,,BD,+880 1714-085771,https://location.westernunion.com/bd/khulna/narail/d3437931724b49bebcd39f6266d1c791,Mo-Th 10:00-18:00; Sa-Su 10:00-18:00,Western Union,Q861042
239023dea3196811373294d5085db239,western_union,BRAC BANK LTD,,Jashore,KHULNA,,BD,+880 1753-732132,https://location.westernunion.com/bd/khulna/jashore/239023dea3196811373294d5085db239,Mo-Th 10:00-17:00; Su 10:00-17:00,Western Union,Q861042
316af6ce945f0dab1fa746b7f82025cc,western_union,RUPALI BANK LIMITED,,Jessore,KHULNA,,BD,(+880) 02-1718927430,https://location.westernunion.com/bd/khulna/jessore/316af6ce945f0dab1fa746b7f82025cc,Mo-Th 10:00-17:00; Fr 09:30-15:00; Sa 09:30-17:00; Su 10:00-17:00,Western Union,Q861042
44df1aeef7668c34b47713b588cd2b02,western_union,RIPON ENTERPRISE,,Satkhira,KHULNA,,BD,+880 1709-934434,https://location.westernunion.com/bd/khulna/satkhira/44df1aeef7668c34b47713b588cd2b02,Mo-Su 07:00-23:00,Western Union,Q861042
2593b37b7ceb016e3491cdcb2d2dce2f,western_union,PUBALI BANK LIMITED,,Jassore,KHULNA,,BD,+880 1713-072891,https://location.westernunion.com/bd/khulna/jassore/2593b37b7ceb016e3491cdcb2d2dce2f,Mo-Th 10:00-16:00; Su 10:00-16:00,Western Union,Q861042
871594603fa07fafd146d3db4861057f,western_union,FIRST SECURITY ISLAMI BANK LTD,,Satkhira,KHULNA,,BD,+880 1992-044266,https://location.westernunion.com/bd/khulna/satkhira/871594603fa07fafd146d3db4861057f,Mo-Th 10:00-17:00; Sa-Su 10:00-17:00,Western Union,Q861042
2185eaa89bdc77ff4da3ca41ef98dedf,western_union,ISLAMI BANK BANGLADESHN LIMITED,,Narail,KHULNA,,BD,+880 1708-457121,https://location.westernunion.com/bd/khulna/narail/2185eaa89bdc77ff4da3ca41ef98dedf,Mo-Th 10:00-18:00; Sa-Su 10:00-18:00,Western Union,Q861042
69a75728935f046d59d790845e2e607a,western_union,IFIC BANK LIMITED,,Narail,KHULNA,,BD,+880 1939-115311,https://location.westernunion.com/bd/khulna/narail/69a75728935f046d59d790845e2e607a,Mo-Su 10:00-17:00,Western Union,Q861042
9ff0cf22f1bf2e9d45ac08deec04b47f,western_union,IFIC BANK LIMITED,,Narail,KHULNA,,BD,+880 1713-257896,https://location.westernunion.com/bd/khulna/narail/9ff0cf22f1bf2e9d45ac08deec04b47f,Mo-Su 10:00-17:00,Western Union,Q861042
c1d0ba4776d17cc38b21b0cd6b6e4c9b,western_union,ASA,,Jessore,KHULNA,,BD,+880 1730-099418,https://location.westernunion.com/bd/khulna/jessore/c1d0ba4776d17cc38b21b0cd6b6e4c9b,Mo-Th 08:00-19:00; Sa-Su 08:00-19:00,Western Union,Q861042
4aa2be6547a2b9c0e5e993db107efa3a,western_union,PUBALI BANK LIMITED,,Satkhira,KHULNA,,BD,(+880) 192699636,https://location.westernunion.com/bd/khulna/satkhira/4aa2be6547a2b9c0e5e993db107efa3a,Mo-Th 10:00-16:00; Fr 09:30-15:00; Sa 09:30-17:00; Su 10:00-16:00,Western Union,Q861042
79694a4d00417947adef13f9404ec1d1,western_union,ISLAMI BANK BANGLADESHN LIMITED,,Satkhira,KHULNA,,BD,+880 1711-889959,https://location.westernunion.com/bd/khulna/satkhira/79694a4d00417947adef13f9404ec1d1,Mo-Th 10:00-18:00; Sa-Su 10:00-18:00,Western Union,Q861042
4315ec4f836f1583da534b8a04cd378f,western_union,IFIC BANK LIMITED,,Satkhira,KHULNA,,BD,+880 1964-596575,https://location.westernunion.com/bd/khulna/satkhira/4315ec4f836f1583da534b8a04cd378f,Mo-Th 10:00-17:00; Su 10:00-17:00,Western Union,Q861042
26c690f95e1578e71ab720e6b335b667,western_union,ASA,,Satkhira,KHULNA,,BD,+880 1730-092860,https://location.westernunion.com/bd/khulna/satkhira/26c690f95e1578e71ab720e6b335b667,Mo-Th 08:00-19:00; Sa-Su 08:00-19:00,Western Union,Q861042
bcc70a7fa667f1cd9408d989c7292ece,western_union,BANGLADESH COMMERCE BANK LIMIT,,Narail,KHULNA,,BD,+880 1819-154081,https://location.westernunion.com/bd/khulna/narail/bcc70a7fa667f1cd9408d989c7292ece,Mo-Th 10:00-18:00; Sa 10:00-14:00; Su 10:00-18:00,Western Union,Q861042
6585bbb557727e1ac09a9425f3474bf6,western_union,BRAC BANK LIMITED,,Satkhira,KHULNA,,BD,+880 1938-886128,https://location.westernunion.com/bd/khulna/satkhira/6585bbb557727e1ac09a9425f3474bf6,Mo-Th 09:00-17:00; Fr 09:30-15:00; Sa 09:30-17:00; Su 09:00-17:00,Western Union,Q861042
a42f32df70d5f0b10219e5bf669d616b,western_union,IFIC BANK LIMITED,,Jashore,KHULNA,,BD,+880 1964-132166,https://location.westernunion.com/bd/khulna/jashore/a42f32df70d5f0b10219e5bf669d616b,Mo-Th 10:00-17:00; Su 10:00-17:00,Western Union,Q861042
436b0c91ffe5305386020c6b743051fa,western_union,IFIC BANK LIMITED,,Jashore,KHULNA,,BD,+880 1918-594675,https://location.westernunion.com/bd/khulna/jashore/436b0c91ffe5305386020c6b743051fa,Mo-Th 10:00-17:00; Su 10:00-17:00,Western Union,Q861042
a30a105a3db4c27e4e3dae69668d4b8b,western_union,ASA,,Jessore,KHULNA,,BD,+880 1730-099416,https://location.westernunion.com/bd/khulna/jessore/a30a105a3db4c27e4e3dae69668d4b8b,Mo-Th 08:00-19:00; Sa-Su 08:00-19:00,Western Union,Q861042
8f0d13d72cf9a025b7bd70c9900adbf7,western_union,ISLAMI BANK BANGLADESHN LIMITED,,Jessore,KHULNA,,BD,+880 1708-457112,https://location.westernunion.com/bd/khulna/jessore/8f0d13d72cf9a025b7bd70c9900adbf7,Mo-Th 10:00-18:00; Sa-Su 10:00-18:00,Western Union,Q861042
5b404a8e76034e7512b5958e6ed50e38,western_union,SBAC BANK LIMITED,,Satkhira,KHULNA,,BD,+880 1819-851931,https://location.westernunion.com/bd/khulna/satkhira/5b404a8e76034e7512b5958e6ed50e38,Mo-Th 10:00-17:00; Fr 09:30-15:00; Sa 09:30-17:00; Su 09:00-17:00,Western Union,Q861042
56d04e61e1cb8ba1391b5adb71f36cf9,western_union,IFIC BANK LIMITED,,Jessore,KHULNA,,BD,(+880) 04222-71397,https://location.westernunion.com/bd/khulna/jessore/56d04e61e1cb8ba1391b5adb71f36cf9,Mo-Th 10:00-17:00; Su 10:00-17:00,Western Union,Q861042
fe4b94f8899d9a31b1e0de4179e801d9,western_union,IFIC BANK LIMITED,,Jashore,KHULNA,,BD,+880 1720-427367,https://location.westernunion.com/bd/khulna/jashore/fe4b94f8899d9a31b1e0de4179e801d9,Mo-Th 10:00-17:00; Su 10:00-17:00,Western Union,Q861042
e9de95eb9c713841c276cb3f2f7a1ff4,western_union,ISLAMI BANK BANGLADESHN LIMITED,,Satkhira,KHULNA,,BD,+880 1711-889960,https://location.westernunion.com/bd/khulna/satkhira/e9de95eb9c713841c276cb3f2f7a1ff4,Mo-Th 10:00-18:00; Sa-Su 10:00-18:00,Western Union,Q861042
504ebb45d1c84e32bf4e5afe8faad09c,western_union,IFIC BANK LIMITED,,Norail,Khulna,,BD,+880 1794-561387,https://location.westernunion.com/bd/khulna/norail/504ebb45d1c84e32bf4e5afe8faad09c,Mo-Th 10:00-17:00; Su 10:00-17:00,Western Union,Q861042
f46b45cfc5f79ec497768310057507d6,western_union,BRAC BANK LTD,,Jashore,KHULNA,,BD,+880 1713-919433,https://location.westernunion.com/bd/khulna/jashore/f46b45cfc5f79ec497768310057507d6,Mo-Su 08:00-21:00,Western Union,Q861042
2a201ab53e93f3d1df3579411e204c21,western_union,SAHA AGRO,,Narail,KHULNA,,BD,+880 1911-612960,https://location.westernunion.com/bd/khulna/narail/2a201ab53e93f3d1df3579411e204c21,Mo-Su 08:00-21:00,Western Union,Q861042
c4ffc74421e23cc4d1b7a436e8c24df6,western_union,GLOBAL ISLAMI BANK LTD,,Narail,KHULNA,,BD,+880 1911-511452,https://location.westernunion.com/bd/khulna/narail/c4ffc74421e23cc4d1b7a436e8c24df6,Mo-Th 10:00-17:00; Su 10:00-17:00,Western Union,Q861042
0c20c5a453538029ce84c3baf1322b9b,western_union,IFIC BANK LIMITED,,Narail,KHULNA,,BD,+880 1709-332731,https://location.westernunion.com/bd/khulna/narail/0c20c5a453538029ce84c3baf1322b9b,Mo-Th 10:00-17:00; Su 10:00-17:00,Western Union,Q861042
21864a61c742c8d7fb2b73c508132bec,western_union,IFIC BANK LIMITED,,Narail,KHULNA,,BD,+880 1964-903012,https://location.westernunion.com/bd/khulna/narail/21864a61c742c8d7fb2b73c508132bec,Mo-Th 10:00-17:00; Su 10:00-17:00,Western Union,Q861042
fa109af58bc2d8df7fa2310117efa7cb,western_union,BRAC BANK LTD,,Khulna,KHULNA,,BD,+880 1754-554489,https://location.westernunion.com/bd/khulna/khulna/fa109af58bc2d8df7fa2310117efa7cb,Mo-Su 08:00-21:00,Western Union,Q861042
6aff354d308c3de82a3514505c9b14c6,western_union,FIRST SECURITY ISLAMI BANK LTD,,Narail,KHULNA,,BD,+880 1708-160269,https://location.westernunion.com/bd/khulna/narail/6aff354d308c3de82a3514505c9b14c6,Mo-Th 10:00-17:00; Sa-Su 10:00-17:00,Western Union,Q861042
851ddcbdef808ccfbb230c3ba22b22ba,western_union,IFIC BANK LIMITED,,Khulna,Khulna,,BD,+880 1918-788089,https://location.westernunion.com/bd/khulna/khulna/851ddcbdef808ccfbb230c3ba22b22ba,Mo-Th 10:00-17:00; Su 10:00-17:00,Western Union,Q861042
bf2d5c63c1f3a961641a30e323ac411e,western_union,PUBALI BANK LIMITED,,Satkhira,KHULNA,,BD,(+880) 2-9551614-271,https://location.westernunion.com/bd/khulna/satkhira/bf2d5c63c1f3a961641a30e323ac411e,Mo-Th 09:00-17:00; Fr 09:30-15:00; Sa 09:30-17:00; Su 09:00-17:00,Western Union,Q861042
ca8f6c51080a7c2de97ccc1e8d09f9d0,western_union,ARGHO COSMETICS,,Narail,KHULNA,,BD,+880 1719-558196,https://location.westernunion.com/bd/khulna/narail/ca8f6c51080a7c2de97ccc1e8d09f9d0,Mo-Su 08:00-21:00,Western Union,Q861042
4d9f74815b08bb1bf4e9523aa0386e56,western_union,JANATA BANK LIMITED,,Khulna,KHULNA,,BD,+880 1717-223246,https://location.westernunion.com/bd/khulna/khulna/4d9f74815b08bb1bf4e9523aa0386e56,Mo-Th 10:00-17:00; Su 10:00-17:00,Western Union,Q861042
26e1e3f96254c33239c84e6cffa9084a,western_union,PUBALI BANK LIMITED,,Khulna,KHULNA,,BD,+880 1917-704712,https://location.westernunion.com/bd/khulna/khulna/26e1e3f96254c33239c84e6cffa9084a,Mo-Th 10:00-16:00; Fr 09:30-15:00; Sa 09:30-17:00; Su 10:00-16:00,Western Union,Q861042
688d9efd73c3c87e5754cc13b4fabad3,western_union,ISLAMI BANK BANGLADESH LIMITED,,Khulna,KHULNA,,BD,(+880) 172939345,https://location.westernunion.com/bd/khulna/khulna/688d9efd73c3c87e5754cc13b4fabad3,Mo-Th 10:00-18:00; Sa-Su 10:00-18:00,Western Union,Q861042
c21456eb476121227297f69f65d39376,western_union,GLOBAL ISLAMI BANK LTD,,Satkhira,KHULNA,,BD,+880 1759-885844,https://location.westernunion.com/bd/khulna/satkhira/c21456eb476121227297f69f65d39376,Mo-Th 10:00-17:00; Su 10:00-17:00,Western Union,Q861042
c68618099a2fbc394185e10e43d272b4,western_union,ROFIQUL TRADERS,,Jhenaidah,KHULNA,,BD,+880 1996-534811,https://location.westernunion.com/bd/khulna/jhenaidah/c68618099a2fbc394185e10e43d272b4,Mo-Th 09:30-17:30; Fr-Sa 09:30-14:30; Su 09:30-17:30,Western Union,Q861042
e6e8a0c3cbdfa8f4de73fb3f5488ee9a,western_union,THE CITY BANK LIMITED,,Satkhria,KHULNA,,BD,+880 471-63223,https://location.westernunion.com/bd/khulna/satkhria/e6e8a0c3cbdfa8f4de73fb3f5488ee9a,Mo-Th 10:00-17:00; Fr 09:30-15:00; Sa 09:30-17:00; Su 10:00-17:00,Western Union,Q861042
cb2f168de7b56e793200df25cd9e33b7,western_union,AB BANK LIMITED,,Satkhira,KHULNA,,BD,+880 471-63277,https://location.westernunion.com/bd/khulna/satkhira/cb2f168de7b56e793200df25cd9e33b7,Mo-Th 09:30-17:00; Su 09:30-17:00,Western Union,Q861042
a332b84b693f546b141049caef362225,western_union,ISLAMI BANK BANGLADESHN LIMITED,,Satkhira,KHULNA,,BD,+880 1711-889917,https://location.westernunion.com/bd/khulna/satkhira/a332b84b693f546b141049caef362225,Mo-Th 10:00-18:00; Sa-Su 10:00-18:00,Western Union,Q861042
3670e7996d6179a663318f7a798162aa,western_union,FIRST SECURITY ISLAMI BANK LTD,,Satkhira,KHULNA,,BD,+880 1913-262756,https://location.westernunion.com/bd/khulna/satkhira/3670e7996d6179a663318f7a798162aa,Mo-Th 10:00-17:00; Sa-Su 10:00-17:00,Western Union,Q861042
91cb1f9c1253af784b44180fcaf7c5aa,western_union,IFIC BANK LIMITED,,Satkhira,KHULNA,,BD,+880 1762-270357,https://location.westernunion.com/bd/khulna/satkhira/91cb1f9c1253af784b44180fcaf7c5aa,Mo-Th 10:00-17:00; Su 10:00-17:00,Western Union,Q861042
5f79066f24719437edac02ae9e80f7aa,western_union,SBAC BANK LIMITED,,Satkhira,KHULNA,,BD,+880 1712-572691,https://location.westernunion.com/bd/khulna/satkhira/5f79066f24719437edac02ae9e80f7aa,Mo-Th 10:00-16:30; Fr 09:30-15:00; Sa 09:30-17:00; Su 10:00-16:30,Western Union,Q861042
559540c3c28e06c16334318b03f75ae5,western_union,JANATA BANK LIMITED,,Satkhira,KHULNA,,BD,+880 1717-745981,https://location.westernunion.com/bd/khulna/satkhira/559540c3c28e06c16334318b03f75ae5,Mo-Th 10:00-17:00; Fr 09:30-15:00; Sa 09:30-17:00; Su 10:00-17:00,Western Union,Q861042
20b50a0eb30065f54ecbb93bf1ac2edd,western_union,M.K ENTERPRISE,,Khulna,KHULNA,,BD,+880 1919-329280,https://location.westernunion.com/bd/khulna/khulna/20b50a0eb30065f54ecbb93bf1ac2edd,Mo-Su 08:00-21:00,Western Union,Q861042
8208173ebe3fc7d1dc4c2703cced7fce,western_union,ISLAMI BANK BANGLADESH LIMITED,,Jessore,KHULNA,,BD,+880 1713-340946,https://location.westernunion.com/bd/khulna/jessore/8208173ebe3fc7d1dc4c2703cced7fce,Mo-Th 10:00-18:00; Sa-Su 10:00-18:00,Western Union,Q861042
4f6b701f74dcafc3cd826391e6ac3a1e,western_union,IFIC BANK LIMITED,,Khulna,KHULNA,,BD,+880 1713-257896,https://location.westernunion.com/bd/khulna/khulna/4f6b701f74dcafc3cd826391e6ac3a1e,Mo-Su 10:00-17:00,Western Union,Q861042
3778cc84a0443cb8a1a17d2976e125a2,western_union,IFIC BANK LIMITED,,Satkhira,KHULNA,,BD,+880 1627-495604,https://location.westernunion.com/bd/khulna/satkhira/3778cc84a0443cb8a1a17d2976e125a2,Mo-Th 10:00-17:00; Su 10:00-17:00,Western Union,Q861042
417de3e452afd7ddd02423a35301b816,western_union,ISLAMI BANK BANGLADESH LIMITED,,Khulna,KHULNA,,BD,+880 1324-412908,https://location.westernunion.com/bd/khulna/khulna/417de3e452afd7ddd02423a35301b816,Mo-Th 10:00-17:00; Sa-Su 10:00-17:00,Western Union,Q861042
b0f8a675a301601fd68fbb4758109a8d,western_union,IFIC BANK LIMITED,,Khulna,KHULNA,,BD,+880 1734-800500,https://location.westernunion.com/bd/khulna/khulna/b0f8a675a301601fd68fbb4758109a8d,Mo-Th 10:00-17:00; Su 10:00-17:00,Western Union,Q861042
eb4ab94051720f761aa8ae15ebfac394,western_union,ISLAMI BANK BANGLADESHN LIMITED,,Khulna,KHULNA,,BD,+880 1711-889912,https://location.westernunion.com/bd/khulna/khulna/eb4ab94051720f761aa8ae15ebfac394,Mo-Th 10:00-18:00; Sa-Su 10:00-18:00,Western Union,Q861042
f3400298ace2e64247e9c9bdc529923d,western_union,GLOBAL ISLAMI BANK LTD,,Khulna,KHULNA,,BD,+880 1745-551744,https://location.westernunion.com/bd/khulna/khulna/f3400298ace2e64247e9c9bdc529923d,Mo-Th 10:00-17:00; Su 10:00-17:00,Western Union,Q861042
2f89ee7afdf90d8707aa977dccb79e23,western_union,ISLAMI BANK BANGLADESHN LIMITED,,Khulna,KHULNA,,BD,+880 1711-432104,https://location.westernunion.com/bd/khulna/khulna/2f89ee7afdf90d8707aa977dccb79e23,Mo-Th 10:00-18:00; Sa-Su 10:00-18:00,Western Union,Q861042
acbcdc9a312b9b5e8b14a8069a6c0c82,western_union,ISLAMI BANK BANGLADESHN LIMITED,,Khulna,KHULNA,,BD,+880 1713-438545,https://location.westernunion.com/bd/khulna/khulna/acbcdc9a312b9b5e8b14a8069a6c0c82,Mo-Th 10:00-18:00; Sa-Su 10:00-18:00,Western Union,Q861042
5cb907a9f88e9991160d6b6dcd08459c,western_union,AL ARAFAH ISLAMI BANK LIMITED,,Satkhira,KHULNA,,BD,+880 1710-850300,https://location.westernunion.com/bd/khulna/satkhira/5cb907a9f88e9991160d6b6dcd08459c,Mo-Th 10:00-17:00; Su 10:00-17:00,Western Union,Q861042
c3d89f8d39af55437b16a4d3a31914e5,western_union,ASA,,Khulna,KHULNA,,BD,+880 1730-084838,https://location.westernunion.com/bd/khulna/khulna/c3d89f8d39af55437b16a4d3a31914e5,Mo-Th 08:00-19:00; Sa-Su 08:00-19:00,Western Union,Q861042
978eb93b1a2bb5e61a50e27d30b64c8d,western_union,DUTCH BANGLA BANK LIMITED,,Khulna,KHULNA,,BD,+880 1810-025615,https://location.westernunion.com/bd/khulna/khulna/978eb93b1a2bb5e61a50e27d30b64c8d,Mo-Su 08:00-18:00,Western Union,Q861042
ee1fd1ac6b6947a92063cbf5b507d990,western_union,DAULATPUR UPOSHAKHA,,Khulna,KHULNA,,BD,+880 1719-318999,https://location.westernunion.com/bd/khulna/khulna/ee1fd1ac6b6947a92063cbf5b507d990,Mo-Th 10:00-17:00; Su 10:00-17:00,Western Union,Q861042
b64bc6a5e709dbe4241c906891707e66,western_union,SONALI BANK LIMITED,,Khulna,KHULNA,,BD,+880 41-860480,https://location.westernunion.com/bd/khulna/khulna/b64bc6a5e709dbe4241c906891707e66,Mo-Th 10:00-16:00; Fr-Sa 09:00-16:00; Su 10:00-16:00,Western Union,Q861042
9453737e3257bc5a2a377c78a3a0ba9d,western_union,ISLAMI BANK BANGLADESH LIMITED,,Khulna,KHULNA,,BD,+880 1313-484313,https://location.westernunion.com/bd/khulna/khulna/9453737e3257bc5a2a377c78a3a0ba9d,Mo-Th 09:30-18:00; Sa 09:30-14:00; Su 09:30-18:00,Western Union,Q861042
66e6db25a2038afab8b94d129f5193ca,western_union,DUMURIA UPOSHAKHA,,Khulna,KHULNA,,BD,+880 1934-247378,https://location.westernunion.com/bd/khulna/khulna/66e6db25a2038afab8b94d129f5193ca,Mo-Th 10:00-17:00; Su 10:00-17:00,Western Union,Q861042
1e2b4cdaa548a948980bd549b2ac4f83,western_union,SOUTHEAST BANK LIMITED,,Khulna,KHULNA,,BD,+880 1705-403796,https://location.westernunion.com/bd/khulna/khulna/1e2b4cdaa548a948980bd549b2ac4f83,Mo-Th 09:00-17:00; Sa-Su 09:00-17:00,Western Union,Q861042
a59c89dca899f32f3fa2511b8d0e3eba,western_union,IFIC BANK LIMITED,,Khulna,KHULNA,,BD,+880 1790-929813,https://location.westernunion.com/bd/khulna/khulna/a59c89dca899f32f3fa2511b8d0e3eba,Mo-Th 10:00-17:00; Su 10:00-17:00,Western Union,Q861042
97cda11b155941355c4214a7bbd3c596,western_union,MUJGUNNI UPOSHAKHA,,Khulna,KHULNA,,BD,+880 1734-350836,https://location.westernunion.com/bd/khulna/khulna/97cda11b155941355c4214a7bbd3c596,Mo-Th 10:00-17:00; Su 10:00-17:00,Western Union,Q861042
f2c1acc2d7627b27d86dca984d6fd37b,western_union,NRB BANK LIMITED,,Khulna,KHULNA,,BD,+880 9666-457903,https://location.westernunion.com/bd/khulna/khulna/f2c1acc2d7627b27d86dca984d6fd37b,Mo-Th 10:00-17:00; Fr 09:30-15:00; Sa 09:30-17:00; Su 10:00-14:00,Western Union,Q861042
efb0bc68d002e9e8627bfb4741a4a6d0,western_union,M/S NOWRAJ TRADERS,,Khulna,KHULNA,,BD,+880 1917-483453,https://location.westernunion.com/bd/khulna/khulna/efb0bc68d002e9e8627bfb4741a4a6d0,Mo-Su 08:00-21:00,Western Union,Q861042
9589f4b2c424ab6fd53927f86f3c1c7a,western_union,IFIC BANK LIMITED,,Khulna,KHULNA,,BD,+880 1713-257896,https://location.westernunion.com/bd/khulna/khulna/9589f4b2c424ab6fd53927f86f3c1c7a,Mo-Th 10:00-17:00; Su 10:00-17:00,Western Union,Q861042
1f63f1e680714999edb95e8c9861e56f,western_union,MODERN ENTERPRISE,,Satkhira,KHULNA,,BD,+880 1736-542003,https://location.westernunion.com/bd/khulna/satkhira/1f63f1e680714999edb95e8c9861e56f,Mo-Su 08:00-21:00,Western Union,Q861042
18718c0e72bca09c2c530f29520c9ec9,western_union,ASA,,Khulna,KHULNA,,BD,+880 1730-084852,https://location.westernunion.com/bd/khulna/khulna/18718c0e72bca09c2c530f29520c9ec9,Mo-Th 08:00-19:00; Sa-Su 08:00-19:00,Western Union,Q861042
0cc16b2f62ab6816f15b96328efc04c0,western_union,ISLAMI BANK BANGLADESHN LIMITED,,Khulna,KHULNA,,BD,+880 1711-889911,https://location.westernunion.com/bd/khulna/khulna/0cc16b2f62ab6816f15b96328efc04c0,Mo-Th 10:00-18:00; Sa-Su 10:00-18:00,Western Union,Q861042
9b2803ab63b8c6d66f1cccdd5d5a3847,western_union,ISLAMI BANK BANGLADESHN LIMITED,,Khulna,KHULNA,,BD,+880 1713-391920,https://location.westernunion.com/bd/khulna/khulna/9b2803ab63b8c6d66f1cccdd5d5a3847,Mo-Th 10:00-18:00; Sa-Su 10:00-18:00,Western Union,Q861042
846c059651b0a8ffbe191511da641822,western_union,SBAC BANK LIMITED,,Khulna,KHULNA,,BD,+880 41-733464,https://location.westernunion.com/bd/khulna/khulna/846c059651b0a8ffbe191511da641822,Mo-Th 10:00-16:30; Fr 09:30-15:00; Sa 09:30-17:00; Su 10:00-16:30,Western Union,Q861042
a3beddeace263343836b7c9859582117,western_union,GLOBAL ISLAMI BANK LTD,,Khulna,KHULNA,,BD,+880 1711-353416,https://location.westernunion.com/bd/khulna/khulna/a3beddeace263343836b7c9859582117,Mo-Th 10:00-17:00; Su 10:00-17:00,Western Union,Q861042
705509e8711ec5da9fcf040ad65151f5,western_union,IFIC BANK LIMITED,,Khulna,KHULNA,,BD,+880 41-731327,https://location.westernunion.com/bd/khulna/khulna/705509e8711ec5da9fcf040ad65151f5,Mo-Th 10:00-17:00; Su 10:00-17:00,Western Union,Q861042
40a00baeae6511efe7c63906bf049c9f,western_union,IFIC BANK LIMITED,,Khulna,KHULNA,,BD,+880 41-812099,https://location.westernunion.com/bd/khulna/khulna/40a00baeae6511efe7c63906bf049c9f,Mo-Th 10:00-17:00; Su 10:00-17:00,Western Union,Q861042
83b662e19d5007c0e8591c7d653fb367,western_union,ISLAMI BANK BANGLADESHN LIMITED,,Khulna,KHULNA,,BD,+880 1713-199970,https://location.westernunion.com/bd/khulna/khulna/83b662e19d5007c0e8591c7d653fb367,Mo-Th 10:00-18:00; Sa-Su 10:00-18:00,Western Union,Q861042
2e8d831dd06ec3018dada89e9c0fe435,western_union,ISLAMI BANK BANGLADESH LIMITED,,Khulna,KHULNA,,BD,+880 1713-061905,https://location.westernunion.com/bd/khulna/khulna/2e8d831dd06ec3018dada89e9c0fe435,Mo-Th 10:00-18:00; Sa 10:00-14:30; Su 10:00-18:00,Western Union,Q861042
b4e95ecf8ec82143e1b4f592c98b2dd9,western_union,THE FARMERS BANK LIMITED,,Khulna,KHULNA,,BD,+880 1713-069631,https://location.westernunion.com/bd/khulna/khulna/b4e95ecf8ec82143e1b4f592c98b2dd9,Mo-Th 09:00-17:00; Sa-Su 09:00-17:00,Western Union,Q861042
5234e897aa59c2a568839b529b8ca1f1,western_union,ISLAMI BANK BANGLADESHN LIMITED,,Khulna,KHULNA,,BD,+880 1713-199958,https://location.westernunion.com/bd/khulna/khulna/5234e897aa59c2a568839b529b8ca1f1,Mo-Th 10:00-18:00; Sa-Su 10:00-18:00,Western Union,Q861042
31f8ccfa63c3939a0dbb273f77dea451,western_union,IFIC BANK LIMITED,,Khulna,KHULNA,,BD,+880 1725-281135,https://location.westernunion.com/bd/khulna/khulna/31f8ccfa63c3939a0dbb273f77dea451,Mo-Su 10:00-17:00,Western Union,Q861042
463a8424eeb15928cbcf1c14b7611708,western_union,ICB ISLAMIC BANK LIMITED,,Khulna,KHULNA,,BD,+880 1716-886722,https://location.westernunion.com/bd/khulna/khulna/463a8424eeb15928cbcf1c14b7611708,Mo-Th 10:00-18:00; Fr 09:30-15:00; Sa 09:30-17:00; Su 10:00-18:00,Western Union,Q861042
d69a24bd94efc56e39d001c41f78645b,western_union,DUTCH BANGLA BANK LIMITED,,Khulna,KHULNA,,BD,+880 1917-055633,https://location.westernunion.com/bd/khulna/khulna/d69a24bd94efc56e39d001c41f78645b,Mo-Su 09:00-18:00,Western Union,Q861042
442164b3dc734bfacffff22e0d696687,western_union,ISLAMI BANK BANGLADESH LIMITED,,Khulna,KHULNA,,BD,+880 1729-039310,https://location.westernunion.com/bd/khulna/khulna/442164b3dc734bfacffff22e0d696687,Mo-Th 10:00-18:00; Sa-Su 10:00-18:00,Western Union,Q861042
0fc4ac9dd067ed10b54d8a7452bed2c9,western_union,ASA,,Satkhira,KHULNA,,BD,+880 1730-092882,https://location.westernunion.com/bd/khulna/satkhira/0fc4ac9dd067ed10b54d8a7452bed2c9,Mo-Th 08:00-19:00; Sa-Su 08:00-19:00,Western Union,Q861042
2d861658ef762c65f32cfce34e55b422,western_union,ASA,,Khulna,KHULNA,,BD,+880 1730-084793,https://location.westernunion.com/bd/khulna/khulna/2d861658ef762c65f32cfce34e55b422,Mo-Th 08:00-19:00; Sa-Su 08:00-19:00,Western Union,Q861042
1b709176730b3bffd5da0f0703ccc041,western_union,BRAC BANK LTD,,Bagherhat,KHULNA,,BD,+880 1713-248883,https://location.westernunion.com/bd/khulna/bagherhat/1b709176730b3bffd5da0f0703ccc041,Mo-Su 08:00-21:00,Western Union,Q861042
dfde3bc0dac069be0675ebf514db63de,western_union,ISLAMI BANK BANGLADESHN LIMITED,,Khulna,KHULNA,,BD,+880 1713-269065,https://location.westernunion.com/bd/khulna/khulna/dfde3bc0dac069be0675ebf514db63de,Mo-Th 10:00-18:00; Sa-Su 10:00-18:00,Western Union,Q861042
13b07538e2aaff0364aed78e67e0b7b7,western_union,ASA,,Khulna,KHULNA,,BD,+880 1730-084826,https://location.westernunion.com/bd/khulna/khulna/13b07538e2aaff0364aed78e67e0b7b7,Mo-Th 08:00-19:00; Sa-Su 08:00-19:00,Western Union,Q861042
c5e800e4c8b199a6448185c8903df4e4,western_union,IFIC BANK LIMITED,,Khulna,KHULNA,,BD,+880 1730-449320,https://location.westernunion.com/bd/khulna/khulna/c5e800e4c8b199a6448185c8903df4e4,Mo-Th 10:00-17:00; Su 10:00-17:00,Western Union,Q861042
c2d027c2ba94233bc0f778849f5c4fd4,western_union,ASA,,Khulna,KHULNA,,BD,+880 1730-084828,https://location.westernunion.com/bd/khulna/khulna/c2d027c2ba94233bc0f778849f5c4fd4,Mo-Th 08:00-19:00; Sa-Su 08:00-19:00,Western Union,Q861042
7c443af7ee25015574f5d2afa5672c57,western_union,IFIC BANK LIMITED,,Khulna,KHULNA,,BD,+880 1778-454472,https://location.westernunion.com/bd/khulna/khulna/7c443af7ee25015574f5d2afa5672c57,Mo-Th 10:00-17:00; Su 10:00-17:00,Western Union,Q861042
1352ad864e9b5b30355b25c97d10168e,western_union,JAMIL SUPER SHOP,,Bagerhat,KHULNA,,BD,+880 1712-151015,https://location.westernunion.com/bd/khulna/bagerhat/1352ad864e9b5b30355b25c97d10168e,Mo-Su 08:00-21:00,Western Union,Q861042
294135e4e328fc061df5a8d0f8c98668,western_union,ISLAMI BANK BANGLADESHN LIMITED,,Satkhira,KHULNA,,BD,+880 1755-580982,https://location.westernunion.com/bd/khulna/satkhira/294135e4e328fc061df5a8d0f8c98668,Mo-Th 10:00-18:00; Sa-Su 10:00-18:00,Western Union,Q861042
9168c566e53a25b9a6696bb39f5e42af,western_union,SBAC BANK LIMITED,,Khulna,KHULNA,,BD,+880 1762-695488,https://location.westernunion.com/bd/khulna/khulna/9168c566e53a25b9a6696bb39f5e42af,Mo-Th 10:00-17:00; Fr 09:30-15:00; Sa 09:30-17:00; Su 10:00-17:00,Western Union,Q861042
e80d7000708213e78e5ef5eb50fb019e,western_union,EASTERN BANK LIMITED,,Khulna,KHULNA,,BD,+880 41-720041,https://location.westernunion.com/bd/khulna/khulna/e80d7000708213e78e5ef5eb50fb019e,Mo-Th 09:00-17:00; Fr 09:30-15:00; Sa 09:30-17:00; Su 09:00-17:00,Western Union,Q861042
f83a048f51fbbb05f941df57fb336f28,western_union,ISLAMI BANK BANGLADESHN LIMITED,,Khulna,KHULNA,,BD,+880 1713-185038,https://location.westernunion.com/bd/khulna/khulna/f83a048f51fbbb05f941df57fb336f28,Mo-Th 10:00-18:00; Sa-Su 10:00-18:00,Western Union,Q861042
5c78322d87adde1a628faac519eed663,western_union,IFIC BANK LIMITED,,Khulna,KHULNA,,BD,+880 1740-060143,https://location.westernunion.com/bd/khulna/khulna/5c78322d87adde1a628faac519eed663,Mo-Th 10:00-17:00; Su 10:00-17:00,Western Union,Q861042
636246592bd9dd65754c2093f90a477e,western_union,OME INTERNATIONAL,,Khulna,KHULNA,,BD,+880 1716-169553,https://location.westernunion.com/bd/khulna/khulna/636246592bd9dd65754c2093f90a477e,Mo-Su 08:00-21:00,Western Union,Q861042
4fc0b4590b23994d6c44cb1795854b40,western_union,BRAC BANK LTD,,Bagherhat,KHULNA,,BD,+880 1717-997963,https://location.westernunion.com/bd/khulna/bagherhat/4fc0b4590b23994d6c44cb1795854b40,Mo-Su 08:00-21:00,Western Union,Q861042
08fd83a1044a33a47232db32d2f928d9,western_union,ISLAMI BANK BANGLADESHN LIMITED,,Bagerhat,KHULNA,,BD,+880 1998-707054,https://location.westernunion.com/bd/khulna/bagerhat/08fd83a1044a33a47232db32d2f928d9,Mo-Th 10:00-18:00; Sa-Su 10:00-18:00,Western Union,Q861042
9c857f23fa809b26d0e2e13fa9ea8cf1,western_union,IFIC BANK LIMITED,,Bagerhat,KHULNA,,BD,+880 1788-681707,https://location.westernunion.com/bd/khulna/bagerhat/9c857f23fa809b26d0e2e13fa9ea8cf1,Mo-Th 10:00-17:00; Su 10:00-17:00,Western Union,Q861042
9d8bc13fccd9bb08914d0b292555f5df,western_union,IFIC BANK LIMITED,,Khulna,KHULNA,,BD,+880 1934-247378,https://location.westernunion.com/bd/khulna/khulna/9d8bc13fccd9bb08914d0b292555f5df,Mo-Th 10:00-17:00; Su 10:00-17:00,Western Union,Q861042
c3324253d8a0f4f53b82444ce4be87b4,western_union,GLOBAL ISLAMI BANK LTD,,Khulna,KHULNA,,BD,+880 1671-128874,https://location.westernunion.com/bd/khulna/khulna/c3324253d8a0f4f53b82444ce4be87b4,Mo-Th 10:00-16:30; Fr 09:30-15:00; Sa 09:30-17:00; Su 10:00-16:30,Western Union,Q861042
f2f3644a725617633ee0caa342056747,western_union,IFIC BANK LIMITED,,Khulna,KHULNA,,BD,+880 1754-803360,https://location.westernunion.com/bd/khulna/khulna/f2f3644a725617633ee0caa342056747,Mo-Th 10:00-17:00; Su 10:00-17:00,Western Union,Q861042
a5cbd164cb4a0fa8c7a31a7cca198516,western_union,IFIC BANK LIMITED,,Barisal,KHULNA,,BD,+880 431-64013,https://location.westernunion.com/bd/khulna/barisal/a5cbd164cb4a0fa8c7a31a7cca198516,Mo-Th 10:00-17:00; Su 10:00-17:00,Western Union,Q861042
74c3e94f80cef05dec6bd5e4808476a1,western_union,SBAC BANK LIMITED,,Khulna,KHULNA,,BD,+880 1782-101475,https://location.westernunion.com/bd/khulna/khulna/74c3e94f80cef05dec6bd5e4808476a1,Mo-Th 10:00-18:00; Sa 10:00-14:00; Su 10:00-18:00,Western Union,Q861042
2f2de6bf6b1915697ce92414bf95b194,western_union,IFIC BANK LIMITED,,Khulna,KHULNA,,BD,+880 1913-812233,https://location.westernunion.com/bd/khulna/khulna/2f2de6bf6b1915697ce92414bf95b194,Mo-Th 10:00-17:00; Su 10:00-17:00,Western Union,Q861042
e889fba4efdcebf6be318cadc6cc7738,western_union,BISWAS AGRO FARMS,,Khulna,KHULNA,,BD,+880 1611-522404,https://location.westernunion.com/bd/khulna/khulna/e889fba4efdcebf6be318cadc6cc7738,Mo-Su 08:00-21:00,Western Union,Q861042
8150bf60c1245107b40963ce07d5ab63,western_union,SONALI BANK LIMITED,,Khulna,KHULNA,,BD,+880 1715-595464,https://location.westernunion.com/bd/khulna/khulna/8150bf60c1245107b40963ce07d5ab63,Mo-Th 10:00-16:00; Fr-Sa 09:00-16:00; Su 10:00-16:00,Western Union,Q861042
0762f406e1703fdf919e3893754f8815,western_union,IFIC BANK LIMITED,,Khulna,KHULNA,,BD,+880 1758-414400,https://location.westernunion.com/bd/khulna/khulna/0762f406e1703fdf919e3893754f8815,Mo-Th 10:00-17:00; Su 10:00-17:00,Western Union,Q861042
f4d170dcd175852dd93f468ae5a61c54,western_union,SBAC BANK LIMITED,,Bagerhat,KHULNA,,BD,(+880) 46-6356117,https://location.westernunion.com/bd/khulna/bagerhat/f4d170dcd175852dd93f468ae5a61c54,Mo-Th 10:00-16:30; Fr 09:30-15:00; Sa 09:30-17:00; Su 10:00-16:30,Western Union,Q861042
7a70406953297c1462467787401e9fcb,western_union,IFIC BANK LIMITED,,Bagerhat,KHULNA,,BD,+880 1943-510700,https://location.westernunion.com/bd/khulna/bagerhat/7a70406953297c1462467787401e9fcb,Mo-Th 10:00-17:00; Su 10:00-17:00,Western Union,Q861042
0039130e2ccbdc35f911dada28e0c497,western_union,IFIC BANK LIMITED,,Bagerhat,KHULNA,,BD,+880 468-64539,https://location.westernunion.com/bd/khulna/bagerhat/0039130e2ccbdc35f911dada28e0c497,Mo-Th 10:00-17:00; Su 10:00-17:00,Western Union,Q861042
523b2e5a630a7fdd3fe1ba7db164484d,western_union,TRUST BANK LIMITED,,Khulna,KHULNA,,BD,+880 2-7119227,https://location.westernunion.com/bd/khulna/khulna/523b2e5a630a7fdd3fe1ba7db164484d,Mo-Th 10:00-17:00; Fr 09:30-15:00; Sa 09:30-17:00; Su 10:00-17:00,Western Union,Q861042
1c7e7849e420cf1ab3b3df8f9c23f4b0,western_union,ISLAMI BANK BANGLADESHN LIMITED,,Bagerhat,KHULNA,,BD,+880 1711-889920,https://location.westernunion.com/bd/khulna/bagerhat/1c7e7849e420cf1ab3b3df8f9c23f4b0,Mo-Th 10:00-18:00; Sa-Su 10:00-18:00,Western Union,Q861042
e7e174c18caa9cfcdad474a59c352c5a,western_union,NRB COMMERCIAL BANK LIMITED,,Bagerhat,KHULNA,,BD,+880 1711-136873,https://location.westernunion.com/bd/khulna/bagerhat/e7e174c18caa9cfcdad474a59c352c5a,Mo-Fr 10:00-16:00; Su 10:00-16:00,Western Union,Q861042
c480ecc30d3ab9021c4a4261c4d3d09a,western_union,ISLAMI BANK BANGLADESHN LIMITED,,Bagerhat,KHULNA,,BD,+880 1714-016406,https://location.westernunion.com/bd/khulna/bagerhat/c480ecc30d3ab9021c4a4261c4d3d09a,Mo-Th 10:00-18:00; Sa-Su 10:00-18:00,Western Union,Q861042
9fb290207afa84e6bc08372a029e338e,western_union,ISLAMI BANK BANGLADESH LIMITED,,Bagerhat,KHULNA,,BD,+880 1729-039304,https://location.westernunion.com/bd/khulna/bagerhat/9fb290207afa84e6bc08372a029e338e,Mo-Th 10:00-18:00; Sa-Su 10:00-18:00,Western Union,Q861042
406315f40ea088bb156f35d20d7f1964,western_union,SBAC BANK LIMITED,,Bagerhat,KHULNA,,BD,+880 1718-279646,https://location.westernunion.com/bd/khulna/bagerhat/406315f40ea088bb156f35d20d7f1964,Mo-Th 10:00-17:00; Fr 09:30-15:00; Sa 09:30-17:00; Su 09:00-17:00,Western Union,Q861042
52d22258b3834df4b267af80b95eaa9d,western_union,IFIC BANK LIMITED,,Bagerhat,KHULNA,,BD,+880 1912-330059,https://location.westernunion.com/bd/khulna/bagerhat/52d22258b3834df4b267af80b95eaa9d,Mo-Th 10:00-17:00; Su 10:00-17:00,Western Union,Q861042
e7623f4017d2dba7c1820a84407b7325,western_union,ISLAMI BANK BANGLADESHN LIMITED,,Bagerhat,KHULNA,,BD,+880 1711-889922,https://location.westernunion.com/bd/khulna/bagerhat/e7623f4017d2dba7c1820a84407b7325,Mo-Th 10:00-18:00; Sa-Su 10:00-18:00,Western Union,Q861042
ce42c8a4a814d4320cbd30e2e6648c29,western_union,IFIC BANK LIMITED,,Bagerhat,KHULNA,,BD,+880 1306-884552,https://location.westernunion.com/bd/khulna/bagerhat/ce42c8a4a814d4320cbd30e2e6648c29,Mo-Th 10:00-17:00; Su 10:00-17:00,Western Union,Q861042
2067c8cbebdc50a170cd65e95c9a087e,western_union,BRAC BANK LTD,,Bagherhat,KHULNA,,BD,+880 1753-109082,https://location.westernunion.com/bd/khulna/bagherhat/2067c8cbebdc50a170cd65e95c9a087e,Mo-Su 08:00-21:00,Western Union,Q861042
4d836dbde600674e777efd1789fcc1ea,western_union,AL ARAFAH ISLAMI BANK LIMITED,,Bagerhat,KHULNA,,BD,+880 1717-964973,https://location.westernunion.com/bd/khulna/bagerhat/4d836dbde600674e777efd1789fcc1ea,Mo-Th 10:00-17:00; Su 10:00-17:00,Western Union,Q861042
28c68149a4fb482922121a8c71fa6b9f,western_union,IFIC BANK LIMITED,,Jashore,KHULNA,,BD,+880 1913-337320,https://location.westernunion.com/bd/khulna/jashore/28c68149a4fb482922121a8c71fa6b9f,Mo-Su 10:00-17:00,Western Union,Q861042
6788d050adef84fe5c33d9f843efd6e9,western_union,IFIC BANK LIMITED,,Bagerhat,KHULNA,,BD,+880 1768-092882,https://location.westernunion.com/bd/khulna/bagerhat/6788d050adef84fe5c33d9f843efd6e9,Mo-Th 10:00-17:00; Su 10:00-17:00,Western Union,Q861042
8254f8eef1350803943723cb2af980bf,western_union,JANATA BANK LIMITED,,Bagerhat,KHULNA,,BD,+880 1711-813191,https://location.westernunion.com/bd/khulna/bagerhat/8254f8eef1350803943723cb2af980bf,Mo-Th 10:00-17:00; Su 10:00-17:00,Western Union,Q861042
27c87d0aa490a0878737a1266b387477,western_union,ISLAMI BANK BANGLADESHN LIMITED,,Bagerhat,KHULNA,,BD,+880 1787-676754,https://location.westernunion.com/bd/khulna/bagerhat/27c87d0aa490a0878737a1266b387477,Mo-Th 10:00-18:00; Sa-Su 10:00-18:00,Western Union,Q861042
