Ref,Spider,Name,Address,City,State,Zipcode,Country,Phone,Website,Hours,Brand,WikiData
https://stores.advanceautoparts.com/tn/white-house/3201-highway-31-w,advance_auto_parts_us,Advance Auto Parts,,White House,TN,,US,+1 615-672-1739,https://stores.advanceautoparts.com/tn/white-house/3201-highway-31-w,Mo-Sa 07:30-21:00; Su 08:00-20:00,Advance Auto Parts,Q4686051
https://locations.arbys.com/tn/whitehouse/301-white-house-crossing-way-suite-a.html,arbys_us,"Arby's Fast-Food Drive Through Near You in White House, TN",,White House,TN,,US,+1 615-672-5253,https://locations.arbys.com/tn/whitehouse/301-white-house-crossing-way-suite-a.html,Mo-Th 09:30-23:00; Fr-Sa 09:30-24:00; Su 09:30-23:00,Arby's,Q630866
6235,autozone_us,AutoZone Auto Parts White House,,White House,TN,,US,+1 615-581-6125,https://www.autozone.com/locations/tn/white-house/611-highway-76.html,Mo-Sa 07:30-21:00; Su 08:00-20:00,AutoZone,Q4826087
https://awrestaurants.com/locations/tennessee/white-house/803-hwy76/,awrestaurants,A&W Restaurant,,White House,TN,,US,+1 615-285-0444,https://awrestaurants.com/locations/tennessee/white-house/803-hwy76/,Mo-Su 10:00-22:00,A&W Restaurants,Q277641
175437,bluerhino,Love's #629,,White House,TN,,US,+1 615-672-0261,,,Blue Rhino,Q65681213
107547,bluerhino,Super Stop Market,,White House,TN,,US,+1 615-672-3589,,,Blue Rhino,Q65681213
103180,bluerhino,Walmart #4483,,White House,TN,,US,+1 615-672-6773,,,Blue Rhino,Q65681213
192423,bluerhino,Murphy's #7518,,White House,TN,,US,+1 615-672-0329,,,Blue Rhino,Q65681213
139336,bluerhino,Speedway #7110,,White House,TN,,US,+1 615-672-7210,,,Blue Rhino,Q65681213
61307,bluerhino,Kroger #545 - Nashville,,Whitehouse,TN,,US,+1 615-672-3175,,,Blue Rhino,Q65681213
174954,bluerhino,Kroger #545 - Nashville - Fuel Site,,Whitehouse,TN,,US,+1 615-672-3175,,,Blue Rhino,Q65681213
152130,bluerhino,Walgreens #9836,,White House,TN,,US,+1 615-672-0436,,,Blue Rhino,Q65681213
194748,bluerhino,Ace Hardware White House #17483,,White House,TN,,US,+1 615-581-0623,,,Blue Rhino,Q65681213
23850,burgerking,Burger King,,White House,TN,,US,+1 615-581-0820,https://www.bk.com/store-locator/store/restaurant_62765,Mo-Th 06:00-22:00; Fr-Sa 06:00-23:00; Su 06:00-22:00,Burger King,Q177054
364782,captaind,Captain D's,,White House,TN,,US,+1 615-581-0326,https://locations.captainds.com/ll/US/TN/White-House/631-Old-State-Rte-76,Mo-Su 10:30-21:00,Captain D's,Q5036616
https://stores.catofashions.com/#26560369,cato_us,Cato,,,TN,,US,+1 615-672-3808,https://stores.catofashions.com/tn/white-house/301-richard-wilkes-road,Mo-Th 10:00-20:00; Fr 00:00-20:00; Sa 10:00-20:00; Su 13:00-18:00,Cato,Q16956136
64488,citi,ATM Mapco,,White House,TN,,US,,,,Citibank,Q857063
75923,citi,ATM SIMMONS BANK,,White House,TN,,US,,,,Citibank,Q857063
78499,citi,ATM Speedway,,White House,TN,,US,,,,Citibank,Q857063
91362,citi,ATM Walgreens,,White House,TN,,US,,,,Citibank,Q857063
7739,dollartree,DollarTree,,White House,TN,,US,+1 615-581-6019,,Mo-Sa 09:00-21:00; Su 10:00-20:00,Dollar Tree,Q5289230
6163,dominos_pizza_us,Domino's Pizza,,White House,TN,,US,+1 615-672-7272,https://pizza.dominos.com/tennessee/white-house/3001-highway-31-w,Mo-Th 10:00-24:00; Fr-Sa 10:00-01:00; Su 10:00-24:00,Domino's,Q839466
351934,dunkin_us,Dunkin',,White House,TN,,US,+1 615-334-5540,https://locations.dunkindonuts.com/en/tn/white-house/810-highway-76/351934,Mo-Fr 04:00-21:00; Sa-Su 05:00-21:00,Dunkin',Q847743
https://www.edwardjones.com/us-en/financial-advisor/taylor-carter,edwardjones,Taylor Carter,,White House,TN,,US,+1 615-672-3088,https://www.edwardjones.com/us-en/financial-advisor/taylor-carter,Mo-Fr 08:00-17:00,Edward Jones,Q5343830
https://local.fedex.com/#25206484,fedex,,,White House,TN,,US,+1 800-463-3339,https://local.fedex.com/en-us/tn/white-house/atkki,,FedEx,Q459477
903193,firestone_auto_care,Firestone Complete Auto Care,,White House,TN,,US,+1 615-283-7581,https://local.firestonecompleteautocare.com/tennessee/white-house/115-wilkinson-lane/,,Firestone,Q420837
6630,gamestop_us,Richard Wilks Dr White House,,White House,TN,,US,+1 615-672-6728,https://www.gamestop.com/search/?store=6630,Mo-Th 11:00-20:00; Fr-Sa 10:00-21:00; Su 11:00-20:00,GameStop,Q202210
https://salons.greatclips.com/us/tn/white-house/810-hwy-76,greatclips,Great Clips,,White House,TN,,US,+1 615-285-7095,https://salons.greatclips.com/us/tn/white-house/810-hwy-76,Mo-Fr 09:00-19:00; Sa 08:00-18:00; Su 10:00-17:00,Great Clips,Q5598967
1501821,hardees_us,Hardee's,,White House,TN,,US,+1 615-672-5229,https://locations.hardees.com/tn/white-house/501-hester-drive,,Hardee's,Q1585088
bnawhhx-hampton-white-house,hilton,Hampton Inn White House,,,TN,,US,+1 615-672-3993,https://www.hilton.com/ar/hotels/bnawhhx-hampton-white-house/,,Hampton by Hilton,Q5646230
40034,h_r_block,H&R Block,,White House,TN,,US,+1 615-672-3721,https://www.hrblock.com/local-tax-offices/tennessee/white-house/2910-hwy-31-w-ste-b/40034/,,H&R Block,Q5627799
https://office.jacksonhewitt.com/#27579804,jackson_hewitt,Jackson Hewitt,,White House,TN,,US,+1 615-672-2421,https://office.jacksonhewitt.com/tax-preparation-services-locations/en/tn/white-house/222-wilkinson-ln/54483,Mo-Fr 09:00-19:00; Sa 09:00-18:00; Su 13:00-18:00,Jackson Hewitt,Q6117132
https://locations.kfc.com/#11250268,kfc,Chicken Nuggets Near White House,,White House,TN,,US,,https://locations.kfc.com/tn/white-house/803-hwy76/chickennugget,Mo-Su 10:00-22:00,KFC,Q524757
594,loves,Site 629,,White House,TN,,US,+1 615-672-0261,,,Love's,Q1872496
161701,marathon_petroleum_us,Sudden Service 74,,WHITE HOUSE,TN,,US,+1 615-672-3492,,,Marathon,Q458363
2653,mightyflame,MAPCO EXPRESS #3299,,White House,TN,,US,+1 615-672-5170,,,Mighty Flame,
7518,murphy_usa_us,,,White House,TN,,US,+1 615-672-0329,,Mo-Sa 05:00-23:00; Su 05:30-23:00,Murphy USA,Q19604459
https://locations.oreillyauto.com/tn/whitehouse/check-engine-light-testing-1627.html,oreilly,Your White House O'Reilly Auto Parts Store,,White House,TN,,US,+1 615-672-3689,https://locations.oreillyauto.com/tn/whitehouse/check-engine-light-testing-1627.html,Mo-Sa 07:00-21:00; Su 08:00-20:00,O'Reilly Auto Parts,Q7071951
https://locations.oreillyauto.com/tn/whitehouse/wiper-installation-1627.html,oreilly,Your White House O'Reilly Auto Parts Store,,White House,TN,,US,+1 615-672-3689,https://locations.oreillyauto.com/tn/whitehouse/wiper-installation-1627.html,Mo-Sa 07:00-21:00; Su 08:00-20:00,O'Reilly Auto Parts,Q7071951
https://locations.oreillyauto.com/tn/whitehouse/battery-testing-1627.html,oreilly,Your White House O'Reilly Auto Parts Store,,White House,TN,,US,+1 615-672-3689,https://locations.oreillyauto.com/tn/whitehouse/battery-testing-1627.html,Mo-Sa 07:00-21:00; Su 08:00-20:00,O'Reilly Auto Parts,Q7071951
https://locations.oreillyauto.com/tn/whitehouse/autopartes-1627.html,oreilly,Tu tienda O'Reilly Auto Parts en White House,,White House,TN,,US,+1 615-672-3689,https://locations.oreillyauto.com/tn/whitehouse/autopartes-1627.html,Mo-Sa 07:00-21:00; Su 08:00-20:00,O'Reilly Auto Parts,Q7071951
https://locations.papajohns.com/#10692289,papa_johns,Papa John's,,White House,TN,,US,+1 615-672-5656,https://locations.papajohns.com/united-states/tn/37188/white-house/149-raymond-hirsch-parkway,Mo-Th 10:00-23:00; Fr-Sa 10:00-24:00; Su 10:00-23:00,Papa John's Pizza,Q2759586
048932,penske,White House Mulch &amp; More,,WHITE HOUSE,TN,,US,+1 615-667-3314,https://www.pensketruckrental.com/locations/us/tennessee/white_house/048932/,,Penske,Q81234570
tn_white-house_640-old-state-rte-76,pizza_hut_us,640 Old State Rte 76,,White House,TN,,US,+1 615-672-2229,https://locations.pizzahut.com/tn/white-house/640-old-state-rte-76,,Pizza Hut,Q191615
paint-n-paper-shoppe-27228,ppgpaints,PAINT N PAPER SHOPPE,,"White House, ",TN,,US,+1 615-672-0481,https://www.ppgpaints.com/store-locator/us/tennessee/white-house-paint-stores/paint-n-paper-shoppe-27228,,PPG Paints,Q83891559
1048,scooters_coffee_us,Hwy 31 W & Raymond Hirsch Pkwy,,White House,TN,,US,+1 615-334-6986,,Mo-Fr 05:30-20:00; Sa-Su 07:00-20:00,Scooter's Coffee,Q117280308
https://restaurants.subway.com/#14917019,subway,Subway Wal-Mart #4483,,Whitehouse Robertson,TN,,US,+1 615-672-0530,https://restaurants.subway.com/united-states/tn/whitehouse/222-wilkerson-lane,Mo-Su 08:00-21:00,Subway,Q244457
https://restaurants.subway.com/#14914171,subway,Subway White House 76 Shopping Center,,White House Robertson,TN,,US,+1 615-672-7874,https://restaurants.subway.com/united-states/tn/white-house/648-hwy-76,Mo-Su 09:00-22:00,Subway,Q244457
https://locations.tacobell.com/#3917012,taco_bell,Taco Bell,,White House,TN,,US,+1 615-672-7779,https://locations.tacobell.com/tn/white-house/330-hester-dr-.html,Mo-Th 07:00-01:00; Fr 07:00-03:00; Sa 08:00-03:00; Su 08:00-01:00,Taco Bell,Q752941
583865,taco_johns_us,White House,"1003 Hwy 76, White House TN 37188",White House,TN,,US,+1 615-672-6902,https://locations.tacojohns.com/tn/white-house/1003-hwy-76/,24/7,Taco John's,Q7673962
926E,tmobile_us,Hwy 76 & Raymond Hirsch Pkwy,,White House,TN,,US,+1 615-334-1565,https://www.t-mobile.com/store-locator/tn/white-house/hwy-76-raymond-hirsch-pkwy,,T-Mobile,Q3511885
1387496,usps,WHITE HOUSE,,WHITE HOUSE,TN,,US,+1 615-672-2537,,Mo-Fr 08:00-16:00; Sa 08:00-12:00,United States Postal Service,Q668687
3718800002,usps_collection_boxes,USPS COLLECTION BOX - BLUE BOX,100 HIGHWAY 76,WHITE HOUSE,TN,,US,,,,United States Postal Service,Q668687
3718800009,usps_collection_boxes,USPS COLLECTION BOX - BLUE BOX,2910 HIGHWAY 31 W,WHITE HOUSE,TN,,US,,,,United States Postal Service,Q668687
3718800007,usps_collection_boxes,USPS COLLECTION BOX - PO LOBBY,616 HIGHWAY 76,WHITE HOUSE,TN,,US,,,,United States Postal Service,Q668687
3718800008,usps_collection_boxes,USPS COLLECTION BOX - PO LOBBY,616 HIGHWAY 76,WHITE HOUSE,TN,,US,,,,United States Postal Service,Q668687
3718800003,usps_collection_boxes,USPS COLLECTION BOX - BLUE BOX,616 HIGHWAY 76,WHITE HOUSE,TN,,US,,,,United States Postal Service,Q668687
3718800010,usps_collection_boxes,USPS COLLECTION BOX - PO LOBBY,616 HIGHWAY 76,WHITE HOUSE,TN,,US,,,,United States Postal Service,Q668687
whitehouse_oil-change-040096,valvoline_instant_oil_change,Valvoline,600 Highway 76 ,Whitehouse,TN,,US,+1 615-672-5466,https://store.vioc.com/tn/whitehouse/oil-change-040096.html,,Valvoline Instant Oil Change,Q7912852
A00000253514,verizon_us,Russell Cellular White House,,White House,TN,,US,+1 615-922-0385,https://www.verizon.com/stores/details/tennessee/white-house/russell-cellular-white-house-1533422/,Mo-Sa 10:00-18:00; Su 11:00-17:00,Verizon,Q919641
,visa,,,WHITE HOUSE,TN,,US,,,,,
,visa,,,WHITE HOUSE,TN,,US,,,,,
,visa,,,WHITEHOUSE,TN,,US,,,,,
,visa,,,WHITE HOUSE,TN,,US,,,,,
,visa,,,WHITE HOUSE,TN,,US,,,,,
,visa,,,WHITE HOUSE,TN,,US,,,,,
,visa,,,WHITE HOUSE,TN,,US,,,,,
,visa,,,WHITE HOUSE,TN,,US,,,,,
,visa,,,WHITE HOUSE,TN,,US,,,,,
,visa,,,WHITE HOUSE,TN,,US,,,,,
,visa,,,WHITE HOUSE,TN,,US,,,,,
,visa,,,WHITE HOUSE,TN,,US,,,,,
,visa,,,WHITE HOUSE,TN,,US,,,,,
,visa,,,WHITE HOUSE,TN,,US,,,,,
,visa,,,WHITE HOUSE,TN,,US,,,,,
,visa,,,WHITE HOUSE,TN,,US,,,,,
,visa,,,WHITE HOUSE,TN,,US,,,,,
,visa,,,WHITE HOUSE,TN,,US,,,,,
,visa,,,WHITE HOUSE,TN,,US,,,,,
,visa,,,WHITE HOUSE,TN,,US,,,,,
,visa,,,WHITE HOUSE,TN,,US,,,,,
,visa,,,WHITE HOUSE,TN,,US,,,,,
,visa,,,WHITE HOUSE,TN,,US,,,,,
,visa,,,WHITE HOUSE,TN,,US,,,,,
1264,waffle_house_us,Waffle House #1264,,WHITE HOUSE,TN,,US,+1 615-672-1313,https://locations.wafflehouse.com/whitehouse-tn-1264,24/7,Waffle House,Q1701206
https://www.walgreens.com/locator/walgreens-480+highway+76-white+house-tn-37188/id=9836,walgreens,Walgreens,,White House,TN,,US,+1 615-672-4930,https://www.walgreens.com/locator/walgreens-480+highway+76-white+house-tn-37188/id=9836,Mo-Sa 08:00-22:00; Su 09:00-21:00,Walgreens,Q1591889
https://locations.wendys.com/#9256443,wendys,"Wendy's #643 White House in White House, TN",,White House,TN,,US,+1 615-581-0024,https://locations.wendys.com/united-states/tn/white-house/692-highway-76,"Mo-Su 06:30-10:30,07:00-21:00",Wendy's,Q550258
889,world_finance_us,,"2913 Highway US-31 West Suite B, White House, TN, 37188",White House,TN,,US,+1 615-672-7339,https://www.loansbyworld.com/branches/branch-889,Mo-Fr 09:00-17:30; Sa 09:00-12:00,World Finance,Q3569971
