Ref,Spider,Name,Address,City,State,Zipcode,Country,Phone,Website,Hours,Brand,WikiData
8130,aaa,Henson Insurance Agency,,Bristol,TN,,US,,,,American Automobile Association,Q463436
https://stores.advanceautoparts.com/tn/bristol/709-volunteer-pkwy,advance_auto_parts_us,Advance Auto Parts,,Bristol,TN,,US,+1 423-764-4147,https://stores.advanceautoparts.com/tn/bristol/709-volunteer-pkwy,Mo-Sa 07:30-21:00; Su 09:00-20:00,Advance Auto Parts,Q4686051
https://storelocations.ae.com/#3252673,american_eagle_outfitters,American Eagle & Aerie Store Pinnacle at Bristol,,Bristol,TN,,US,+1 423-652-6600,https://storelocations.ae.com/us/tn/bristol/546-pinnacle-parkway.html,Mo-Sa 10:00-20:00; Su 12:00-18:00,American Eagle & Aerie Store,Q2842931
https://restaurants.applebees.com/en-us/tn/bristol/425-volunteer-parkway-93002,applebees,Connect with this Applebee's,,Bristol,TN,,US,+1 423-968-1855,https://restaurants.applebees.com/en-us/tn/bristol/425-volunteer-parkway-93002,Mo-Th 11:00-23:00; Fr-Sa 11:00-24:00; Su 11:00-22:00,Applebees,Q621532
https://locations.arbys.com/tn/bristol/1315-volunteer-pkwy.html,arbys_us,"Arby's Fast-Food Drive Through Near You in Bristol, TN",,Bristol,TN,,US,+1 423-764-2444,https://locations.arbys.com/tn/bristol/1315-volunteer-pkwy.html,Mo-Sa 10:00-24:00; Su 10:00-23:00,Arby's,Q630866
25844,asics_us,DICK'S Sporting Goods  - Bristol,434 Pinnacle Pkwy,Bristol,TN,,US,+1 423-217-6696,,Mo-Sa 09:00-21:00; Su 10:00-19:00,asics,Q327247
150,autozone_us,AutoZone Auto Parts Bristol,,Bristol,TN,,US,+1 423-968-5658,https://www.autozone.com/locations/tn/bristol/959-volunteer-pkwy.html,Mo-Sa 07:30-21:00; Su 08:00-20:00,AutoZone,Q4826087
https://stores.basspro.com/us/tn/bristol/1-bass-pro-dr.html,bassproshops,"Bass Pro Shops Bristol, TN",,Bristol,TN,,US,+1 423-990-5200,https://stores.basspro.com/us/tn/bristol/1-bass-pro-dr.html,Mo-Sa 09:00-20:00; Su 10:00-19:00,Bass Pro Shops,Q4867953
https://stores.bestbuy.com/tn/bristol/567-pinnacle-pkwy-1085.html,bestbuy,Best Buy The Pinnacle,,Bristol,TN,,US,+1 423-845-6050,https://stores.bestbuy.com/tn/bristol/567-pinnacle-pkwy-1085.html,,Best Buy,Q533415
https://local.biglots.com/#13189820,biglots,Big Lots - Bristol,,Bristol,TN,,US,+1 423-652-7858,https://local.biglots.com/tn/bristol/1103-volunteer-pkwy,Mo-Sa 09:00-21:00; Su 11:00-19:00,Big Lots,Q4905973
207931,bluerhino,Weigels #1095,,Bristol,TN,,US,+1 423-366-4633,,,Blue Rhino,Q65681213
4700,bluerhino,Walmart #0620 - Supercenter,,Bristol,TN,,US,+1 423-968-2777,,,Blue Rhino,Q65681213
154481,bluerhino,Walgreens #10192,,Bristol,TN,,US,+1 423-274-0259,,,Blue Rhino,Q65681213
86334,bluerhino,Lowe's #2591,,Bristol,TN,,US,+1 423-968-2627,,,Blue Rhino,Q65681213
154480,bluerhino,Walgreens #05347,,Bristol,TN,,US,+1 423-764-3261,,,Blue Rhino,Q65681213
145831,bluerhino,Big Lots #0487,,Bristol,TN,,US,+1 423-652-7858,,,Blue Rhino,Q65681213
201046,bluerhino,Weaver Market,,Bristol,TN,,US,+1 423-329-4193,,,Blue Rhino,Q65681213
172598,bluerhino,Family Dollar #08778,,Bristol,TN,,US,+1 423-845-6030,,,Blue Rhino,Q65681213
207650,bluerhino,Express Mart,,Bristol,TN,,US,+1 423-573-2162,,,Blue Rhino,Q65681213
207532,bluerhino,Village Food Mart & More,,Bristol,TN,,US,+1 423-573-3685,,,Blue Rhino,Q65681213
56892_50001,bmw_group,"Wallace Collision Center, Independent Certified Collision Repair Center of Rick Hill BMW",,Bristol,TN,,US,+1 423-764-1145,,,BMW,Q26678
tn/bristol/1420-us-hwy-11-west,bojangles,"Bojangles Bristol, TN",,Bristol,TN,,US,+1 423-652-0213,https://locations.bojangles.com/tn/bristol/1420-us-hwy-11-west.html,,Bojangles',Q891163
tn/bristol/1030-volunteer-pkwy,bojangles,"Bojangles Bristol, TN",,Bristol,TN,,US,+1 423-968-7600,https://locations.bojangles.com/tn/bristol/1030-volunteer-pkwy.html,,Bojangles',Q891163
0190,bootbarn,Kodak,,"Bristol,",TN,,US,+1 423-652-0310,https://www.bootbarn.com/stores?StoreID=0190,Mo-Sa 09:00-21:00; Su 11:00-19:00,Boot Barn,Q109825187
https://local.buckle.com/tn/bristol/clothing-545.html,buckle_us,Bristol Men’s & Women’s Clothing,,Bristol,TN,,US,+1 423-484-8445,https://local.buckle.com/tn/bristol/clothing-545.html,Mo-Sa 10:00-20:00; Su 11:00-18:00,Buckle,Q4983306
363120,captaind,Captain D's,,Bristol,TN,,US,+1 423-968-7878,https://locations.captainds.com/ll/US/TN/Bristol/2815-W-State-St,Mo-Su 10:30-22:00,Captain D's,Q5036616
//locations.carters.com/tn/bristol/carters-bristol-tn,carters_us,Carter's Bristol,,Bristol,TN,,US,+1 423-764-4155,https://locations.carters.com/tn/bristol/carters-bristol-tn,Mo-Sa 10:00-19:00; Su 11:00-18:00,Carter's,Q5047083
77221,chevrolet,BRISTOL CHEVROLET,,Bristol,TN,,US,+1 423-524-9595,,Mo-Fr 09:00-19:00; Sa 09:00-18:00,Chevrolet,Q29570
tn_bristol_413-pinnacle-pkwy,chipotle, ,,Bristol,TN,,US,+1 423-340-4138,https://locations.chipotle.com/tn/bristol/413-pinnacle-pkwy,,Chipotle,Q465751
57609,citi,ATM Gas 'N Go,,Bristol,TN,,US,,,,Citibank,Q857063
73850,citi,ATM Roadrunner Market,,Bristol,TN,,US,,,,Citibank,Q857063
57167,citi,ATM Food City,,Bristol,TN,,US,,,,Citibank,Q857063
50118,citi,ATM CVS,,Bristol,TN,,US,,,,Citibank,Q857063
73846,citi,ATM Roadrunner Market,,Bristol,TN,,US,,,,Citibank,Q857063
50071,citi,ATM CVS,,Bristol,TN,,US,,,,Citibank,Q857063
95006,citi,ATM Weigels #95-1,,Bristol,TN,,US,,,,Citibank,Q857063
95007,citi,ATM Weigels #95-2,,Bristol,TN,,US,,,,Citibank,Q857063
87502,citi,ATM Walgreens,,Bristol,TN,,US,,,,Citibank,Q857063
57170,citi,ATM Food City,,Bristol,TN,,US,,,,Citibank,Q857063
73832,citi,ATM Roadrunner Market,,Bristol,TN,,US,,,,Citibank,Q857063
bristol/6837,claires,Shop Ear Piercings & Jewelry at The Pinnacle,,BRISTOL,TN,,US,+1 423-652-1005,https://stores.claires.com/us/tn/bristol/6837.html,Mo-Sa 10:00-20:00; Su 12:00-18:00,Claire's,Q2974996
3469,cookout,"BRISTOL, TN",,BRISTOL,TN,,US,,,Mo-Th 10:30-03:00; Fr-Sa 10:30-04:00; Su 10:30-03:00,Cookout,Q5166992
70209128,cricket_wireless,Cricket Wireless Authorized Retailer,,Bristol,TN,,US,+1 423-217-8971,https://www.cricketwireless.com/stores,Mo-Fr 10:00-20:00; Sa 10:00-18:00; Su 12:00-17:00,Cricket Wireless,Q5184987
3726,cvs_us,CVS Pharmacy,,Bristol,TN,,US,+1 423-764-7105,https://www.cvs.com/store-locator/bristol-tn-pharmacies/3030-west-state-street-bristol-tn-37620/storeid=3726,Mo-Sa 08:00-21:00; Su 09:00-21:00,CVS Pharmacy,Q2078880
7714,cvs_us,CVS Pharmacy,,Bristol,TN,,US,+1 423-968-7983,https://www.cvs.com/store-locator/bristol-tn-pharmacies/308-e-cedar-st-bristol-tn-37620/storeid=7714,Mo-Fr 08:00-21:00; Sa 09:00-21:00; Su 10:00-20:00,CVS Pharmacy,Q2078880
1222,dickssportinggoods,"DICK'S Sporting Goods Store in Bristol, TN | 1222",,Bristol,TN,,US,+1 423-217-6696,https://stores.dickssportinggoods.com/tn/bristol/1222/,Mo-Sa 09:00-21:00; Su 10:00-19:00,Dick's Sporting Goods,Q5272601
15752,dollar_general,Dollar General,,Bristol,TN,,US,+1 423-484-8870,https://www.dollargeneral.com/store-directory/tn/bristol/15752,Mo-Su 08:00-23:00,Dollar General,Q145168
6184,dominos_pizza_us,Domino's Pizza,,Bristol,TN,,US,+1 423-764-8080,https://pizza.dominos.com/tennessee/bristol/920-west-state-street,Mo-Th 10:00-24:00; Fr-Sa 10:00-01:00; Su 10:00-24:00,Domino's,Q839466
6174,dominos_pizza_us,Domino's Pizza,,BRISTOL,TN,,US,+1 877-883-9643,https://pizza.dominos.com/tennessee/bristol/151-speedway-blvd,24/7,Domino's,Q839466
358032,dunkin_us,Dunkin',,Bristol,TN,,US,+1 423-652-0420,https://locations.dunkindonuts.com/en/tn/bristol/1291-highway-11-w/358032,24/7,Dunkin',Q847743
https://www.edwardjones.com/us-en/financial-advisor/greg-fahn,edwardjones,Greg Fahn,,Bristol,TN,,US,+1 423-764-6099,https://www.edwardjones.com/us-en/financial-advisor/greg-fahn,Mo 08:30-17:00; Tu 09:00-17:00; We 08:30-17:00; Th 09:00-17:00; Fr 08:30-17:00,Edward Jones,Q5343830
E15643,enterprise,Bristol,,Bristol,TN,,US,+1 423-989-6169,,,Enterprise Rent-A-Car,Q17085454
200309035,exxonmobil,3433 SCOTCHMAN,,BRISTOL,TN,,US,+1 423-878-2055,https://www.exxon.com/en/find-station/exxon-bristol-tn-3433scotchman-200309035,Mo-Su 06:00-00:00,Exxon,Q109675651
200309024,exxonmobil,3403 SCOTCHMAN,,BRISTOL,TN,,US,+1 423-652-0113,https://www.exxon.com/en/find-station/mobil-bristol-tn-3403scotchman-200309024,Mo-Su 06:00-23:00,Mobil,Q109676002
200309023,exxonmobil,3402 SCOTCHMAN,,BRISTOL,TN,,US,+1 423-652-0093,https://www.exxon.com/en/find-station/exxon-bristol-tn-3402scotchman-200309023,24/7,Exxon,Q109675651
28778,family_dollar_us,FAMILY DOLLAR #8778,,Bristol,TN,,US,+1 423-845-6030,https://www.familydollar.com/locations/tn/bristol/28778/,Mo-Sa 09:00-22:00; Su 09:00-21:00,Family Dollar,Q5433101
https://local.fedex.com/#25234513,fedex,,,Bristol,TN,,US,+1 800-463-3339,https://local.fedex.com/en-us/tn/bristol/trifh,,FedEx,Q459477
https://local.fedex.com/#25231722,fedex,,,Bristol,TN,,US,+1 800-463-3339,https://local.fedex.com/en-us/tn/bristol/triej,,FedEx,Q459477
https://local.fedex.com/#25232956,fedex,,,Bristol,TN,,US,+1 800-463-3339,https://local.fedex.com/en-us/tn/bristol/triee,,FedEx,Q459477
https://local.fedex.com/#25236478,fedex,,,Bristol,TN,,US,+1 800-463-3339,https://local.fedex.com/en-us/tn/bristol/triae,,FedEx,Q459477
https://local.fedex.com/#25204499,fedex,,,Bristol,TN,,US,+1 800-463-3339,https://local.fedex.com/en-us/tn/bristol/aukmi,,FedEx,Q459477
https://local.fedex.com/#25199031,fedex,,,Bristol,TN,,US,+1 800-463-3339,https://local.fedex.com/en-us/tn/bristol/afvmr,,FedEx,Q459477
https://locations.fivebelow.com/tn/bristol/446-pinnacle-parkway-bristol-tn-37620,five_below,Five Below The Pinnacle,,Bristol,TN,,US,,https://locations.fivebelow.com/tn/bristol/446-pinnacle-parkway-bristol-tn-37620,Mo-Sa 10:00-20:00; Su 11:00-18:00,Five Below,Q5455836
https://restaurants.fiveguys.com/#17717847,five_guys_us,Five Guys 412 Pinnacle Pkwy N.,,Bristol,TN,,US,+1 423-217-4385,https://restaurants.fiveguys.com/412-pinnacle-pkwy-n,"Mo-Su 11:00-20:30,11:00-21:00",Five Guys,Q1131810
Motorcraft2111USAEnglish,ford,Friendship Ford,,Tennessee,TN,,US,+1 423-652-6200,,,Ford,Q44294
https://www.ford.com/dealerships/dealer-details/tn/bristol/friendship-ford/,ford_dealers_us,Friendship Ford,,Bristol,TN,,US,+1 423-212-6107,https://www.ford.com/dealerships/dealer-details/tn/bristol/friendship-ford/,Mo-Sa 08:00-20:00,Ford Motor Company,Q44294
1201,fresenius_kidney_care_us,Fresenius Kidney Care Bristol,,Bristol,TN,,US,+1 800-881-5101,https://www.freseniuskidneycare.com/dialysis-centers/tennessee/1201,Mo 05:30-16:30; Tu 05:30-15:00; We 05:30-16:30; Th 05:30-15:00; Fr 05:30-16:30; Sa 05:30-15:00,,
9396,fresenius_kidney_care_us,Fresenius Kidney Care Bristol Home Therapies,,Bristol,TN,,US,+1 800-881-5101,https://www.freseniuskidneycare.com/dialysis-centers/tennessee/9396,Mo-Fr 07:30-16:00,,
https://stores.gnc.com/#24059941,gnc,GNC The Plaze Shops At The Pinnacle,,,TN,,US,+1 423-652-1121,https://stores.gnc.com/all-stores-tennessee/bristol/420-pinnacle-parkway,Mo-Sa 10:00-20:00; Su 11:00-18:00,GNC,Q4808595
2bbe77f3-458a-e111-8dde-005056934050,goodwill,Goodwill Retail - Bristol State St,,Bristol,TN,,US,+1 423-652-0072,https://www.goodwill.org/locator/location/?store=MmJiZTc3ZjMtNDU4YS1lMTExLThkZGUtMDA1MDU2OTM0MDUw&lat=MzYuNTk1MTU=&lng=LTgyLjIxMjA1,,Goodwill,Q5583655
7a95f691-29d2-ec11-80fd-00505689ac90,goodwill,Goodwill Attended Donation Center - Volunteer Pkwy,,Bristol,TN,,US,,https://www.goodwill.org/locator/location/?store=N2E5NWY2OTEtMjlkMi1lYzExLTgwZmQtMDA1MDU2ODlhYzkw&lat=MzYuNTYwMDQ=&lng=LTgyLjIxMDk0,,Goodwill,Q5583655
https://salons.greatclips.com/us/tn/bristol/412-pinnacle-pkwy,greatclips,Great Clips,,Bristol,TN,,US,+1 423-573-2547,https://salons.greatclips.com/us/tn/bristol/412-pinnacle-pkwy,Mo-Fr 09:00-19:00; Sa 09:00-18:00; Su 12:00-18:00,Great Clips,Q5598967
https://salons.greatclips.com/us/tn/bristol/1401-volunteer-pkwy,greatclips,Great Clips,,Bristol,TN,,US,+1 423-573-9880,https://salons.greatclips.com/us/tn/bristol/1401-volunteer-pkwy,Mo-Fr 09:00-19:00; Sa 09:00-18:00; Su 12:00-18:00,Great Clips,Q5598967
1501799,hardees_us,Hardee's,,Bristol,TN,,US,+1 423-968-9265,https://locations.hardees.com/tn/bristol/1313-volunteer-parkway,,Hardee's,Q1585088
40556,h_r_block,H&R Block,,Bristol,TN,,US,+1 423-968-2031,https://www.hrblock.com/local-tax-offices/tennessee/bristol/1401-volunteer-pkwy/40556/,,H&R Block,Q5627799
40557,h_r_block,H&R Block,,Bristol,TN,,US,+1 423-764-6043,https://www.hrblock.com/local-tax-offices/tennessee/bristol/720-722-state-st/40557/,,H&R Block,Q5627799
tn_bristol_breakfast-1175-volunteer-pkwy-3781,ihop,IHOP Breakfast Restaurants Near You at 1175 Volunteer Pkwy,,Bristol,TN,,US,+1 423-793-7362,https://restaurants.ihop.com/en-us/tn/bristol/breakfast-1175-volunteer-pkwy-3781,,IHOP,Q1185675
https://office.jacksonhewitt.com/#27577123,jackson_hewitt,Jackson Hewitt,,Bristol,TN,,US,+1 423-652-0308,https://office.jacksonhewitt.com/tax-preparation-services-locations/en/tn/bristol/220-century-blvd/50620,Mo-Fr 09:00-19:00; Sa 09:00-18:00; Su 13:00-18:00,Jackson Hewitt,Q6117132
https://locations.kfc.com/#11247195,kfc,Chicken Nuggets Near Bristol,,Bristol,TN,,US,,https://locations.kfc.com/tn/bristol/2590-west-state-street/chickennugget,Mo-Su 10:00-22:00,KFC,Q524757
https://local.lenscrafters.com/tn/bristol/554-pinnacle-parkway.html,lenscrafters,LensCrafters,,Bristol,TN,,US,+1 423-764-4066,https://local.lenscrafters.com/tn/bristol/554-pinnacle-parkway.html,Mo-Sa 09:30-19:00; Su 12:00-17:00,LensCrafters,Q6523209
https://stores.loft.com/outlet/us/tn/bristol/546-pinnacle-parkway.html,loft_us,Loft,,Bristol,TN,,US,+1 423-652-0605,https://stores.loft.com/outlet/us/tn/bristol/546-pinnacle-parkway.html,,Loft,Q62075137
156590,marathon_petroleum_us,QUICK STOP  MARKET 35,,BRISTOL,TN,,US,+1 423-460-3323,,,Marathon,Q458363
156591,marathon_petroleum_us,QUICK STOP MARKET 34,,BRISTOL,TN,,US,+1 423-217-1080,,,Marathon,Q458363
156609,marathon_petroleum_us,QUICK STOP MARKET 42,,BRISTOL,TN,,US,+1 423-968-2570,,,Marathon,Q458363
TRIFB,marriott,Fairfield Inn & Suites Bristol,,Bristol,TN,,US,+1 423-574-4500,https://www.marriott.com/TRIFB,,Fairfield by Marriott,Q5430314
https://locations.maurices.com/#11688134,maurices,maurices The Pinnacle-Tower Shops,,Bristol,TN,,US,+1 423-764-4223,https://locations.maurices.com/us/tn/bristol/532-pinnacle-parkway-ste-565,Mo-Sa 10:00-20:00; Su 12:00-18:00,maurices,Q6793571
https://locations.moes.com/#1351,moes,Moe's Southwest Grill,,Bristol,TN,,US,+1 423-573-6637,https://locations.moes.com/tn/bristol/420-pinnacle-parkway,Mo-Su 10:30-21:00,Moe's Southwest Grill,Q6889938
6971,murphy_usa_us,,,Bristol,TN,,US,+1 423-968-7395,,Mo-Sa 06:00-23:00; Su 06:00-22:30,Murphy USA,Q19604459
NNA5926,nissan_europe,DUTCH MILLER NISSAN OF BRISTOL,,BRISTOL,TN,,US,+1 423-989-6700,https://www.dutchmillernissan.com,Mo-Sa 08:30-19:00,Nissan,Q20165
https://locations.oreillyauto.com/tn/bristol/check-engine-light-testing-1192.html,oreilly,Your Bristol O'Reilly Auto Parts Store,,Bristol,TN,,US,+1 423-764-7400,https://locations.oreillyauto.com/tn/bristol/check-engine-light-testing-1192.html,Mo-Sa 07:30-21:00; Su 09:00-20:00,O'Reilly Auto Parts,Q7071951
https://locations.oreillyauto.com/tn/bristol/wiper-installation-1192.html,oreilly,Your Bristol O'Reilly Auto Parts Store,,Bristol,TN,,US,+1 423-764-7400,https://locations.oreillyauto.com/tn/bristol/wiper-installation-1192.html,Mo-Sa 07:30-21:00; Su 09:00-20:00,O'Reilly Auto Parts,Q7071951
https://locations.oreillyauto.com/tn/bristol/autopartes-1192.html,oreilly,Tu tienda O'Reilly Auto Parts en Bristol,,Bristol,TN,,US,+1 423-764-7400,https://locations.oreillyauto.com/tn/bristol/autopartes-1192.html,Mo-Sa 07:30-21:00; Su 09:00-20:00,O'Reilly Auto Parts,Q7071951
https://locations.oreillyauto.com/tn/bristol/battery-testing-1192.html,oreilly,Your Bristol O'Reilly Auto Parts Store,,Bristol,TN,,US,+1 423-764-7400,https://locations.oreillyauto.com/tn/bristol/battery-testing-1192.html,Mo-Sa 07:30-21:00; Su 09:00-20:00,O'Reilly Auto Parts,Q7071951
//locations.oshkosh.com/tn/bristol/oshkosh-bristol-tn,oshkosh_us,Oshkosh B'gosh Bristol,,Bristol,TN,,US,+1 423-764-4155,https://locations.oshkosh.com/tn/bristol/oshkosh-bristol-tn,Mo-Sa 10:00-19:00; Su 11:00-18:00,OshKosh B'gosh,Q1417347
https://locations.outback.com/#15502202,outbacksteakhouse,Outback Steakhouse,,Bristol,TN,,US,+1 276-466-0100,https://locations.outback.com/tennessee/bristol/308-bristol-west-blvd,Mo-Th 11:00-22:00; Fr-Sa 11:00-23:00; Su 11:00-21:00,Outback Steakhouse,Q1064893
112847,pandaexpress,Pinnacle & I-81,,Bristol,TN,,US,+1 423-573-2788,https://www.pandaexpress.com/locations/tn/bristol/251-pinnacle-pkwy,Mo-Sa 10:00-22:00; Su 10:30-22:00,Panda Express,Q1358690
https://locations.papajohns.com/#10691762,papa_johns,Papa John's,,Bristol,TN,,US,+1 423-968-7272,https://locations.papajohns.com/united-states/tn/37620/bristol/740-volunteer-pkwy,Mo-Th 10:00-23:00; Fr-Sa 10:00-24:00; Su 10:00-23:00,Papa John's Pizza,Q2759586
902,party_city,Pinnacle Parkway,,Bristol,TN,,US,+1 423-217-4040,https://stores.partycity.com/us/tn/bristol/party-store-pc902.html,,Party City,Q7140896
075449,penske,Lawson Communication,,BRISTOL,TN,,US,+1 423-764-0315,https://www.pensketruckrental.com/locations/us/tennessee/bristol/075449/,,Penske,Q81234570
tn_bristol_2167-volunteer-pkwy,pizza_hut_us,2167 Volunteer Pkwy,,Bristol,TN,,US,+1 423-968-9411,https://locations.pizzahut.com/tn/bristol/2167-volunteer-pkwy,,Pizza Hut,Q191615
831,rentacenter,Rent-A-Center,,Bristol,TN,,US,+1 423-968-3000,https://locations.rentacenter.com/tennessee/bristol/1105-volunteer-pkwy/,Mo-Sa 10:00-18:00,Rent-A-Center,Q7313497
554-pinnacle-parkway,rue21,The Pinnacle,,Bristol,TN,,US,,https://stores.rue21.com/tn/bristol/554-pinnacle-parkway.html,Mo-Sa 10:00-20:00; Su 12:00-18:00,rue21,Q7377762
570,shoe_carnival_us,Shoe Carnival,,Bristol,TN,,US,+1 423-652-0590,https://stores.shoecarnival.com/tn/bristol/shoe-store-bristol-tn-570.html,Mo-Sa 10:00-21:00; Su 11:00-19:00,Shoe Carnival,Q7500007
https://restaurants.subway.com/#14899605,subway,Subway,,Bristol Sullivan,TN,,US,+1 423-968-4667,https://restaurants.subway.com/united-states/tn/bristol/2742-w-state-st,Mo-Su 09:00-21:00,Subway,Q244457
https://restaurants.subway.com/#14910378,subway,Subway,,Bristol Sullivan,TN,,US,+1 423-989-3093,https://restaurants.subway.com/united-states/tn/bristol/1159-volunteer-parkway,Mo-Su 09:00-22:00,Subway,Q244457
https://restaurants.subway.com/#14895174,subway,Subway,,Bristol Sullivan,TN,,US,+1 423-652-1366,https://restaurants.subway.com/united-states/tn/bristol/2117-weaver-pike,Mo-Su 09:00-22:00,Subway,Q244457
https://restaurants.subway.com/#14907546,subway,Subway,,Bristol Sullivan,TN,,US,+1 423-844-5690,https://restaurants.subway.com/united-states/tn/bristol/1-medical-park-blvd,Mo-Su 11:00-24:00,Subway,Q244457
0613493600,sunoco_us,Sunoco,,BRISTOL,TN,,US,+1 252-529-4981,,,Sunoco,Q1423218
https://locations.tacobell.com/#23789445,taco_bell,Taco Bell,,Bristol,TN,,US,+1 423-968-2018,https://locations.tacobell.com/tn/bristol/2582-w-state-st.html,Mo-Fr 07:00-03:00; Sa-Su 09:00-03:00,Taco Bell,Q752941
https://locations.tacobell.com/#6147025,taco_bell,Taco Bell,,Bristol,TN,,US,+1 423-764-5154,https://locations.tacobell.com/tn/bristol/1111-volunteer-parkway.html,Mo-Fr 07:00-02:30; Sa-Su 09:00-02:30,Taco Bell,Q752941
101281,tjx,Bristol,454 Pinnacle Pky ,Bristol,TN,,US,+1 423-764-4055,,Mo-Sa 09:30-21:30; Su 10:00-20:00,Marshalls,Q15903261
9418,tmobile_us,Bristol at the Pinnacle,,Bristol,TN,,US,+1 423-793-7710,https://www.t-mobile.com/store-locator/tn/bristol/bristol-at-the-pinnacle,,T-Mobile,Q3511885
"Bristol Surgery Center, Bristol, Tennessee",united_surgical_partners_international,Bristol Surgery Center,350 Blountville Highway Suite 108,Bristol,TN,,US,+1 423-844-6120,na,,United Surgical Partners International,Q7893575
3657,upsstore,Parkway Centre,1101 Volunteer Pkwy Ste 5,Bristol,TN,,US,+1 423-990-6901,https://locations.theupsstore.com/tn/bristol/1101-volunteer-pkwy,,UPS Store,Q7771029
1448782,usps,VOLUNTEER,,BRISTOL,TN,,US,+1 423-844-0539,,"Mo-Fr 09:00-11:30,12:30-16:30",United States Postal Service,Q668687
,visa,,,BRISTOL,TN,,US,,,,,
,visa,,,BRISTOL,TN,,US,,,,,
,visa,,,BRISTOL,TN,,US,,,,,
,visa,,,BRISTOL,TN,,US,,,,,
,visa,,,BRISTOL,TN,,US,,,,,
,visa,,,BRISTOL,TN,,US,,,,,
,visa,,,BRISTOL,TN,,US,,,,,
,visa,,,BRISTOL,TN,,US,,,,,
,visa,,,BRISTOL,TN,,US,,,,,
,visa,,,BRISTOL,TN,,US,,,,,
,visa,,,BRISTOL,TN,,US,,,,,
,visa,,,BRISTOL,TN,,US,,,,,
,visa,,,BRISTOL,TN,,US,,,,,
,visa,,,BRISTOL,TN,,US,,,,,
,visa,,,BRISTOL,TN,,US,,,,,
,visa,,,BRISTOL,TN,,US,,,,,
,visa,,,BRISTOL,TN,,US,,,,,
,visa,,,BRISTOL,TN,,US,,,,,
,visa,,,BRISTOL,TN,,US,,,,,
,visa,,,BRISTOL,TN,,US,,,,,
,visa,,,BRISTOL,TN,,US,,,,,
,visa,,,BRISTOL,TN,,US,,,,,
,visa,,,BRISTOL,TN,,US,,,,,
,visa,,,BRISTOL,TN,,US,,,,,
,visa,,,BRISTOL,TN,,US,,,,,
,visa,,,BRISTOL,TN,,US,,,,,
,visa,,,BRISTOL,TN,,US,,,,,
,visa,,,BRISTOL,TN,,US,,,,,
,visa,,,BRISTOL,TN,,US,,,,,
,visa,,,BRISTOL,TN,,US,,,,,
,visa,,,BRISTOL,TN,,US,,,,,
,visa,,,BRISTOL,TN,,US,,,,,
,visa,,,BRISTOL,TN,,US,,,,,
,visa,,,BRISTOL,TN,,US,,,,,
,visa,,,BRISTOL,TN,,US,,,,,
,visa,,,BRISTOL,TN,,US,,,,,
,visa,,,BRISTOL,TN,,US,,,,,
,visa,,,BRISTOL,TN,,US,,,,,
,visa,,,BRISTOL,TN,,US,,,,,
,visa,,,BRISTOL,TN,,US,,,,,
,visa,,,BRISTOL,TN,,US,,,,,
,visa,,,BRISTOL,TN,,US,,,,,
,visa,,,BRISTOL,TN,,US,,,,,
,visa,,,BRISTOL,TN,,US,,,,,
,visa,,,BRISTOL,TN,,US,,,,,
,visa,,,BRISTOL,TN,,US,,,,,
,visa,,,BRISTOL,TN,,US,,,,,
,visa,,,BRISTOL,TN,,US,,,,,
,visa,,,BRISTOL,TN,,US,,,,,
,visa,,,BRISTOL,TN,,US,,,,,
,visa,,,BRISTOL,TN,,US,,,,,
,visa,,,BRISTOL,TN,,US,,,,,
,visa,,,BRISTOL,TN,,US,,,,,
,visa,,,BRISTOL,TN,,US,,,,,
,visa,,,BRISTOL,TN,,US,,,,,
,visa,,,BRISTOL,TN,,US,,,,,
,visa,,,BRISTOL,TN,,US,,,,,
,visa,,,BRISTOL,TN,,US,,,,,
,visa,,,BRISTOL,TN,,US,,,,,
,visa,,,BRISTOL,TN,,US,,,,,
,visa,,,BRISTOL,TN,,US,,,,,
,visa,,,BRISTOL,TN,,US,,,,,
,visa,,,BRISTOL,TN,,US,,,,,
,visa,,,BRISTOL,TN,,US,,,,,
,visa,,,BRISTOL,TN,,US,,,,,
,visa,,,BRISTOL,TN,,US,,,,,
,visa,,,JOHNSON CITY,TN,,US,,,,,
2353,waffle_house_us,Waffle House #2353,,BRISTOL,TN,,US,+1 423-217-7605,https://locations.wafflehouse.com/bristol-tn-2353,24/7,Waffle House,Q1701206
2407,waffle_house_us,Waffle House #2407,,BRISTOL,TN,,US,+1 423-845-9021,https://locations.wafflehouse.com/bristol-tn-2407,24/7,Waffle House,Q1701206
https://www.walgreens.com/locator/walgreens-2412+w+state+st-bristol-tn-37620/id=5347,walgreens,Walgreens,,Bristol,TN,,US,+1 423-764-3261,https://www.walgreens.com/locator/walgreens-2412+w+state+st-bristol-tn-37620/id=5347,Mo-Su 09:00-21:00,Walgreens,Q1591889
https://www.walgreens.com/locator/walgreens-1+medical+park+blvd-bristol-tn-37620/id=13979,walgreens,Walgreens,,Bristol,TN,,US,+1 423-844-2888,https://www.walgreens.com/locator/walgreens-1+medical+park+blvd-bristol-tn-37620/id=13979,Mo-Fr 07:00-21:00; Sa 10:00-14:00; Su 00:00-24:00,Walgreens,Q1591889
https://www.walgreens.com/locator/walgreens-1388+volunteer+pkwy-bristol-tn-37620/id=10192,walgreens,Walgreens,,Bristol,TN,,US,+1 423-274-0259,https://www.walgreens.com/locator/walgreens-1388+volunteer+pkwy-bristol-tn-37620/id=10192,Mo-Su 09:00-21:00,Walgreens,Q1591889
https://locations.wendys.com/#9251075,wendys,"Wendy's Volunteer in Bristol, TN",,Bristol,TN,,US,+1 423-652-8200,https://locations.wendys.com/united-states/tn/bristol/1505-volunteer-parkway,"Mo-Sa 06:00-10:30,09:00-21:00; Su 07:00-10:30,09:00-21:00",Wendy's,Q550258
aa5a490aeb5d2d3f77e4cd562f832866,western_union,SCOTCHMAN #3402,,Bristol,TN,,US,+1 423-652-0093,https://location.westernunion.com/us/tn/bristol/aa5a490aeb5d2d3f77e4cd562f832866,Mo-Su 06:00-22:00,Western Union,Q861042
3b76464a035dceaa807bd36fce15bebb,western_union,ADVANCE FINANCIAL #82,,Bristol,TN,,US,+1 423-451-5023,https://location.westernunion.com/us/tn/bristol/3b76464a035dceaa807bd36fce15bebb,Mo-Fr 09:00-18:00; Sa-Su 10:00-16:00,Western Union,Q861042
b7d655419762cac6b1e9da4a801b2dee,western_union,ADVANCE AMERICA #05311,,Bristol,TN,,US,+1 423-989-3366,https://location.westernunion.com/us/tn/bristol/b7d655419762cac6b1e9da4a801b2dee,Mo-Fr 09:00-18:00; Sa 10:00-14:00,Western Union,Q861042
ba7022e8574781aaa4cf9f77c9d84c9e,western_union,FAS MART #471,,Bristol,TN,,US,+1 423-274-8278,https://location.westernunion.com/us/tn/bristol/ba7022e8574781aaa4cf9f77c9d84c9e,Mo-Su 06:00-22:00,Western Union,Q861042
0b09c0015498aa347b6676c4b7618438,western_union,SCOTCHMAN #3433,,Bristol,TN,,US,+1 423-878-2055,https://location.westernunion.com/us/tn/bristol/0b09c0015498aa347b6676c4b7618438,Mo-Su 06:00-22:00,Western Union,Q861042
dafa7771e3d135190cd0e0dd3e36d210,western_union,ADVANCE FINANCIAL #91,,Bristol,TN,,US,+1 423-758-9780,https://location.westernunion.com/us/tn/bristol/dafa7771e3d135190cd0e0dd3e36d210,Mo-Fr 09:00-18:00; Sa-Su 10:00-16:00,Western Union,Q861042
e7b7139e2e2ff9b90110c9500e892682,western_union,WALMART #000620,,Bristol,TN,,US,+1 423-968-2777,https://location.westernunion.com/us/tn/bristol/e7b7139e2e2ff9b90110c9500e892682,Mo-Su 07:00-21:00,Western Union,Q861042
895,world_finance_us,,"1135 Volunteer Pkwy Ste 2, Bristol, TN, 37620",Bristol,TN,,US,+1 423-989-0976,https://www.loansbyworld.com/branches/branch-895,Mo-Fr 09:00-17:30; Sa 09:00-12:00,World Finance,Q3569971
