Ref,Spider,Name,Address,City,State,Zipcode,Country,Phone,Website,Hours,Brand,WikiData
A037,action,Śrem,,Śrem,,,PL,,https://www.action.com/pl-pl/sklepy/rem-ul.-zamenhofa/,,Action,Q2634111
628,biedronka_pl,Biedronka,,Śrem,,,PL,,"https://www.biedronka.pl/pl/shop,id,628",Mo-Sa 06:00-23:00,Biedronka,Q857182
1486,biedronka_pl,Biedronka,,Śrem,,,PL,,"https://www.biedronka.pl/pl/shop,id,1486",Mo-Sa 06:00-23:00,Biedronka,Q857182
1594,biedronka_pl,Biedronka,,Śrem,,,PL,,"https://www.biedronka.pl/pl/shop,id,1594",Mo-Sa 06:00-23:00,Biedronka,Q857182
"https://www.brw.pl/siec-sprzedazy/salon,salon-meblowy-eden-s-c-,srem,138.html",black_red_white_pl,Salon Meblowy EDEN s.c. - Śrem,,Śrem,,,PL,+48 61 282 93 48,"https://www.brw.pl/siec-sprzedazy/salon,salon-meblowy-eden-s-c-,srem,138.html",Mo-Fr 10:00-18:00; Sa 09:00-13:00,Black Red White,Q4921546
1181872520,bp,DOBOSZ,,MECHLIN,,,PL,+48 603 332 072,,24/7,BP,Q152057
492169902,bp,MALINKA,,SREM,,,PL,+48 61 283 99 88,,24/7,BP,Q152057
425,ccc,Śrem CCC 1 Maja 2170,,Śrem,,,PL,+48 61 448 54 81,https://ccc.eu/pl/market/srem-ccc-1-maja-2170,Mo-Sa 09:00-20:30; Su 10:00-18:00,CCC,Q11788344
55185805,deichmann,DEICHMANN sklep Śrem Al. Solidarności 2,,Śrem,,,PL,+48 668 685 277,https://stores.deichmann.com/pl-pl/pl/wielkopolskie/srem/al-solidarnosci-2,Mo-Sa 10:00-20:00; Su 10:00-18:00,Deichmann,Q664543
301113,delikatesy_centrum_pl,ŚREM GOSTYŃSKA,,Śrem,,,PL,,,Mo-Sa 06:00-21:00,Delikatesy Centrum,Q11693824
18514,empik_pl,Śrem Park Handlowy (SP),ul. Ludwika Zamenhofa 20,Śrem,,,PL,+48 539 534 556,"https://www.empik.com/salony-empik/srem/srem-park-handlowy-sp,18514,e",Mo-Sa 09:00-20:00; Su 10:00-20:00,Empik,Q3045978
365,epaka_pl,,,Śrem,,,PL,+48 609 786 027,https://srem.epaka.pl,Mo-Fr 08:30-18:00; Sa 08:30-14:00,Epaka.pl,Q123028724
R304,hebe_pl,Drogeria Hebe nr 304,,Śrem,,,PL,,https://www.hebe.pl/sklep?StoreID=R304,,Hebe,Q113093841
7282,kik,KiK,,Srem,,,PL,+48 881 985 282,,Mo-Sa 09:00-20:00; Su 10:00-18:00,KiK,Q883965
5025,lewiatan_pl,Lewiatan,,Śrem,,,PL,+48 61 283 06 83,https://www.lewiatan.pl/znajdz-sklep/lewiatan-srem-poznanska-32,,Lewiatan,Q11755396
1080,lidl_pl,Lidl,,Śrem,,,PL,,,Mo-Sa 06:00-22:00; Su 09:00-19:00,Lidl,Q151954
RCNJ0F25,millennium_bank_pl,RCNJ0F25,,Śrem,,,PL,,,,Bank Millennium,Q4855947
SRN80E4Z,millennium_bank_pl,SRN80E4Z,,Śrem,,,PL,,,,Bank Millennium,Q4855947
SRW80E1U,millennium_bank_pl,SRW80E1U,,Śrem,,,PL,,,,Bank Millennium,Q4855947
RNET3197,millennium_bank_pl,RNET3197,,Śrem,,,PL,,,,Bank Millennium,Q4855947
65054732,moneygram,UP SREM 1 - POCZTA POLSKA,,SREM,,,PL,+48 61 283 01 00,,Mo-Fr 06:00-22:00; Sa 08:00-20:00; Su 00:00-24:00,MoneyGram,Q1944412
70980752,moneygram,FUP SREM 1 - POCZTA POLSKA,,SREM,,,PL,+48 887 853 210,,Mo-Fr 06:00-22:00; Sa 08:00-20:00; Su 00:00-24:00,MoneyGram,Q1944412
39181,neonet_pl,NEONET,,Śrem,,,PL,+48 61 283 55 20,https://sklepydw.neonet.pl/polska/srem/neonet-srem-zamenhoffa-20-39181,Mo-Fr 10:00-20:00; Sa 10:00-19:00,Neonet,Q11790622
27300,orange_pl,Orange Śrem,,Śrem,,,PL,+48 61 281 00 00,https://salony.orange.pl/pl/orange-%C5%9Brem-27300,Mo-Fr 09:00-17:00; Sa 09:00-13:00,Orange,Q1431486
113718,orlen_paczka_pl,,,Śrem,,,PL,,,,Orlen Paczka,Q110457879
482944,orlen_paczka_pl,,,Śrem,,,PL,,,,Orlen Paczka,Q110457879
230310,orlen_paczka_pl,,,Śrem,,,PL,,,,Orlen Paczka,Q110457879
761283,orlen_paczka_pl,,,Śrem,,,PL,,,Mo-Fr 09:00-17:00; Sa 10:00-14:00,Orlen Paczka,Q110457879
569934,orlen_paczka_pl,,,Śrem,,,PL,,,Mo-Fr 10:00-18:00; Sa 10:00-13:00,Orlen Paczka,Q110457879
898818,orlen_paczka_pl,,,Śrem,,,PL,,,Mo-Sa 07:00-23:00; Su 08:00-22:00,Orlen Paczka,Q110457879
761058,orlen_paczka_pl,,,Śrem,,,PL,,,,Orlen Paczka,Q110457879
686581,orlen_paczka_pl,,,Śrem,,,PL,,,Mo-Fr 10:00-18:00; Sa 10:00-14:00,Orlen Paczka,Q110457879
788607,orlen_paczka_pl,,,Śrem,,,PL,,,,Orlen Paczka,Q110457879
1522426,santander_pl,1 Oddział w Śremie,,Śrem,,,PL,+48 61 811 99 99,,Mo-Fr 09:30-16:30,Santander,Q806653
160,tmobile_pl,T-Mobile,,Śrem,,,PL,+48 606 758 798,,Mo-Fr 10:00-18:00; Sa 10:00-13:00,T-Mobile,Q327634
BP_EXT_19598,totalenergies,DOBOSZ,,Mechlin,,,PL,+48 601 921 394,https://store.totalenergies.fr/en_EN/BP_EXT_19598,,BP,Q152057
BP_EXT_21609,totalenergies,MALINKA,,Śrem,,,PL,+48 44 645 23 72,https://store.totalenergies.fr/en_EN/BP_EXT_21609,,BP,Q152057
,visa,,,ŚREM,,,PL,,,,,
,visa,,,ŚREM,,,PL,,,,,
,visa,,,ŚREM,,,PL,,,,,
,visa,,,ŚREM,,,PL,,,,,
,visa,,,ŚREM,,,PL,,,,,
,visa,,,ŚREM,,,PL,,,,,
,visa,,,ŚREM,,,PL,,,,,
,visa,,,ŚREM,,,PL,,,,,
,visa,,,ŚREM,,,PL,,,,,
ID00013,zabka_pl,Żabka,,Śrem,,,PL,,,Mo-Sa 06:00-23:00; Su 10:00-20:00,Żabka,Q2589061
ID03203,zabka_pl,Żabka,,Śrem,,,PL,,,Mo-Sa 06:00-23:00,Żabka,Q2589061
ID05806,zabka_pl,Żabka,,Śrem,,,PL,,,Mo-Sa 06:00-23:00; Su 10:00-21:00,Żabka,Q2589061
ID08270,zabka_pl,Żabka,,Śrem,,,PL,,,Mo-Sa 06:00-23:00; Su 09:00-20:00,Żabka,Q2589061
ID0A451,zabka_pl,Żabka,,Śrem,,,PL,,,Mo-Sa 06:00-23:00; Su 10:00-21:00,Żabka,Q2589061
ID0A751,zabka_pl,Żabka,,Psarskie,,,PL,,,Mo-Sa 06:00-23:00,Żabka,Q2589061
ID0A891,zabka_pl,Żabka,,Śrem,,,PL,,,Mo-Sa 06:00-23:00; Su 09:00-20:00,Żabka,Q2589061
ID0C478,zabka_pl,Żabka,,Śrem,,,PL,,,Mo-Sa 06:00-23:00,Żabka,Q2589061
ID0C936,zabka_pl,Żabka,,Śrem,,,PL,,,Mo-Sa 06:00-23:00,Żabka,Q2589061
ID0D130,zabka_pl,Żabka,,Śrem,,,PL,,,Mo-Sa 06:00-23:00,Żabka,Q2589061
