Ref,Spider,Name,Address,City,State,Zipcode,Country,Phone,Website,Hours,Brand,WikiData
https://stores.advanceautoparts.com/wv/south-charleston/315-maccorkle-ave-sw,advance_auto_parts_us,Advance Auto Parts,,South Charleston,WV,,US,+1 304-744-5060,https://stores.advanceautoparts.com/wv/south-charleston/315-maccorkle-ave-sw,Mo-Sa 07:00-21:00; Su 09:00-20:00,Advance Auto Parts,Q4686051
161195,bluerhino,Kroger #769 - MidAtlantic-Fuel Site,,South Charleston,WV,,US,+1 304-744-1472,,,Blue Rhino,Q65681213
5762,bluerhino,Kroger #769 - MidAtlantic,,South Charleston,WV,,US,+1 304-744-1472,,,Blue Rhino,Q65681213
192027,bluerhino,Walgreens #17738,,South Charleston,WV,,US,+1 304-744-8362,,,Blue Rhino,Q65681213
73981,bluerhino,Speedway #9222,,South Charleston,WV,,US,+1 304-744-4312,,,Blue Rhino,Q65681213
158211,bluerhino,One Stop #8101,,Charleston,WV,,US,+1 304-744-2419,,,Blue Rhino,Q65681213
13694623,chase_us,South Charleston Driveup - New branch,,South Charleston,WV,,US,+1 304-744-1835,https://locator.chase.com/wv/south-charleston/505-d-st-Branch-6123,Mo-Fr 09:00-17:00; Sa 09:00-12:00,Chase,Q524629
2039077,chase_us,South Charleston - New branch,,South Charleston,WV,,US,+1 304-744-1835,https://locator.chase.com/wv/south-charleston/505-d-st-Branch-2034,Mo-Fr 09:00-17:00; Sa 09:00-12:00,Chase,Q524629
09196,chevrolet,JOE HOLLAND CHEVROLET INC,,South Charleston,WV,,US,+1 304-744-1561,https://www.joehollandchevrolet.com,Mo-Fr 09:00-18:30; Sa 09:00-18:00,Chevrolet,Q29570
24136,citi,ATM 7ELEVEN-FCTI,,South Charlesto,WV,,US,,,,Citibank,Q857063
90274,citi,ATM Walgreens,,Socharleston,WV,,US,,,,Citibank,Q857063
61447,citi,ATM Kroger,,South Charleston,WV,,US,,,,Citibank,Q857063
78206,citi,ATM Speedway,,South Charleston,WV,,US,,,,Citibank,Q857063
,credit_union_us,Element FCU,,South Charleston,WV,,US,+1 304-721-4145,,Mo 08:00-05:30; Tu-Th 08:00-04:30; Fr 08:00-05:30,,
70144703,cricket_wireless,Cricket Wireless Authorized Retailer,,South Charleston,WV,,US,+1 681-265-3733,https://www.cricketwireless.com/stores/ll/US/WV/South-Charleston/22-River-Walk-Mall,Mo-Sa 10:00-20:00; Su 12:00-18:00,Cricket Wireless,Q5184987
https://www.edwardjones.com/us-en/financial-advisor/charles-haught,edwardjones,Chuck Haught,,South Charleston,WV,,US,+1 304-744-2920,https://www.edwardjones.com/us-en/financial-advisor/charles-haught,Mo-Th 08:30-17:00,Edward Jones,Q5343830
E16831,enterprise,South Charleston,,South Charleston,WV,,US,+1 304-744-3644,,,Enterprise Rent-A-Car,Q17085454
200314724,exxonmobil,ONE STOP #101,,SOUTH CHARLESTON,WV,,US,+1 304-744-2419,https://www.exxon.com/en/find-station/exxon-southcharleston-wv-onestop101-200314724,Mo-Sa 10:00-21:00; Su 12:00-21:00,Exxon,Q109675651
23569,family_dollar_us,FAMILY DOLLAR #3569,,South Charleston,WV,,US,+1 681-945-6229,https://www.familydollar.com/locations/wv/south-charleston/23569/,Mo-Su 09:00-21:00,Family Dollar,Q5433101
https://local.fedex.com/#25206891,fedex,,,South Charleston,WV,,US,+1 800-463-3339,https://local.fedex.com/en-us/wv/south-charleston/crwli,,FedEx,Q459477
https://local.fedex.com/#79946434,fedex,FedEx Authorized ShipCenter,,South Charleston,WV,,US,+1 681-265-1046,https://local.fedex.com/en-us/wv/south-charleston/00vd8,,FedEx,Q459477
https://branches.fleetpride.com/wv/southcharleston/truckparts-sch.html,fleet_pride_us,FleetPride,,South Charleston,WV,,US,+1 304-746-2000,https://branches.fleetpride.com/wv/southcharleston/truckparts-sch.html,Mo-Fr 07:30-17:00,FleetPride,Q121436710
1503157,hardees_us,Hardee's,,South Charleston,WV,,US,+1 304-744-4702,https://locations.hardees.com/wv/south-charleston/612-mac-corkle-ave,,Hardee's,Q1585088
154,huntingtonbank,South Charleston ,,South Charleston,WV,,US,+1 304-348-7111,https://www.huntington.com/Community/branch-info?locationId=154,Mo-Th 09:00-16:00; Fr 09:00-17:00; Sa-Su 00:00-00:00,Huntington Bank,Q798819
157771,marathon_petroleum_us,ONE STOP 507,,SOUTH CHARLESTON,WV,,US,+1 304-744-8233,,,Marathon,Q458363
CRWFC,marriott,Fairfield Inn & Suites Charleston,,Charleston,WV,,US,+1 304-744-4444,https://www.marriott.com/CRWFC,,Fairfield by Marriott,Q5430314
vzQqj,medexpress,MedExpress Urgent Care,,Charleston,WV,,US,+1 304-744-7517,https://www.medexpress.com/location/wv/charleston/psw/,Mo-Su 08:00-20:00,MedExpress,Q102183820
https://restaurants.subway.com/#14907414,subway,Subway Riverwalk Plaza,,South Charleston Kanawha,WV,,US,+1 304-744-0195,https://restaurants.subway.com/united-states/wv/south-charleston/6-riverwalk-plaza,Mo-Sa 08:00-22:00; Su 08:00-21:00,Subway,Q244457
08616,tjx,Charleston,26 Riverwalk Plaza,Charleston,WV,,US,+1 304-744-3866,,Mo-Sa 09:30-21:30; Su 10:00-20:00,TJ Maxx,Q10860683
635F,tmobile_us,Riverwalk Mall,,Charleston,WV,,US,+1 681-661-6897,https://www.t-mobile.com/store-locator/wv/charleston/riverwalk-mall,,T-Mobile,Q3511885
1437514,usps,SOUTH CHARLESTON,,SOUTH CHARLESTON,WV,,US,+1 304-744-7357,,Mo-Fr 08:00-16:30; Sa 10:00-13:00,United States Postal Service,Q668687
2530300033,usps_collection_boxes,USPS COLLECTION BOX - BLUE BOX,91 MACCORKLE AVE SW,S CHARLESTON,WV,,US,,,,United States Postal Service,Q668687
2530300015,usps_collection_boxes,USPS COLLECTION BOX - BLUE BOX,400 D ST,S CHARLESTON,WV,,US,,,,United States Postal Service,Q668687
2530300026,usps_collection_boxes,USPS COLLECTION BOX - BLUE BOX,400 D ST,S CHARLESTON,WV,,US,,,,United States Postal Service,Q668687
2530300027,usps_collection_boxes,USPS COLLECTION BOX - BLUE BOX,400 D ST,S CHARLESTON,WV,,US,,,,United States Postal Service,Q668687
2530300030,usps_collection_boxes,USPS COLLECTION BOX - PO LOBBY,400 D ST,S CHARLESTON,WV,,US,,,,United States Postal Service,Q668687
2530300031,usps_collection_boxes,USPS COLLECTION BOX - PO LOBBY,400 D ST,S CHARLESTON,WV,,US,,,,United States Postal Service,Q668687
2530300035,usps_collection_boxes,USPS COLLECTION BOX - PO LOBBY,400 D ST,S CHARLESTON,WV,,US,,,,United States Postal Service,Q668687
2530300013,usps_collection_boxes,USPS COLLECTION BOX - BLUE BOX,3100 MACCORKLE AVE SW,S CHARLESTON,WV,,US,,,,United States Postal Service,Q668687
,visa,,,SOUTH CHARLESTON,WV,,US,,,,,
,visa,,,SOUTH CHARLESTON,WV,,US,,,,,
,visa,,,SOUTH CAROLINA,WV,,US,,,,,
,visa,,,CHARLESTON,WV,,US,,,,,
,visa,,,CHARLESTON,WV,,US,,,,,
,visa,,,CHARLESTON,WV,,US,,,,,
,visa,,,CHARLESTON,WV,,US,,,,,
,visa,,,CHARLESTON,WV,,US,,,,,
,visa,,,S.CHARLESTON,WV,,US,,,,,
,visa,,,S CHARLESTON,WV,,US,,,,,
,visa,,,S CHARLESTON,WV,,US,,,,,
,visa,,,SO.CHARLESTON,WV,,US,,,,,
,visa,,,SOUTH CHARLESTON,WV,,US,,,,,
,visa,,,SOUTH CHARLESTON,WV,,US,,,,,
,visa,,,SOUTH CHARLESTON,WV,,US,,,,,
,visa,,,SO CHARLESTON,WV,,US,,,,,
,visa,,,SOUTH CHARLESTON,WV,,US,,,,,
,visa,,,CHARLESTON,WV,,US,,,,,
,visa,,,SOUTH CHARLESTON,WV,,US,,,,,
,visa,,,S CHARLESTON,WV,,US,,,,,
,visa,,,S. CHARLESTON,WV,,US,,,,,
,visa,,,CHARLESTON,WV,,US,,,,,
,visa,,,SOUTH CHARLESTON,WV,,US,,,,,
,visa,,,SPRING HILL,WV,,US,,,,,
,visa,,,SOUTH CHARLESTON,WV,,US,,,,,
,visa,,,SOUTH CHARLESTON,WV,,US,,,,,
,visa,,,SOUTH CHARLESTO,WV,,US,,,,,
https://www.walgreens.com/locator/walgreens-333+maccorkle+ave+sw-south+charleston-wv-25303/id=17738,walgreens,Walgreens,,South Charleston,WV,,US,+1 304-744-8362,https://www.walgreens.com/locator/walgreens-333+maccorkle+ave+sw-south+charleston-wv-25303/id=17738,Mo-Su 08:00-22:00,Walgreens,Q1591889
6ce5fe1f5f868c9edcb8525e78eb6dd9,western_union,WALGREENS #17738,,South Charleston,WV,,US,+1 304-744-8362,https://location.westernunion.com/us/wv/south-charleston/6ce5fe1f5f868c9edcb8525e78eb6dd9,Mo-Fr 08:00-21:00; Sa 08:00-20:00; Su 08:00-19:00,Western Union,Q861042
