Ref,Spider,Name,Address,City,State,Zipcode,Country,Phone,Website,Hours,Brand,WikiData
https://stores.advanceautoparts.com/ks/hays/2800-vine-st,advance_auto_parts_us,Advance Auto Parts,,Hays,KS,,US,+1 785-628-8200,https://stores.advanceautoparts.com/ks/hays/2800-vine-st,Mo-Sa 07:30-21:00; Su 09:00-20:00,Advance Auto Parts,Q4686051
https://locations.arbys.com/ks/hays/3501-vine-street.html,arbys_us,"Arby's Fast-Food Drive Through Near You in Hays, KS",,Hays,KS,,US,+1 785-625-8080,https://locations.arbys.com/ks/hays/3501-vine-street.html,Mo-Th 10:00-22:30; Fr-Sa 10:00-23:00; Su 10:00-22:00,Arby's,Q630866
https://stores.ashleyfurniture.com/store/us/kansas/hays/7710000174/,ashley_furniture,"Ashley Store Hays, KS",,Hays,KS,,US,+1 785-621-2664,https://stores.ashleyfurniture.com/store/us/kansas/hays/7710000174/,,Ashley Furniture,Q4805437
23604,asics_us,Brown's Shoe Fit Hays,2510 Vine St,Hays,KS,,US,+1 785-625-2711,,Mo-Fr 09:30-18:00; Sa 09:30-17:00; Su 12:00-17:00,asics,Q327247
50985,asics_us,Tradehome Shoes ,2900 Vine St,Hays,KS,,US,+1 785-625-7473,,Mo-Sa 10:00-20:00; Su 12:00-18:00,asics,Q327247
22664,asics_us,Hibbett Sports,120 W 43rd St,Hays,KS,,US,+1 785-628-8413,,,asics,Q327247
https://awrestaurants.com/locations/kansas/hays/3380-vine-street/,awrestaurants,A&W Restaurant,,Hays,KS,,US,+1 785-628-2742,https://awrestaurants.com/locations/kansas/hays/3380-vine-street/,Mo-Sa 10:30-22:00; Su 10:30-21:00,A&W Restaurants,Q277641
BBW01206,bathandbodyworks_us,THE MALL,,HAYS,KS,,US,+1 785-650-0136,,Mo-Sa 10:00-20:00; Su 12:00-18:00,Bath & Body Works,Q810773
9741,bluerhino,Dillons #14,,Hays,KS,,US,+1 785-628-1016,,,Blue Rhino,Q65681213
1741,bluerhino,Walmart #0664,,Hays,KS,,US,+1 785-625-0001,,,Blue Rhino,Q65681213
57752,bluerhino,Westlake Ace Hardware #076 - Ace #11276,,Hays,KS,,US,+1 785-650-0125,,,Blue Rhino,Q65681213
153685,bluerhino,Walgreens #6285,,Hays,KS,,US,+1 785-628-1767,,,Blue Rhino,Q65681213
33641,bluerhino,Love's #044,,Hays,KS,,US,+1 785-625-4034,,,Blue Rhino,Q65681213
225952,bluerhino,Bomgaar's #134,,Hays,KS,,US,+1 785-625-7316,,,Blue Rhino,Q65681213
185653,bluerhino,Dillons #61- Fuel Site,,Hays,KS,,US,+1 785-628-6137,,,Blue Rhino,Q65681213
9779,bluerhino,Dillons #61,,Hays,KS,,US,+1 785-628-6137,,,Blue Rhino,Q65681213
178244,bluerhino,Kwik Shop #759,,Hays,KS,,US,+1 785-628-8035,,,Blue Rhino,Q65681213
203367,bluerhino,CASEY'S GENERAL STORE #1957,,HAYS,KS,,US,+1 785-625-0730,,,Blue Rhino,Q65681213
218323,bluerhino,Dollar General #23319,,HAYS,KS,,US,+1 316-290-9915,,,Blue Rhino,Q65681213
203382,bluerhino,CASEY'S GENERAL STORE #2295,,HAYS,KS,,US,+1 785-625-0765,,,Blue Rhino,Q65681213
https://local.buckle.com/ks/hays/clothing-6.html,buckle_us,Hays Men’s & Women’s Clothing,,Hays,KS,,US,+1 785-625-4624,https://local.buckle.com/ks/hays/clothing-6.html,Mo-Sa 10:00-20:00; Su 12:00-18:00,Buckle,Q4983306
0867,carpet_one_floor_and_home_us,Vitztum's Carpet One Floor & Home,,Hays,KS,,US,+1 785-625-5623,https://www.hayscarpetone.com/,,Carpet One Floor & Home,Q121335910
12453,cenex,KB & KS Investments,,Hays,KS,,US,+1 785-650-9830,,24/7,Cenex,Q62127191
13096,cenex,Southside Convenience,,Hays,KS,,US,+1 785-628-2411,,,Cenex,Q62127191
53850,citi,ATM Dillons,,Hays,KS,,US,,,,Citibank,Q857063
89496,citi,ATM Walgreens,,Hays,KS,,US,,,,Citibank,Q857063
61715,citi,ATM Kwik Shop,,Hays,KS,,US,,,,Citibank,Q857063
hays/3060,claires,Shop Ear Piercings & Jewelry at Claires Walmart Hays,,HAYS,KS,,US,+1 785-628-8211,https://stores.claires.com/us/ks/hays/3060.html,Mo-Th 12:00-20:00; Fr-Su 11:00-20:00,Claire's,Q2974996
24036,coldstone_creamery,Cold Stone Creamery,,Hays,KS,,US,+1 785-432-4300,https://www.coldstonecreamery.com/stores/24036,,Cold Stone Creamery,Q1094923
6385,dominos_pizza_us,Domino's Pizza,,Hays,KS,,US,+1 785-625-2311,https://pizza.dominos.com/kansas/hays/2505-vine-street,Mo-Th 10:30-01:00; Fr-Sa 10:30-03:00; Su 10:30-01:00,Domino's,Q839466
https://www.edwardjones.com/us-en/financial-advisor/lora-schneider,edwardjones,Lora M Schneider,,Hays,KS,,US,+1 785-628-8433,https://www.edwardjones.com/us-en/financial-advisor/lora-schneider,Mo-Th 09:00-17:00; Fr 09:00-16:00,Edward Jones,Q5343830
520627,eg_america_us,Kwik Shop,,Hays,KS,,US,+1 785-628-8035,https://www.kwikshop.com/find-us/generic-store-page/?id=350759,,Kwik Shop,Q6450417
100161,electrify_america,Walmart 664 Hays,,Hays,KS,,US,,,,Electrify America,Q59773555
E1516M,enterprise,Hays,,Hays,KS,,US,+1 785-623-4504,,,Enterprise Rent-A-Car,Q17085454
https://branches.fleetpride.com/ks/hays/truckparts-hys.html,fleet_pride_us,FleetPride,,Hays,KS,,US,+1 785-650-0155,https://branches.fleetpride.com/ks/hays/truckparts-hys.html,Mo-Fr 07:30-17:00,FleetPride,Q121436710
Motorcraft2647USAEnglish,ford,Lewis Ford Lincoln of Hays,,Kansas,KS,,US,+1 785-625-3441,,,Ford,Q44294
https://www.ford.com/dealerships/dealer-details/ks/hays/lewis-ford-of-hays/,ford_dealers_us,Lewis Ford of Hays,,Hays,KS,,US,+1 785-301-5088,https://www.ford.com/dealerships/dealer-details/ks/hays/lewis-ford-of-hays/,Mo-Fr 08:30-18:00; Sa 08:30-17:00,Ford Motor Company,Q44294
8500,fresenius_kidney_care_us,Fresenius Kidney Care Hays,,Hays,KS,,US,+1 800-881-5101,https://www.freseniuskidneycare.com/dialysis-centers/kansas/8500,Mo 05:30-16:00; Tu 05:30-15:00; We 05:30-16:00; Th 05:30-15:00; Fr 05:30-16:00; Sa 05:30-23:00,,
https://fuzzystacoshop.com/locations/kansas/hays/,fuzzys_taco_shop_us,Hays,,Hays,KS,,US,+1 785-261-0822,https://fuzzystacoshop.com/locations/kansas/hays/,Mo-Th 11:00-21:00; Fr-Sa 11:00-22:00; Su 10:00-21:00,Fuzzy's Taco Shop,Q85762348
6936,gamestop_us,Hays Retail Center,,Hays,KS,,US,+1 785-625-0790,https://www.gamestop.com/search/?store=6936,Mo-Th 11:00-19:00; Fr-Sa 10:00-20:00; Su 11:00-18:00,GameStop,Q202210
https://stores.gnc.com/#24058758,gnc,GNC Mall At Hays,,,KS,,US,+1 785-625-6330,https://stores.gnc.com/all-stores-kansas/hays/2918-vine-street,Mo-Sa 10:00-20:00; Su 12:00-18:00,GNC,Q4808595
025ea7b1-458a-e111-8dde-005056934050,goodwill,1010 E 43rd St Store,,Hays,KS,,US,+1 785-623-4047,https://www.goodwill.org/locator/location/?store=MDI1ZWE3YjEtNDU4YS1lMTExLThkZGUtMDA1MDU2OTM0MDUw&lat=MzguODQ1MDU=&lng=LTk5LjM0Njcz,,Goodwill,Q5583655
https://salons.greatclips.com/us/ks/hays/4315-vine-st,greatclips,Great Clips,,Hays,KS,,US,+1 785-301-2722,https://salons.greatclips.com/us/ks/hays/4315-vine-st,Mo-Fr 10:00-19:00; Sa 09:00-18:00; Su 12:00-18:00,Great Clips,Q5598967
https://www.harborfreight.com/storelocator/2918-vine-street-suite-140-hays-67601?number=3035,harborfreight,"Harbor Freight Tools Hays, KS",,Hays,KS,,US,+1 785-301-1515,https://www.harborfreight.com/storelocator/2918-vine-street-suite-140-hays-67601?number=3035,Mo-Sa 08:00-20:00; Su 09:00-18:00,Harbor Freight Tools,Q5654601
26691,h_r_block,H&R Block,,Hays,KS,,US,+1 785-625-6316,https://www.hrblock.com/local-tax-offices/kansas/hays/2707-vine-st/26691/,,H&R Block,Q5627799
ks_hays_breakfast-4000-general-hays-rd-2045,ihop,IHOP Breakfast Restaurants Near You at 4000 General Hays Rd,,Hays,KS,,US,+1 785-621-4467,https://restaurants.ihop.com/en-us/ks/hays/breakfast-4000-general-hays-rd-2045,,IHOP,Q1185675
https://office.jacksonhewitt.com/#27580434,jackson_hewitt,Jackson Hewitt,,Hays,KS,,US,+1 620-275-8299,https://office.jacksonhewitt.com/tax-preparation-services-locations/en/ks/hays/4301-vine-st/50664,Mo-Sa 11:00-19:00; Su 13:00-17:00,Jackson Hewitt,Q6117132
https://locations.jimmyjohns.com/ks/hays/sandwiches-1084.html,jimmy_johns,Jimmy John's,,Hays,KS,,US,+1 785-621-2227,https://locations.jimmyjohns.com/ks/hays/sandwiches-1084.html,,Jimmy John's,Q1689380
https://locations.kfc.com/#11248184,kfc,Chicken Nuggets Near Hays,,Hays,KS,,US,,https://locations.kfc.com/ks/hays/2804-north-vine-street/chickennugget,,KFC,Q524757
9207,little_free_library,Eric Norris #9207 Hays KS,,Hays,KS,,US,,,,Little Free Library,Q6650101
44,loves,Site 44,,Hays,KS,,US,+1 785-625-4034,,,Love's,Q1872496
HYSFI,marriott,Fairfield Inn Hays,,Hays,KS,,US,+1 785-625-3344,https://www.marriott.com/HYSFI,,Fairfield by Marriott,Q5430314
HYSTS,marriott,TownePlace Suites Hays,,Hays,KS,,US,+1 785-261-9630,https://www.marriott.com/HYSTS,,Townplace Suites by Marriott,Q7830092
https://locations.maurices.com/#11688651,maurices,maurices Big Creek Crossing,,Hays,KS,,US,+1 785-625-3212,https://locations.maurices.com/us/ks/hays/2918-vine-street,Mo-Sa 10:00-20:00; Su 12:00-18:00,maurices,Q6793571
7180,old_chicago_us,Hays,"383 West Mopar, Hays, KS 67601",Hays,KS,,US,,https://oldchicago.com/locations/hays,Mo-Su 11:00-21:00,Old Chicago,Q64411347
456,ollies_bargain_outlet,Ollie's Bargain Outlet,,Hays,KS,,US,+1 785-261-9556,https://www.ollies.us/locations/2918-vine-street-hays-ks/,Mo-Sa 09:00-21:00; Su 10:00-19:00,Ollie's Bargain Outlet,Q7088304
https://locations.oreillyauto.com/ks/hays/check-engine-light-testing-2465.html,oreilly,Your Hays O'Reilly Auto Parts Store,,Hays,KS,,US,+1 785-625-0732,https://locations.oreillyauto.com/ks/hays/check-engine-light-testing-2465.html,Mo-Sa 07:30-21:00; Su 08:00-20:00,O'Reilly Auto Parts,Q7071951
https://locations.oreillyauto.com/ks/hays/wiper-installation-2465.html,oreilly,Your Hays O'Reilly Auto Parts Store,,Hays,KS,,US,+1 785-625-0732,https://locations.oreillyauto.com/ks/hays/wiper-installation-2465.html,Mo-Sa 07:30-21:00; Su 08:00-20:00,O'Reilly Auto Parts,Q7071951
https://locations.oreillyauto.com/ks/hays/battery-testing-2465.html,oreilly,Your Hays O'Reilly Auto Parts Store,,Hays,KS,,US,+1 785-625-0732,https://locations.oreillyauto.com/ks/hays/battery-testing-2465.html,Mo-Sa 07:30-21:00; Su 08:00-20:00,O'Reilly Auto Parts,Q7071951
https://locations.oreillyauto.com/ks/hays/autopartes-2465.html,oreilly,Tu tienda O'Reilly Auto Parts en Hays,,Hays,KS,,US,+1 785-625-0732,https://locations.oreillyauto.com/ks/hays/autopartes-2465.html,Mo-Sa 07:30-21:00; Su 08:00-20:00,O'Reilly Auto Parts,Q7071951
https://locations.papamurphys.com/#15430092,papamurphys,Pizza Takeout & Delivery,,Hays,KS,,US,+1 785-621-4750,https://locations.papamurphys.com/ks/hays/2700-oak-street,Mo-Th 11:00-20:00; Fr-Sa 11:00-21:00; Su 11:00-20:00,Papa Murphy's,Q7132349
0000888702,phillips_66_conoco_76,CERVS WEST,,HAYS,KS,,US,+1 785-625-7767,,,Phillips 66,Q1656230
0000888704,phillips_66_conoco_76,MAIN STREET EXPRESS- HAYS,,HAYS,KS,,US,+1 785-625-7727,,,Phillips 66,Q1656230
ks_hays_600-park-street,pizza_hut_us,600 Park Street,,Hays,KS,,US,,https://locations.pizzahut.com/ks/hays/600-park-street,,Pizza Hut,Q191615
ks_hays_1308-vine,pizza_hut_us,1308 Vine,,Hays,KS,,US,+1 785-628-1777,https://locations.pizzahut.com/ks/hays/1308-vine,,Pizza Hut,Q191615
restaurant_879448,popeyes_us_fr,Popeyes,"213 W 43rd Street Hays, Kansas 67601 - USA",Hays,KS,,US,+1 785-261-9024,https://www.popeyes.com/store-locator/store/restaurant_879448,Mo-Su 10:30-21:00,Popeyes,Q1330910
home-depot-2221-12895,ppgpaints,HOME DEPOT 2221,,"Hays, ",KS,,US,+1 785-625-0044,https://www.ppgpaints.com/store-locator/us/kansas/hays-paint-stores/home-depot-2221-12895,,PPG Paints,Q83891559
floors-n-more-28551,ppgpaints,FLOORS N MORE,,"Hays, ",KS,,US,+1 785-623-4404,https://www.ppgpaints.com/store-locator/us/kansas/hays-paint-stores/floors-n-more-28551,,PPG Paints,Q83891559
https://locations.qdoba.com/us/ks/hays/3310-vine-st.html,qdoba,"QDOBA Hays, KS",,Hays,KS,,US,+1 785-621-2515,https://locations.qdoba.com/us/ks/hays/3310-vine-st.html,Mo-Su 10:30-22:00,Qdoba,Q1363885
4009,rentacenter,Rent-A-Center,,Hays,KS,,US,+1 785-625-6900,https://locations.rentacenter.com/kansas/hays/4333-vine-st/,Mo-Sa 10:00-18:00,Rent-A-Center,Q7313497
https://stores.saloncentric.com/#29173722,salon_centric_us,SalonCentric,,,KS,,US,+1 785-628-2552,https://stores.saloncentric.com/ks/hays/4612,Mo 08:00-18:30; Tu-Fr 08:00-18:00; Sa 08:30-16:00,SalonCentric,Q124339481
1044,scooters_coffee_us,Vine & E 25th St,,Hays,KS,,US,+1 785-621-6760,,Mo-Su 06:00-19:00,Scooter's Coffee,Q117280308
https://restaurants.subway.com/#14913723,subway,Subway,,Hays Ellis,KS,,US,+1 785-623-2828,https://restaurants.subway.com/united-states/ks/hays/3408-vine-street,Mo-Su 08:00-22:00,Subway,Q244457
https://restaurants.subway.com/#14916774,subway,Subway,,Hays Ellis,KS,,US,+1 785-625-7171,https://restaurants.subway.com/united-states/ks/hays/1211-n-vine-st,Mo-Su 09:00-22:00,Subway,Q244457
https://locations.tacobell.com/#6145782,taco_bell,Taco Bell,,Hays,KS,,US,+1 785-623-4611,https://locations.tacobell.com/ks/hays/1730-vine-street.html,Mo-Su 07:00-24:00,Taco Bell,Q752941
467F,tmobile_us,Vine St & 45th St,,Hays,KS,,US,+1 785-301-1853,https://www.t-mobile.com/store-locator/ks/hays/vine-st-45th-st,,T-Mobile,Q3511885
6848,upsstore,Tebo Village,4320 Vine St Unit 80,Hays,KS,,US,+1 785-301-2921,https://locations.theupsstore.com/ks/hays/4320-vine-st,,UPS Store,Q7771029
1366558,usps,HAYS,,HAYS,KS,,US,+1 785-625-2012,,Mo-Fr 07:30-17:30; Sa 09:00-12:00,United States Postal Service,Q668687
1473602,usps,HAYS,,HAYS,KS,,US,+1 785-625-2012,,,United States Postal Service,Q668687
6760100020,usps_collection_boxes,USPS COLLECTION BOX - BLUE BOX,883 MOSCOW ST,HAYS,KS,,US,,,,United States Postal Service,Q668687
6760100001,usps_collection_boxes,USPS COLLECTION BOX - BLUE BOX,1305 CANTERBURY DR,HAYS,KS,,US,,,,United States Postal Service,Q668687
6760100000,usps_collection_boxes,USPS COLLECTION BOX - BLUE BOX,210 E 7TH ST,HAYS,KS,,US,,,,United States Postal Service,Q668687
6760100033,usps_collection_boxes,USPS COLLECTION BOX - PO LOBBY,706 FORT ST,HAYS,KS,,US,,,,United States Postal Service,Q668687
6760100034,usps_collection_boxes,USPS COLLECTION BOX - PO LOBBY,706 FORT ST,HAYS,KS,,US,,,,United States Postal Service,Q668687
6760100018,usps_collection_boxes,USPS COLLECTION BOX - BLUE BOX,706 FORT ST,HAYS,KS,,US,,,,United States Postal Service,Q668687
6760100043,usps_collection_boxes,USPS COLLECTION BOX - PO LOBBY,706 FORT ST,HAYS,KS,,US,,,,United States Postal Service,Q668687
6760100009,usps_collection_boxes,USPS COLLECTION BOX - BLUE BOX,1201 MAIN ST,HAYS,KS,,US,,,,United States Postal Service,Q668687
6760100022,usps_collection_boxes,USPS COLLECTION BOX - BLUE BOX,126 W 11TH ST,HAYS,KS,,US,,,,United States Postal Service,Q668687
6760100032,usps_collection_boxes,USPS COLLECTION BOX - BLUE BOX,301 W 13TH ST,HAYS,KS,,US,,,,United States Postal Service,Q668687
6760100002,usps_collection_boxes,USPS COLLECTION BOX - BLUE BOX,2400 VINE ST,HAYS,KS,,US,,,,United States Postal Service,Q668687
6760100016,usps_collection_boxes,USPS COLLECTION BOX - BLUE BOX,2707 VINE ST,HAYS,KS,,US,,,,United States Postal Service,Q668687
6760100003,usps_collection_boxes,USPS COLLECTION BOX - BLUE BOX,2818 VINE ST,HAYS,KS,,US,,,,United States Postal Service,Q668687
6760100004,usps_collection_boxes,USPS COLLECTION BOX - BLUE BOX,2918 VINE ST,HAYS,KS,,US,,,,United States Postal Service,Q668687
6760100007,usps_collection_boxes,USPS COLLECTION BOX - BLUE BOX,2703 HALL ST,HAYS,KS,,US,,,,United States Postal Service,Q668687
6760100040,usps_collection_boxes,USPS COLLECTION BOX - BLUE BOX,4301 VINE ST,HAYS,KS,,US,,,,United States Postal Service,Q668687
,visa,,,HAYS,KS,,US,,,,,
,visa,,,HAYS,KS,,US,,,,,
,visa,,,HAYS,KS,,US,,,,,
,visa,,,HAYS,KS,,US,,,,,
,visa,,,HAYS,KS,,US,,,,,
,visa,,,HAYS,KS,,US,,,,,
,visa,,,HAYS,KS,,US,,,,,
,visa,,,HAYS,KS,,US,,,,,
,visa,,,HAYS,KS,,US,,,,,
,visa,,,HAYS,KS,,US,,,,,
,visa,,,HAYS,KS,,US,,,,,
,visa,,,HAYS,KS,,US,,,,,
,visa,,,HAYS,KS,,US,,,,,
,visa,,,HAYS,KS,,US,,,,,
,visa,,,HAYS,KS,,US,,,,,
,visa,,,HAYS,KS,,US,,,,,
,visa,,,HAYS,KS,,US,,,,,
,visa,,,HAYS,KS,,US,,,,,
,visa,,,HAYS,KS,,US,,,,,
,visa,,,HAYS,KS,,US,,,,,
,visa,,,HAYS,KS,,US,,,,,
,visa,,,HAYS,KS,,US,,,,,
,visa,,,HAYS,KS,,US,,,,,
,visa,,,HAYS,KS,,US,,,,,
,visa,,,HAYS,KS,,US,,,,,
,visa,,,HAYS,KS,,US,,,,,
,visa,,,HAYS,KS,,US,,,,,
,visa,,,HAYES,KS,,US,,,,,
,visa,,,HAYS,KS,,US,,,,,
,visa,,,HAYS,KS,,US,,,,,
,visa,,,HAYS,KS,,US,,,,,
,visa,,,HAYS,KS,,US,,,,,
,visa,,,HAYS,KS,,US,,,,,
,visa,,,HAYS,KS,,US,,,,,
,visa,,,HAYS,KS,,US,,,,,
,visa,,,HAYES,KS,,US,,,,,
,visa,,,HAYS,KS,,US,,,,,
,visa,,,HAYS,KS,,US,,,,,
https://www.walgreens.com/locator/walgreens-2600+vine+st-hays-ks-67601/id=6285,walgreens,Walgreens,,Hays,KS,,US,+1 785-628-1767,https://www.walgreens.com/locator/walgreens-2600+vine+st-hays-ks-67601/id=6285,Mo-Sa 07:00-23:00; Su 08:00-22:00,Walgreens,Q1591889
https://locations.wendys.com/#9252854,wendys,"Wendy's Vine Street #2 in Hays, KS",,Hays,KS,,US,+1 785-621-4318,https://locations.wendys.com/united-states/ks/hays/4235-n-vine-street,"Mo-Su 06:30-10:30,07:00-22:00",Wendy's,Q550258
https://locations.wendys.com/#9252853,wendys,"Wendy's Hays in Hays, KS",,Hays,KS,,US,+1 785-625-6925,https://locations.wendys.com/united-states/ks/hays/1800-vine-street,"Mo-Sa 06:30-10:30,07:30-22:00; Su 07:00-10:30,07:30-22:00",Wendy's,Q550258
85aa3e54b531230e474a662cc8164c7d,western_union,WALMART #000664,,Hays,KS,,US,+1 785-625-0001,https://location.westernunion.com/us/ks/hays/85aa3e54b531230e474a662cc8164c7d,Mo-Su 07:00-21:00,Western Union,Q861042
f6be03fbf303a12fe84caf0bb87f3403,western_union,KWIK SHOP #759,,Hays,KS,,US,+1 785-628-8035,https://location.westernunion.com/us/ks/hays/f6be03fbf303a12fe84caf0bb87f3403,Mo-We 05:00-23:00; Th-Su 07:00-23:00,Western Union,Q861042
