Ref,Spider,Name,Address,City,State,Zipcode,Country,Phone,Website,Hours,Brand,WikiData
https://stores.advanceautoparts.com/pa/finleyville/300-phoenix-dr,advance_auto_parts_us,Advance Auto Parts,,Finleyville,PA,,US,+1 724-918-4001,https://stores.advanceautoparts.com/pa/finleyville/300-phoenix-dr,Mo-Fr 07:30-18:00; Sa 08:00-16:00; Su 09:00-15:00,Advance Auto Parts,Q4686051
060266,citizens_us,Citizens Supermarket Branch Finleyville GE,,Finleyville,PA,,US,+1 724-348-2280,,Mo-Fr 10:00-17:00; Sa 10:00-15:00,Citizens,Q5122694
ATM-766,citizens_us,,,Finleyville,PA,,US,+1 724-348-2280,,,Citizens,Q5122694
13996,dollar_general,Dollar General,,Finleyville,PA,,US,+1 724-281-3251,https://www.dollargeneral.com/store-directory/pa/finleyville/13996,Mo-Su 08:00-22:00,Dollar General,Q145168
5,gianteagle,Finleyville Giant Eagle,,Finleyville,PA,,US,+1 724-348-4051,,Mo-Su 07:00-21:00,Giant Eagle,Q1522721
https://restaurants.subway.com/#14902035,subway,Subway,,Finleyville Washington,PA,,US,+1 724-782-0829,https://restaurants.subway.com/united-states/pa/finleyville/6225-state-route-88,Mo-Tu 09:00-19:30; We-Fr 09:00-20:00; Sa 10:00-19:30; Su 10:00-19:00,Subway,Q244457
0961415701,sunoco_us,Sunoco,,FINLEYVILLE,PA,,US,+1 724-348-7148,,24/7,Sunoco,Q1423218
1363401,usps,FINLEYVILLE,,FINLEYVILLE,PA,,US,+1 724-348-7277,,"Mo-Fr 08:30-11:30,12:30-16:00; Sa 09:00-12:00",United States Postal Service,Q668687
1533200005,usps_collection_boxes,USPS COLLECTION BOX - BLUE BOX,3701 STATE ROUTE 88,FINLEYVILLE,PA,,US,,,,United States Postal Service,Q668687
1533200001,usps_collection_boxes,USPS COLLECTION BOX - BLUE BOX,3510 EXTENSION AVE,FINLEYVILLE,PA,,US,,,,United States Postal Service,Q668687
1533200004,usps_collection_boxes,USPS COLLECTION BOX - PO LOBBY,3510 EXTENSION AVE,FINLEYVILLE,PA,,US,,,,United States Postal Service,Q668687
1533200007,usps_collection_boxes,USPS COLLECTION BOX - PO LOBBY,3510 EXTENSION AVE,FINLEYVILLE,PA,,US,,,,United States Postal Service,Q668687
,visa,,,FINLEYVILLE,PA,,US,,,,,
,visa,,,FINLEYVILLE,PA,,US,,,,,
,visa,,,FINLEYVILLE,PA,,US,,,,,
,visa,,,FINLEYVILLE,PA,,US,,,,,
,visa,,,FINLEYVILLE,PA,,US,,,,,
,visa,,,FINLEYVILLE,PA,,US,,,,,
,visa,,,FINLEYVILLE,PA,,US,,,,,
,visa,,,FINLEYVILLE,PA,,US,,,,,
,visa,,,FINLEYVILLE,PA,,US,,,,,
,visa,,,FINLEYVILLE,PA,,US,,,,,
,visa,,,FINLEYVILLE,PA,,US,,,,,
8a65fd18bcab5a32ab40fde60cd22bc0,western_union,GIANT EAGLE #0005,,Finleyville,PA,,US,+1 724-348-4051,https://location.westernunion.com/us/pa/finleyville/8a65fd18bcab5a32ab40fde60cd22bc0,Mo-Su 08:00-20:00,Western Union,Q861042
