Ref,Spider,Name,Address,City,State,Zipcode,Country,Phone,Website,Hours,Brand,WikiData
515dba43e61606524550a75a4dc8c6e3,western_union,SUPERGIROS IPIALES PDV LOS ANGELES,,Ipiales,NARI�O,,CO,+57 1 800 0111700,https://location.westernunion.com/co/nari�o/ipiales/515dba43e61606524550a75a4dc8c6e3,Mo-Sa 08:00-20:00; Su 10:00-16:00,Western Union,Q861042
053f100317aed8d3068f98cc2afd9164,western_union,SUPERGIROS IPIALES PDV PF LAS LAJAS,,Ipiales,NARI�O,,CO,+57 1 800 0111700,https://location.westernunion.com/co/nari�o/ipiales/053f100317aed8d3068f98cc2afd9164,Mo-Sa 08:00-20:00; Su 10:00-16:00,Western Union,Q861042
3d08ab79c31ff8d9f2b86ca0f563a04e,western_union,SUPERGIROS IPIALES PDV OBRERO LA 17,,Ipiales,NARI�O,,CO,+57 1 800 0111700,https://location.westernunion.com/co/nari�o/ipiales/3d08ab79c31ff8d9f2b86ca0f563a04e,Mo-Sa 08:00-20:00; Su 10:00-16:00,Western Union,Q861042
d9ea0f84d78e3ee0738eea8a44d5cd63,western_union,SUPERGIROS IPIALES PDV GUALCALA 1 NARINO,,Ipiales,NARI�O,,CO,+57 1 800 0111700,https://location.westernunion.com/co/nari�o/ipiales/d9ea0f84d78e3ee0738eea8a44d5cd63,Mo-Sa 08:00-20:00; Su 10:00-16:00,Western Union,Q861042
6f56f29d7c8cfecbc65bdcdc45bce267,western_union,SUPERGIROS IPIALES PDV HOSPITAL NARINO,,Ipiales,NARI�O,,CO,+57 1 800 0111700,https://location.westernunion.com/co/nari�o/ipiales/6f56f29d7c8cfecbc65bdcdc45bce267,Mo-Sa 08:00-20:00; Su 10:00-16:00,Western Union,Q861042
98e7426b82a09ba8d9c44a63e5c4bed7,western_union,SUPERGIROS IPIALES MICROGIRO CENTENARIO,,Ipiales,NARI�O,,CO,+57 1 800 0111700,https://location.westernunion.com/co/nari�o/ipiales/98e7426b82a09ba8d9c44a63e5c4bed7,Mo-Sa 08:00-20:00; Su 10:00-16:00,Western Union,Q861042
5f0f312614cbc730af8a6b418d6726ea,western_union,EFECTY MINIMARKET LOS ANDES,,Los Andes,NARI�O,,CO,+57 601 7566027,https://location.westernunion.com/co/nari�o/los-andes/5f0f312614cbc730af8a6b418d6726ea,Mo-Su 10:00-20:00,Western Union,Q861042
8d74ffacb929998129e619fd2dea334e,western_union,EFECTY TECNOLOGIA UNICELL,,La Union,NARI�O,,CO,+57 601 7566027,https://location.westernunion.com/co/nari�o/la-union/8d74ffacb929998129e619fd2dea334e,Mo-Sa 08:00-20:00; Su 08:00-16:00,Western Union,Q861042
055afe370cafe297d7c931f7320c346e,western_union,EFECTY EL PILAR,,Pasto,NARI�O,,CO,+57 601 7566027,https://location.westernunion.com/co/nari�o/pasto/055afe370cafe297d7c931f7320c346e,Mo-Sa 08:00-20:00; Su 08:00-16:00,Western Union,Q861042
d4521ea91d8eb135b599456459b142ea,western_union,EFECTY JUANDY,,Ipiales,NARI�O,,CO,+57 601 7566027,https://location.westernunion.com/co/nari�o/ipiales/d4521ea91d8eb135b599456459b142ea,Mo-Sa 07:00-21:00; Su 08:00-21:00,Western Union,Q861042
8608f7d2f3136a11c1d8b22b7dc60e26,western_union,MULTIPAGAS EL PE�OL,,El Penol,NARI�O,,CO,+57 602 6510101,https://location.westernunion.com/co/nari�o/el-penol/8608f7d2f3136a11c1d8b22b7dc60e26,Mo-Fr 08:00-17:00; Sa 08:00-12:00,Western Union,Q861042
937e981f02e2af311f049eefe0dc71df,western_union,EFECTY CENTRO MAYORISTA,,Pasto,NARI�O,,CO,+57 601 7566027,https://location.westernunion.com/co/nari�o/pasto/937e981f02e2af311f049eefe0dc71df,Mo-Sa 08:00-20:00; Su 08:00-16:00,Western Union,Q861042
e9b304dffaa2264aefbc78fbe2f03f17,western_union,EFECTY CALLE NUEVA CREACION DISTRIBUIDO,,Tumaco,NARI�O,,CO,+57 601 7566027,https://location.westernunion.com/co/nari�o/tumaco/e9b304dffaa2264aefbc78fbe2f03f17,Mo-Sa 08:00-20:00; Su 08:00-16:00,Western Union,Q861042
4ac85d07c5b4e88d0123827535a2b6fe,western_union,EFECTY OLAYA HERRERA CL  TELECOM,,Olaya Herrera,NARI�O,,CO,+57 601 7566027,https://location.westernunion.com/co/nari�o/olaya-herrera/4ac85d07c5b4e88d0123827535a2b6fe,Mo-Fr 08:00-20:00; Sa 08:00-18:00; Su 08:00-12:00,Western Union,Q861042
7b0a94a133578a277f048a8cc77dd2eb,western_union,EFECTY BOCAS DE SATINGA,,Olaya Herrera,NARI�O,,CO,+57 601 7566027,https://location.westernunion.com/co/nari�o/olaya-herrera/7b0a94a133578a277f048a8cc77dd2eb,Mo-Sa 08:00-18:00,Western Union,Q861042
c136bada5a17fc77a74e27c4b1c7a75a,western_union,EFECTY PALERMO,,Pasto,NARI�O,,CO,+57 601 7566027,https://location.westernunion.com/co/nari�o/pasto/c136bada5a17fc77a74e27c4b1c7a75a,Mo-Sa 08:00-20:00; Su 08:00-16:00,Western Union,Q861042
6b90b825dafa392b23b1a2bf26342afb,western_union,BANCO AGRARIO CORDOBA,,Cordoba,NARI�O,,CO,+57 601 5948500,https://location.westernunion.com/co/nari�o/cordoba/6b90b825dafa392b23b1a2bf26342afb,Tu-Fr 08:00-16:30; Sa 08:00-14:00,Western Union,Q861042
95fde8fdf82e1706740a0fb96b7b74a0,western_union,EFECTY CLICK,,Pasto,NARI�O,,CO,+57 601 7566027,https://location.westernunion.com/co/nari�o/pasto/95fde8fdf82e1706740a0fb96b7b74a0,Mo-Fr 08:00-12:00; Sa-Su 08:00-13:00,Western Union,Q861042
f6da194aaddd0d41da9af037be3dcaa6,western_union,EFECTY EL SUPER DETALLE 1,,Linares,NARI�O,,CO,+57 601 7566027,https://location.westernunion.com/co/nari�o/linares/f6da194aaddd0d41da9af037be3dcaa6,Mo-Sa 08:00-20:00; Su 08:00-16:00,Western Union,Q861042
ee9abcc632fd0d73f3b17fb053417874,western_union,EFECTY FERRO SAN BERNARDO,,San Bernardo,NARI�O,,CO,+57 601 7566027,https://location.westernunion.com/co/nari�o/san-bernardo/ee9abcc632fd0d73f3b17fb053417874,Mo-Fr 08:00-18:00; Sa 08:00-16:00,Western Union,Q861042
9d71f9c3713629caff5aff12d4a7c1b5,western_union,EFECTY CUMBAL I,,Cumbal,NARI�O,,CO,+57 601 7566027,https://location.westernunion.com/co/nari�o/cumbal/9d71f9c3713629caff5aff12d4a7c1b5,Mo-Fr 08:00-19:30; Sa 09:00-19:00; Su 09:00-13:00,Western Union,Q861042
6ebfdc374963ae8d9d21c2bde18b5bb7,western_union,EFECTY FERRETERIA CASA GRANDE,,La Union,NARI�O,,CO,+57 601 7566027,https://location.westernunion.com/co/nari�o/la-union/6ebfdc374963ae8d9d21c2bde18b5bb7,Mo-Sa 08:00-20:00; Su 08:00-16:00,Western Union,Q861042
5ada454c2512f3418cb3eb885a5bcc03,western_union,EFECTY BARRIO CENTRO I,,Nari�o,NARI�O,,CO,+57 601 7566027,https://location.westernunion.com/co/nari�o/nari�o/5ada454c2512f3418cb3eb885a5bcc03,Mo-Fr 08:00-20:00; Sa 08:00-18:00; Su 08:00-12:00,Western Union,Q861042
59b9634f84df5a2efc3c7f3c5d4f7631,western_union,EFECTY CALLE MOSQUERA ELITE SPORT.COM,,Tumaco,NARI�O,,CO,+57 601 7566027,https://location.westernunion.com/co/nari�o/tumaco/59b9634f84df5a2efc3c7f3c5d4f7631,Mo-Sa 08:00-20:00; Su 08:00-16:00,Western Union,Q861042
86602063bb09c83a2ae2f5a09009f397,western_union,EFECTY CORREGIMIENTO SANTANDER VARIEDAD,,Cordoba,NARI�O,,CO,+57 601 7566027,https://location.westernunion.com/co/nari�o/cordoba/86602063bb09c83a2ae2f5a09009f397,Mo-Sa 08:00-20:00; Su 08:00-16:00,Western Union,Q861042
c97aa39bc903e22e0d5cfad9ca2760fb,western_union,EFECTY VALLE DE ATRIZ,,Pasto,NARI�O,,CO,+57 601 7566027,https://location.westernunion.com/co/nari�o/pasto/c97aa39bc903e22e0d5cfad9ca2760fb,Mo-Sa 08:00-20:00; Su 08:00-16:00,Western Union,Q861042
ef58e06cce76bf0f70991084036713a1,western_union,EFECTY COMERCIO ::,,El Tambo,NARI�O,,CO,+57 601 7566027,https://location.westernunion.com/co/nari�o/el-tambo/ef58e06cce76bf0f70991084036713a1,Mo-Fr 08:00-20:00; Sa 08:00-18:00; Su 08:00-12:00,Western Union,Q861042
02065740ea32f171b871114d19ac589a,western_union,EFECTY PASTO LAS CUADRAS,,Pasto,NARI�O,,CO,+57 601 7566027,https://location.westernunion.com/co/nari�o/pasto/02065740ea32f171b871114d19ac589a,Mo-Sa 09:00-19:00; Su 11:00-19:00,Western Union,Q861042
a8fdf50d5b144f716c62a500d6adbe4a,western_union,SUPERGIROS TUMACO GANE GALERIA FISH,,Barbacoas,NARI�O,,CO,+57 1 800 0111700,https://location.westernunion.com/co/nari�o/barbacoas/a8fdf50d5b144f716c62a500d6adbe4a,Mo-Sa 08:00-20:00,Western Union,Q861042
bd9247bb2792afe749fbe2ae7e73beed,western_union,SUPERGIROS SATINGA NARINO,,Barbacoas,NARI�O,,CO,+57 1 800 0111700,https://location.westernunion.com/co/nari�o/barbacoas/bd9247bb2792afe749fbe2ae7e73beed,Mo-Sa 08:00-20:00,Western Union,Q861042
24fd1573b332a4873c14437dbfe820ae,western_union,EFECTY ALMACEN Y PAPELERIA TELEMBI 1,,Barbacoas,NARI�O,,CO,+57 601 7566027,https://location.westernunion.com/co/nari�o/barbacoas/24fd1573b332a4873c14437dbfe820ae,Mo-Sa 08:00-20:00; Su 08:00-16:00,Western Union,Q861042
d1a91a658078ec5496c0140854c0c434,western_union,SUPERGIROS SAN PABLO NARINO,,Pasto,NARI�O,,CO,+57 1 800 0111700,https://location.westernunion.com/co/nari�o/pasto/d1a91a658078ec5496c0140854c0c434,Mo-Sa 08:00-20:00,Western Union,Q861042
670c0991f0b33a31aa375c5938b3d12e,western_union,SUPERGIROS PASTO LA PLAYA NARINO,,La Cruz,NARI�O,,CO,+57 1 800 0111700,https://location.westernunion.com/co/nari�o/la-cruz/670c0991f0b33a31aa375c5938b3d12e,Mo-Sa 08:00-20:00,Western Union,Q861042
53514469ab13fccfe42eed6085c11b99,western_union,EFECTY PLASTICOS Y DECORACIONES EL DORAD,,La Cruz,NARI�O,,CO,+57 601 7566027,https://location.westernunion.com/co/nari�o/la-cruz/53514469ab13fccfe42eed6085c11b99,Mo-Sa 08:00-20:00; Su 08:00-16:00,Western Union,Q861042
25b1754d60b850218d960ac55e1201c9,western_union,EFECTY LA CRUZ II - NARI�O,,La Cruz,NARI�O,,CO,+57 601 7566027,https://location.westernunion.com/co/nari�o/la-cruz/25b1754d60b850218d960ac55e1201c9,Mo-Fr 08:00-18:00; Sa 08:00-13:00,Western Union,Q861042
64ddd063a50810873c3365a6bf504bc0,western_union,SUPERGIROS LA CRUZ NARINO,,Pasto,NARI�O,,CO,+57 1 800 0111700,https://location.westernunion.com/co/nari�o/pasto/64ddd063a50810873c3365a6bf504bc0,Mo-Sa 08:00-20:00,Western Union,Q861042
7a776f07a782bd40f42f9bdbb79e5150,western_union,SUPERGIROS COLON GENOVA NARINO,,Pasto,NARI�O,,CO,+57 1 800 0111700,https://location.westernunion.com/co/nari�o/pasto/7a776f07a782bd40f42f9bdbb79e5150,Mo-Sa 08:00-20:00,Western Union,Q861042
47db1b9a8c3ddfb0e430a73e575309de,western_union,BANCO AGRARIO LA UNION,,La Union,NARI�O,,CO,+57 601 5948500,https://location.westernunion.com/co/nari�o/la-union/47db1b9a8c3ddfb0e430a73e575309de,Tu-Fr 08:00-16:30; Sa 08:00-14:00,Western Union,Q861042
3c2fde3452bfabfd2fcb04c025136682,western_union,EFECTY PLASTICOS PINATERIA Y DESECHABL,,San Bernardo,NARI�O,,CO,+57 601 7566027,https://location.westernunion.com/co/nari�o/san-bernardo/3c2fde3452bfabfd2fcb04c025136682,Mo-Sa 08:00-20:00; Su 08:00-16:00,Western Union,Q861042
6dfd30bca931e61391cd6e7efec2cf92,western_union,EFECTY SAN BOSCO EL TABLON DE GOMEZ,,El Tablon De Gomez,NARI�O,,CO,+57 601 7566027,https://location.westernunion.com/co/nari�o/el-tablon-de-gomez/6dfd30bca931e61391cd6e7efec2cf92,Mo-Sa 08:00-20:00; Su 08:00-16:00,Western Union,Q861042
c2a7a4b11347cc43eef6e700a4859b33,western_union,EFECTY TIENDA JAKELINE IDROBO,,San Lorenzo,NARI�O,,CO,+57 601 7566027,https://location.westernunion.com/co/nari�o/san-lorenzo/c2a7a4b11347cc43eef6e700a4859b33,Mo-Sa 08:00-20:00; Su 08:00-16:00,Western Union,Q861042
10533e5227ce99409484fa1ae287aa5a,western_union,EFECTY PARQUE SIMON BOLIVAR,,Taminango,NARI�O,,CO,+57 601 7566027,https://location.westernunion.com/co/nari�o/taminango/10533e5227ce99409484fa1ae287aa5a,Mo-Fr 08:00-20:00; Sa 08:00-16:00,Western Union,Q861042
80ccfa04ad44a162f0525fefb07071c3,western_union,SUPERGIROS TUMACO ACP ROBLES CDA NAR,,Tumaco,NARI�O,,CO,+57 1 800 0111700,https://location.westernunion.com/co/nari�o/tumaco/80ccfa04ad44a162f0525fefb07071c3,Mo-Sa 08:00-20:00,Western Union,Q861042
8b263a55ca0ae9788737087dd68f4861,western_union,SUPERGIROS LOS ANDES SOTOMAYOR NARINO,,Los Andes,NARI�O,,CO,+57 1 800 0111700,https://location.westernunion.com/co/nari�o/los-andes/8b263a55ca0ae9788737087dd68f4861,Mo-Sa 08:00-20:00; Su 10:00-16:00,Western Union,Q861042
36bf94f0bcc0e80a37dcafafa9448638,western_union,SUPERGIROS BUESACO NARINO,,Tumaco,NARI�O,,CO,+57 1 800 0111700,https://location.westernunion.com/co/nari�o/tumaco/36bf94f0bcc0e80a37dcafafa9448638,Mo-Sa 08:00-20:00,Western Union,Q861042
9a30abb7a3fa4cfe781e23831ccf2ac9,western_union,EFECTY EFECTY PAPELERIA BUESACO,,Buesaco,NARI�O,,CO,+57 601 7566027,https://location.westernunion.com/co/nari�o/buesaco/9a30abb7a3fa4cfe781e23831ccf2ac9,Mo-Sa 08:00-20:00; Su 08:00-16:00,Western Union,Q861042
9efbd2127701a01cb3db2fcba64afc5e,western_union,BANCO AGRARIO POLICARPA,,Policarpa,NARI�O,,CO,+57 601 5948500,https://location.westernunion.com/co/nari�o/policarpa/9efbd2127701a01cb3db2fcba64afc5e,Tu-Sa 08:00-14:00,Western Union,Q861042
2a0b2e991c25d62db1882531c7dd7cd0,western_union,EFECTY CORREGIMIENTO SANTA CRUZ ISA BELL,,Policarpa,NARI�O,,CO,+57 601 7566027,https://location.westernunion.com/co/nari�o/policarpa/2a0b2e991c25d62db1882531c7dd7cd0,Mo-Sa 08:00-20:00; Su 08:00-16:00,Western Union,Q861042
208481b94d3d4d081b18900aafeb5ef7,western_union,EFECTY POLICARPA PAPELERIA VAR JL EXITO,,Policarpa,NARI�O,,CO,+57 601 7566027,https://location.westernunion.com/co/nari�o/policarpa/208481b94d3d4d081b18900aafeb5ef7,Mo-Sa 08:00-20:00; Su 08:00-16:00,Western Union,Q861042
e54b4ff682347efaad971f1be4cf7384,western_union,EFECTY FRANCISCO PIZARRO I,,Francisco Pizarro,NARI�O,,CO,+57 601 7566027,https://location.westernunion.com/co/nari�o/francisco-pizarro/e54b4ff682347efaad971f1be4cf7384,Mo-Sa 08:00-20:00; Su 08:00-16:00,Western Union,Q861042
9b33f399b637748e9d4506c0d238b54c,western_union,SUPERGIROS TUMACO MICROGIROS CALLE C,,Chachagui,NARI�O,,CO,+57 1 800 0111700,https://location.westernunion.com/co/nari�o/chachagui/9b33f399b637748e9d4506c0d238b54c,Mo-Sa 08:00-20:00,Western Union,Q861042
92c9a78317878c7fae45f0f6617143cd,western_union,SUPERGIROS MICROGIROS EL PARQUE,,Sandona,NARI�O,,CO,+57 1 800 0111700,https://location.westernunion.com/co/nari�o/sandona/92c9a78317878c7fae45f0f6617143cd,Mo-Sa 08:00-20:00,Western Union,Q861042
1e22f262aeffac19b274e5e130810f06,western_union,SUPERGIROS TUMACO SUPERSERVICIOS LA,,Cumbitara,NARI�O,,CO,+57 1 800 0111700,https://location.westernunion.com/co/nari�o/cumbitara/1e22f262aeffac19b274e5e130810f06,Mo-Sa 08:00-20:00,Western Union,Q861042
e46e661eeab070574138230c9a936dd4,western_union,SUPERGIROS MICROGIROS OF P,,Cumbitara,NARI�O,,CO,+57 1 800 0111700,https://location.westernunion.com/co/nari�o/cumbitara/e46e661eeab070574138230c9a936dd4,Mo-Sa 08:00-20:00,Western Union,Q861042
6fc3da653fee6d8ecfd28c3dd7810418,western_union,SUPERGIROS CHACHAGUI EVEN AEROPUERTO,,Chachagui,NARI�O,,CO,+57 1 800 0111700,https://location.westernunion.com/co/nari�o/chachagui/6fc3da653fee6d8ecfd28c3dd7810418,Mo-Sa 08:00-20:00,Western Union,Q861042
7ba3b503f49309ce25a597a8cb8ed19d,western_union,BANCO AGRARIO CHACHAG�I,,Chachagui,NARI�O,,CO,+57 601 5948500,https://location.westernunion.com/co/nari�o/chachagui/7ba3b503f49309ce25a597a8cb8ed19d,Tu-Fr 08:00-16:30; Sa 08:00-14:00,Western Union,Q861042
b8528fefcccc8bd3ff23d3366ce1fccc,western_union,SUPERGIROS CHACHAGUI PDV CENTRAL NARINO,,Pasto,NARI�O,,CO,+57 1 800 0111700,https://location.westernunion.com/co/nari�o/pasto/b8528fefcccc8bd3ff23d3366ce1fccc,Mo-Sa 08:00-20:00; Su 10:00-16:00,Western Union,Q861042
0516ce2ef19ac81bf47e3fac14b1855d,western_union,SUPERGIROS BELEN SANTA ROSA NARINO,,Chachagui,NARI�O,,CO,+57 1 800 0111700,https://location.westernunion.com/co/nari�o/chachagui/0516ce2ef19ac81bf47e3fac14b1855d,Mo-Sa 08:00-20:00,Western Union,Q861042
6ef0c83351ac73735495f949ac5b5074,western_union,EFECTY TIENDA DON JHON MOCONDINO,,Pasto,NARI�O,,CO,+57 601 7566027,https://location.westernunion.com/co/nari�o/pasto/6ef0c83351ac73735495f949ac5b5074,Mo-Sa 08:00-20:00; Su 08:00-16:00,Western Union,Q861042
8a432a9cd0bd8fd07294232a7d4b9939,western_union,SUPERGIROS PASTO PDV LAS BRISAS NUEVO,,Pasto,NARI�O,,CO,+57 1 800 0111700,https://location.westernunion.com/co/nari�o/pasto/8a432a9cd0bd8fd07294232a7d4b9939,Mo-Sa 08:00-20:00; Su 10:00-16:00,Western Union,Q861042
60410ff652ed474c6e81e5a1f333aa96,western_union,SUPERGIROS PASTO PDV EL PARAISO NARINO,,Pasto,NARI�O,,CO,+57 1 800 0111700,https://location.westernunion.com/co/nari�o/pasto/60410ff652ed474c6e81e5a1f333aa96,Mo-Sa 08:00-20:00; Su 10:00-16:00,Western Union,Q861042
03cb26243e347141761ca1c89dbfd493,western_union,EFECTY DIMONEX TIENDA GEUDIN,,Pasto,NARI�O,,CO,+57 601 7566027,https://location.westernunion.com/co/nari�o/pasto/03cb26243e347141761ca1c89dbfd493,Mo-Sa 08:00-20:00; Su 08:00-16:00,Western Union,Q861042
ead6f06667319ab94424d84c3a0d5d9b,western_union,SUPERGIROS PASTO PDV NUEVO SOL NARINO,,Pasto,NARI�O,,CO,+57 1 800 0111700,https://location.westernunion.com/co/nari�o/pasto/ead6f06667319ab94424d84c3a0d5d9b,Mo-Sa 08:00-20:00; Su 10:00-16:00,Western Union,Q861042
cae810661aa4d4b6c09d8c157191dee8,western_union,SUPERGIROS TANGUA NARINO,,El Tambo,NARI�O,,CO,+57 1 800 0111700,https://location.westernunion.com/co/nari�o/el-tambo/cae810661aa4d4b6c09d8c157191dee8,Mo-Sa 08:00-20:00,Western Union,Q861042
5225b37b8ea814601bde86bb1fb4bcb6,western_union,EFECTY VARIEDADES ENCANTO,,Pasto,NARI�O,,CO,+57 601 7566027,https://location.westernunion.com/co/nari�o/pasto/5225b37b8ea814601bde86bb1fb4bcb6,Mo-Sa 08:00-20:00; Su 08:00-16:00,Western Union,Q861042
0cd34aac78c06b585c62986f63e9fc39,western_union,EFECTY NUEVO SOL,,Pasto,NARI�O,,CO,+57 601 7566027,https://location.westernunion.com/co/nari�o/pasto/0cd34aac78c06b585c62986f63e9fc39,Mo-Sa 08:00-20:00; Su 08:00-16:00,Western Union,Q861042
de66b014ab3a1eccedab2108174d06c5,western_union,EFECTY PASTO BARRIO SAN LUIS,,Pasto,NARI�O,,CO,+57 601 7566027,https://location.westernunion.com/co/nari�o/pasto/de66b014ab3a1eccedab2108174d06c5,Mo-Fr 08:00-20:00; Sa 08:00-18:00; Su 08:00-12:00,Western Union,Q861042
4ec9936b1564e73e28ccd506a8a38798,western_union,SUPERGIROS PASTO PDV NUEVO HORIZONTE,,Pasto,NARI�O,,CO,+57 1 800 0111700,https://location.westernunion.com/co/nari�o/pasto/4ec9936b1564e73e28ccd506a8a38798,Mo-Sa 08:00-20:00; Su 10:00-16:00,Western Union,Q861042
076ca0aa08ec851664039287fbff7d57,western_union,SUPERGIROS PASTO LA POLICIA,,Olaya Herrera,NARI�O,,CO,+57 1 800 0111700,https://location.westernunion.com/co/nari�o/olaya-herrera/076ca0aa08ec851664039287fbff7d57,Mo-Sa 08:00-20:00,Western Union,Q861042
75e1181f743b920573987207a789a17e,western_union,EFECTY CENTRO DE COPIADO CALLE 20,,Pasto,NARI�O,,CO,+57 601 7566027,https://location.westernunion.com/co/nari�o/pasto/75e1181f743b920573987207a789a17e,Mo-Sa 08:00-20:00; Su 08:00-16:00,Western Union,Q861042
8a971a5e12ddeccb129c0ffdb99cd62e,western_union,SUPERGIROS PASTO COMERCIAL LORENZO N,,Pasto,NARI�O,,CO,+57 1 800 0111700,https://location.westernunion.com/co/nari�o/pasto/8a971a5e12ddeccb129c0ffdb99cd62e,Mo-Sa 08:00-20:00,Western Union,Q861042
fc6e1308af07290259c3a90fb6b80827,western_union,SUPERGIROS PASTO PARQUE BOLIVAR,,Pasto,NARI�O,,CO,+57 1 800 0111700,https://location.westernunion.com/co/nari�o/pasto/fc6e1308af07290259c3a90fb6b80827,Mo-Sa 08:00-20:00; Su 10:00-16:00,Western Union,Q861042
121fabe0b8af02294e40dcfbb7476bbc,western_union,EFECTY PASTO AV SANTANDER,,Pasto,NARI�O,,CO,+57 601 7566027,https://location.westernunion.com/co/nari�o/pasto/121fabe0b8af02294e40dcfbb7476bbc,Mo-Sa 08:00-20:00; Su 08:00-16:00,Western Union,Q861042
1c1f10642be5af28aa9c346b88bf18bf,western_union,SUPERGIROS PASTO PDV EL TEJAR NARINO,,Pasto,NARI�O,,CO,+57 1 800 0111700,https://location.westernunion.com/co/nari�o/pasto/1c1f10642be5af28aa9c346b88bf18bf,Mo-Sa 08:00-20:00; Su 10:00-16:00,Western Union,Q861042
50cb4b625596273715181345ab878223,western_union,SUPERGIROS PASTO HOSPITAL DEPARTAMEN,,Olaya Herrera,NARI�O,,CO,+57 1 800 0111700,https://location.westernunion.com/co/nari�o/olaya-herrera/50cb4b625596273715181345ab878223,Mo-Sa 08:00-20:00,Western Union,Q861042
592d64b806cd9526db860767ccf7150a,western_union,EFECTY TIENDA SU AMISTAD TEJAR,,Pasto,NARI�O,,CO,+57 601 7566027,https://location.westernunion.com/co/nari�o/pasto/592d64b806cd9526db860767ccf7150a,Mo-Sa 08:00-20:00; Su 08:00-16:00,Western Union,Q861042
4075e74db207466d12e7e99b57fc1d0a,western_union,SUPERGIROS TUMACO GANE CAL,,Pasto,NARI�O,,CO,+57 1 800 0111700,https://location.westernunion.com/co/nari�o/pasto/4075e74db207466d12e7e99b57fc1d0a,Mo-Sa 08:00-20:00,Western Union,Q861042
a021cf0da94b5fcb0c1d3e7a2eee3183,western_union,SUPERGIROS PASTO AGENCIA LAS CUADRAS,,Mosquera,NARI�O,,CO,+57 1 800 0111700,https://location.westernunion.com/co/nari�o/mosquera/a021cf0da94b5fcb0c1d3e7a2eee3183,Mo-Sa 08:00-20:00,Western Union,Q861042
5bb546015a6f72e4630b047df2a34747,western_union,EFECTY SANTAFE I,,Pasto,NARI�O,,CO,+57 601 7566027,https://location.westernunion.com/co/nari�o/pasto/5bb546015a6f72e4630b047df2a34747,Mo-Sa 08:00-20:00; Su 08:00-16:00,Western Union,Q861042
f1564fc262cc63b916ac9cc10991315c,western_union,EFECTY MULTISERVICIOS LAS CUADRAS,,Pasto,NARI�O,,CO,+57 601 7566027,https://location.westernunion.com/co/nari�o/pasto/f1564fc262cc63b916ac9cc10991315c,Mo-Sa 08:00-20:00; Su 08:00-16:00,Western Union,Q861042
b9bc835515c9c0b9197d0e89a7fa5ba9,western_union,PAGAFACIL AVENIDA ESTUDIANTES,,Pasto,NARI�O,,CO,+57 1 800 0111700,https://location.westernunion.com/co/nari�o/pasto/b9bc835515c9c0b9197d0e89a7fa5ba9,Mo-Fr 09:00-18:50; Sa 09:00-14:50,Western Union,Q861042
168f9215aa7143b0e45b3dbb88581137,western_union,EFECTY EFECTY SARVICESSURE,,Pasto,NARI�O,,CO,+57 601 7566027,https://location.westernunion.com/co/nari�o/pasto/168f9215aa7143b0e45b3dbb88581137,Mo-Sa 08:00-20:00; Su 08:00-16:00,Western Union,Q861042
19047730c7dd0258c3e4195dfbd82d61,western_union,EFECTY DROGUERIA VILLA DOCENTE,,Pasto,NARI�O,,CO,+57 601 7566027,https://location.westernunion.com/co/nari�o/pasto/19047730c7dd0258c3e4195dfbd82d61,Mo-Sa 08:00-20:00; Su 08:00-16:00,Western Union,Q861042
a5703008f93d1f52f7303a2bf94bf379,western_union,EFECTY NEOTEC VARIEDADES INFORMATICAS,,Pasto,NARI�O,,CO,+57 601 7566027,https://location.westernunion.com/co/nari�o/pasto/a5703008f93d1f52f7303a2bf94bf379,Mo-Sa 08:00-20:00; Su 08:00-16:00,Western Union,Q861042
10f1ff908c3d709995370671f7e2c737,western_union,PAGAFACIL PARQUE BOLIVAR,,Pasto,NARI�O,,CO,+57 1 800 0111700,https://location.westernunion.com/co/nari�o/pasto/10f1ff908c3d709995370671f7e2c737,Mo-Fr 08:00-18:00; Sa 09:00-14:50,Western Union,Q861042
2179a8f4abcf78de71490fed5120a174,western_union,BANCO AGRARIO PASTO,,Pasto,NARI�O,,CO,+57 601 5948500,https://location.westernunion.com/co/nari�o/pasto/2179a8f4abcf78de71490fed5120a174,Mo-Fr 08:00-16:30,Western Union,Q861042
32b64c52cef3aa5002c7871d188ccf6e,western_union,ACCIONES Y VALORES EXITO CENTRO PASTO,,Pasto,NARI�O,,CO,(+57) 1-6510480,https://location.westernunion.com/co/nari�o/pasto/32b64c52cef3aa5002c7871d188ccf6e,Mo-Su 08:00-20:00,Western Union,Q861042
8e0bb528d566a2f2622a41dd4ea12426,western_union,EFECTY EFECTY DROGUERIA FARMAEXITO,,Pasto,NARI�O,,CO,+57 601 7566027,https://location.westernunion.com/co/nari�o/pasto/8e0bb528d566a2f2622a41dd4ea12426,Mo-Sa 08:00-20:00; Su 08:00-16:00,Western Union,Q861042
5e8fc3afce419ad596463a71feacf718,western_union,ACCIONES Y VALORES EXITO CENTRO PASTO,,Pasto,NARI�O,,CO,+57 1 800 0111700,https://location.westernunion.com/co/nari�o/pasto/5e8fc3afce419ad596463a71feacf718,Mo-Sa 08:00-17:00,Western Union,Q861042
68fb1fb1dae01256e3095549a6f12e9d,western_union,SUPERGIROS PASTO PDV EXITO CENTRO NARINO,,Pasto,NARI�O,,CO,+57 1 800 0111700,https://location.westernunion.com/co/nari�o/pasto/68fb1fb1dae01256e3095549a6f12e9d,Mo-Sa 08:00-20:00; Su 10:00-16:00,Western Union,Q861042
027e563e7fb69ce16e6a07d4fb4fd9c7,western_union,EFECTY MASFARMA SANTA MONICA,,Pasto,NARI�O,,CO,+57 601 7566027,https://location.westernunion.com/co/nari�o/pasto/027e563e7fb69ce16e6a07d4fb4fd9c7,Mo-Sa 08:00-20:00; Su 08:00-16:00,Western Union,Q861042
a12a145271e06c4df07b3ce0d9190bed,western_union,EFECTY BARRIO SIMON BOLIVAR DROGUERIA S,,Pasto,NARI�O,,CO,+57 601 7566027,https://location.westernunion.com/co/nari�o/pasto/a12a145271e06c4df07b3ce0d9190bed,Mo-Sa 08:00-20:00; Su 08:00-16:00,Western Union,Q861042
6a7521941721629c4ab59d5f54a0615e,western_union,EFECTY EFECTY ELECTROFERRETERIA,,Pasto,NARI�O,,CO,+57 601 7566027,https://location.westernunion.com/co/nari�o/pasto/6a7521941721629c4ab59d5f54a0615e,Mo-Sa 08:00-20:00; Su 08:00-16:00,Western Union,Q861042
ac9101329540fa3969659179f76ba28e,western_union,SUPERGIROS PASTO FARMAC CORAZON DE JESUS,,Pasto,NARI�O,,CO,+57 1 800 0111700,https://location.westernunion.com/co/nari�o/pasto/ac9101329540fa3969659179f76ba28e,Mo-Sa 08:00-20:00; Su 10:00-16:00,Western Union,Q861042
4905e30d535d0fdda81f3381beb94b25,western_union,SUPERGIROS PASTO PDV ESTRELLA NARINO,,Pasto,NARI�O,,CO,+57 1 800 0111700,https://location.westernunion.com/co/nari�o/pasto/4905e30d535d0fdda81f3381beb94b25,Mo-Sa 08:00-20:00; Su 10:00-16:00,Western Union,Q861042
b06ca79d8ed60e8777285d59e667dc11,western_union,EFECTY AV COLOMBIA BATALLON I,,Pasto,NARI�O,,CO,+57 601 7566027,https://location.westernunion.com/co/nari�o/pasto/b06ca79d8ed60e8777285d59e667dc11,Mo-Sa 08:00-20:00; Su 08:00-16:00,Western Union,Q861042
26ac9daf4ecb9c4f1dd1b3770b755eb2,western_union,SUPERGIROS PASTO PARQUE BOLIVAR,,Tumaco,NARI�O,,CO,+57 1 800 0111700,https://location.westernunion.com/co/nari�o/tumaco/26ac9daf4ecb9c4f1dd1b3770b755eb2,Mo-Sa 08:00-20:00,Western Union,Q861042
8b36b08742137487dadd4c6fd138c9bf,western_union,SUPERGIROS PASTO AV COLOMBIA NARINO,,Pasto,NARI�O,,CO,+57 1 800 0111700,https://location.westernunion.com/co/nari�o/pasto/8b36b08742137487dadd4c6fd138c9bf,Mo-Sa 08:00-20:00,Western Union,Q861042
1ae919792c6658c5d69769b41674a65d,western_union,MULTIPAGAS PASTO CENTRO,,Pasto,NARI�O,,CO,+57 602 6510101,https://location.westernunion.com/co/nari�o/pasto/1ae919792c6658c5d69769b41674a65d,Mo-Fr 08:00-19:00; Sa 08:00-14:00,Western Union,Q861042
70cab8113ed1ddcce1ec945dfb159f56,western_union,EFECTY PASTO BRR PANDIACO,,Pasto,NARI�O,,CO,+57 601 7566027,https://location.westernunion.com/co/nari�o/pasto/70cab8113ed1ddcce1ec945dfb159f56,Mo-Sa 08:00-20:00; Su 08:00-16:00,Western Union,Q861042
0265decea05bf1b94fcdc7fb2a5d5339,western_union,SUPERGIROS PASTO PDV VATICANO NARINO,,Pasto,NARI�O,,CO,+57 1 800 0111700,https://location.westernunion.com/co/nari�o/pasto/0265decea05bf1b94fcdc7fb2a5d5339,Mo-Sa 08:00-20:00; Su 10:00-16:00,Western Union,Q861042
e406032ac8be59af3f3bfcc3bd8dfe1e,western_union,SUPERGIROS GANE PASTO PANDIACO,,La Union,NARI�O,,CO,+57 1 800 0111700,https://location.westernunion.com/co/nari�o/la-union/e406032ac8be59af3f3bfcc3bd8dfe1e,Mo-Sa 08:00-20:00,Western Union,Q861042
3e8a1d06a048765fa4b6c8fa20953c1b,western_union,SUPERGIROS PASTO SEBASTIAN DE BELALCAZAR,,Pasto,NARI�O,,CO,+57 1 800 0111700,https://location.westernunion.com/co/nari�o/pasto/3e8a1d06a048765fa4b6c8fa20953c1b,Mo-Sa 08:00-20:00; Su 10:00-16:00,Western Union,Q861042
6d4a5e1bfa1bdc3cb39c9fb4636fde74,western_union,SUPERGIROS PASTO EVEN SEBASTIAN DE BELAL,,Pasto,NARI�O,,CO,+57 1 800 0111700,https://location.westernunion.com/co/nari�o/pasto/6d4a5e1bfa1bdc3cb39c9fb4636fde74,Mo-Sa 08:00-20:00; Su 10:00-16:00,Western Union,Q861042
38a7582229e31b481f8526c7408f7bc1,western_union,SUPERGIROS SUPERSERV JULIAN BUCHELLY,,Buesaco,NARI�O,,CO,+57 1 800 0111700,https://location.westernunion.com/co/nari�o/buesaco/38a7582229e31b481f8526c7408f7bc1,Mo-Sa 08:00-20:00,Western Union,Q861042
fc91d1af780ba888188804964d8135f0,western_union,SUPERGIROS PASTO VILLA ALEJANDRIA,,Maguei,NARI�O,,CO,+57 1 800 0111700,https://location.westernunion.com/co/nari�o/maguei/fc91d1af780ba888188804964d8135f0,Mo-Sa 08:00-20:00,Western Union,Q861042
138f6f268e27191b2cb75da6e05f1297,western_union,SUPERGIROS PASTO PDV MARIANA NARINO,,Pasto,NARI�O,,CO,+57 1 800 0111700,https://location.westernunion.com/co/nari�o/pasto/138f6f268e27191b2cb75da6e05f1297,Mo-Sa 08:00-20:00; Su 10:00-16:00,Western Union,Q861042
a10b8b5e6a5b2af524a345aa88814195,western_union,EFECTY BARRIO PANDIACO INSUMOS,,Pasto,NARI�O,,CO,+57 601 7566027,https://location.westernunion.com/co/nari�o/pasto/a10b8b5e6a5b2af524a345aa88814195,Mo-Sa 08:00-20:00; Su 08:00-16:00,Western Union,Q861042
42caf26652a5176bf3dd107626e5c794,western_union,EFECTY DIMONEX A TU ESTILO,,Pasto,NARI�O,,CO,+57 601 7566027,https://location.westernunion.com/co/nari�o/pasto/42caf26652a5176bf3dd107626e5c794,Mo-Fr 08:00-20:00; Sa 08:00-16:00,Western Union,Q861042
f1ad475d461eb4851c5bb1105893dcb0,western_union,EFECTY SAN IGNACIO DOCENTES PUNTO COM,,Pasto,NARI�O,,CO,+57 601 7566027,https://location.westernunion.com/co/nari�o/pasto/f1ad475d461eb4851c5bb1105893dcb0,Mo-Sa 08:00-20:00; Su 08:00-16:00,Western Union,Q861042
c33a67d00f7a2b42020e2ccb04c8c2f3,western_union,SUPERGIROS PASTO PDV TERMINAL DOS NARINO,,Pasto,NARI�O,,CO,+57 1 800 0111700,https://location.westernunion.com/co/nari�o/pasto/c33a67d00f7a2b42020e2ccb04c8c2f3,Mo-Sa 08:00-20:00; Su 10:00-16:00,Western Union,Q861042
4214c180f6cf00df6bdcc04437448c8c,western_union,ACCIONES Y VALORES EXITO PANAMERICANA PA,,Pasto,NARI�O,,CO,(+57) 6510480,https://location.westernunion.com/co/nari�o/pasto/4214c180f6cf00df6bdcc04437448c8c,Mo-Sa 08:00-20:00; Su 10:30-16:00,Western Union,Q861042
c8960b5adb8758ddf1494626a97a1fcb,western_union,SUPERGIROS PASTO TERMINAL,,Tuquerres,NARI�O,,CO,+57 1 800 0111700,https://location.westernunion.com/co/nari�o/tuquerres/c8960b5adb8758ddf1494626a97a1fcb,Mo-Sa 08:00-20:00,Western Union,Q861042
e50f8a7e4f682aec5c9b33ab0f639b8b,western_union,EFECTY MIRAFLORES II,,Pasto,NARI�O,,CO,+57 601 7566027,https://location.westernunion.com/co/nari�o/pasto/e50f8a7e4f682aec5c9b33ab0f639b8b,Mo-Sa 08:00-20:00; Su 08:00-16:00,Western Union,Q861042
854b7579f355a334487b6481a7cfe257,western_union,EFECTY VARIEDADES ATRIX,,Pasto,NARI�O,,CO,+57 601 7566027,https://location.westernunion.com/co/nari�o/pasto/854b7579f355a334487b6481a7cfe257,Mo-Sa 08:00-20:00; Su 08:00-16:00,Western Union,Q861042
be76ce60aa123942b9c7b96b5a903454,western_union,EFECTY TIENDA Y FOTOCOPIAS FATIMA,,Pasto,NARI�O,,CO,+57 601 7566027,https://location.westernunion.com/co/nari�o/pasto/be76ce60aa123942b9c7b96b5a903454,Mo-Sa 08:00-20:00; Su 08:00-16:00,Western Union,Q861042
4cfdb703635dc0252afb57a3c2ae4c24,western_union,EFECTY VILLA VICTORIA L,,Pasto,NARI�O,,CO,+57 601 7566027,https://location.westernunion.com/co/nari�o/pasto/4cfdb703635dc0252afb57a3c2ae4c24,Mo-Sa 08:00-20:00; Su 08:00-16:00,Western Union,Q861042
00e83f57129c42a7fc850d838c81ea45,western_union,EFECTY INTEL COPIAS CAMI,,Pasto,NARI�O,,CO,+57 601 7566027,https://location.westernunion.com/co/nari�o/pasto/00e83f57129c42a7fc850d838c81ea45,Mo-Sa 08:00-20:00; Su 08:00-16:00,Western Union,Q861042
cc9135ecf116e6214b19ed17312fba55,western_union,SUPERGIROS PASTO LA PANALERA PRINCIP,,Pasto,NARI�O,,CO,+57 1 800 0111700,https://location.westernunion.com/co/nari�o/pasto/cc9135ecf116e6214b19ed17312fba55,Mo-Sa 08:00-20:00,Western Union,Q861042
06a0d04002f6c247bca6e35fd9dd6990,western_union,SUPERGIROS PASTO AVENIDA D,,Olaya Herrera,NARI�O,,CO,+57 1 800 0111700,https://location.westernunion.com/co/nari�o/olaya-herrera/06a0d04002f6c247bca6e35fd9dd6990,Mo-Sa 08:00-20:00,Western Union,Q861042
70a75996d8d2c008f4ee0283ff7d33f6,western_union,EFECTY EXPRESS EFECTY BARRIO SANTA BARB,,Pasto,NARI�O,,CO,+57 601 7566027,https://location.westernunion.com/co/nari�o/pasto/70a75996d8d2c008f4ee0283ff7d33f6,Mo-Fr 08:00-20:00; Sa 08:00-18:00; Su 08:00-12:00,Western Union,Q861042
afd6fa3680d14efd73da3115c066d6ce,western_union,SUPERGIROS PASTO PDV ALAMEDA NARINO,,Pasto,NARI�O,,CO,+57 1 800 0111700,https://location.westernunion.com/co/nari�o/pasto/afd6fa3680d14efd73da3115c066d6ce,Mo-Sa 08:00-20:00; Su 10:00-16:00,Western Union,Q861042
121614dd2b9aaf2003ee26f2b52904cb,western_union,SUPERGIROS PASTO PDV EL EJIDO NARINO,,Pasto,NARI�O,,CO,+57 1 800 0111700,https://location.westernunion.com/co/nari�o/pasto/121614dd2b9aaf2003ee26f2b52904cb,Mo-Sa 08:00-20:00; Su 10:00-16:00,Western Union,Q861042
e80eafe25a069bff864d6c3237722a00,western_union,EFECTY VNET,,Pasto,NARI�O,,CO,+57 601 7566027,https://location.westernunion.com/co/nari�o/pasto/e80eafe25a069bff864d6c3237722a00,Mo-Sa 08:00-20:00; Su 08:00-16:00,Western Union,Q861042
a5e06a5e2df2f01bafbdf86a66294284,western_union,EFECTY VARIEDADES YANI VILLAFLOR II,,Pasto,NARI�O,,CO,+57 601 7566027,https://location.westernunion.com/co/nari�o/pasto/a5e06a5e2df2f01bafbdf86a66294284,Mo-Sa 08:00-20:00; Su 08:00-16:00,Western Union,Q861042
75bcdc57f38c3e5eb4ec4639c038c0f5,western_union,GIROS Y FINANZAS-BANCO UNION,,Pasto,NARI�O,,CO,(+57) 1800011199,https://location.westernunion.com/co/nari�o/pasto/75bcdc57f38c3e5eb4ec4639c038c0f5,Mo-Sa 09:00-18:00,Western Union,Q861042
612bca6304cc9ddd8b4fd07e88fac4f7,western_union,EFECTY DROGUERIA UNIVERSAL DEL SUR,,Pasto,NARI�O,,CO,+57 601 7566027,https://location.westernunion.com/co/nari�o/pasto/612bca6304cc9ddd8b4fd07e88fac4f7,Mo-Sa 08:00-20:00; Su 08:00-16:00,Western Union,Q861042
ce63aba3ac949034b33b6c2c470fd57a,western_union,EFECTY ANCIANATO CAROLINA,,Pasto,NARI�O,,CO,+57 601 7566027,https://location.westernunion.com/co/nari�o/pasto/ce63aba3ac949034b33b6c2c470fd57a,Mo-Sa 08:00-20:00; Su 08:00-16:00,Western Union,Q861042
282c54a288991841de02eecd98f910a6,western_union,EFECTY RAPITIENDA CARLOS PIZARRO,,Pasto,NARI�O,,CO,+57 601 7566027,https://location.westernunion.com/co/nari�o/pasto/282c54a288991841de02eecd98f910a6,Mo-Sa 08:00-20:00; Su 09:00-20:00,Western Union,Q861042
ceb879b56740e189289c0d38476472cc,western_union,EFECTY EFECTY SU TIENDA A LA MANO,,Pasto,NARI�O,,CO,+57 601 7566027,https://location.westernunion.com/co/nari�o/pasto/ceb879b56740e189289c0d38476472cc,Mo-Sa 08:00-20:00; Su 08:00-16:00,Western Union,Q861042
93a9977c0637a85d5e1505758316ff4f,western_union,SUPERGIROS PASTO PDV LA AURORA NARINO,,Pasto,NARI�O,,CO,+57 1 800 0111700,https://location.westernunion.com/co/nari�o/pasto/93a9977c0637a85d5e1505758316ff4f,Mo-Sa 08:00-20:00; Su 10:00-16:00,Western Union,Q861042
c1eb5e3e7b73dfaf19e37f9f392d8123,western_union,SUPERGIROS PASTO GANESERVICIOS,,Olaya Herrera,NARI�O,,CO,+57 1 800 0111700,https://location.westernunion.com/co/nari�o/olaya-herrera/c1eb5e3e7b73dfaf19e37f9f392d8123,Mo-Sa 08:00-20:00,Western Union,Q861042
cf949e05e3ce9a26811818b5f3c5095d,western_union,EFECTY DROGUERIA BIENESTAR,,Pasto,NARI�O,,CO,+57 601 7566027,https://location.westernunion.com/co/nari�o/pasto/cf949e05e3ce9a26811818b5f3c5095d,Mo-Sa 08:00-20:00; Su 08:00-16:00,Western Union,Q861042
76aee61d543896b7a8f363e55b462d47,western_union,EFECTY EFECTY JAMONDINO,,Pasto,NARI�O,,CO,+57 601 7566027,https://location.westernunion.com/co/nari�o/pasto/76aee61d543896b7a8f363e55b462d47,Mo-Sa 08:00-20:00; Su 08:00-16:00,Western Union,Q861042
1610b972661ce9510ac279cd30323921,western_union,SUPERGIROS PASTO PDV JAMUNDINO NUEVO,,Pasto,NARI�O,,CO,+57 1 800 0111700,https://location.westernunion.com/co/nari�o/pasto/1610b972661ce9510ac279cd30323921,Mo-Sa 08:00-20:00; Su 10:00-16:00,Western Union,Q861042
c17e7772d63eb060fe87ab87026f3efa,western_union,EFECTY PASTO MIRAFLORES,,Pasto,NARI�O,,CO,+57 601 7566027,https://location.westernunion.com/co/nari�o/pasto/c17e7772d63eb060fe87ab87026f3efa,Mo-Sa 08:00-20:00; Su 08:00-16:00,Western Union,Q861042
dec775b91849b241c50d08f3fdc2305c,western_union,EFECTY DROGUERIA ALEJANDRA EL ROSARIO,,Pasto,NARI�O,,CO,+57 601 7566027,https://location.westernunion.com/co/nari�o/pasto/dec775b91849b241c50d08f3fdc2305c,Mo-Sa 08:00-20:00; Su 08:00-16:00,Western Union,Q861042
7d69357683e44ea6767fcbe324b2e08c,western_union,SUPERGIROS PASTO PDV SAN MARTIN NUEVO,,Pasto,NARI�O,,CO,+57 1 800 0111700,https://location.westernunion.com/co/nari�o/pasto/7d69357683e44ea6767fcbe324b2e08c,Mo-Sa 08:00-20:00; Su 10:00-16:00,Western Union,Q861042
55d6f555ab56b423046ce4d9f68eb8d0,western_union,SUPERGIROS PASTO GENOY NARINO,,Pasto,NARI�O,,CO,+57 1 800 0111700,https://location.westernunion.com/co/nari�o/pasto/55d6f555ab56b423046ce4d9f68eb8d0,Mo-Sa 08:00-20:00,Western Union,Q861042
b60997dbf8b555ab66f9584068e3ce6d,western_union,SUPERGIROS PASTO PUNTO LA MINGA NARINO,,Pasto,NARI�O,,CO,+57 1 800 0111700,https://location.westernunion.com/co/nari�o/pasto/b60997dbf8b555ab66f9584068e3ce6d,Mo-Sa 08:00-20:00; Su 10:00-16:00,Western Union,Q861042
ea3c8d0d0e3bba238a6577b3d2431f9e,western_union,SUPERGIROS PASTO LA PLAYA NARINO,,Pasto,NARI�O,,CO,+57 1 800 0111700,https://location.westernunion.com/co/nari�o/pasto/ea3c8d0d0e3bba238a6577b3d2431f9e,Mo-Sa 08:00-20:00; Su 10:00-16:00,Western Union,Q861042
1673be668efcd571dcb898040e54158a,western_union,EFECTY EFECTY DROGUERIA SAN MARTINS 1,,Pasto,NARI�O,,CO,+57 601 7566027,https://location.westernunion.com/co/nari�o/pasto/1673be668efcd571dcb898040e54158a,Mo-Sa 08:00-20:00; Su 08:00-16:00,Western Union,Q861042
7f7c2d027af2a2af06d4cf6ed7cfb92d,western_union,EFECTY FERRETERIA D Y P,,Pasto,NARI�O,,CO,+57 601 7566027,https://location.westernunion.com/co/nari�o/pasto/7f7c2d027af2a2af06d4cf6ed7cfb92d,Mo-Sa 08:00-20:00; Su 08:00-16:00,Western Union,Q861042
7bfdc3733298aca93e2080b809e9af13,western_union,MULTIPAGAS UNICENTRO PASTO,,Pasto,NARI�O,,CO,+57 602 6510101,https://location.westernunion.com/co/nari�o/pasto/7bfdc3733298aca93e2080b809e9af13,Mo-Fr 08:00-19:00; Sa 08:00-14:00,Western Union,Q861042
36e74d09347f6ede0ceb25cb119c112e,western_union,SUPERGIROS PASTO C MISCELANEA PRADOVERDE,,Pasto,NARI�O,,CO,+57 1 800 0111700,https://location.westernunion.com/co/nari�o/pasto/36e74d09347f6ede0ceb25cb119c112e,Mo-Sa 08:00-20:00; Su 10:00-16:00,Western Union,Q861042
ddbf9bddb8483c0eced2488245784410,western_union,EFECTY BARRIO LA AURORA CLAVE NET COM,,Pasto,NARI�O,,CO,+57 601 7566027,https://location.westernunion.com/co/nari�o/pasto/ddbf9bddb8483c0eced2488245784410,Mo-Sa 08:00-20:00; Su 08:00-16:00,Western Union,Q861042
1aaf20094f55132155b6ec0ecad78955,western_union,EFECTY TIENDA DON PEDRITO,,Pasto,NARI�O,,CO,+57 601 7566027,https://location.westernunion.com/co/nari�o/pasto/1aaf20094f55132155b6ec0ecad78955,Mo-Fr 08:00-18:00; Sa 08:00-12:00,Western Union,Q861042
fa038e76bf576311db9caccaf7be959f,western_union,SUPERGIROS PASTO MG LA VEGA NARINO,,Pasto,NARI�O,,CO,+57 1 800 0111700,https://location.westernunion.com/co/nari�o/pasto/fa038e76bf576311db9caccaf7be959f,Mo-Sa 08:00-20:00; Su 10:00-16:00,Western Union,Q861042
3eda97dff1975bfdb940cd151fd2eebb,western_union,EFECTY EL PILAR SECTOR LA VEGA,,Pasto,NARI�O,,CO,+57 601 7566027,https://location.westernunion.com/co/nari�o/pasto/3eda97dff1975bfdb940cd151fd2eebb,Mo-Fr 08:00-20:00; Sa 08:00-18:00; Su 08:00-12:00,Western Union,Q861042
66a9d679db6793dc299ff95bada4e4be,western_union,SUPERGIROS PASTO EXITO PANAMERICANA,,Pasto,NARI�O,,CO,+57 1 800 0111700,https://location.westernunion.com/co/nari�o/pasto/66a9d679db6793dc299ff95bada4e4be,Mo-Sa 08:00-20:00; Su 10:00-16:00,Western Union,Q861042
bee85ff3c8f61085fb5f59a6c836c924,western_union,ACCIONES Y VALORES EXITO PANAMERICANA PA,,Pasto,NARI�O,,CO,+57 1 800 0111700,https://location.westernunion.com/co/nari�o/pasto/bee85ff3c8f61085fb5f59a6c836c924,Mo-Sa 08:00-17:00,Western Union,Q861042
390d7526fec2161662d77167fac2296f,western_union,EFECTY EFECTY DETALLES SARA,,Pasto,NARI�O,,CO,+57 601 7566027,https://location.westernunion.com/co/nari�o/pasto/390d7526fec2161662d77167fac2296f,Mo-Sa 08:00-20:00; Su 08:00-16:00,Western Union,Q861042
91d37bf2eaf81e5011bc86fb098d7e89,western_union,EFECTY BARRIO OBRERO CENTRO DE SOLUCION,,Pasto,NARI�O,,CO,+57 601 7566027,https://location.westernunion.com/co/nari�o/pasto/91d37bf2eaf81e5011bc86fb098d7e89,Mo-Sa 08:00-20:00; Su 08:00-16:00,Western Union,Q861042
24ec7536b4c1922151d590124b5188c0,western_union,EFECTY UNICOPIAS UNIVERSIDAD DE NARINO,,Pasto,NARI�O,,CO,+57 601 7566027,https://location.westernunion.com/co/nari�o/pasto/24ec7536b4c1922151d590124b5188c0,Mo-Sa 08:00-20:00; Su 08:00-16:00,Western Union,Q861042
c8b037f76a09d9f9c509b3c65534c6cf,western_union,EFECTY PLAZA CARNAVAL,,Pasto,NARI�O,,CO,+57 601 7566027,https://location.westernunion.com/co/nari�o/pasto/c8b037f76a09d9f9c509b3c65534c6cf,Mo-Sa 08:00-20:00; Su 08:00-16:00,Western Union,Q861042
c4d08560a3d77e2b1c90abddaad175b2,western_union,EFECTY MARIDIAZ,,Pasto,NARI�O,,CO,+57 601 7566027,https://location.westernunion.com/co/nari�o/pasto/c4d08560a3d77e2b1c90abddaad175b2,Mo-Sa 08:00-20:00; Su 08:00-16:00,Western Union,Q861042
48ff4c2552ff8aee2a0f6469e7f445b1,western_union,EFECTY PASTO NAVARRETE,,Pasto,NARI�O,,CO,+57 601 7566027,https://location.westernunion.com/co/nari�o/pasto/48ff4c2552ff8aee2a0f6469e7f445b1,Mo-Sa 08:00-20:00; Su 08:00-16:00,Western Union,Q861042
bef4ee2397abed17c00f03a7c7c47bf2,western_union,SUPERGIROS PASTO PRINCIPAL,,Leiva,NARI�O,,CO,+57 1 800 0111700,https://location.westernunion.com/co/nari�o/leiva/bef4ee2397abed17c00f03a7c7c47bf2,Mo-Sa 08:00-20:00,Western Union,Q861042
d1cba747de5d2b8d75c8de380d3a2aff,western_union,EFECTY BARRIO MARI DIAZ,,Pasto,NARI�O,,CO,+57 601 7566027,https://location.westernunion.com/co/nari�o/pasto/d1cba747de5d2b8d75c8de380d3a2aff,Mo-Sa 08:00-20:00; Su 08:00-16:00,Western Union,Q861042
7532c84c1bb100ba387b6ed9809149af,western_union,SUPERGIROS PASTO POTRERILLO,,La Union,NARI�O,,CO,+57 1 800 0111700,https://location.westernunion.com/co/nari�o/la-union/7532c84c1bb100ba387b6ed9809149af,Mo-Sa 08:00-20:00,Western Union,Q861042
97c8774930c51f52650fcf3b9ed0a65c,western_union,SUPERGIROS PASTO LA MERCED,,Leiva,NARI�O,,CO,+57 1 800 0111700,https://location.westernunion.com/co/nari�o/leiva/97c8774930c51f52650fcf3b9ed0a65c,Mo-Sa 08:00-20:00,Western Union,Q861042
9963a7f478536b2b4185d78cf09a91ff,western_union,SUPERGIROS PASTO GANESERVICIO LA 27,,Pasto,NARI�O,,CO,+57 1 800 0111700,https://location.westernunion.com/co/nari�o/pasto/9963a7f478536b2b4185d78cf09a91ff,Mo-Sa 08:00-20:00,Western Union,Q861042
81745e9ebac512e0cd17497c81795fa5,western_union,SUPERGIROS SAMANIEGO NARINO,,Pasto,NARI�O,,CO,+57 1 800 0111700,https://location.westernunion.com/co/nari�o/pasto/81745e9ebac512e0cd17497c81795fa5,Mo-Sa 08:00-20:00,Western Union,Q861042
e7cde34511da2c2be5c205410a96cf68,western_union,SUPERGIROS PASTO PDV LOS FUNDADORES,,Pasto,NARI�O,,CO,+57 1 800 0111700,https://location.westernunion.com/co/nari�o/pasto/e7cde34511da2c2be5c205410a96cf68,Mo-Sa 08:00-20:00; Su 10:00-16:00,Western Union,Q861042
e45846f7b9f4da6c09c86099f62566fd,western_union,EFECTY DROGUERIA FARMACENTER UNO A,,Pasto,NARI�O,,CO,+57 601 7566027,https://location.westernunion.com/co/nari�o/pasto/e45846f7b9f4da6c09c86099f62566fd,Mo-Sa 08:00-17:00,Western Union,Q861042
bdde8bcbedc902c710e02409d3e3d0af,western_union,SUPERGIROS PASTO PDV AGUALONGO 2 NARINO,,Pasto,NARI�O,,CO,+57 1 800 0111700,https://location.westernunion.com/co/nari�o/pasto/bdde8bcbedc902c710e02409d3e3d0af,Mo-Sa 08:00-20:00; Su 10:00-16:00,Western Union,Q861042
75183703433a4a68a0c934c1bdac0754,western_union,EFECTY CAICEDO,,Pasto,NARI�O,,CO,+57 601 7566027,https://location.westernunion.com/co/nari�o/pasto/75183703433a4a68a0c934c1bdac0754,Mo-Sa 08:00-20:00; Su 08:00-16:00,Western Union,Q861042
45313964d0a0b51d370d0c21b30a3372,western_union,SUPERGIROS PASTO PDV NUEVO CHAMBU NARINO,,Pasto,NARI�O,,CO,+57 1 800 0111700,https://location.westernunion.com/co/nari�o/pasto/45313964d0a0b51d370d0c21b30a3372,Mo-Sa 08:00-20:00; Su 10:00-16:00,Western Union,Q861042
863a777fb733b27921509699c61aa1e9,western_union,SUPERGIROS PASTO PDV VERGEL NARINO,,Pasto,NARI�O,,CO,+57 1 800 0111700,https://location.westernunion.com/co/nari�o/pasto/863a777fb733b27921509699c61aa1e9,Mo-Sa 08:00-20:00; Su 10:00-16:00,Western Union,Q861042
7bf67fabedf7d4651c41e655dc80c97d,western_union,SUPERGIROS PASTO PDV MARIA ISABEL NARINO,,Pasto,NARI�O,,CO,+57 1 800 0111700,https://location.westernunion.com/co/nari�o/pasto/7bf67fabedf7d4651c41e655dc80c97d,Mo-Sa 08:00-20:00; Su 10:00-16:00,Western Union,Q861042
304307dd6cc0bf044af6f926c8e468d3,western_union,EFECTY EFECTY VARIEDADES SEBASTIAN,,Pasto,NARI�O,,CO,+57 601 7566027,https://location.westernunion.com/co/nari�o/pasto/304307dd6cc0bf044af6f926c8e468d3,Mo-Sa 08:00-20:00; Su 08:00-16:00,Western Union,Q861042
cf0a8e04e58319a76317a8e149c97db2,western_union,EFECTY EFECTY FHARMACURITA,,Pasto,NARI�O,,CO,+57 601 7566027,https://location.westernunion.com/co/nari�o/pasto/cf0a8e04e58319a76317a8e149c97db2,Mo-Sa 08:00-20:00; Su 08:00-16:00,Western Union,Q861042
cd9dda856ddaf3b03f9e1c7861a72c28,western_union,EFECTY TORNILLOS EM CHAPAL I,,Pasto,NARI�O,,CO,+57 601 7566027,https://location.westernunion.com/co/nari�o/pasto/cd9dda856ddaf3b03f9e1c7861a72c28,Mo-Sa 08:00-20:00; Su 08:00-16:00,Western Union,Q861042
8bfe152de65313e377946e2da6de1d10,western_union,SUPERGIROS PASTO PILAR 1,,Pasto,NARI�O,,CO,+57 1 800 0111700,https://location.westernunion.com/co/nari�o/pasto/8bfe152de65313e377946e2da6de1d10,Mo-Sa 08:00-20:00,Western Union,Q861042
4146b24c2f35e5221180f1a22d7f5b61,western_union,EFECTY BARRIO EL PILAR MERCA FA,,Pasto,NARI�O,,CO,+57 601 7566027,https://location.westernunion.com/co/nari�o/pasto/4146b24c2f35e5221180f1a22d7f5b61,Mo-Sa 08:00-20:00; Su 08:00-16:00,Western Union,Q861042
01ab5a2770f001506e0b5e6d6d13ddb6,western_union,MULTIPAGAS UNICO PASTO,,Pasto,NARI�O,,CO,+57 602 6510101,https://location.westernunion.com/co/nari�o/pasto/01ab5a2770f001506e0b5e6d6d13ddb6,Mo-Fr 08:00-19:00; Sa 08:00-14:00,Western Union,Q861042
3062f6a2326fe32e5a31300916ab966a,western_union,EFECTY DROGUERIA ALEJANDRA SANTA CLARA,,Pasto,NARI�O,,CO,+57 601 7566027,https://location.westernunion.com/co/nari�o/pasto/3062f6a2326fe32e5a31300916ab966a,Mo-Sa 08:00-20:00; Su 08:00-16:00,Western Union,Q861042
fc08232bc05b84ff5640d8e8f8e60e9a,western_union,EFECTY CATAMBUCO DIGILTELL COMUNICACIONE,,Pasto,NARI�O,,CO,+57 601 7566027,https://location.westernunion.com/co/nari�o/pasto/fc08232bc05b84ff5640d8e8f8e60e9a,Mo-Sa 08:00-20:00; Su 08:00-16:00,Western Union,Q861042
cec53f32cecab1a7d00d843ce3f45e44,western_union,SUPERGIROS MAGUI PAYAN NARINO,,Mangui,NARI�O,,CO,+57 1 800 0111700,https://location.westernunion.com/co/nari�o/mangui/cec53f32cecab1a7d00d843ce3f45e44,Mo-Sa 08:00-20:00,Western Union,Q861042
dc5eb32337d0c7be5b24fa9b03ad7d23,western_union,SUPERGIROS TUMACO MICROGIROS,,Ipiales,NARI�O,,CO,+57 1 800 0111700,https://location.westernunion.com/co/nari�o/ipiales/dc5eb32337d0c7be5b24fa9b03ad7d23,Mo-Sa 08:00-20:00,Western Union,Q861042
d0542a599b04a73948f8c7a3973430ce,western_union,SUPERGIROS NARINO NARINO,,Sandona,NARI�O,,CO,+57 1 800 0111700,https://location.westernunion.com/co/nari�o/sandona/d0542a599b04a73948f8c7a3973430ce,Mo-Sa 08:00-20:00,Western Union,Q861042
c0e6a67f8be5b780216fa2aab6e7d5f3,western_union,SUPERGIROS LA FLORIDA NARINO,,Tumaco,NARI�O,,CO,+57 1 800 0111700,https://location.westernunion.com/co/nari�o/tumaco/c0e6a67f8be5b780216fa2aab6e7d5f3,Mo-Sa 08:00-20:00,Western Union,Q861042
569a0a1b328fb2f1fb85750dd8ae977b,western_union,SUPERGIROS SANDONA NARINO,,Pasto,NARI�O,,CO,+57 1 800 0111700,https://location.westernunion.com/co/nari�o/pasto/569a0a1b328fb2f1fb85750dd8ae977b,Mo-Sa 08:00-20:00,Western Union,Q861042
5f190f8a8f937c0ae31508a639c9b172,western_union,EFECTY EFECTY BRIELA,,Pasto,NARI�O,,CO,+57 601 7566027,https://location.westernunion.com/co/nari�o/pasto/5f190f8a8f937c0ae31508a639c9b172,Mo-Sa 08:00-20:00; Su 08:00-16:00,Western Union,Q861042
fc7093ae623cf23967b77a3114f9e663,western_union,SUPERGIROS LLORENTE NARINO,,Pasto,NARI�O,,CO,+57 1 800 0111700,https://location.westernunion.com/co/nari�o/pasto/fc7093ae623cf23967b77a3114f9e663,Mo-Sa 08:00-20:00,Western Union,Q861042
4ed5c3ffc83a1e199dc5320c0ebaa8d6,western_union,EFECTY PAPELERIA INTERGRAFIC,,Pasto,NARI�O,,CO,+57 601 7566027,https://location.westernunion.com/co/nari�o/pasto/4ed5c3ffc83a1e199dc5320c0ebaa8d6,Mo-Sa 08:00-20:00; Su 08:00-16:00,Western Union,Q861042
edc8e856e207bdacd925fa96e858aef3,western_union,EFECTY EFECTY PAPELERIA VILLA DE LOS R,,Pasto,NARI�O,,CO,+57 601 7566027,https://location.westernunion.com/co/nari�o/pasto/edc8e856e207bdacd925fa96e858aef3,Mo-Sa 08:00-20:00; Su 08:00-16:00,Western Union,Q861042
a589e18456c9d98c66c7c6be04b9ef32,western_union,EFECTY BARRIO TAMASAGRA ANIMALL PASTO,,Pasto,NARI�O,,CO,+57 601 7566027,https://location.westernunion.com/co/nari�o/pasto/a589e18456c9d98c66c7c6be04b9ef32,Mo-Sa 08:00-20:00; Su 08:00-16:00,Western Union,Q861042
e3b43b1fccdd0d61ca787bdef00a3187,western_union,EFECTY MAGIC LOVE,,Pasto,NARI�O,,CO,+57 601 7566027,https://location.westernunion.com/co/nari�o/pasto/e3b43b1fccdd0d61ca787bdef00a3187,Mo-Sa 08:00-20:00; Su 08:00-16:00,Western Union,Q861042
184be0cbc7dfa4e1b86ba8478187be2f,western_union,EFECTY TIENDA LOS CRISTALES NARI�O,,Nari�o,NARI�O,,CO,+57 601 7566027,https://location.westernunion.com/co/nari�o/nari�o/184be0cbc7dfa4e1b86ba8478187be2f,Mo-Sa 08:00-20:00; Su 08:00-16:00,Western Union,Q861042
3ea7cfe1bdc5737ed84f2443cf812ff2,western_union,SUPERGIROS PASTO PDV ANGANOY 2 NARINO,,Pasto,NARI�O,,CO,+57 1 800 0111700,https://location.westernunion.com/co/nari�o/pasto/3ea7cfe1bdc5737ed84f2443cf812ff2,Mo-Sa 08:00-20:00; Su 10:00-16:00,Western Union,Q861042
5347ce3d0974b2edc9ca3951e5b28e15,western_union,EFECTY LA COLMENA ANGANOY,,Pasto,NARI�O,,CO,+57 601 7566027,https://location.westernunion.com/co/nari�o/pasto/5347ce3d0974b2edc9ca3951e5b28e15,Mo-Sa 08:00-20:00; Su 08:00-16:00,Western Union,Q861042
ac22d6133d90c22caafd81ec821cbcd8,western_union,EFECTY BARRIO TAMASAGRA II,,Pasto,NARI�O,,CO,+57 601 7566027,https://location.westernunion.com/co/nari�o/pasto/ac22d6133d90c22caafd81ec821cbcd8,Mo-Fr 08:00-20:00; Sa 08:00-18:00; Su 08:00-12:00,Western Union,Q861042
845e46cec97d23cd0c64b0af5c5cba72,western_union,EFECTY BARRIO SANTA ISABEL INTERNET Y PA,,Pasto,NARI�O,,CO,+57 601 7566027,https://location.westernunion.com/co/nari�o/pasto/845e46cec97d23cd0c64b0af5c5cba72,Mo-Sa 08:00-20:00; Su 08:00-16:00,Western Union,Q861042
b58cc0c98c9310d16300d118a8dfec86,western_union,SUPERGIROS PASTO SANTA ISABEL NARINO,,Pasto,NARI�O,,CO,+57 1 800 0111700,https://location.westernunion.com/co/nari�o/pasto/b58cc0c98c9310d16300d118a8dfec86,Mo-Sa 08:00-20:00,Western Union,Q861042
1f4fa597aed79933ba8a8b23df245554,western_union,EFECTY BARRIO ANGANOY,,Pasto,NARI�O,,CO,+57 601 7566027,https://location.westernunion.com/co/nari�o/pasto/1f4fa597aed79933ba8a8b23df245554,Mo-Fr 08:00-20:00; Sa 08:00-18:00; Su 08:00-12:00,Western Union,Q861042
d5359abbd36930e13f6aa6a3b74c00ad,western_union,SUPERGIROS PASTO PDV MIJITAYO NARINO,,Pasto,NARI�O,,CO,+57 1 800 0111700,https://location.westernunion.com/co/nari�o/pasto/d5359abbd36930e13f6aa6a3b74c00ad,Mo-Sa 08:00-20:00; Su 10:00-16:00,Western Union,Q861042
c84545ed2687ccd6474e302afa476459,western_union,SUPERGIROS PASTO EVEN CARACHA NARINO,,Pasto,NARI�O,,CO,+57 1 800 0111700,https://location.westernunion.com/co/nari�o/pasto/c84545ed2687ccd6474e302afa476459,Mo-Sa 08:00-20:00,Western Union,Q861042
3b92189a864fe85cc13e406a3ba053b3,western_union,SUPERGIROS TUMACO MICROGIROS PUENTE,,Tumaco,NARI�O,,CO,+57 1 800 0111700,https://location.westernunion.com/co/nari�o/tumaco/3b92189a864fe85cc13e406a3ba053b3,Mo-Sa 08:00-20:00,Western Union,Q861042
613fde077e34685d303827c2b9ad995b,western_union,SUPERGIROS SAN LORENZO NARINO,,Barbacoas,NARI�O,,CO,+57 1 800 0111700,https://location.westernunion.com/co/nari�o/barbacoas/613fde077e34685d303827c2b9ad995b,Mo-Sa 08:00-20:00,Western Union,Q861042
830d8b502f2b3edd3ef5515dae0135b6,western_union,EFECTY BARRIO NATAL BOCAS DE SATINGA,,Olaya Herrera,NARI�O,,CO,+57 601 7566027,https://location.westernunion.com/co/nari�o/olaya-herrera/830d8b502f2b3edd3ef5515dae0135b6,Mo-Fr 08:00-20:00; Sa 08:00-16:00,Western Union,Q861042
de20de7460c761fcfb0079bdad23b9de,western_union,SUPERGIROS TUMACO MICROGIROS MIRAMAR,,Sapuyes,NARI�O,,CO,+57 1 800 0111700,https://location.westernunion.com/co/nari�o/sapuyes/de20de7460c761fcfb0079bdad23b9de,Mo-Sa 08:00-20:00,Western Union,Q861042
cbe32605adebe4145e35bb79ae9607c0,western_union,BANCO AGRARIO YACUANQUER,,Yacuanquer,NARI�O,,CO,+57 601 5948500,https://location.westernunion.com/co/nari�o/yacuanquer/cbe32605adebe4145e35bb79ae9607c0,Mo-Fr 08:00-15:00,Western Union,Q861042
d856bb53f47093183aea670043ef3004,western_union,SUPERGIROS CONSACA NARINO,,Tumaco,NARI�O,,CO,+57 1 800 0111700,https://location.westernunion.com/co/nari�o/tumaco/d856bb53f47093183aea670043ef3004,Mo-Sa 08:00-20:00,Western Union,Q861042
c1fc761f38f9dc9fb37aab008e00984b,western_union,SUPERGIROS IMBILI NARINO,,Ancuya,NARI�O,,CO,+57 1 800 0111700,https://location.westernunion.com/co/nari�o/ancuya/c1fc761f38f9dc9fb37aab008e00984b,Mo-Sa 08:00-20:00,Western Union,Q861042
67e9beb34a4d08a30f5c81591431441f,western_union,SUPERGIROS ANCUYA NARINO,,Ancuya,NARI�O,,CO,+57 1 800 0111700,https://location.westernunion.com/co/nari�o/ancuya/67e9beb34a4d08a30f5c81591431441f,Mo-Sa 08:00-20:00,Western Union,Q861042
0b2e1f66cae764586a3d604f2961a836,western_union,SUPERGIROS EL CHARCO NARINO,,Tuquerres,NARI�O,,CO,+57 1 800 0111700,https://location.westernunion.com/co/nari�o/tuquerres/0b2e1f66cae764586a3d604f2961a836,Mo-Sa 08:00-20:00,Western Union,Q861042
081fb7f9eb99bcf2f03a90e37e06f975,western_union,SUPERGIROS EL TAMBO NARINO,,Barbacoas,NARI�O,,CO,+57 1 800 0111700,https://location.westernunion.com/co/nari�o/barbacoas/081fb7f9eb99bcf2f03a90e37e06f975,Mo-Sa 08:00-20:00,Western Union,Q861042
4c4d5a7ed3ef344b1aceb24daa9f9db7,western_union,SUPERGIROS PASTO SUPERSERVICIO SANTA,,Tumaco,NARI�O,,CO,+57 1 800 0111700,https://location.westernunion.com/co/nari�o/tumaco/4c4d5a7ed3ef344b1aceb24daa9f9db7,Mo-Sa 08:00-20:00,Western Union,Q861042
c8a5acf0bb84fb34439107fbd8f13d74,western_union,SUPERGIROS CANDELILLA NARINO,,Tumaco,NARI�O,,CO,+57 1 800 0111700,https://location.westernunion.com/co/nari�o/tumaco/c8a5acf0bb84fb34439107fbd8f13d74,Mo-Sa 08:00-20:00,Western Union,Q861042
99737bd1bbcdb4a77562dc064780f582,western_union,SUPERGIROS EL PENOL NARINO,,Tumaco,NARI�O,,CO,+57 1 800 0111700,https://location.westernunion.com/co/nari�o/tumaco/99737bd1bbcdb4a77562dc064780f582,Mo-Sa 08:00-20:00,Western Union,Q861042
878634415524a78bbbc3f1e87c7f5ee3,western_union,SUPERGIROS MICROGIROS EL PINDO,,Francisco Pizarro,NARI�O,,CO,+57 1 800 0111700,https://location.westernunion.com/co/nari�o/francisco-pizarro/878634415524a78bbbc3f1e87c7f5ee3,Mo-Sa 08:00-20:00,Western Union,Q861042
b87706640d59d82b7746a0c635fac57f,western_union,GIROS Y FINANZAS-BANCO UNION,,Tumaco,NARI�O,,CO,+57 1 800 0111999,https://location.westernunion.com/co/nari�o/tumaco/b87706640d59d82b7746a0c635fac57f,Mo-Su 09:00-20:00,Western Union,Q861042
b5753530263ffa43c168620bf9189823,western_union,EFECTY PARQUE NARI�O CALLE ANTIOQUIA,,Tumaco,NARI�O,,CO,+57 601 7566027,https://location.westernunion.com/co/nari�o/tumaco/b5753530263ffa43c168620bf9189823,Mo-Fr 08:00-18:00; Sa 08:00-12:00,Western Union,Q861042
b273fd10bf379f56888c0460884b31ac,western_union,SUPERGIROS TUMACO PARQUE NARINO,,Tumaco,NARI�O,,CO,+57 1 800 0111700,https://location.westernunion.com/co/nari�o/tumaco/b273fd10bf379f56888c0460884b31ac,Mo-Sa 08:00-20:00,Western Union,Q861042
3b279f18b1f1510b35111d0256f88dd1,western_union,EFECTY CALLE MERCEDES ISASTORE COSMETICO,,Tumaco,NARI�O,,CO,+57 601 7566027,https://location.westernunion.com/co/nari�o/tumaco/3b279f18b1f1510b35111d0256f88dd1,Mo-Sa 08:00-20:00; Su 08:00-16:00,Western Union,Q861042
9baf37a3c523b43677ad951597e355e7,western_union,MULTIPAGAS TUMACO,,Tumaco,NARI�O,,CO,+57 602 6510101,https://location.westernunion.com/co/nari�o/tumaco/9baf37a3c523b43677ad951597e355e7,Mo-Fr 08:00-18:00; Sa 08:00-12:00,Western Union,Q861042
1917a823acfb1202bef367a6fa8a9014,western_union,SUPERGIROS TUMACO MICROGIROS BOMBERO,,Pasto,NARI�O,,CO,+57 1 800 0111700,https://location.westernunion.com/co/nari�o/pasto/1917a823acfb1202bef367a6fa8a9014,Mo-Sa 08:00-20:00,Western Union,Q861042
d2b0744711d3326f23ca4f324ba3de8d,western_union,SUPERGIROS TUMACO LA PINATA,,Tumaco,NARI�O,,CO,+57 1 800 0111700,https://location.westernunion.com/co/nari�o/tumaco/d2b0744711d3326f23ca4f324ba3de8d,Mo-Sa 08:00-20:00,Western Union,Q861042
fa9fb2d5e512250803c712f2a0ec9b7b,western_union,SUPERGIROS LINARES NARINO,,Tangua,NARI�O,,CO,+57 1 800 0111700,https://location.westernunion.com/co/nari�o/tangua/fa9fb2d5e512250803c712f2a0ec9b7b,Mo-Sa 08:00-20:00,Western Union,Q861042
3502c77bede9d324556af4f88c4c42c7,western_union,SUPERGIROS BARBACOAS MICROGIROS,,Sandona,NARI�O,,CO,+57 1 800 0111700,https://location.westernunion.com/co/nari�o/sandona/3502c77bede9d324556af4f88c4c42c7,Mo-Sa 08:00-20:00,Western Union,Q861042
70aae4ca4b7e8eef3377b6eada632920,western_union,BANCO AGRARIO BARBACOAS,,Barbacoas,NARI�O,,CO,+57 601 5948500,https://location.westernunion.com/co/nari�o/barbacoas/70aae4ca4b7e8eef3377b6eada632920,Mo-Fr 08:00-16:30,Western Union,Q861042
eaba1262225a880aa45acf1e7a3ec308,western_union,EFECTY EFECTY TELEMOVIL BARBACOAS,,Barbacoas,NARI�O,,CO,+57 601 7566027,https://location.westernunion.com/co/nari�o/barbacoas/eaba1262225a880aa45acf1e7a3ec308,Mo-Sa 08:00-20:00; Su 08:00-16:00,Western Union,Q861042
9b465f2371f285169f1f4a1ce26251ca,western_union,EFECTY BARRIO CALLE NUEVA,,Barbacoas,NARI�O,,CO,+57 601 7566027,https://location.westernunion.com/co/nari�o/barbacoas/9b465f2371f285169f1f4a1ce26251ca,Mo-Sa 08:00-20:00; Su 08:00-16:00,Western Union,Q861042
72bb8453923f590f935ccf523f45a676,western_union,EFECTY BARRIO EXPORCOL VARIEDADES,,Tumaco,NARI�O,,CO,+57 601 7566027,https://location.westernunion.com/co/nari�o/tumaco/72bb8453923f590f935ccf523f45a676,Mo-Sa 08:00-20:00; Su 08:00-16:00,Western Union,Q861042
dafc173f4cf1ed78cd2d1b298ba34ad9,western_union,EFECTY VEREDA CANDELILLAS,,San Andres,NARI�O,,CO,+57 601 7566027,https://location.westernunion.com/co/nari�o/san-andres/dafc173f4cf1ed78cd2d1b298ba34ad9,Mo-Sa 08:00-20:00; Su 08:00-16:00,Western Union,Q861042
06c63e5810d777ef73fe09ad0b505ed5,western_union,EFECTY AVENIDA FERREA INTERNET TERE,,Tumaco,NARI�O,,CO,+57 601 7566027,https://location.westernunion.com/co/nari�o/tumaco/06c63e5810d777ef73fe09ad0b505ed5,Mo-Sa 08:00-20:00; Su 08:00-16:00,Western Union,Q861042
cdeca72c1efaffdcd4d11ccb3cdda622,western_union,EFECTY CALLE SUCRE MULTISERVICIOS MARTHA,,Tumaco,NARI�O,,CO,+57 601 7566027,https://location.westernunion.com/co/nari�o/tumaco/cdeca72c1efaffdcd4d11ccb3cdda622,Mo-Sa 08:00-20:00; Su 08:00-16:00,Western Union,Q861042
89571381f8c1d002d529d72257b4b3fd,western_union,SUPERGIROS TUMACO MICROGIROS MUELLE,,Pasto,NARI�O,,CO,+57 1 800 0111700,https://location.westernunion.com/co/nari�o/pasto/89571381f8c1d002d529d72257b4b3fd,Mo-Sa 08:00-20:00,Western Union,Q861042
a0c365ec765a51a95dcd535f348b30b5,western_union,SUPERGIROS TUMACO ACOPIO PRINCIPAL,,Tumaco,NARI�O,,CO,+57 1 800 0111700,https://location.westernunion.com/co/nari�o/tumaco/a0c365ec765a51a95dcd535f348b30b5,Mo-Sa 08:00-20:00,Western Union,Q861042
9bbe054dc12fbadcba4655e5bcd64ad7,western_union,SUPERGIROS TUMACO AGENCIA MIRAMAR NA,,Consaca,NARI�O,,CO,+57 1 800 0111700,https://location.westernunion.com/co/nari�o/consaca/9bbe054dc12fbadcba4655e5bcd64ad7,Mo-Sa 08:00-20:00,Western Union,Q861042
97ed997076f4525e9b925ad92e5a28d2,western_union,SUPERGIROS TUMACO EVEN MICROGIROS LA,,Imues,NARI�O,,CO,+57 1 800 0111700,https://location.westernunion.com/co/nari�o/imues/97ed997076f4525e9b925ad92e5a28d2,Mo-Sa 08:00-20:00,Western Union,Q861042
c09e4e2aee4813457a26fc20a2a76789,western_union,SUPERGIROS PASTO CORAZON DE JESUS,,Tumaco,NARI�O,,CO,+57 1 800 0111700,https://location.westernunion.com/co/nari�o/tumaco/c09e4e2aee4813457a26fc20a2a76789,Mo-Sa 08:00-20:00,Western Union,Q861042
388830aa7f9dca0d3b59bfa217408153,western_union,SUPERGIROS TUMACO SUPERSERVICIOS PUE,,Tumaco,NARI�O,,CO,+57 1 800 0111700,https://location.westernunion.com/co/nari�o/tumaco/388830aa7f9dca0d3b59bfa217408153,Mo-Sa 08:00-20:00,Western Union,Q861042
5aaffe06b5c9141080fb9b4dc01d5bb8,western_union,SUPERGIROS SAN JOSE ROBERTO PAYAN NA,,Tumaco,NARI�O,,CO,+57 1 800 0111700,https://location.westernunion.com/co/nari�o/tumaco/5aaffe06b5c9141080fb9b4dc01d5bb8,Mo-Sa 08:00-20:00,Western Union,Q861042
e447d9613ecde778902536d24f361e3b,western_union,SUPERGIROS CHAJAL NARINO,,Tuquerres,NARI�O,,CO,+57 1 800 0111700,https://location.westernunion.com/co/nari�o/tuquerres/e447d9613ecde778902536d24f361e3b,Mo-Sa 08:00-20:00,Western Union,Q861042
f57382766d44f96ed389191a6a2c7074,western_union,SUPERGIROS TUMACO EVEN EL DIVISO NAR,,Tuquerres,NARI�O,,CO,+57 1 800 0111700,https://location.westernunion.com/co/nari�o/tuquerres/f57382766d44f96ed389191a6a2c7074,Mo-Sa 08:00-20:00,Western Union,Q861042
7314a33dbc7ba243784744129e1ab1bb,western_union,SUPERGIROS PUERRES POLICIA NARINO,,Policarpa,NARI�O,,CO,+57 1 800 0111700,https://location.westernunion.com/co/nari�o/policarpa/7314a33dbc7ba243784744129e1ab1bb,Mo-Sa 08:00-20:00,Western Union,Q861042
4db9067a60ce779c6bda74af595bd3c7,western_union,BANCO AGRARIO PUERRES,,Puerres,NARI�O,,CO,+57 601 5948500,https://location.westernunion.com/co/nari�o/puerres/4db9067a60ce779c6bda74af595bd3c7,Mo-Fr 08:00-16:30,Western Union,Q861042
53c792fbb284d5968f42f316efcbb890,western_union,EFECTY LIBERTAD,,Tuquerres,NARI�O,,CO,+57 601 7566027,https://location.westernunion.com/co/nari�o/tuquerres/53c792fbb284d5968f42f316efcbb890,Mo-Sa 08:00-20:00; Su 08:00-16:00,Western Union,Q861042
fedb104cfeccbada9af45170f151de37,western_union,SUPERGIROS TUQUERRES SAN LUIS,,Olaya Herrera,NARI�O,,CO,+57 1 800 0111700,https://location.westernunion.com/co/nari�o/olaya-herrera/fedb104cfeccbada9af45170f151de37,Mo-Sa 08:00-20:00,Western Union,Q861042
dc6c1b67f879bd91ed7165b9b0b7c2ea,western_union,SUPERGIROS TUQUERRES NARINO,,Pasto,NARI�O,,CO,+57 1 800 0111700,https://location.westernunion.com/co/nari�o/pasto/dc6c1b67f879bd91ed7165b9b0b7c2ea,Mo-Sa 08:00-20:00,Western Union,Q861042
6f634065f789c819277a21bec7dfc048,western_union,EFECTY JOSE MARIA HERNANDEZ,,Pupiales,NARI�O,,CO,+57 601 7566027,https://location.westernunion.com/co/nari�o/pupiales/6f634065f789c819277a21bec7dfc048,Mo-Sa 08:00-20:00; Su 08:00-16:00,Western Union,Q861042
54d74d1570b9bd35ecd1e05a7b9c8aea,western_union,BANCO AGRARIO RICAURTE,,Ricaurte,NARI�O,,CO,+57 601 5948500,https://location.westernunion.com/co/nari�o/ricaurte/54d74d1570b9bd35ecd1e05a7b9c8aea,Tu-Fr 08:00-16:30; Sa 08:00-14:00,Western Union,Q861042
eae998381a67578533ff621f6b066c17,western_union,EFECTY MULTISERVICIOS LEV,,Ricaurte,NARI�O,,CO,+57 601 7566027,https://location.westernunion.com/co/nari�o/ricaurte/eae998381a67578533ff621f6b066c17,Mo-Sa 08:00-20:00; Su 08:00-16:00,Western Union,Q861042
604286a2c7c318fa245cc677fbce3e20,western_union,EFECTY BARRIO GUARACAL NET PLAY,,Potosi,NARI�O,,CO,+57 601 7566027,https://location.westernunion.com/co/nari�o/potosi/604286a2c7c318fa245cc677fbce3e20,Mo-Sa 08:00-20:00; Su 08:00-16:00,Western Union,Q861042
1012f6bc6b1f496dcd56fab7d85b5cd0,western_union,EFECTY DROGUERIA SERVIMED,,Gualmatan,NARI�O,,CO,+57 601 7566027,https://location.westernunion.com/co/nari�o/gualmatan/1012f6bc6b1f496dcd56fab7d85b5cd0,Mo-Sa 08:00-20:00; Su 08:00-16:00,Western Union,Q861042
b3277a0a1ece510bafaf4b422f2204dd,western_union,EFECTY DIMONEX CORDOBA BARR EL COMERCIO,,Cordoba,NARI�O,,CO,+57 601 7566027,https://location.westernunion.com/co/nari�o/cordoba/b3277a0a1ece510bafaf4b422f2204dd,Mo-Fr 08:00-20:00; Sa 08:00-18:00; Su 08:00-12:00,Western Union,Q861042
0aea607b464627cc8ab2f079ccdaf83f,western_union,EFECTY LA UNION GUALMATAN,,Gualmatan,NARI�O,,CO,+57 601 7566027,https://location.westernunion.com/co/nari�o/gualmatan/0aea607b464627cc8ab2f079ccdaf83f,Mo-Sa 08:00-20:00; Su 08:00-16:00,Western Union,Q861042
63dfde94174d12d62507ec1a3e04e004,western_union,SUPERGIROS TUMACO SUPERSERVICIOS,,Gualmatan,NARI�O,,CO,+57 1 800 0111700,https://location.westernunion.com/co/nari�o/gualmatan/63dfde94174d12d62507ec1a3e04e004,Mo-Sa 08:00-20:00,Western Union,Q861042
467b999f5c9aead838b129ac0c592435,western_union,EFECTY PAPELERIA ORIONSS,,Contadero,NARI�O,,CO,+57 601 7566027,https://location.westernunion.com/co/nari�o/contadero/467b999f5c9aead838b129ac0c592435,Mo-Sa 08:00-20:00; Su 08:00-16:00,Western Union,Q861042
ab1641167bcb1dca82ee57adf3860a3b,western_union,SUPERGIROS CHACHAGUI EVEN PEDREGALIT,,Ipiales,NARI�O,,CO,+57 1 800 0111700,https://location.westernunion.com/co/nari�o/ipiales/ab1641167bcb1dca82ee57adf3860a3b,Mo-Sa 08:00-20:00,Western Union,Q861042
57c38b3c1020dca3c8f5453aacd45b2e,western_union,SUPERGIROS TUMACO MICROGIROS TAXI LL,,Tumaco,NARI�O,,CO,+57 1 800 0111700,https://location.westernunion.com/co/nari�o/tumaco/57c38b3c1020dca3c8f5453aacd45b2e,Mo-Sa 08:00-20:00,Western Union,Q861042
fc46ccffe73c8b1d474f2c8720098d63,western_union,SUPERGIROS IPIALES RUMICHACA NARINO,,Ricaurte,NARI�O,,CO,+57 1 800 0111700,https://location.westernunion.com/co/nari�o/ricaurte/fc46ccffe73c8b1d474f2c8720098d63,Mo-Sa 08:00-20:00,Western Union,Q861042
5db50357d4d7722585ea4b1ed23f3168,western_union,EFECTY IPIALES TERMINAL    T,,Ipiales,NARI�O,,CO,+57 601 7566027,https://location.westernunion.com/co/nari�o/ipiales/5db50357d4d7722585ea4b1ed23f3168,Mo-Sa 08:00-19:00,Western Union,Q861042
d77c808edab1ed36658b3002ed5a1dfb,western_union,SUPERGIROS CHACHAGUI HOSPITAL PRINCI,,Ipiales,NARI�O,,CO,+57 1 800 0111700,https://location.westernunion.com/co/nari�o/ipiales/d77c808edab1ed36658b3002ed5a1dfb,Mo-Sa 08:00-20:00,Western Union,Q861042
ef8a38b2e6f49304260818619729818f,western_union,EFECTY ALMAFRONTERA MULTISERVICIOS M&M,,Ipiales,NARI�O,,CO,+57 601 7566027,https://location.westernunion.com/co/nari�o/ipiales/ef8a38b2e6f49304260818619729818f,Mo-Fr 08:00-20:00; Sa 08:00-18:00; Su 08:00-12:00,Western Union,Q861042
07d4de36bba671728b0180dad9a9f6bd,western_union,EFECTY EL CHARCO IPIALES,,Ipiales,NARI�O,,CO,+57 601 7566027,https://location.westernunion.com/co/nari�o/ipiales/07d4de36bba671728b0180dad9a9f6bd,Mo-Sa 08:00-20:00; Su 08:00-16:00,Western Union,Q861042
295cf8659397138642c70b04bb078a11,western_union,BANCO AGRARIO GUACHUCAL,,Guachucal,NARI�O,,CO,+57 601 5948500,https://location.westernunion.com/co/nari�o/guachucal/295cf8659397138642c70b04bb078a11,Mo-Fr 08:00-16:30,Western Union,Q861042
36f5348893318c29a90d75e280ff6eb9,western_union,ACCIONES Y VALORES CC GRAN PLAZA IPIALES,,Ipiales,NARI�O,,CO,+57 1 800 0111700,https://location.westernunion.com/co/nari�o/ipiales/36f5348893318c29a90d75e280ff6eb9,Mo-Sa 08:00-18:00; Su 09:00-15:00,Western Union,Q861042
55575023b30aed643e1dd64a03ad3c4f,western_union,ACCIONES Y VALORES CC GRAN PLAZA IPIALES,,Ipiales,NARI�O,,CO,(+57) 1-6510480,https://location.westernunion.com/co/nari�o/ipiales/55575023b30aed643e1dd64a03ad3c4f,Mo-Sa 08:00-20:00; Su 09:00-15:00,Western Union,Q861042
603afc0c6049fc00c73313dae06224d0,western_union,MULTIPAGAS RM IPIALES GRAN PLAZA,,Ipiales,NARI�O,,CO,+57 602 6510101,https://location.westernunion.com/co/nari�o/ipiales/603afc0c6049fc00c73313dae06224d0,Mo-Fr 07:30-17:00; Sa 08:00-13:00,Western Union,Q861042
1edbbe30ef8e12f77eea3105b59faca7,western_union,SUPERGIROS IPIALES GRAN PLAZA NARINO,,Pasto,NARI�O,,CO,+57 1 800 0111700,https://location.westernunion.com/co/nari�o/pasto/1edbbe30ef8e12f77eea3105b59faca7,Mo-Sa 08:00-20:00,Western Union,Q861042
6417eca37a81b62e5cd166f559c88752,western_union,EFECTY DROGUERIA PANAMERICANA JT  2,,Ipiales,NARI�O,,CO,+57 601 7566027,https://location.westernunion.com/co/nari�o/ipiales/6417eca37a81b62e5cd166f559c88752,Mo-Sa 08:00-20:00; Su 08:00-16:00,Western Union,Q861042
50e08184005a441b0315ab803714e1f9,western_union,EFECTY EFECTY PAPELERIA GLO,,Ipiales,NARI�O,,CO,+57 601 7566027,https://location.westernunion.com/co/nari�o/ipiales/50e08184005a441b0315ab803714e1f9,Mo-Sa 08:00-20:00; Su 08:00-16:00,Western Union,Q861042
c9dc87721897aedcb504a2062ea037a4,western_union,EFECTY IPIALES TUMANO AMIGABRRSANVICENTE,,Ipiales,NARI�O,,CO,+57 601 7566027,https://location.westernunion.com/co/nari�o/ipiales/c9dc87721897aedcb504a2062ea037a4,Mo-Sa 08:00-20:00; Su 08:00-16:00,Western Union,Q861042
95e2e52bab32c45e6b55412bd508206b,western_union,MULTIPAGAS IPIALES,,Ipiales,NARI�O,,CO,+57 602 6510101,https://location.westernunion.com/co/nari�o/ipiales/95e2e52bab32c45e6b55412bd508206b,Mo-Fr 08:00-18:00; Sa 08:00-12:00,Western Union,Q861042
9d02c750eea47b293d3ae305793eb53b,western_union,MULTIPAGAS MP - IPIALES 2,,Ipiales,NARI�O,,CO,+57 602 6510101,https://location.westernunion.com/co/nari�o/ipiales/9d02c750eea47b293d3ae305793eb53b,Mo-Sa 07:30-18:00,Western Union,Q861042
5fe8e4eb55135b41a333daadb4420c6c,western_union,EFECTY DETALLES IDEAL,,Ipiales,NARI�O,,CO,+57 601 7566027,https://location.westernunion.com/co/nari�o/ipiales/5fe8e4eb55135b41a333daadb4420c6c,Mo-Sa 08:00-20:00; Su 08:00-16:00,Western Union,Q861042
b89938c17077d67301d8d09e9fb5ca38,western_union,BANCO AGRARIO IPIALES,,Ipiales,NARI�O,,CO,+57 601 5948500,https://location.westernunion.com/co/nari�o/ipiales/b89938c17077d67301d8d09e9fb5ca38,Mo-Fr 08:00-16:30,Western Union,Q861042
6a07b661f7fa6745e18cdd5797ad3a4a,western_union,PUNTO DE PAGO IPIALES,,Ipiales,NARI�O,,CO,+57 1 800 0111700,https://location.westernunion.com/co/nari�o/ipiales/6a07b661f7fa6745e18cdd5797ad3a4a,Mo-Sa 08:00-20:00; Su 10:00-16:00,Western Union,Q861042
c140064c4b08830c14b3d9fb6443b56f,western_union,EFECTY EFECTY BARRIO LIBERTAD,,Ipiales,NARI�O,,CO,+57 601 7566027,https://location.westernunion.com/co/nari�o/ipiales/c140064c4b08830c14b3d9fb6443b56f,Mo-Sa 08:00-20:00; Su 08:00-16:00,Western Union,Q861042
3f2702dc79457ab9d2d27ec92c8aa576,western_union,EFECTY BARRIO LIBERTAD TRAMITAMOS Y PAGO,,Ipiales,NARI�O,,CO,+57 601 7566027,https://location.westernunion.com/co/nari�o/ipiales/3f2702dc79457ab9d2d27ec92c8aa576,Mo-Sa 08:00-20:00; Su 08:00-16:00,Western Union,Q861042
eae8408698f7392e4501e173099d76d3,western_union,EFECTY DIMONEX MULTISERVICIOS HOGAR,,Ipiales,NARI�O,,CO,+57 601 7566027,https://location.westernunion.com/co/nari�o/ipiales/eae8408698f7392e4501e173099d76d3,Mo-Fr 08:00-20:00; Sa 08:00-16:00,Western Union,Q861042
ad6b4fc5ed412d1d341592ebfc79766f,western_union,EFECTY DROGUERIA Y PERFUMERIA LEAL,,Ipiales,NARI�O,,CO,+57 601 7566027,https://location.westernunion.com/co/nari�o/ipiales/ad6b4fc5ed412d1d341592ebfc79766f,Mo-Sa 08:00-20:00; Su 08:00-16:00,Western Union,Q861042
10f6f9ad0b08a0b641a41549311d8783,western_union,ACCIONES Y VALORES EXITO IPIALES,,Ipiales,NARI�O,,CO,(+57) 6510480,https://location.westernunion.com/co/nari�o/ipiales/10f6f9ad0b08a0b641a41549311d8783,Mo-Sa 08:00-20:00; Su 10:30-15:30,Western Union,Q861042
31898f39cc3c0aed0d038df93736fd55,western_union,EFECTY PUENTE INTERNACIONAL RUMICHACA I,,Ipiales,NARI�O,,CO,+57 601 7566027,https://location.westernunion.com/co/nari�o/ipiales/31898f39cc3c0aed0d038df93736fd55,Mo-Sa 08:00-20:00; Su 08:00-16:00,Western Union,Q861042
6807190654c7fbf7e3b40ff57088fad7,western_union,EFECTY TIENDA PUENTE DEL NEGRITO,,Ipiales,NARI�O,,CO,+57 601 7566027,https://location.westernunion.com/co/nari�o/ipiales/6807190654c7fbf7e3b40ff57088fad7,Mo-Sa 08:00-20:00; Su 09:00-20:00,Western Union,Q861042
53ac1fe6db305eed93246c35c7fdf85a,western_union,SUPERGIROS IPIALES CORREPONSAL EL TE,,Pasto,NARI�O,,CO,+57 1 800 0111700,https://location.westernunion.com/co/nari�o/pasto/53ac1fe6db305eed93246c35c7fdf85a,Mo-Sa 08:00-20:00,Western Union,Q861042
4b1f4b72dcfa9e7c00d18b01e88cc390,western_union,EFECTY PUENES IPIALES,,Ipiales,NARI�O,,CO,+57 601 7566027,https://location.westernunion.com/co/nari�o/ipiales/4b1f4b72dcfa9e7c00d18b01e88cc390,Mo-Sa 08:00-20:00; Su 08:00-16:00,Western Union,Q861042
66f502602ae9cf272d5434df60c1ca75,western_union,EFECTY SERVIPAGOS Y SERVICIOS PUENES,,Ipiales,NARI�O,,CO,+57 601 7566027,https://location.westernunion.com/co/nari�o/ipiales/66f502602ae9cf272d5434df60c1ca75,Mo-Sa 08:00-20:00; Su 08:00-16:00,Western Union,Q861042
4076ddb0c96f6647a2b7038dc9203fc6,western_union,SUPERGIROS IPIALES AGENCIA CLUB DE L,,Ricaurte,NARI�O,,CO,+57 1 800 0111700,https://location.westernunion.com/co/nari�o/ricaurte/4076ddb0c96f6647a2b7038dc9203fc6,Mo-Sa 08:00-20:00,Western Union,Q861042
392bd037358a8e268b2895925250c7c8,western_union,BANCO AGRARIO CUMBAL,,Cumbal,NARI�O,,CO,+57 601 5948500,https://location.westernunion.com/co/nari�o/cumbal/392bd037358a8e268b2895925250c7c8,Mo-Fr 08:00-16:30,Western Union,Q861042
2ccd79cca8c81ec0d57956736777c95e,western_union,SUPERGIROS LA UNION NARINO,,Pasto,NARI�O,,CO,+57 1 800 0111700,https://location.westernunion.com/co/nari�o/pasto/2ccd79cca8c81ec0d57956736777c95e,Mo-Sa 08:00-20:00,Western Union,Q861042
8551348c139041d5c2f49748911211e3,western_union,SUPERGIROS PASTO CAJA PRINCIPAL,,La Union,NARI�O,,CO,+57 1 800 0111700,https://location.westernunion.com/co/nari�o/la-union/8551348c139041d5c2f49748911211e3,Mo-Sa 08:00-20:00,Western Union,Q861042
4ca91452cbc936d9fa949684658c712b,western_union,SUPERGIROS IPIALES NARINO,,Pasto,NARI�O,,CO,+57 1 800 0111700,https://location.westernunion.com/co/nari�o/pasto/4ca91452cbc936d9fa949684658c712b,Mo-Sa 08:00-20:00,Western Union,Q861042
