Ref,Spider,Name,Address,City,State,Zipcode,Country,Phone,Website,Hours,Brand,WikiData
,visa,,,DHAKA,MYMENSINGH,,BD,,,,,
7e65bed26559eaf27b110caebab17f9e,western_union,ASA,,Mymensingh,MYMENSINGH,,BD,+880 1730-099677,https://location.westernunion.com/bd/mymensingh/mymensingh/7e65bed26559eaf27b110caebab17f9e,Mo-Th 08:00-19:00; Sa-Su 08:00-19:00,Western Union,Q861042
1f35c6173854a235cbdc53f704a891c7,western_union,SOCIAL ISLAMI BANK LIMITED,,Mymansing,MYMENSINGH,,BD,(+880) 01-1713139096,https://location.westernunion.com/bd/mymensingh/mymansing/1f35c6173854a235cbdc53f704a891c7,Mo-Th 10:00-17:00; Sa 09:00-14:00; Su 10:00-17:00,Western Union,Q861042
a93d0758e80a74594f7abfa3fc372f60,western_union,JANATA BANK LIMITED,,Mymensingh,MYMENSINGH,,BD,+880 1199-155638,https://location.westernunion.com/bd/mymensingh/mymensingh/a93d0758e80a74594f7abfa3fc372f60,Mo-Th 09:00-17:00; Fr 09:30-15:00; Sa 09:30-17:00; Su 09:00-17:00,Western Union,Q861042
bfebdda424ed4f23d771efc2c0d89b63,western_union,ASA,,Mymensingh,MYMENSINGH,,BD,+880 1730-099709,https://location.westernunion.com/bd/mymensingh/mymensingh/bfebdda424ed4f23d771efc2c0d89b63,Mo-Th 08:00-19:00; Sa-Su 08:00-19:00,Western Union,Q861042
b13b83a9cc463e8589a44c49f444ca98,western_union,FIRST SECURITY ISLAMI BANK LIMITED,,Mymensingh,MYMENSINGH,,BD,+880 1927-679425,https://location.westernunion.com/bd/mymensingh/mymensingh/b13b83a9cc463e8589a44c49f444ca98,Mo-Th 09:00-17:00; Fr 09:30-15:00; Sa 09:30-17:00; Su 09:00-17:00,Western Union,Q861042
dc0987c8678dfa15fc0721aa6561f38d,western_union,RUPALI BANK LIMITED,,Mymensingh,MYMENSINGH,,BD,(+880) 091-1919154838,https://location.westernunion.com/bd/mymensingh/mymensingh/dc0987c8678dfa15fc0721aa6561f38d,Mo-Th 09:00-17:00; Fr 09:30-15:00; Sa 09:30-17:00; Su 09:00-17:00,Western Union,Q861042
16fb27985b68c75c0be12bb5bc4f4f7c,western_union,THE PREMIER BANK LIMITED,,Mymanshigh,MYMENSINGH,,BD,(+880) 091-1730000487,https://location.westernunion.com/bd/mymensingh/mymanshigh/16fb27985b68c75c0be12bb5bc4f4f7c,Mo-Th 09:00-17:00; Sa-Su 09:00-17:00,Western Union,Q861042
fe7c78592f5d2f42f00873f5b9469741,western_union,UNION BANK LIMITED,,Mymensingh,MYMENSINGH,,BD,+880 1713-642222,https://location.westernunion.com/bd/mymensingh/mymensingh/fe7c78592f5d2f42f00873f5b9469741,Mo 10:00-17:00; Tu-Th 09:00-17:00; Sa-Su 09:00-17:00,Western Union,Q861042
7c352be54c5fe58de09d1eb22e2d38ea,western_union,SONALI BANK LIMITED,,Mymensingh,MYMENSINGH,,BD,+880 1715-120026,https://location.westernunion.com/bd/mymensingh/mymensingh/7c352be54c5fe58de09d1eb22e2d38ea,Mo-Th 10:00-16:00; Fr-Sa 09:00-16:00; Su 10:00-16:00,Western Union,Q861042
d4c4d4c7a6c5bacf39e277813e27bf45,western_union,SONALI BANK LIMITED,,Mymensingh,MYMENSINGH,,BD,+880 1724-313332,https://location.westernunion.com/bd/mymensingh/mymensingh/d4c4d4c7a6c5bacf39e277813e27bf45,Mo-Th 10:00-16:00; Fr-Sa 09:00-16:00; Su 10:00-16:00,Western Union,Q861042
3360bce853283d9cb24dd10162268a7f,western_union,RUPALI BANK LIMITED,,Mymensingh,MYMENSINGH,,BD,+880 1718-232855,https://location.westernunion.com/bd/mymensingh/mymensingh/3360bce853283d9cb24dd10162268a7f,Mo-Th 10:00-16:00; Su 10:00-16:00,Western Union,Q861042
ac15f10186031e3b53c579316cde9565,western_union,AGRANI BANK LIMITED,,Mymensingh,MYMENSINGH,,BD,+880 1911-824711,https://location.westernunion.com/bd/mymensingh/mymensingh/ac15f10186031e3b53c579316cde9565,Mo-Th 09:00-17:00; Fr 09:30-15:00; Sa 09:30-17:00; Su 09:00-17:00,Western Union,Q861042
4f3be510442d9c48d60fbfa3ae2017e0,western_union,PUBALI BANK LIMITED,,Mymensingh,MYMENSINGH,,BD,+880 1713-755859,https://location.westernunion.com/bd/mymensingh/mymensingh/4f3be510442d9c48d60fbfa3ae2017e0,Mo-Th 10:00-16:00; Su 10:00-16:00,Western Union,Q861042
52b756dc5907aa2bc7703f908e96e112,western_union,AGRANI BANK LIMITED,,Mymensingh,MYMENSINGH,,BD,+880 1717-044061,https://location.westernunion.com/bd/mymensingh/mymensingh/52b756dc5907aa2bc7703f908e96e112,Mo-Th 09:00-17:00; Fr-Sa 10:00-16:00; Su 09:00-17:00,Western Union,Q861042
b02f367d9f954c1939edb4ed1fc5dd17,western_union,AGRANI BANK LIMITED,,Mymensingh,MYMENSINGH,,BD,+880 1715-160812,https://location.westernunion.com/bd/mymensingh/mymensingh/b02f367d9f954c1939edb4ed1fc5dd17,Mo-Th 09:00-17:00; Fr 09:30-15:00; Sa 09:30-17:00; Su 09:00-17:00,Western Union,Q861042
3f143d9cd13d8aca1e0953b3f2781f8f,western_union,UNITED COMMERCIAL BANK LIMITED,,Mymensingh,MYMENSINGH,,BD,(+880) 91-9164345,https://location.westernunion.com/bd/mymensingh/mymensingh/3f143d9cd13d8aca1e0953b3f2781f8f,Mo-Th 09:30-17:00; Fr 09:30-15:00; Sa-Su 09:30-17:00,Western Union,Q861042
64104fab251f658da8c0e0db050b2318,western_union,UTTARA BANK LIMITED,,Mymensingh,MYMENSINGH,,BD,(+880) 47140445020,https://location.westernunion.com/bd/mymensingh/mymensingh/64104fab251f658da8c0e0db050b2318,Mo-Th 10:00-18:00; Su 10:00-18:00,Western Union,Q861042
5f64ddfea8541c938c49af0439ddd5de,western_union,AGRANI BANK LIMITED,,Mymensingh,MYMENSINGH,,BD,+880 1717-334753,https://location.westernunion.com/bd/mymensingh/mymensingh/5f64ddfea8541c938c49af0439ddd5de,Mo-Th 09:00-17:00; Fr 09:30-15:00; Sa 09:30-17:00; Su 09:00-17:00,Western Union,Q861042
47ef5bd0c79cec2fd719fbd1d9da21d7,western_union,DUTCH BANGLA BANK LIMITED,,Mymensingh,MYMENSINGH,,BD,(+880) 91-2952082,https://location.westernunion.com/bd/mymensingh/mymensingh/47ef5bd0c79cec2fd719fbd1d9da21d7,Mo-Th 09:00-17:00; Fr 09:30-15:00; Sa 09:30-17:00; Su 09:00-17:00,Western Union,Q861042
f6ea58988e32b0f893502df65058def3,western_union,BURO BANGLADESH,,Mymensingh,MYMENSINGH,,BD,(+880) 02-28857876,https://location.westernunion.com/bd/mymensingh/mymensingh/f6ea58988e32b0f893502df65058def3,Mo-Th 10:00-16:00; Su 10:00-16:00,Western Union,Q861042
74c1a15452bc08b4076114b4747d7a94,western_union,NRB COMMERCIAL BANK LIMITED,,Mymensingh,MYMENSINGH,,BD,+880 1955-502152,https://location.westernunion.com/bd/mymensingh/mymensingh/74c1a15452bc08b4076114b4747d7a94,Mo-Th 10:00-16:00; Su 10:00-16:00,Western Union,Q861042
31d178a3fe43df9c43832f1266781098,western_union,AB BANK LIMITED,,Mymensingh,MYMENSINGH,,BD,+880 91-66825,https://location.westernunion.com/bd/mymensingh/mymensingh/31d178a3fe43df9c43832f1266781098,Mo-Th 09:30-17:00; Su 09:30-17:00,Western Union,Q861042
b5b4255724b49fb40f5df529d3d0c9e9,western_union,JANATA BANK LIMITED,,Mymensingh,MYMENSINGH,,BD,(+880) 91-9166925,https://location.westernunion.com/bd/mymensingh/mymensingh/b5b4255724b49fb40f5df529d3d0c9e9,Mo-Th 09:00-17:00; Fr 09:30-15:00; Sa 09:30-17:00; Su 09:00-17:00,Western Union,Q861042
46250ac55a91fac1c6fb9dafff8215f6,western_union,RUPALI BANK LIMITED,,Mymensingh,MYMENSINGH,,BD,(+880) 9-9167271,https://location.westernunion.com/bd/mymensingh/mymensingh/46250ac55a91fac1c6fb9dafff8215f6,Mo-Th 09:00-17:00; Su 09:00-17:00,Western Union,Q861042
49a5bfc91a990376cb79644d5c79ecf8,western_union,ISLAMI BANK BANGLADESHN LIMITED,,Mymenshingh,MYMENSINGH,,BD,+880 1844-242673,https://location.westernunion.com/bd/mymensingh/mymenshingh/49a5bfc91a990376cb79644d5c79ecf8,Mo-Th 10:00-18:00; Sa-Su 10:00-18:00,Western Union,Q861042
b1b3c922ba20f128b76d84d17c585de9,western_union,PUBALI BANK LIMITED,,Mymensingh,MYMENSINGH,,BD,(+880) 91-9154547,https://location.westernunion.com/bd/mymensingh/mymensingh/b1b3c922ba20f128b76d84d17c585de9,Mo-Th 09:00-17:00; Fr 09:30-15:00; Sa 09:30-17:00; Su 09:00-17:00,Western Union,Q861042
fe911439a9fd7298e54b08719fb3c4c8,western_union,PUBALI BANK LIMITED,,Mymensingh,MYMENSINGH,,BD,+880 1711-404396,https://location.westernunion.com/bd/mymensingh/mymensingh/fe911439a9fd7298e54b08719fb3c4c8,Mo-Th 09:00-17:00; Fr 09:30-15:00; Sa 09:30-17:00; Su 09:00-17:00,Western Union,Q861042
e21fce3430a40c89568d53bd9261e2df,western_union,BANGLADESH COMMERCE BANK LIMIT,,Mymensingh,MYMENSINGH,,BD,+880 1722-410053,https://location.westernunion.com/bd/mymensingh/mymensingh/e21fce3430a40c89568d53bd9261e2df,Mo-Th 10:00-18:00; Sa 10:00-14:00; Su 10:00-18:00,Western Union,Q861042
f748d540cc8cbdace0441b1d5482da3d,western_union,BANGLADESH KRISHI BANK,,Mymensingh,MYMENSINGH,,BD,+880 91-67588,https://location.westernunion.com/bd/mymensingh/mymensingh/f748d540cc8cbdace0441b1d5482da3d,Mo-Su 09:00-17:00,Western Union,Q861042
866323ec334f5b87cacecfe1cfe9e03e,western_union,JANATA BANK LIMITED,,Mymensingh,MYMENSINGH,,BD,(+880) 91-9166972,https://location.westernunion.com/bd/mymensingh/mymensingh/866323ec334f5b87cacecfe1cfe9e03e,Mo-Th 09:00-17:00; Fr 09:30-15:00; Sa 09:30-17:00; Su 09:00-17:00,Western Union,Q861042
70cd8b9744f4aa5f41351b3b413b87f2,western_union,AB BANK LIMITED,,Mymensingh,MYMENSINGH,,BD,+880 1677-944434,https://location.westernunion.com/bd/mymensingh/mymensingh/70cd8b9744f4aa5f41351b3b413b87f2,Mo-Th 09:30-17:00; Sa-Su 09:30-17:00,Western Union,Q861042
ccbb97b1801d68fe403107ef10c51006,western_union,PUBALI BANK LIMITED,,Mymensingh,MYMENSINGH,,BD,+880 1714-009447,https://location.westernunion.com/bd/mymensingh/mymensingh/ccbb97b1801d68fe403107ef10c51006,Mo-Th 09:00-17:00; Fr 09:30-15:00; Sa 09:30-17:00; Su 09:00-17:00,Western Union,Q861042
64c7753e2e8e3a6b2bf7a87b0a40c852,western_union,AGRANI BANK LIMITED,,Mymensingh,MYMENSINGH,,BD,+880 1814-658117,https://location.westernunion.com/bd/mymensingh/mymensingh/64c7753e2e8e3a6b2bf7a87b0a40c852,Mo-Th 09:00-17:00; Fr 09:30-15:00; Sa 09:30-17:00; Su 09:00-17:00,Western Union,Q861042
