Ref,Spider,Name,Address,City,State,Zipcode,Country,Phone,Website,Hours,Brand,WikiData
4661,anytime_fitness,Anytime Fitness,,Jasper,TN,,US,+1 423-939-1300,https://www.anytimefitness.com/gyms/4661/jasper-tn-37347/,,Anytime Fitness,Q4778364
https://locations.arbys.com/tn/kimball/385-kimball-crossing-dr.html,arbys_us,"Arby's Fast-Food Drive Through Near You in Kimball, TN",,Kimball,TN,,US,+1 423-837-2344,https://locations.arbys.com/tn/kimball/385-kimball-crossing-dr.html,Mo-Su 10:00-22:00,Arby's,Q630866
14223,asics_us,Hibbett Sports,419 Kimbal Crossing Drive,Jasper,TN,,US,+1 423-837-2682,,,asics,Q327247
2061,autozone_us,AutoZone Auto Parts Jasper,,Jasper,TN,,US,+1 423-942-1742,https://www.autozone.com/locations/tn/jasper/4645-main-st.html,Mo-Sa 07:30-20:00; Su 09:00-20:00,AutoZone,Q4826087
4845,bluerhino,Walmart #1089 - Supercenter,,Kimball,TN,,US,+1 423-837-6732,,,Blue Rhino,Q65681213
79393,bluerhino,Lowe's #1910,,Kimball,TN,,US,+1 423-837-3110,,,Blue Rhino,Q65681213
194011,bluerhino,Family Dollar #11922,,JASPER,TN,,US,+1 423-939-5292,,,Blue Rhino,Q65681213
239777,bluerhino,Circle K #4703616,,Jasper,TN,,US,+1 423-942-6900,,,Blue Rhino,Q65681213
138837,bluerhino,Love's #490,,Jasper,TN,,US,+1 423-942-3345,,,Blue Rhino,Q65681213
181997,bluerhino,Speedway #7177,,Jasper,TN,,US,+1 423-942-8878,,,Blue Rhino,Q65681213
43072,citi,ATM Circle K,,Jasper,TN,,US,,,,Citibank,Q857063
51303,citi,ATM CVS,,Jasper,TN,,US,,,,Citibank,Q857063
78654,citi,ATM Speedway,,Jasper,TN,,US,,,,Citibank,Q857063
64509,citi,ATM Mapco,,Jasper,TN,,US,,,,Citibank,Q857063
80338474,cricket_wireless,Cricket Wireless Authorized Retailer,,Kimball,TN,,US,+1 423-228-4540,https://www.cricketwireless.com/stores/ll/US/TN/Kimball/425-Kimball-Crossing-Dr,Mo-Fr 10:00-19:00; Sa 10:00-18:00; Su 10:00-17:00,Cricket Wireless,Q5184987
7763,cvs_us,CVS Pharmacy,,Jasper,TN,,US,+1 423-942-3674,https://www.cvs.com/store-locator/jasper-tn-pharmacies/4712-main-st-jasper-tn-37347/storeid=7763,Mo-Sa 08:00-21:00; Su 09:00-21:00,CVS Pharmacy,Q2078880
91,dollar_general,Dollar General,,Jasper,TN,,US,+1 423-651-0075,https://www.dollargeneral.com/store-directory/tn/jasper/91,Mo-Su 08:00-22:00,Dollar General,Q145168
18584,dollar_general,Dollar General,,Jasper,TN,,US,+1 423-651-0990,https://www.dollargeneral.com/store-directory/tn/jasper/18584,Mo-Su 08:00-22:00,Dollar General,Q145168
6148,dominos_pizza_us,Domino's Pizza,,Kimball,TN,,US,+1 423-837-0777,https://pizza.dominos.com/tennessee/kimball/310-kimball-crossing-dr,Mo-Th 10:00-24:00; Fr-Sa 10:00-01:00; Su 10:00-24:00,Domino's,Q839466
363407,dunkin_us,Dunkin',,Kimball,TN,,US,+1 423-518-0649,https://locations.dunkindonuts.com/en/tn/kimball/120-main-st/363407,Mo-Sa 05:00-22:00; Su 06:00-21:00,Dunkin',Q847743
E1563G,enterprise,Kimball,,Kimball,TN,,US,+1 423-837-2277,,,Enterprise Rent-A-Car,Q17085454
31922,family_dollar_us,FAMILY DOLLAR #11922,,Jasper,TN,,US,+1 423-651-0967,https://www.familydollar.com/locations/tn/jasper/31922/,Mo-Su 08:00-21:00,Family Dollar,Q5433101
https://local.fedex.com/#25233930,fedex,,,Jasper,TN,,US,+1 800-463-3339,https://local.fedex.com/en-us/tn/jasper/chacb,,FedEx,Q459477
https://local.fedex.com/#25237406,fedex,,,Jasper,TN,,US,+1 800-463-3339,https://local.fedex.com/en-us/tn/jasper/chabj,,FedEx,Q459477
d665aaab-458a-e111-8dde-005056934050,goodwill,"Kimball, TN Store & Donation Center",,Kimball,TN,,US,+1 423-837-8221,https://www.goodwill.org/locator/location/?store=ZDY2NWFhYWItNDU4YS1lMTExLThkZGUtMDA1MDU2OTM0MDUw&lat=MzUuMDQwODU=&lng=LTg1LjY4NDUy,,Goodwill,Q5583655
https://www.harborfreight.com/storelocator/341-kimball-crossing-drive-130-kimball-37347?number=3203,harborfreight,"Harbor Freight Tools Kimball, TN",,Kimball,TN,,US,+1 423-961-5757,https://www.harborfreight.com/storelocator/341-kimball-crossing-drive-130-kimball-37347?number=3203,Mo-Sa 08:00-20:00; Su 09:00-18:00,Harbor Freight Tools,Q5654601
1090,huddle_house_us,TN - Jasper,,Jasper,TN,,US,+1 423-815-9900,https://www.huddlehouse.com/locations/tn/jasper/1200-highway-28,Mo-Su 06:00-22:00,Huddle House,Q5928324
40568,h_r_block,H&R Block,,Kimball,TN,,US,+1 423-837-6894,https://www.hrblock.com/local-tax-offices/tennessee/kimball/373-kimball-crossing-rd/40568/,,H&R Block,Q5627799
301,ingles,Jasper,,Jasper,TN,,US,+1 423-942-2269,https://www.ingles-markets.com/storelocate/storeinfo.php?storenum=301,Mo-Su 07:00-22:00,Ingles,Q6032595
https://locations.kfc.com/#11246745,kfc,Chicken Nuggets Near Kimball,,Kimball,TN,,US,,https://locations.kfc.com/tn/kimball/342-kimball-crossing-drive/chickennugget,Mo-Th 10:00-22:00; Fr-Sa 10:00-23:00; Su 10:00-22:00,KFC,Q524757
500,loves,Site 490,,Jasper,TN,,US,+1 423-942-3345,,,Love's,Q1872496
2729,mightyflame,MAPCO EXPRESS #3543,,Jasper,TN,,US,+1 423-942-1499,,,Mighty Flame,
https://locations.oreillyauto.com/tn/kimball/check-engine-light-testing-5430.html,oreilly,Your Kimball O'Reilly Auto Parts Store,,Kimball,TN,,US,+1 423-837-9901,https://locations.oreillyauto.com/tn/kimball/check-engine-light-testing-5430.html,Mo-Sa 07:00-21:00; Su 08:00-20:00,O'Reilly Auto Parts,Q7071951
https://locations.oreillyauto.com/tn/kimball/wiper-installation-5430.html,oreilly,Your Kimball O'Reilly Auto Parts Store,,Kimball,TN,,US,+1 423-837-9901,https://locations.oreillyauto.com/tn/kimball/wiper-installation-5430.html,Mo-Sa 07:00-21:00; Su 08:00-20:00,O'Reilly Auto Parts,Q7071951
https://locations.oreillyauto.com/tn/kimball/battery-testing-5430.html,oreilly,Your Kimball O'Reilly Auto Parts Store,,Kimball,TN,,US,+1 423-837-9901,https://locations.oreillyauto.com/tn/kimball/battery-testing-5430.html,Mo-Sa 07:00-21:00; Su 08:00-20:00,O'Reilly Auto Parts,Q7071951
https://locations.oreillyauto.com/tn/kimball/autopartes-5430.html,oreilly,Tu tienda O'Reilly Auto Parts en Kimball,,Kimball,TN,,US,+1 423-837-9901,https://locations.oreillyauto.com/tn/kimball/autopartes-5430.html,Mo-Sa 07:00-21:00; Su 08:00-20:00,O'Reilly Auto Parts,Q7071951
https://locations.oreillyauto.com/tn/jasper/check-engine-light-testing-2217.html,oreilly,Your Jasper O'Reilly Auto Parts Store,,Jasper,TN,,US,+1 423-942-7188,https://locations.oreillyauto.com/tn/jasper/check-engine-light-testing-2217.html,Mo-Sa 07:00-21:00; Su 08:00-20:00,O'Reilly Auto Parts,Q7071951
https://locations.oreillyauto.com/tn/jasper/wiper-installation-2217.html,oreilly,Your Jasper O'Reilly Auto Parts Store,,Jasper,TN,,US,+1 423-942-7188,https://locations.oreillyauto.com/tn/jasper/wiper-installation-2217.html,Mo-Sa 07:00-21:00; Su 08:00-20:00,O'Reilly Auto Parts,Q7071951
https://locations.oreillyauto.com/tn/jasper/battery-testing-2217.html,oreilly,Your Jasper O'Reilly Auto Parts Store,,Jasper,TN,,US,+1 423-942-7188,https://locations.oreillyauto.com/tn/jasper/battery-testing-2217.html,Mo-Sa 07:00-21:00; Su 08:00-20:00,O'Reilly Auto Parts,Q7071951
https://locations.oreillyauto.com/tn/jasper/autopartes-2217.html,oreilly,Tu tienda O'Reilly Auto Parts en Jasper,,Jasper,TN,,US,+1 423-942-7188,https://locations.oreillyauto.com/tn/jasper/autopartes-2217.html,Mo-Sa 07:00-21:00; Su 08:00-20:00,O'Reilly Auto Parts,Q7071951
collins-building-materials-36924,ppgpaints,COLLINS BUILDING MATERIALS,,"Jasper, ",TN,,US,+1 423-942-5416,https://www.ppgpaints.com/store-locator/us/tennessee/jasper-paint-stores/collins-building-materials-36924,,PPG Paints,Q83891559
https://restaurants.subway.com/#14914821,subway,Subway,,Kimball Marion,TN,,US,+1 423-837-0512,https://restaurants.subway.com/united-states/tn/kimball/118-main-st,Mo-Su 08:30-21:30,Subway,Q244457
https://restaurants.subway.com/#18595038,subway,Subway Mapco Truck Stop,,Jasper,TN,,US,+1 432-942-1499,https://restaurants.subway.com/united-states/tn/jasper/140-rowland,Mo-Fr 07:00-21:00; Sa-Su 08:00-21:00,Subway,Q244457
https://restaurants.subway.com/#14898946,subway,"Subway Love's Travel Stop, #490",,Jasper Marion,TN,,US,+1 423-942-3345,https://restaurants.subway.com/united-states/tn/jasper/260-tva-road,,Subway,Q244457
https://locations.tacobell.com/#3917062,taco_bell,Taco Bell,,Kimball,TN,,US,+1 423-837-8522,https://locations.tacobell.com/tn/kimball/400-kimball-crossing-dr.html,Mo-Th 09:00-24:00; Fr-Sa 09:00-01:00; Su 09:00-24:00,Taco Bell,Q752941
583G,tmobile_us,Main & Pinecrest,,Kimball,TN,,US,+1 423-909-1421,https://www.t-mobile.com/store-locator/tn/kimball/main-pinecrest,,T-Mobile,Q3511885
1368299,usps,JASPER,,JASPER,TN,,US,+1 423-942-2107,,Mo-Fr 08:00-16:30; Sa 08:00-12:00,United States Postal Service,Q668687
3734700007,usps_collection_boxes,USPS COLLECTION BOX - PO LOBBY,3739 MAIN ST,JASPER,TN,,US,,,,United States Postal Service,Q668687
3734700005,usps_collection_boxes,USPS COLLECTION BOX - PO LOBBY,3739 MAIN ST,JASPER,TN,,US,,,,United States Postal Service,Q668687
3734700000,usps_collection_boxes,USPS COLLECTION BOX - BLUE BOX,3739 MAIN ST,JASPER,TN,,US,,,,United States Postal Service,Q668687
3734700008,usps_collection_boxes,USPS COLLECTION BOX - BLUE BOX,675 MAIN ST,JASPER,TN,,US,,,,United States Postal Service,Q668687
,visa,,,JASPER,TN,,US,,,,,
,visa,,,JASPER,TN,,US,,,,,
,visa,,,JASPER,TN,,US,,,,,
,visa,,,JASPER,TN,,US,,,,,
,visa,,,JASPER,TN,,US,,,,,
,visa,,,JASPER,TN,,US,,,,,
,visa,,,JASPER,TN,,US,,,,,
,visa,,,JASPER,TN,,US,,,,,
,visa,,,JASPER,TN,,US,,,,,
,visa,,,JASPER,TN,,US,,,,,
,visa,,,JASPER,TN,,US,,,,,
,visa,,,JASPER,TN,,US,,,,,
,visa,,,JASPER,TN,,US,,,,,
,visa,,,JASPER,TN,,US,,,,,
,visa,,,JASPER,TN,,US,,,,,
,visa,,,KIMBALL,TN,,US,,,,,
,visa,,,KIMBALL,TN,,US,,,,,
,visa,,,KIMBALL,TN,,US,,,,,
,visa,,,KIMBALL,TN,,US,,,,,
,visa,,,KIMBALL,TN,,US,,,,,
,visa,,,KIMBALL,TN,,US,,,,,
1028,waffle_house_us,Waffle House #1028,,KIMBALL,TN,,US,+1 423-837-5339,https://locations.wafflehouse.com/kimball-tn-1028,24/7,Waffle House,Q1701206
https://locations.wendys.com/#9253326,wendys,"Wendy's Kimball 3 in Kimball, TN",,Kimball,TN,,US,+1 423-837-8500,https://locations.wendys.com/united-states/tn/kimball/100-main-street,"Mo-Sa 06:00-10:30,07:00-21:00; Su 07:00-10:30,07:00-21:00",Wendy's,Q550258
364b8e67f1120d489ce9a42b3174d8ab,western_union,WALMART #001089,,Kimball,TN,,US,+1 423-837-6732,https://location.westernunion.com/us/tn/kimball/364b8e67f1120d489ce9a42b3174d8ab,Mo-Su 07:00-21:00,Western Union,Q861042
da078368be5832f4fc39bb0bde9a9680,western_union,ADVANCE FINANCIAL #89,,Kimball,TN,,US,+1 423-425-9022,https://location.westernunion.com/us/tn/kimball/da078368be5832f4fc39bb0bde9a9680,Mo-Fr 09:00-18:00; Sa-Su 10:00-16:00,Western Union,Q861042
1813,world_finance_us,,"4785 Main St Ste A, Jasper, TN, 37347",Jasper,TN,,US,+1 423-942-7100,https://www.loansbyworld.com/branches/branch-1813,Mo-Fr 09:00-17:30; Sa 09:00-12:00,World Finance,Q3569971
