Ref,Spider,Name,Address,City,State,Zipcode,Country,Phone,Website,Hours,Brand,WikiData
6bf6e5a2822629d2eea835e3887fa418,western_union,VIJAY ENTERPRISES,,Hoshiarpur,PUNJAB,,IN,+91 76964 34286,https://location.westernunion.com/in/punjab/hoshiarpur/6bf6e5a2822629d2eea835e3887fa418,Mo-Su 08:00-20:00,Western Union,Q861042
24c66c5a86a6e6274a5825d068a7d913,western_union,VISHAL ENTERPRISES,,Hoshiarpur,PUNJAB,,IN,(+91) 188-243709,https://location.westernunion.com/in/punjab/hoshiarpur/24c66c5a86a6e6274a5825d068a7d913,Mo-Su 08:00-21:00,Western Union,Q861042
b9308fea8326a23ca2f8226638ebce6e,western_union,KHALSA READYMADE GENERAL STORE,,Mahilpur,PUNJAB,,IN,+91 90415 01705,https://location.westernunion.com/in/punjab/mahilpur/b9308fea8326a23ca2f8226638ebce6e,Mo-Su 07:30-23:30,Western Union,Q861042
5cb4d11521cfc17314876e37afa1aa3a,western_union,VINAY VERMA ENTERPRISES,,Hoshiarpur,PUNJAB,,IN,+91 98156 11720,https://location.westernunion.com/in/punjab/hoshiarpur/5cb4d11521cfc17314876e37afa1aa3a,Mo-Su 08:00-20:00,Western Union,Q861042
570cf40344d52d59c0145df6458b39ca,western_union,J K ENTERPRISES,,Mahilpur,PUNJAB,,IN,+91 98769 37930,https://location.westernunion.com/in/punjab/mahilpur/570cf40344d52d59c0145df6458b39ca,Mo-Su 06:30-21:00,Western Union,Q861042
43839b07e6bc1c742f9306e2ef7fce61,western_union,HARSH MONEY TRANSFER,,Mahilpur,PUNJAB,,IN,(+91) 188-500523,https://location.westernunion.com/in/punjab/mahilpur/43839b07e6bc1c742f9306e2ef7fce61,Mo-Su 08:00-21:00,Western Union,Q861042
511a66385e89ca54875d79b3863039cc,western_union,UNIMONI MAHILPUR MHP,,Hoshiarpur,PUNJAB,,IN,+91 93178 48007,https://location.westernunion.com/in/punjab/hoshiarpur/511a66385e89ca54875d79b3863039cc,Mo-Fr 09:30-18:30; Sa 09:30-18:00,Western Union,Q861042
9ec957706dfd922d36c84f3918010d2c,western_union,CAPITAL SMALL FINANCE BANK LIMITED,,Mahilpur,PUNJAB,,IN,(+91) 188-247813,https://location.westernunion.com/in/punjab/mahilpur/9ec957706dfd922d36c84f3918010d2c,Mo-Sa 09:00-20:00,Western Union,Q861042
2e80decdff0c35ed47c1c7f5086f7e2c,western_union,R R ENTERPRISES,,Mahilpur,PUNJAB,,IN,+91 98553 00699,https://location.westernunion.com/in/punjab/mahilpur/2e80decdff0c35ed47c1c7f5086f7e2c,Mo-Su 09:00-21:00,Western Union,Q861042
9f0dbbb7df6aa4d0780defc1f50d822e,western_union,NARANG TRAVEL,,Mahilpur,PUNJAB,,IN,+91 98154 83370,https://location.westernunion.com/in/punjab/mahilpur/9f0dbbb7df6aa4d0780defc1f50d822e,Mo-Su 09:00-19:30,Western Union,Q861042
3dc4404fd66bcb66358b6f1d494c6f57,western_union,SHRI BALAJI ENTERPRISES,,Mahilpur,PUNJAB,,IN,+91 84278 93118,https://location.westernunion.com/in/punjab/mahilpur/3dc4404fd66bcb66358b6f1d494c6f57,Mo-Su 09:00-21:00,Western Union,Q861042
6674db1f29ffad774f58cfdcd9dd4d15,western_union,NITIN ENTERPRISES,,Mahilpur,PUNJAB,,IN,(+91) 188-500504,https://location.westernunion.com/in/punjab/mahilpur/6674db1f29ffad774f58cfdcd9dd4d15,Mo-Su 08:00-21:00,Western Union,Q861042
ada2075287258b688dc87d6540ba88cf,western_union,DHRUV ENTERPRISES,,Hoshiarpur,PUNJAB,,IN,+91 94645 45121,https://location.westernunion.com/in/punjab/hoshiarpur/ada2075287258b688dc87d6540ba88cf,Mo-Su 08:00-20:00,Western Union,Q861042
8a5f3d7b598bd65bdb12e14dcc8ce74f,western_union,CHITKARA MONEY CHANGER,,Hoshiarpur,PUNJAB,,IN,+91 80542 07167,https://location.westernunion.com/in/punjab/hoshiarpur/8a5f3d7b598bd65bdb12e14dcc8ce74f,Mo-Su 09:00-21:00,Western Union,Q861042
5248a8760f4e4a8c81a3dfdbb9023d99,western_union,JAI MAHAVIR ENTERPRISES,,Hoshiarpur,PUNJAB,,IN,+91 94640 65465,https://location.westernunion.com/in/punjab/hoshiarpur/5248a8760f4e4a8c81a3dfdbb9023d99,Mo-Su 08:00-21:00,Western Union,Q861042
0e90dc2689c77363f5266333aee7c117,western_union,A1 ENTERPRISES,,Mahilpur,PUNJAB,,IN,+91 94642 90676,https://location.westernunion.com/in/punjab/mahilpur/0e90dc2689c77363f5266333aee7c117,Mo-Su 08:00-21:00,Western Union,Q861042
58a91106123539b5a0e7ac1d12dd6df1,western_union,S P ENTERPRISES,,Hoshiarpur,PUNJAB,,IN,+91 95014 51274,https://location.westernunion.com/in/punjab/hoshiarpur/58a91106123539b5a0e7ac1d12dd6df1,Mo-Su 08:00-21:00,Western Union,Q861042
90be2fe6a2fdf3b8f6e4ac500b6306df,western_union,UNITY ENTERPRISES,,Mahilpur,PUNJAB,,IN,+91 95013 81666,https://location.westernunion.com/in/punjab/mahilpur/90be2fe6a2fdf3b8f6e4ac500b6306df,Mo-Su 06:30-21:00,Western Union,Q861042
24dc20a2e84642edfab711e0e864e60e,western_union,NEERAJ AGGARWAL,,Hoshiarpur,PUNJAB,,IN,+91 94647 57575,https://location.westernunion.com/in/punjab/hoshiarpur/24dc20a2e84642edfab711e0e864e60e,Mo-Su 06:00-23:30,Western Union,Q861042
dac641e506d4f3421d0c4ff90fe7520a,western_union,DEEPAK ENTERPRISES,,Hoshiarpur,PUNJAB,,IN,(+91) 188-246454,https://location.westernunion.com/in/punjab/hoshiarpur/dac641e506d4f3421d0c4ff90fe7520a,Mo-Su 07:30-21:30,Western Union,Q861042
da23525cd27b79d29992440fc393c3aa,western_union,MANINDER TELECOM,,Mahilpur,PUNJAB,,IN,+91 98145 33380,https://location.westernunion.com/in/punjab/mahilpur/da23525cd27b79d29992440fc393c3aa,Mo-Su 08:00-20:00,Western Union,Q861042
797443ee43f00128aadd28086c78140b,western_union,NEW SODHI MONEY CHANGER,,Mahilpur,PUNJAB,,IN,(+91) 188-500983,https://location.westernunion.com/in/punjab/mahilpur/797443ee43f00128aadd28086c78140b,Mo-Su 08:00-21:00,Western Union,Q861042
5e7dd3c67824c2b939f735f23f14ed68,western_union,UNIVERSAL CAREER COUNSULTANTS,,Hoshiarpur,PUNJAB,,IN,+91 94630 00251,https://location.westernunion.com/in/punjab/hoshiarpur/5e7dd3c67824c2b939f735f23f14ed68,Mo-Su 08:00-20:00,Western Union,Q861042
ccba14b3b0bfb859b78e0b9050a80319,western_union,PAUL MERCHANTS LIMITED,,Mahilpur,PUNJAB,,IN,(+91) 188-500953,https://location.westernunion.com/in/punjab/mahilpur/ccba14b3b0bfb859b78e0b9050a80319,Mo-Su 08:00-21:00,Western Union,Q861042
