Ref,Spider,Name,Address,City,State,Zipcode,Country,Phone,Website,Hours,Brand,WikiData
2214,amcal_au,Amcal+ Pharmacy Ayr,"82 Queen Street, Ayr QLD 4807",Ayr,QLD,,AU,+61 7 4783 1203,https://amcal.com.au/store/2214/QLD/amcal-plus-pharmacy-ayr/,Mo-Fr 08:30-17:30; Sa 08:30-12:30; Su 00:00-00:00,Amcal,Q63367373
434802_PO,australia_post_au,CLAREDALE LPO,,CLARE,QLD,,AU,+61 7 4782 7282,,,Australia Post,Q1142936
RED0013073,australia_post_au,,,CLARE,QLD,,AU,,,,Australia Post,Q1142936
RED0013067,australia_post_au,,,AYR,QLD,,AU,,,,Australia Post,Q1142936
431759_PO,australia_post_au,AYR POST SHOP,,AYR,QLD,,AU,+61 131318,,,Australia Post,Q1142936
RED0018047,australia_post_au,,,AYR,QLD,,AU,,,,Australia Post,Q1142936
RED0013070,australia_post_au,,,AYR,QLD,,AU,,,,Australia Post,Q1142936
RED0013069,australia_post_au,,,AYR,QLD,,AU,,,,Australia Post,Q1142936
RED0013071,australia_post_au,,,AYR,QLD,,AU,,,,Australia Post,Q1142936
RED0013068,australia_post_au,,,AYR,QLD,,AU,,,,Australia Post,Q1142936
RED0013072,australia_post_au,,,AYR,QLD,,AU,,,,Australia Post,Q1142936
RED0013066,australia_post_au,,,AYR,QLD,,AU,,,,Australia Post,Q1142936
4100,bp,DPT AYR,,AYR,QLD,,AU,+61 7 4783 2466,,24/7,BP,Q152057
5781,bp,BP OPT AYR,,AYR,QLD,,AU,+61 7 4783 4308,,24/7,BP,Q152057
5708,bp,BP AYR,,AYR,QLD,,AU,+61 7 4783 4308,,Mo-Su 05:00-19:00,BP,Q152057
70951,caltex,Caltex Ayr,,Ayr,QLD,,AU,+61 7 4783 5468,,,Caltex,Q277470
44953,cellarbrations_au,CELLARBRATIONS AT QUEENS HOTEL AYR,,AYR,QLD,,AU,+61 7 4783 2202,,Mo 10:00-19:00; Tu-Th 10:00-21:00; Fr-Sa 10:00-22:00; Su 10:00-19:00,Cellarbrations,Q109807592
1968,coles_au,Coles Express Ayr,,Ayr,QLD,,AU,+61 7 3734 0728,,,Coles Express,Q5144653
480102,commonwealth_bank_au,Ayr,,Ayr,QLD,,AU,,,,Commonwealth Bank,Q285328
480101,commonwealth_bank_au,Ayr,,Ayr,QLD,,AU,,,,Commonwealth Bank,Q285328
4045,compleat_angler_camping_world_au,Compleat Angler Ayr,,Ayr,QLD,,AU,+61 7 4783 5744,https://compleatangler.com.au/pages/Compleat-Angler-Ayr,Mo-Th 09:00-17:30; Fr 09:00-19:00; Sa 09:00-14:30,Compleat Angler,Q124062620
4403,compleat_angler_camping_world_au,Camping World Ayr,,Ayr,QLD,,AU,+61 7 4783 1592,https://compleatangler.com.au/pages/Camping-World-Ayr,Mo-Th 09:00-17:30; Fr 09:00-19:00; Sa 09:00-14:30,Camping World,Q124062618
42853,just_group,Jay Jays Ayr,"Shop 5 Centrepoint Cplex, 96 Queen Street, Ayr, QLD, 4807, Australia",Ayr,QLD,,AU,+61 7 4783 6009,https://justjeans.jgl.com.au/shop/stores/jayjays-ayr,,Jay Jays,Q6166759
9500455,mcdonalds_qstore,AYR QLD,,Ayr,QLD,,AU,+61 7 4783 5811,,24/7,McDonald's,Q38076
9896816,night_owl_au,NightOwl CALTEX Ayr Central,"115 Edwards St, Ayr, QLD, 4807, AU",Ayr,QLD,,AU,+61 450 238 096,https://nightowl.com.au/store-locator/?location=nightowl-puma-ayr-central-ayr-qld,Mo-Su 05:00-22:00,NightOwl,Q7033183
9896813,night_owl_au,NightOwl Shell Ayr,"245 Queen St, Ayr, QLD, 4807, AU",Ayr,QLD,,AU,+61 7 4413 6889,https://nightowl.com.au/store-locator/?location=nightowl-shell-ayr-ayr-qld,24/7,NightOwl,Q7033183
NMA30283,nissan_europe,Burdekin Nissan,,AYR,QLD,,AU,+61 7 4783 7077,http://www.burdekinnissan.com.au,,Nissan,Q20165
10110735,shell,SHELL COLES EXPRESS AYR,,AYR,QLD,,AU,+61 7 3734 0728,https://find.shell.com/au/fuel/10110735-shell-coles-express-ayr,,Shell,Q110716465
10111103,shell,SHELL AYR,,AYR,QLD,,AU,+61 7 4413 6889,https://find.shell.com/au/fuel/10111103-shell-ayr,24/7,Shell,Q110716465
FLH3,telstra_au,Ayr,,Ayr,QLD,,AU,+61 1800 844 095,,Mo-Fr 09:00-17:00; Sa 09:00-13:00,Telstra,Q721162
2192,terry_white_chemmart_au,TerryWhite Chemmart Ayr,,Ayr,QLD,,AU,+61 7 4783 1201,https://terrywhitechemmart.com.au/stores/terrywhite-chemmart-ayr,Mo-Fr 08:30-18:00; Sa 08:30-12:00,Terry White Chemmart,Q24089773
,visa,,,AYR,QLD,,AU,,,,,
,visa,,,AYR,QLD,,AU,,,,,
,visa,,,AYR,QLD,,AU,,,,,
7d8c79f17a8d9a351ac43795c256e963,western_union,AUSTRALIA POST,,Ayr,QLD,,AU,+61 1800 501 500,https://location.westernunion.com/au/qld/ayr/7d8c79f17a8d9a351ac43795c256e963,Mo-Fr 09:00-17:00; Sa 09:00-12:30,Western Union,Q861042
