Ref,Spider,Name,Address,City,State,Zipcode,Country,Phone,Website,Hours,Brand,WikiData
68392637,moneygram,M LHUILLIER - CITRUS BULACAN,,BULACAN,,,PH,+63 32 348 9400,,Mo-Su 08:00-18:00,MoneyGram,Q1944412
72571554,moneygram,USSC - #20207 - BULACAN - SJDM VICTORY T,,BULACAN,,,PH,8157665,,Mo-Su 07:00-20:00,MoneyGram,Q1944412
69047237,moneygram,BDO - #1012 - BULACAN - STA. RITA GUIGUI,,BULACAN,,,PH,2702603,,Mo-Fr 08:30-18:00; Sa-Su 00:00-24:00,MoneyGram,Q1944412
73660147,moneygram,RD PAWNSHOP INC - BALIUAG 1,,BULACAN,,,PH,+63 906 624 4047,,Mo-Sa 08:00-18:00; Su 09:00-17:00,MoneyGram,Q1944412
73660150,moneygram,RD PAWNSHOP INC - BALIUAG 2,,BULACAN,,,PH,+63 905 614 5167,,Mo-Sa 08:00-18:00; Su 09:00-17:00,MoneyGram,Q1944412
73660765,moneygram,RD PAWNSHOP INC - CAYPOMBO STA MARIA,,BULACAN,,,PH,+63 975 464 1832,,Mo-Sa 08:00-18:00; Su 09:00-17:00,MoneyGram,Q1944412
73871842,moneygram,HRV VILLARICA PAWNSHOP - #PSH025 - HRV V,,BULAKAN,,,PH,87026350,,Mo-Sa 07:00-19:00; Su 08:00-17:00,MoneyGram,Q1944412
73872689,moneygram,HRV VILLARICA PAWNSHOP - #PSH109 - HRV V,,SAN JOSE DEL MONTE,,,PH,87026350,,Mo-Sa 07:00-19:00; Su 08:00-17:00,MoneyGram,Q1944412
73905899,moneygram,HL VILLARICA PAWNSHOP - #PSG027 - HL VIL,,BULAKAN,,,PH,87026350,,Mo-Sa 07:00-19:00; Su 08:00-17:00,MoneyGram,Q1944412
71853956,moneygram,TAMBUNTING - BULACAN - PLARIDEL,,BULACAN,,,PH,8190393,,Mo-Su 07:30-18:30,MoneyGram,Q1944412
72785120,moneygram,TAMBUNTING SINCE 1906 - A BULACAN,,BULACAN,,,PH,85516032,,Mo-Su 07:30-22:00,MoneyGram,Q1944412
70160792,moneygram,CEBUANA LHUILLIER - CLH BULACAN,,BULAKAN,,,PH,27799800,,Mo-Su 08:00-19:00,MoneyGram,Q1944412
73990668,moneygram,PALAWAN PAWNSHOP - #FFM - BULAKAN - BULA,,BULAKAN,,,PH,+63 48 433 4110,,Mo-Su 08:00-17:30,MoneyGram,Q1944412
74034031,moneygram,PALAWAN PAWNSHOP - #FFM - BULAKAN - BULA,,BULAKAN,,,PH,+63 48 433 4110,,Mo-Su 08:00-17:30,MoneyGram,Q1944412
74528945,moneygram,DLBB PAWNSHOP BAGUMBAYAN - #75004 - BULA,,BULACAN,,,PH,+63 933 480 0770,,Mo-Su 08:00-19:00,MoneyGram,Q1944412
74708671,moneygram,RURAL BANK OF SAN PASCUAL - #46437 - BUL,,BULACAN,,,PH,02887100813,,Mo-Sa 08:00-18:00; Su 08:00-17:00,MoneyGram,Q1944412
70768673,moneygram,PALAWAN PAWNSHOP - #DCF - BULACAN - BULA,,BULACAN,,,PH,+63 48 433 4110,,Mo-Su 08:00-17:30,MoneyGram,Q1944412
70992850,moneygram,PALAWAN PAWNSHOP - BULACAN- MEYCAUAYAN C,,BULACAN,,,PH,+63 48 433 4110,,Mo-Su 08:00-17:30,MoneyGram,Q1944412
71094401,moneygram,BDO - #1223 - SM CENTER PULILAN,,BULACAN,,,PH,27026350,,Mo-Su 10:00-19:30,MoneyGram,Q1944412
65266384,moneygram,BDO - #328 - MEYCAUAYAN - ZAMORA,,BULACAN,,,PH,63978409140,,Mo-Fr 08:30-18:00; Sa-Su 00:00-24:00,MoneyGram,Q1944412
65265631,moneygram,BDO - #584 - BULACAN - PULILAN,,BULACAN,,,PH,63977950025,,Mo-Fr 08:30-18:00; Sa-Su 00:00-24:00,MoneyGram,Q1944412
65265644,moneygram,BDO - #524 - BULACAN - BALAGTAS,,BULACAN,,,PH,+63 44 693 1685,,Mo-Sa 08:30-17:30; Su 00:00-24:00,MoneyGram,Q1944412
65265657,moneygram,BDO - #585 - BULACAN STA. MARIA - M.G. D,,BULACAN,,,PH,+63 44 411 1578,,Mo-Fr 08:30-18:00; Sa 08:30-17:30; Su 00:00-24:00,MoneyGram,Q1944412
65628993,moneygram,BDO - #679 - WALTERMART - STA. MARIA,,STA MARIA,,,PH,6327026350,,Mo-Su 09:00-18:30,MoneyGram,Q1944412
65863172,moneygram,SM FOREX GLOBAL PINOY - #FG838 - MARILAO,,BULACAN,,,PH,702635050090,,Mo-Su 10:00-20:30,MoneyGram,Q1944412
66379131,moneygram,M LHUILLIER - BULAKAN BULACAN,,BULAKAN,,,PH,+63 32 348 9400,,Mo-Su 07:00-19:00,MoneyGram,Q1944412
66500256,moneygram,M LHUILLIER - NORZAGARAY BULACAN,,BULACAN,,,PH,+63 32 348 9400,,Mo-Su 07:00-18:00,MoneyGram,Q1944412
67246904,moneygram,BDO - #252 - BALIWAG - JP RIZAL,,BULACAN,,,PH,+63 44 766 1185,,Mo-Fr 08:30-18:00; Sa-Su 00:00-24:00,MoneyGram,Q1944412
67246917,moneygram,BDO - #257 - BULACAN STA. MARIA - GOV. F,,BULACAN,,,PH,+63 44 815 4153,,Mo-Fr 08:30-17:30; Sa-Su 00:00-24:00,MoneyGram,Q1944412
71232674,moneygram,BANCO DE ORO UNIBANK - #1226 - BULACAN -,,BULACAN,,,PH,27026350,,Mo-Sa 09:00-18:30; Su 00:00-24:00,MoneyGram,Q1944412
