Ref,Spider,Name,Address,City,State,Zipcode,Country,Phone,Website,Hours,Brand,WikiData
bronx-college-brown-student-center,aubonpain,Au Bon Pain,,Bronx,NY,,US,+1 718-289-5199,https://www.aubonpain.com/stores/bronx-college-brown-student-center,Mo-Fr 08:00-18:00,Au Bon Pain,Q4818942
4726,autozone_us,AutoZone Auto Parts Bronx,,Bronx,NY,,US,+1 718-220-5468,https://www.autozone.com/locations/ny/bronx/2102-jerome-ave.html,Mo-Sa 07:30-21:00; Su 08:00-21:00,AutoZone,Q4826087
https://locations.baskinrobbins.com/ny/bronx/1733-jerome-avenue-337531-br,baskin_robbins_us,Baskin-Robbinsâ„¢,,Bronx,NY,,US,+1 718-731-2200,https://locations.baskinrobbins.com/ny/bronx/1733-jerome-avenue-337531-br,Mo-Su 05:00-21:00,Baskin-Robbins,Q584601
13113070777401045300100000000000,bp,BP,,Bronx,NY,,US,+1 718-466-2798,,24/7,BP,Q152057
25043766,chase_us,Burnside Ave - New branch,,Bronx,NY,,US,+1 718-295-3338,https://locator.chase.com/ny/bronx/7-e-burnside-ave,Mo-Fr 09:00-17:00; Sa 09:00-14:00,Chase,Q524629
2041674,chase_us,University Heights - New branch,,Bronx,NY,,US,+1 718-294-1166,https://locator.chase.com/ny/bronx/1755-university-ave,Mo-Fr 09:00-17:00; Sa 09:00-14:00,Chase,Q524629
53832,citi,ATM Digital Zone 2,,Bronx,NY,,US,,,,Citibank,Q857063
64984,citi,ATM Mcdonalds,,Bronx,NY,,US,,,,Citibank,Q857063
64969,citi,ATM Mcdonalds,,Bronx,NY,,US,,,,Citibank,Q857063
26677,citi,ATM 7ELEVEN-FCTI,,Bronx,NY,,US,,,,Citibank,Q857063
3536,dominos_pizza_us,Domino's Pizza,,Bronx,NY,,US,+1 718-365-3599,https://pizza.dominos.com/new-york/bronx/2075-jerome-ave,Mo-Th 10:30-24:00; Fr-Sa 10:30-01:00; Su 10:30-24:00,Domino's,Q839466
337531,dunkin_us,Dunkin',,Bronx,NY,,US,+1 718-731-2200,https://locations.dunkindonuts.com/en/ny/bronx/1733-jerome-avenue/337531,Mo-Su 05:00-21:00,Dunkin',Q847743
338596,dunkin_us,Dunkin',,Bronx,NY,,US,+1 718-294-5780,https://locations.dunkindonuts.com/en/ny/bronx/26-burnside-ave/338596,Mo-Fr 06:00-20:00; Sa 06:00-19:00; Su 06:00-18:00,Dunkin',Q847743
1000000942,extra_space_storage,Bronx Self Storage at 2165 Jerome Ave,,Bronx,NY,,US,+1 718-220-3881,https://www.extraspace.com/storage/facilities/us/new_york/bronx/1000000942/,Mo-Fr 09:30-19:00; Sa 08:00-19:00; Su 10:00-16:00,Extra Space Storage,Q5422162
32473,family_dollar_us,FAMILY DOLLAR #12473,,Bronx,NY,,US,+1 347-814-1062,https://www.familydollar.com/locations/ny/bronx/32473/,Mo-Su 08:00-22:00,Family Dollar,Q5433101
30387,h_r_block,H&R Block,,Bronx,NY,,US,+1 718-329-8632,https://www.hrblock.com/local-tax-offices/new-york/bronx/2054-jerome-ave/30387/,,H&R Block,Q5627799
2526,key_food_us,Food Universe,,Bronx,NY,,US,+1 718-295-2776,https://fooduniverse.keyfood.com/store/store/2526,Mo-Sa 08:00-21:00; Su 08:00-19:00,Food Universe,
72362,lukoil,58873,"2173 Grand Concourse, Bronx, NY, 10453",Bronx,NY,,US,,,24/7,Lukoil,Q329347
74223392,moneygram,R & M ZERACED MULTI SERVICE INC - #50 -,,BRONX,NY,,US,+1 646-982-5849,,Mo-Sa 10:00-21:00; Su 10:00-19:00,MoneyGram,Q1944412
FXR,new_york_public_library,Francis Martin Library,,Bronx,NY,,US,+1 718-295-5287,https://www.nypl.org/about/locations/,Mo-Th 11:00-19:00; Fr 10:00-18:00; Sa 10:00-17:00,The New York Public Library,Q219555
SD,new_york_public_library,Sedgwick Library,,Bronx,NY,,US,+1 718-731-2074,https://www.nypl.org/about/locations/,Mo-Fr 10:00-18:00; Sa 10:00-17:00,The New York Public Library,Q219555
https://locations.papajohns.com/#10692639,papa_johns,Papa John's,,Bronx,NY,,US,+1 718-295-7272,https://locations.papajohns.com/united-states/ny/10453/bronx/1979-jerome-ave,Mo-Th 11:00-02:00; Fr-Sa 11:00-03:00; Su 11:00-02:00,Papa John's Pizza,Q2759586
restaurant_83367,popeyes_us_fr,Popeyes,"2195 Grand Concourse Bronx, New York 10453 - USA",Bronx,NY,,US,+1 718-220-5606,https://www.popeyes.com/store-locator/store/restaurant_83367,Mo-Su 10:30-23:00,Popeyes,Q1330910
https://restaurants.subway.com/#14896823,subway,Subway,,Bronx Bronx,NY,,US,+1 718-220-6319,https://restaurants.subway.com/united-states/ny/bronx/2052-jerome-ave,Mo-Sa 07:00-22:00; Su 08:00-21:00,Subway,Q244457
0007553196,sunoco_us,Sunoco,,BRONX,NY,,US,+1 718-583-5571,,24/7,Sunoco,Q1423218
https://locations.tacobell.com/#12552811,taco_bell,Taco Bell,,Bronx,NY,,US,+1 718-618-7490,https://locations.tacobell.com/ny/bronx/2036-jerome-avenue.html,,Taco Bell,Q752941
9182,tmobile_us,E Burnside & Morris Ave,,Bronx,NY,,US,+1 718-365-3510,https://www.t-mobile.com/store-locator/ny/bronx/e-burnside-morris-ave,,T-Mobile,Q3511885
1373826,usps,MORRIS HEIGHTS,,BRONX,NY,,US,+1 718-583-0669,,Mo-Fr 09:00-17:00; Sa 09:00-14:00,United States Postal Service,Q668687
1045300008,usps_collection_boxes,USPS COLLECTION BOX - BLUE BOX,1600 SEDGWICK AVE,BRONX,NY,,US,,,,United States Postal Service,Q668687
1045300007,usps_collection_boxes,USPS COLLECTION BOX - BLUE BOX,1590 UNDERCLIFF AVE,BRONX,NY,,US,,,,United States Postal Service,Q668687
1045300048,usps_collection_boxes,USPS COLLECTION BOX - BLUE BOX,1655 UNDERCLIFF AVE,BRONX,NY,,US,,,,United States Postal Service,Q668687
1045300034,usps_collection_boxes,USPS COLLECTION BOX - BLUE BOX,1710 MONTGOMERY AVE,BRONX,NY,,US,,,,United States Postal Service,Q668687
1045300020,usps_collection_boxes,USPS COLLECTION BOX - BLUE BOX,35 RICHMAN PLZ,BRONX,NY,,US,,,,United States Postal Service,Q668687
1045300038,usps_collection_boxes,USPS COLLECTION BOX - BLUE BOX,1729 MACOMBS RD,BRONX,NY,,US,,,,United States Postal Service,Q668687
1045300033,usps_collection_boxes,USPS COLLECTION BOX - BLUE BOX,1645 GRAND AVE,BRONX,NY,,US,,,,United States Postal Service,Q668687
1045300019,usps_collection_boxes,USPS COLLECTION BOX - BLUE BOX,228 W TREMONT AVE,BRONX,NY,,US,,,,United States Postal Service,Q668687
1045300022,usps_collection_boxes,USPS COLLECTION BOX - BLUE BOX,1700 JEROME AVE,BRONX,NY,,US,,,,United States Postal Service,Q668687
1045300005,usps_collection_boxes,USPS COLLECTION BOX - BLUE BOX,125 W TREMONT AVE,BRONX,NY,,US,,,,United States Postal Service,Q668687
1045300016,usps_collection_boxes,USPS COLLECTION BOX - BLUE BOX,1962 UNIV AVE,BRONX,NY,,US,,,,United States Postal Service,Q668687
1045300051,usps_collection_boxes,USPS COLLECTION BOX - BLUE BOX,1900 JEROME AVE,BRONX,NY,,US,,,,United States Postal Service,Q668687
1045300025,usps_collection_boxes,USPS COLLECTION BOX - BLUE BOX,1895 WALTON AVE,BRONX,NY,,US,,,,United States Postal Service,Q668687
1045300053,usps_collection_boxes,USPS COLLECTION BOX - PO LOBBY,2024 JEROME AVE,BRONX,NY,,US,,,,United States Postal Service,Q668687
1045300050,usps_collection_boxes,USPS COLLECTION BOX - PO LOBBY,2024 JEROME AVE,BRONX,NY,,US,,,,United States Postal Service,Q668687
1045300021,usps_collection_boxes,USPS COLLECTION BOX - BLUE BOX,101 W 181 ST,BRONX,NY,,US,,,,United States Postal Service,Q668687
1045300032,usps_collection_boxes,USPS COLLECTION BOX - BLUE BOX,2181 DR MARTIN L KING JR BLVD,BRONX,NY,,US,,,,United States Postal Service,Q668687
1045300012,usps_collection_boxes,USPS COLLECTION BOX - BLUE BOX,1775 GRAND CONCOURSE,BRONX,NY,,US,,,,United States Postal Service,Q668687
1045300047,usps_collection_boxes,USPS COLLECTION BOX - BLUE BOX,1963 GRAND CONCOURSE,BRONX,NY,,US,,,,United States Postal Service,Q668687
1045300036,usps_collection_boxes,USPS COLLECTION BOX - BLUE BOX,2200 GRAND AVE,BRONX,NY,,US,,,,United States Postal Service,Q668687
1045300044,usps_collection_boxes,USPS COLLECTION BOX - BLUE BOX,123 W 183RD ST,BRONX,NY,,US,,,,United States Postal Service,Q668687
1045300037,usps_collection_boxes,USPS COLLECTION BOX - BLUE BOX,86 W 183RD ST,BRONX,NY,,US,,,,United States Postal Service,Q668687
1045300027,usps_collection_boxes,USPS COLLECTION BOX - BLUE BOX,2155 GRAND CONCOURSE,BRONX,NY,,US,,,,United States Postal Service,Q668687
,visa,,,BRONX,NY,,US,,,,,
,visa,,,BRONX,NY,,US,,,,,
,visa,,,BRONX,NY,,US,,,,,
,visa,,,BRONX,NY,,US,,,,,
,visa,,,BRONX,NY,,US,,,,,
,visa,,,BRONX,NY,,US,,,,,
,visa,,,BRONX,NY,,US,,,,,
,visa,,,BRONX,NY,,US,,,,,
,visa,,,BRONX,NY,,US,,,,,
,visa,,,BRONX,NY,,US,,,,,
,visa,,,BRONX,NY,,US,,,,,
,visa,,,BRONX,NY,,US,,,,,
,visa,,,BRONX,NY,,US,,,,,
,visa,,,BRONX,NY,,US,,,,,
,visa,,,BRONX,NY,,US,,,,,
,visa,,,BRONX,NY,,US,,,,,
,visa,,,BRONX,NY,,US,,,,,
,visa,,,BRONX,NY,,US,,,,,
,visa,,,BRONX,NY,,US,,,,,
,visa,,,BRONX,NY,,US,,,,,
,visa,,,BRONX,NY,,US,,,,,
,visa,,,BRONX,NY,,US,,,,,
,visa,,,BRONX,NY,,US,,,,,
,visa,,,BRONX,NY,,US,,,,,
,visa,,,BRONX,NY,,US,,,,,
,visa,,,BRONX,NY,,US,,,,,
,visa,,,BRONX,NY,,US,,,,,
,visa,,,BRONX,NY,,US,,,,,
,visa,,,BRONX,NY,,US,,,,,
,visa,,,BRONX,NY,,US,,,,,
,visa,,,BRONX,NY,,US,,,,,
,visa,,,BRONX,NY,,US,,,,,
,visa,,,BRONX,NY,,US,,,,,
,visa,,,BRONX,NY,,US,,,,,
,visa,,,BRONX,NY,,US,,,,,
,visa,,,BRONX,NY,,US,,,,,
,visa,,,BRONX,NY,,US,,,,,
,visa,,,BRONX,NY,,US,,,,,
,visa,,,BRONX,NY,,US,,,,,
,visa,,,BRONX,NY,,US,,,,,
,visa,,,BRONX,NY,,US,,,,,
,visa,,,BRONX,NY,,US,,,,,
,visa,,,BRONX,NY,,US,,,,,
,visa,,,BRONX,NY,,US,,,,,
,visa,,,BRONX,NY,,US,,,,,
,visa,,,BRONX,NY,,US,,,,,
,visa,,,BRONX,NY,,US,,,,,
,visa,,,BRONX,NY,,US,,,,,
,visa,,,BRONX,NY,,US,,,,,
,visa,,,BRONX,NY,,US,,,,,
,visa,,,BRONX,NY,,US,,,,,
,visa,,,BRONX,NY,,US,,,,,
,visa,,,BRONX,NY,,US,,,,,
,visa,,,BRONX,NY,,US,,,,,
,visa,,,BRONX,NY,,US,,,,,
,visa,,,BRONX,NY,,US,,,,,
,visa,,,BRONX,NY,,US,,,,,
,visa,,,BRONX,NY,,US,,,,,
,visa,,,BRONX,NY,,US,,,,,
,visa,,,BRONX,NY,,US,,,,,
,visa,,,BRONX,NY,,US,,,,,
,visa,,,BRONX,NY,,US,,,,,
,visa,,,BRONX,NY,,US,,,,,
,visa,,,BRONX,NY,,US,,,,,
,visa,,,BRONX,NY,,US,,,,,
,visa,,,BRONX,NY,,US,,,,,
,visa,,,BRONX,NY,,US,,,,,
,visa,,,BRONX,NY,,US,,,,,
,visa,,,BRONX,NY,,US,,,,,
,visa,,,BRONX,NY,,US,,,,,
,visa,,,BRONX,NY,,US,,,,,
,visa,,,BRONX,NY,,US,,,,,
,visa,,,BRONX,NY,,US,,,,,
,visa,,,BRONX,NY,,US,,,,,
,visa,,,BRONX,NY,,US,,,,,
,visa,,,BRONX,NY,,US,,,,,
,visa,,,BRONX,NY,,US,,,,,
,visa,,,BRONX,NY,,US,,,,,
,visa,,,BRONX,NY,,US,,,,,
,visa,,,BRONX,NY,,US,,,,,
,visa,,,BRONX,NY,,US,,,,,
,visa,,,BRONX,NY,,US,,,,,
,visa,,,BRONX,NY,,US,,,,,
,visa,,,BRONX,NY,,US,,,,,
,visa,,,BRONX,NY,,US,,,,,
,visa,,,BRONX,NY,,US,,,,,
,visa,,,BRONX,NY,,US,,,,,
,visa,,,BRONX,NY,,US,,,,,
,visa,,,BRONX,NY,,US,,,,,
,visa,,,BRONX,NY,,US,,,,,
,visa,,,BRONX,NY,,US,,,,,
,visa,,,BRONX,NY,,US,,,,,
,visa,,,BRONX,NY,,US,,,,,
,visa,,,BRONX,NY,,US,,,,,
,visa,,,BRONX,NY,,US,,,,,
,visa,,,BRONX,NY,,US,,,,,
,visa,,,BRONX,NY,,US,,,,,
,visa,,,BRONX,NY,,US,,,,,
,visa,,,BRONX,NY,,US,,,,,
,visa,,,BRONX,NY,,US,,,,,
,visa,,,BRONX,NY,,US,,,,,
,visa,,,BRONX,NY,,US,,,,,
,visa,,,BRONX,NY,,US,,,,,
,visa,,,BRONX,NY,,US,,,,,
,visa,,,BRONX,NY,,US,,,,,
,visa,,,BRONX,NY,,US,,,,,
,visa,,,BRONX,NY,,US,,,,,
,visa,,,BRONX,NY,,US,,,,,
,visa,,,BRONX,NY,,US,,,,,
,visa,,,BRONX,NY,,US,,,,,
,visa,,,BRONX,NY,,US,,,,,
,visa,,,BRONX,NY,,US,,,,,
,visa,,,BRONX,NY,,US,,,,,
,visa,,,BRONX,NY,,US,,,,,
,visa,,,BRONX,NY,,US,,,,,
,visa,,,BRONX,NY,,US,,,,,
,visa,,,BRONX,NY,,US,,,,,
,visa,,,BRONX,NY,,US,,,,,
,visa,,,BRONX,NY,,US,,,,,
,visa,,,BRONX,NY,,US,,,,,
,visa,,,BONX,NY,,US,,,,,
,visa,,,BRONX,NY,,US,,,,,
,visa,,,NEW YORK,NY,,US,,,,,
,visa,,,BRONX,NY,,US,,,,,
,visa,,,BRONX,NY,,US,,,,,
,visa,,,BRONX,NY,,US,,,,,
,visa,,,BRONX,NY,,US,,,,,
,visa,,,BRONX,NY,,US,,,,,
,visa,,,BRONX,NY,,US,,,,,
,visa,,,BRONX,NY,,US,,,,,
,visa,,,BRONX,NY,,US,,,,,
,visa,,,BRONX,NY,,US,,,,,
,visa,,,BRONX,NY,,US,,,,,
,visa,,,BRONX,NY,,US,,,,,
,visa,,,BRONX,NY,,US,,,,,
,visa,,,BRONX,NY,,US,,,,,
,visa,,,BRONX,NY,,US,,,,,
,visa,,,BRONX,NY,,US,,,,,
,visa,,,BRONX,NY,,US,,,,,
,visa,,,BRONX,NY,,US,,,,,
,visa,,,BRONX,NY,,US,,,,,
,visa,,,BRONX,NY,,US,,,,,
,visa,,,BRONX,NY,,US,,,,,
,visa,,,BRONX,NY,,US,,,,,
,visa,,,BRONX,NY,,US,,,,,
,visa,,,BRONX,NY,,US,,,,,
,visa,,,BRONX,NY,,US,,,,,
,visa,,,BRONX,NY,,US,,,,,
,visa,,,BRONX,NY,,US,,,,,
,visa,,,BRONX,NY,,US,,,,,
,visa,,,BRONX,NY,,US,,,,,
,visa,,,BRONX,NY,,US,,,,,
,visa,,,BRONX,NY,,US,,,,,
,visa,,,BRONX,NY,,US,,,,,
,visa,,,BRONX,NY,,US,,,,,
,visa,,,BRONXVILLE,NY,,US,,,,,
,visa,,,BRONX,NY,,US,,,,,
,visa,,,BRONX,NY,,US,,,,,
,visa,,,BRONX,NY,,US,,,,,
,visa,,,BRONX,NY,,US,,,,,
,visa,,,BRONX,NY,,US,,,,,
,visa,,,BRONX,NY,,US,,,,,
,visa,,,BRONX,NY,,US,,,,,
,visa,,,BRONX,NY,,US,,,,,
,visa,,,BRONX,NY,,US,,,,,
,visa,,,BRONX,NY,,US,,,,,
,visa,,,BRONX,NY,,US,,,,,
,visa,,,BRONX,NY,,US,,,,,
,visa,,,BRONX,NY,,US,,,,,
,visa,,,BRONX,NY,,US,,,,,
,visa,,,BRONX,NY,,US,,,,,
,visa,,,BRONX,NY,,US,,,,,
,visa,,,BRONX,NY,,US,,,,,
,visa,,,BRONX,NY,,US,,,,,
,visa,,,BRONX,NY,,US,,,,,
,visa,,,BRONX,NY,,US,,,,,
,visa,,,BRONX,NY,,US,,,,,
,visa,,,BRONX,NY,,US,,,,,
,visa,,,BRONX,NY,,US,,,,,
,visa,,,BRONX,NY,,US,,,,,
,visa,,,BRONX,NY,,US,,,,,
,visa,,,BRONX,NY,,US,,,,,
,visa,,,BRONX,NY,,US,,,,,
,visa,,,BRONX,NY,,US,,,,,
,visa,,,BRONX,NY,,US,,,,,
,visa,,,BRONX,NY,,US,,,,,
,visa,,,BRONX,NY,,US,,,,,
,visa,,,BRONX,NY,,US,,,,,
,visa,,,BRONX,NY,,US,,,,,
,visa,,,BRONX,NY,,US,,,,,
,visa,,,BRONX,NY,,US,,,,,
,visa,,,BRONX,NY,,US,,,,,
,visa,,,BRONX,NY,,US,,,,,
,visa,,,BRONX,NY,,US,,,,,
,visa,,,BRONX,NY,,US,,,,,
,visa,,,BRONX,NY,,US,,,,,
,visa,,,BRONX,NY,,US,,,,,
,visa,,,BRONX,NY,,US,,,,,
,visa,,,BRONX,NY,,US,,,,,
,visa,,,BRONX,NY,,US,,,,,
,visa,,,BRONX,NY,,US,,,,,
,visa,,,BRONX,NY,,US,,,,,
,visa,,,BRONX,NY,,US,,,,,
,visa,,,BRONX,NY,,US,,,,,
,visa,,,BRONX,NY,,US,,,,,
,visa,,,BRONX,NY,,US,,,,,
,visa,,,BRONX,NY,,US,,,,,
,visa,,,BRONX,NY,,US,,,,,
,visa,,,BRONX,NY,,US,,,,,
,visa,,,BRONX,NY,,US,,,,,
,visa,,,BRONX,NY,,US,,,,,
,visa,,,BRONX,NY,,US,,,,,
,visa,,,BRONX,NY,,US,,,,,
,visa,,,BRONX,NY,,US,,,,,
,visa,,,BRONX,NY,,US,,,,,
,visa,,,BRONX,NY,,US,,,,,
,visa,,,BRONX,NY,,US,,,,,
,visa,,,BRONX,NY,,US,,,,,
,visa,,,BRONX,NY,,US,,,,,
,visa,,,BRONX,NY,,US,,,,,
,visa,,,BRONX,NY,,US,,,,,
,visa,,,BRONX,NY,,US,,,,,
,visa,,,BRONX,NY,,US,,,,,
,visa,,,BRONX,NY,,US,,,,,
,visa,,,BRONX,NY,,US,,,,,
,visa,,,BRONX,NY,,US,,,,,
,visa,,,BRONX,NY,,US,,,,,
,visa,,,BRONX,NY,,US,,,,,
,visa,,,BRONX,NY,,US,,,,,
,visa,,,BRONX,NY,,US,,,,,
,visa,,,BRONX,NY,,US,,,,,
,visa,,,BRONX,NY,,US,,,,,
,visa,,,BRONX,NY,,US,,,,,
,visa,,,BRONX,NY,,US,,,,,
,visa,,,BRONX,NY,,US,,,,,
,visa,,,BRONX,NY,,US,,,,,
,visa,,,BRONX,NY,,US,,,,,
,visa,,,BRONX,NY,,US,,,,,
,visa,,,BRONX,NY,,US,,,,,
,visa,,,BRONX,NY,,US,,,,,
,visa,,,BRONX,NY,,US,,,,,
,visa,,,BRONX,NY,,US,,,,,
,visa,,,BRONX,NY,,US,,,,,
,visa,,,BRONX,NY,,US,,,,,
,visa,,,BRONX,NY,,US,,,,,
,visa,,,BRONX,NY,,US,,,,,
,visa,,,BRONX,NY,,US,,,,,
,visa,,,BRONX,NY,,US,,,,,
,visa,,,BRONX,NY,,US,,,,,
,visa,,,BRONX,NY,,US,,,,,
,visa,,,BRONX,NY,,US,,,,,
,visa,,,BRONX,NY,,US,,,,,
,visa,,,BRONX,NY,,US,,,,,
,visa,,,BRONX,NY,,US,,,,,
,visa,,,BRONX,NY,,US,,,,,
,visa,,,BRONX,NY,,US,,,,,
,visa,,,BRONX,NY,,US,,,,,
,visa,,,BRONX,NY,,US,,,,,
,visa,,,BRONX,NY,,US,,,,,
,visa,,,BRONX,NY,,US,,,,,
,visa,,,BRONX,NY,,US,,,,,
,visa,,,BRONX,NY,,US,,,,,
,visa,,,BRONX,NY,,US,,,,,
,visa,,,BRONX,NY,,US,,,,,
,visa,,,BRONX,NY,,US,,,,,
,visa,,,BRONX,NY,,US,,,,,
,visa,,,BRONX,NY,,US,,,,,
,visa,,,BRONX,NY,,US,,,,,
,visa,,,BRONX,NY,,US,,,,,
,visa,,,BRONX,NY,,US,,,,,
,visa,,,BRONX,NY,,US,,,,,
,visa,,,BRONX,NY,,US,,,,,
,visa,,,BRONX,NY,,US,,,,,
,visa,,,BRONX,NY,,US,,,,,
,visa,,,BRONX,NY,,US,,,,,
,visa,,,BRONX,NY,,US,,,,,
,visa,,,BRONX,NY,,US,,,,,
,visa,,,BRONX,NY,,US,,,,,
,visa,,,BRONX,NY,,US,,,,,
,visa,,,BRONX,NY,,US,,,,,
,visa,,,BRONX,NY,,US,,,,,
,visa,,,BRONX,NY,,US,,,,,
,visa,,,BRONXVILLE,NY,,US,,,,,
,visa,,,BRONX,NY,,US,,,,,
,visa,,,BRONX,NY,,US,,,,,
,visa,,,BRONX,NY,,US,,,,,
,visa,,,BRONX,NY,,US,,,,,
,visa,,,BRONX,NY,,US,,,,,
,visa,,,BRONX,NY,,US,,,,,
,visa,,,BRONX,NY,,US,,,,,
,visa,,,BRONX,NY,,US,,,,,
,visa,,,BRONX,NY,,US,,,,,
,visa,,,BRONX,NY,,US,,,,,
,visa,,,BRONX,NY,,US,,,,,
,visa,,,BRONX,NY,,US,,,,,
,visa,,,BRONX,NY,,US,,,,,
,visa,,,BRONX,NY,,US,,,,,
,visa,,,BRONX,NY,,US,,,,,
,visa,,,BRONX,NY,,US,,,,,
,visa,,,BRONX,NY,,US,,,,,
,visa,,,BRONEX,NY,,US,,,,,
,visa,,,BRONX,NY,,US,,,,,
,visa,,,BRONX,NY,,US,,,,,
,visa,,,BRONX,NY,,US,,,,,
,visa,,,BRONX,NY,,US,,,,,
,visa,,,BRONX,NY,,US,,,,,
,visa,,,BRONX,NY,,US,,,,,
,visa,,,BRONX,NY,,US,,,,,
,visa,,,BRONX,NY,,US,,,,,
,visa,,,BRONX,NY,,US,,,,,
,visa,,,BRONX,NY,,US,,,,,
,visa,,,BRONX,NY,,US,,,,,
,visa,,,BRONX,NY,,US,,,,,
,visa,,,BRONX,NY,,US,,,,,
,visa,,,BRON,NY,,US,,,,,
,visa,,,BRONX,NY,,US,,,,,
,visa,,,BRONX,NY,,US,,,,,
,visa,,,BRONX,NY,,US,,,,,
,visa,,,BRONX,NY,,US,,,,,
,visa,,,BRONX,NY,,US,,,,,
,visa,,,BRONX,NY,,US,,,,,
,visa,,,BX,NY,,US,,,,,
,visa,,,BRONX,NY,,US,,,,,
,visa,,,BRONX,NY,,US,,,,,
,visa,,,BRONX,NY,,US,,,,,
,visa,,,BRONX,NY,,US,,,,,
,visa,,,BRONX,NY,,US,,,,,
,visa,,,BRONX,NY,,US,,,,,
,visa,,,BRONX,NY,,US,,,,,
,visa,,,BRONX,NY,,US,,,,,
,visa,,,BRONX,NY,,US,,,,,
,visa,,,BRONX,NY,,US,,,,,
,visa,,,BRONX,NY,,US,,,,,
,visa,,,BRONX,NY,,US,,,,,
,visa,,,BRONX,NY,,US,,,,,
,visa,,,BRONX,NY,,US,,,,,
,visa,,,BRONX,NY,,US,,,,,
,visa,,,BRONX,NY,,US,,,,,
,visa,,,BRONX,NY,,US,,,,,
,visa,,,BRONX,NY,,US,,,,,
,visa,,,BRONX,NY,,US,,,,,
,visa,,,BRONX,NY,,US,,,,,
,visa,,,BRONX,NY,,US,,,,,
,visa,,,BRONX,NY,,US,,,,,
,visa,,,BRONX,NY,,US,,,,,
,visa,,,BRONX,NY,,US,,,,,
,visa,,,BRONX,NY,,US,,,,,
,visa,,,BRONX,NY,,US,,,,,
,visa,,,BRONX,NY,,US,,,,,
,visa,,,BRONX,NY,,US,,,,,
8cbd1c1a07c0c7e2ed3b6bf35d91445e,western_union,ALMEDA INSURANCE AGENCY INC,,Bronx,NY,,US,+1 718-532-6000,https://location.westernunion.com/us/ny/bronx/8cbd1c1a07c0c7e2ed3b6bf35d91445e,Mo-Fr 10:00-18:00; Sa 10:00-16:00,Western Union,Q861042
70bee5c92764deb523143eb7a200abc4,western_union,REALTY TAX MULTISERVICES INC,,Bronx,NY,,US,+1 718-220-3690,https://location.westernunion.com/us/ny/bronx/70bee5c92764deb523143eb7a200abc4,Mo-Su 09:00-19:00,Western Union,Q861042
27019,wingstop,Wingstop Bronx E. Burnside Ave.,88 E. Burnside Ave,The Bronx,NY,,US,+1 917-737-7000,,,Wingstop,Q8025339
