Ref,Spider,Name,Address,City,State,Zipcode,Country,Phone,Website,Hours,Brand,WikiData
162730,bluerhino,Family Dollar #00934,,McCormick,SC,,US,+1 864-465-2808,,,Blue Rhino,Q65681213
244188,bluerhino,Thompson Hardware McCormick - Orgill #475277,,McCormick,SC,,US,+1 864-852-2200,,,Blue Rhino,Q65681213
13002,bluerhino,Food Lion #1246,,McCormick,SC,,US,+1 864-465-2730,,,Blue Rhino,Q65681213
27004,burgerking,Burger King,,McCormick,SC,,US,+1 305-413-8174,https://www.bk.com/store-locator/store/restaurant_88855,Mo-Sa 06:00-00:00; Su 07:00-00:00,Burger King,Q177054
20934,family_dollar_us,FAMILY DOLLAR #934,,Mccormick,SC,,US,+1 864-465-4122,https://www.familydollar.com/locations/sc/mccormick/20934/,Mo-Su 08:00-22:00,Family Dollar,Q5433101
https://local.fedex.com/#25230870,fedex,,,Mc Cormick,SC,,US,+1 800-463-3339,https://local.fedex.com/en-us/sc/mc-cormick/agscb,,FedEx,Q459477
311,huddle_house_us,SC - McCormick,,McCormick,SC,,US,+1 864-852-2601,https://www.huddlehouse.com/locations/sc/mccormick/308-south-mine-street,Mo-Th 06:00-22:00; Fr-Sa 06:00-00:00; Su 06:00-22:00,Huddle House,Q5928324
3,south_carolina,Baker Creek State Park,"863 Baker Creek Rd, McCormick, SC",,SC,,US,+1 864-443-2457,,,,Q1456
143,south_carolina,McCormick DMV,"504 Airport Rd Suite A, McCormick, SC",,SC,,US,+1 864-465-3229,,,,Q1456
191,south_carolina,McCormick County Courthouse,"133 S Mine St #102, McCormick, SC",,SC,,US,+1 864-852-2195,,,,Q1456
214,south_carolina,McCormick Mental Health Clinic,"202 Hwy 28 S, McCormick, SC",,SC,,US,+1 864-465-2412,,,,Q1456
274,south_carolina,McCormick Center,"109 W Augusta St, McCormick, SC",,SC,,US,+1 864-852-3649,,,,Q1456
344,south_carolina,McCormick County DHHS,"204 Hwy 28 S, McCormick, SC",,SC,,US,+1 864-852-2511,,,,Q1456
https://restaurants.subway.com/#14907237,subway,Subway,,McCormick McCormick,SC,,US,+1 864-852-3224,https://restaurants.subway.com/united-states/sc/mccormick/201-south-mine-street,Mo-Su 08:00-21:00,Subway,Q244457
1372411,usps,MC CORMICK,,MC CORMICK,SC,,US,+1 864-465-3696,,Mo-Tu 08:30-16:45; We 08:30-12:00; Th-Fr 08:30-16:45; Sa 09:00-11:45,United States Postal Service,Q668687
2983500003,usps_collection_boxes,USPS COLLECTION BOX - PO LOBBY,201 N PINE ST,MCCORMICK,SC,,US,,,,United States Postal Service,Q668687
2983500007,usps_collection_boxes,USPS COLLECTION BOX - PO LOBBY,201 N PINE ST,MCCORMICK,SC,,US,,,,United States Postal Service,Q668687
2983500004,usps_collection_boxes,USPS COLLECTION BOX - BLUE BOX,201 N PINE ST,MCCORMICK,SC,,US,,,,United States Postal Service,Q668687
,visa,,,NORTH AUGUSTA,SC,,US,,,,,
,visa,,,MCCORMICK,SC,,US,,,,,
,visa,,,MCCORMICK,SC,,US,,,,,
,visa,,,MCCORMICK,SC,,US,,,,,
,visa,,,MCCORMICK,SC,,US,,,,,
,visa,,,MCCORMICK,SC,,US,,,,,
,visa,,,MCCORMICK,SC,,US,,,,,
,visa,,,MCCORMICK,SC,,US,,,,,
,visa,,,MCCORMICK,SC,,US,,,,,
,visa,,,MCCORMICK,SC,,US,,,,,
,visa,,,MCCORMICK,SC,,US,,,,,
,visa,,,MCCORMICK,SC,,US,,,,,
