Ref,Spider,Name,Address,City,State,Zipcode,Country,Phone,Website,Hours,Brand,WikiData
198619,bluerhino,Dollar General #21557,,Newland,NC,,US,+1 828-766-5071,,,Blue Rhino,Q65681213
212706,bluerhino,Family Dollar #702,,Newland,NC,,US,+1 828-278-6360,,,Blue Rhino,Q65681213
nc/newland/205-cranberry-street,bojangles,"Bojangles Newland, NC",,Newland,NC,,US,+1 828-469-7026,https://locations.bojangles.com/nc/newland/205-cranberry-street.html,,Bojangles',Q891163
50285,citi,ATM CVS,,Newland,NC,,US,,,,Citibank,Q857063
14483,dollar_general,Dollar General,,Newland,NC,,US,+1 828-528-1890,https://www.dollargeneral.com/store-directory/nc/newland/14483,Mo-Su 08:00-22:00,Dollar General,Q145168
200328064,exxonmobil,FOOD FARE #3,,NEWLAND,NC,,US,+1 828-742-1330,https://www.exxon.com/en/find-station/exxon-newland-nc-foodfare3-200328064,Mo-Fr 05:30-23:00; Sa 06:00-23:00; Su 06:00-22:00,Exxon,Q109675651
200318459,exxonmobil,THREE MILE QUICK MART,,NEWLAND,NC,,US,+1 828-765-0630,https://www.exxon.com/en/find-station/mobil-newland-nc-threemilequickmart-200318459,Mo-Sa 06:00-00:00; Su 08:00-00:00,Mobil,Q109676002
1505412,hardees_us,Hardee's,,Newland,NC,,US,+1 828-733-5172,https://locations.hardees.com/nc/newland/570-pineola-st,,Hardee's,Q1585088
32244,h_r_block,H&R Block,,Newland,NC,,US,+1 828-733-0272,https://www.hrblock.com/local-tax-offices/north-carolina/newland/1223-elk-park-hwy/32244/,,H&R Block,Q5627799
83,ingles,Newland,,Newland,NC,,US,+1 828-733-6086,https://www.ingles-markets.com/storelocate/storeinfo.php?storenum=83,Mo-Su 07:00-22:00,Ingles,Q6032595
https://office.jacksonhewitt.com/#52049449,jackson_hewitt,Jackson Hewitt,,Newland,NC,,US,+1 828-742-2122,https://office.jacksonhewitt.com/tax-preparation-services-locations/en/nc/newland/1831-millers-gap-highway/14553,Mo-Sa 09:00-15:00,Jackson Hewitt,Q6117132
161280,marathon_petroleum_us,Quick Shop,,Newland,NC,,US,+1 828-733-0294,,,Marathon,Q458363
https://locations.oreillyauto.com/nc/newland/check-engine-light-testing-6542.html,oreilly,Your Newland O'Reilly Auto Parts Store,,Newland,NC,,US,+1 828-737-3001,https://locations.oreillyauto.com/nc/newland/check-engine-light-testing-6542.html,Mo-Sa 07:30-21:00; Su 09:00-18:00,O'Reilly Auto Parts,Q7071951
https://locations.oreillyauto.com/nc/newland/wiper-installation-6542.html,oreilly,Your Newland O'Reilly Auto Parts Store,,Newland,NC,,US,+1 828-737-3001,https://locations.oreillyauto.com/nc/newland/wiper-installation-6542.html,Mo-Sa 07:30-21:00; Su 09:00-18:00,O'Reilly Auto Parts,Q7071951
https://locations.oreillyauto.com/nc/newland/battery-testing-6542.html,oreilly,Your Newland O'Reilly Auto Parts Store,,Newland,NC,,US,+1 828-737-3001,https://locations.oreillyauto.com/nc/newland/battery-testing-6542.html,Mo-Sa 07:30-21:00; Su 09:00-18:00,O'Reilly Auto Parts,Q7071951
https://locations.oreillyauto.com/nc/newland/autopartes-6542.html,oreilly,O'Reilly Auto Parts,,Newland,NC,,US,+1 828-737-3001,https://locations.oreillyauto.com/nc/newland/autopartes-6542.html,Mo-Sa 07:30-21:00; Su 09:00-18:00,O'Reilly Auto Parts,Q7071951
https://restaurants.subway.com/#14898505,subway,Subway Newland Exxon,,Newland Avery,NC,,US,+1 828-733-3588,https://restaurants.subway.com/united-states/nc/newland/100-linville-st,Mo-Fr 09:30-16:00; Sa 10:30-15:00,Subway,Q244457
1374996,usps,NEWLAND,,NEWLAND,NC,,US,+1 828-733-2500,,Mo-Fr 08:30-16:30; Sa 08:30-12:00,United States Postal Service,Q668687
2865700001,usps_collection_boxes,USPS COLLECTION BOX - BLUE BOX,124 ELK ST,NEWLAND,NC,,US,,,,United States Postal Service,Q668687
2865700002,usps_collection_boxes,USPS COLLECTION BOX - PO LOBBY,124 ELK ST,NEWLAND,NC,,US,,,,United States Postal Service,Q668687
2865700005,usps_collection_boxes,USPS COLLECTION BOX - PO LOBBY,124 ELK ST,NEWLAND,NC,,US,,,,United States Postal Service,Q668687
0000005784,valero,Newland Valero,,NEWLAND,NC,,US,+1 828-733-9711,https://locations.valero.com/en-us/LocationDetails/Index/100-LINVILLE-ST/0000005784,,Valero,Q1283291
,visa,,,MAIDEN,NC,,US,,,,,
,visa,,,PINEOLA,NC,,US,,,,,
,visa,,,NEWLAND,NC,,US,,,,,
,visa,,,NEWLAND,NC,,US,,,,,
,visa,,,NEWLAND,NC,,US,,,,,
,visa,,,NEWLAND,NC,,US,,,,,
,visa,,,NEWLAND,NC,,US,,,,,
,visa,,,NEWLAND,NC,,US,,,,,
350__CRANBERRY__ST_NEWLAND_NC_28657,wellsfargo,Wells Fargo,350 CRANBERRY ST,NEWLAND,NC,,US,+1 828-733-9201,https://www.wellsfargo.com/locator/bank/350__CRANBERRY__ST_NEWLAND_NC_28657/,Mo-Fr 09:00-17:00,Wells Fargo,Q744149
