Ref,Spider,Name,Address,City,State,Zipcode,Country,Phone,Website,Hours,Brand,WikiData
,visa,,,EL CARMEN,MANABI,,EC,,,,,
,visa,,,EL CARMEN,MANABI,,EC,,,,,
,visa,,,EL CARMEN,MANABI,,EC,,,,,
,visa,,,FLAVIO ALFARO,MANABI,,EC,,,,,
,visa,,,FLAVIO ALFARO,MANABI,,EC,,,,,
,visa,,,PEDERNALES,MANABI,,EC,,,,,
,visa,,,CHONE,MANABI,,EC,,,,,
,visa,,,CHONE,MANABI,,EC,,,,,
,visa,,,PORTOVIEJO,MANABI,,EC,,,,,
,visa,,,CHONE,MANABI,,EC,,,,,
,visa,,,CHONE,MANABI,,EC,,,,,
,visa,,,PORTOVIEJO,MANABI,,EC,,,,,
,visa,,,TOSAGUA,MANABI,,EC,,,,,
,visa,,,TOSAGUA,MANABI,,EC,,,,,
,visa,,,PORTOVIEJO,MANABI,,EC,,,,,
,visa,,,PORTOVIEJO,MANABI,,EC,,,,,
,visa,,,PORTOVIEJO,MANABI,,EC,,,,,
,visa,,,PORTOVIEJO,MANABI,,EC,,,,,
,visa,,,PORTOVIEJO,MANABI,,EC,,,,,
,visa,,,SANTA ANA,MANABI,,EC,,,,,
,visa,,,SAN VICENTE,MANABI,,EC,,,,,
,visa,,,SUCRE,MANABI,,EC,,,,,
,visa,,,MANTA,MANABI,,EC,,,,,
,visa,,,PAJAN,MANABI,,EC,,,,,
,visa,,,ROCAFUERTE,MANABI,,EC,,,,,
,visa,,,ROCAFUERTE,MANABI,,EC,,,,,
,visa,,,PORTOVIEJO,MANABI,,EC,,,,,
,visa,,,PORTOVIEJO,MANABI,,EC,,,,,
,visa,,,PORTOVIEJO,MANABI,,EC,,,,,
,visa,,,PORTOVIEJO,MANABI,,EC,,,,,
,visa,,,PORTOVIEJO,MANABI,,EC,,,,,
,visa,,,ROCAFUERTE,MANABI,,EC,,,,,
,visa,,,PORTOVIEJO,MANABI,,EC,,,,,
,visa,,,PORTOVIEJO,MANABI,,EC,,,,,
,visa,,,PORTOVIEJO,MANABI,,EC,,,,,
,visa,,,PORTOVIEJO,MANABI,,EC,,,,,
,visa,,,PORTOVIEJO,MANABI,,EC,,,,,
,visa,,,PORTOVIEJO,MANABI,,EC,,,,,
,visa,,,PORTOVIEJO,MANABI,,EC,,,,,
,visa,,,PORTOVIEJO,MANABI,,EC,,,,,
,visa,,,PORTOVIEJO,MANABI,,EC,,,,,
,visa,,,PORTOVIEJO,MANABI,,EC,,,,,
,visa,,,PORTOVIEJO,MANABI,,EC,,,,,
,visa,,,PORTOVIEJO,MANABI,,EC,,,,,
,visa,,,PORTOVIEJO,MANABI,,EC,,,,,
,visa,,,PORTOVIEJO,MANABI,,EC,,,,,
,visa,,,PORTOVIEJO,MANABI,,EC,,,,,
,visa,,,PORTOVIEJO,MANABI,,EC,,,,,
,visa,,,PORTOVIEJO,MANABI,,EC,,,,,
,visa,,,PORTOVIEJO,MANABI,,EC,,,,,
,visa,,,PORTOVIEJO,MANABI,,EC,,,,,
,visa,,,PORTOVIEJO,MANABI,,EC,,,,,
,visa,,,PORTOVIEJO,MANABI,,EC,,,,,
,visa,,,PORTOVIEJO,MANABI,,EC,,,,,
,visa,,,PORTOVIEJO,MANABI,,EC,,,,,
,visa,,,PORTOVIEJO,MANABI,,EC,,,,,
,visa,,,PORTOVIEJO,MANABI,,EC,,,,,
,visa,,,PORTOVIEJO,MANABI,,EC,,,,,
,visa,,,PORTOVIEJO,MANABI,,EC,,,,,
,visa,,,PORTOVIEJO,MANABI,,EC,,,,,
,visa,,,PORTOVIEJO,MANABI,,EC,,,,,
,visa,,,PORTOVIEJO,MANABI,,EC,,,,,
,visa,,,PORTOVIEJO,MANABI,,EC,,,,,
,visa,,,PORTOVIEJO,MANABI,,EC,,,,,
,visa,,,PORTOVIEJO,MANABI,,EC,,,,,
,visa,,,PORTOVIEJO,MANABI,,EC,,,,,
,visa,,,PORTOVIEJO,MANABI,,EC,,,,,
,visa,,,PORTOVIEJO,MANABI,,EC,,,,,
,visa,,,PORTOVIEJO,MANABI,,EC,,,,,
,visa,,,SUCRE,MANABI,,EC,,,,,
,visa,,,PORTOVIEJO,MANABI,,EC,,,,,
,visa,,,PORTOVIEJO,MANABI,,EC,,,,,
,visa,,,PORTOVIEJO,MANABI,,EC,,,,,
,visa,,,PORTOVIEJO,MANABI,,EC,,,,,
,visa,,,JARAMIJO,MANABI,,EC,,,,,
,visa,,,JIPIJAPA,MANABI,,EC,,,,,
,visa,,,JIPIJAPA,MANABI,,EC,,,,,
,visa,,,MONTECRISTI,MANABI,,EC,,,,,
,visa,,,MANTA,MANABI,,EC,,,,,
,visa,,,JIPIJAPA,MANABI,,EC,,,,,
,visa,,,MANTA,MANABI,,EC,,,,,
,visa,,,MONTECRISTI,MANABI,,EC,,,,,
,visa,,,MONTECRISTI,MANABI,,EC,,,,,
,visa,,,MONTECRISTI,MANABI,,EC,,,,,
,visa,,,MONTECRISTI,MANABI,,EC,,,,,
,visa,,,MANTA,MANABI,,EC,,,,,
,visa,,,MANTA,MANABI,,EC,,,,,
,visa,,,MANTA,MANABI,,EC,,,,,
,visa,,,MANTA,MANABI,,EC,,,,,
,visa,,,MANTA,MANABI,,EC,,,,,
,visa,,,MANTA,MANABI,,EC,,,,,
,visa,,,MANTA,MANABI,,EC,,,,,
,visa,,,PORTOVIEJO,MANABI,,EC,,,,,
,visa,,,MANTA,MANABI,,EC,,,,,
,visa,,,MANTA,MANABI,,EC,,,,,
,visa,,,MANTA,MANABI,,EC,,,,,
,visa,,,MANTA,MANABI,,EC,,,,,
,visa,,,MANTA,MANABI,,EC,,,,,
,visa,,,MANTA,MANABI,,EC,,,,,
,visa,,,MANTA,MANABI,,EC,,,,,
,visa,,,MANTA,MANABI,,EC,,,,,
,visa,,,MANTA,MANABI,,EC,,,,,
,visa,,,MANTA,MANABI,,EC,,,,,
,visa,,,MANTA,MANABI,,EC,,,,,
,visa,,,MANTA,MANABI,,EC,,,,,
,visa,,,MANTA,MANABI,,EC,,,,,
,visa,,,MANTA,MANABI,,EC,,,,,
,visa,,,MANTA,MANABI,,EC,,,,,
,visa,,,QUITO,MANABI,,EC,,,,,
,visa,,,MANTA,MANABI,,EC,,,,,
,visa,,,MANTA,MANABI,,EC,,,,,
,visa,,,MANTA,MANABI,,EC,,,,,
,visa,,,MANTA,MANABI,,EC,,,,,
,visa,,,MANTA,MANABI,,EC,,,,,
,visa,,,MANTA,MANABI,,EC,,,,,
,visa,,,MANTA,MANABI,,EC,,,,,
,visa,,,MANTA,MANABI,,EC,,,,,
,visa,,,MANTA,MANABI,,EC,,,,,
,visa,,,MANTA,MANABI,,EC,,,,,
,visa,,,MANTA,MANABI,,EC,,,,,
,visa,,,MANTA,MANABI,,EC,,,,,
,visa,,,MANTA,MANABI,,EC,,,,,
,visa,,,MANTA,MANABI,,EC,,,,,
,visa,,,MANTA,MANABI,,EC,,,,,
,visa,,,MANTA,MANABI,,EC,,,,,
,visa,,,MANTA,MANABI,,EC,,,,,
,visa,,,MANTA,MANABI,,EC,,,,,
,visa,,,MANTA,MANABI,,EC,,,,,
,visa,,,MANTA,MANABI,,EC,,,,,
,visa,,,MANTA,MANABI,,EC,,,,,
,visa,,,MANTA,MANABI,,EC,,,,,
,visa,,,MANTA,MANABI,,EC,,,,,
,visa,,,MANTA,MANABI,,EC,,,,,
,visa,,,MANTA,MANABI,,EC,,,,,
,visa,,,MANTA,MANABI,,EC,,,,,
,visa,,,MANTA,MANABI,,EC,,,,,
,visa,,,MANTA,MANABI,,EC,,,,,
,visa,,,MANTA,MANABI,,EC,,,,,
,visa,,,MANTA,MANABI,,EC,,,,,
,visa,,,MANTA,MANABI,,EC,,,,,
,visa,,,MANTA,MANABI,,EC,,,,,
,visa,,,MANTA,MANABI,,EC,,,,,
,visa,,,MANTA,MANABI,,EC,,,,,
,visa,,,PUERTO LOPEZ,MANABI,,EC,,,,,
,visa,,,MANTA,MANABI,,EC,,,,,
5c908678c59c55820abcacdcdacac98e,western_union,CARRANZA PALACIOS VERONICA DEL ROCIO,,Portoviejo,MANABI,,EC,+593 5-235-6120,https://location.westernunion.com/ec/manabi/portoviejo/5c908678c59c55820abcacdcdacac98e,Mo-Fr 08:00-21:00; Sa-Su 08:00-19:30,Western Union,Q861042
026638e236439a0ae00fe34db742b21f,western_union,CIS PGM FRANCOR,,Puerto Lopez,MANABI,,EC,+593 99 831 7773,https://location.westernunion.com/ec/manabi/puerto-lopez/026638e236439a0ae00fe34db742b21f,Mo-Su 08:30-20:00,Western Union,Q861042
2f09ef01ca3c0684b7a29745b978f7f6,western_union,SRNP TIA 328 PUERTO LOPEZ,,Puerto Bolivar,MANABI,,EC,+593 4-259-8830,https://location.westernunion.com/ec/manabi/puerto-bolivar/2f09ef01ca3c0684b7a29745b978f7f6,Mo-Su 08:00-19:00,Western Union,Q861042
d6830876fd2b000c83a0477fca675be3,western_union,ACTIVA TIA MACHALILLA PUERTO LOPEZ,,Puerto Lopez,MANABI,,EC,+593 1800 937 837,https://location.westernunion.com/ec/manabi/puerto-lopez/d6830876fd2b000c83a0477fca675be3,Mo-Su 09:00-19:00,Western Union,Q861042
7a731bf8e9f7525190a84026f2aa749a,western_union,FM031 MACHALILLA 2 PTO LOPEZ,,Puerto Lopez,MANABI,,EC,+593 4-371-0050,https://location.westernunion.com/ec/manabi/puerto-lopez/7a731bf8e9f7525190a84026f2aa749a,Mo-Su 08:00-21:00,Western Union,Q861042
3ea267105ec5c7a3a30c81eb30ffd714,western_union,ILI FASHION,,Puerto Lopez,MANABI,,EC,+593 5-230-0043,https://location.westernunion.com/ec/manabi/puerto-lopez/3ea267105ec5c7a3a30c81eb30ffd714,Mo-Fr 08:00-20:00; Sa 08:00-18:00,Western Union,Q861042
683406a9bcd6f5cf01ee1654c833e5da,western_union,FM030 MACHALILLA PTO LOPEZ,,Puerto Lopez,MANABI,,EC,+593 4-371-0050,https://location.westernunion.com/ec/manabi/puerto-lopez/683406a9bcd6f5cf01ee1654c833e5da,Mo-Su 08:00-21:00,Western Union,Q861042
2fdc81c8aa485286811e26138ffabfc2,western_union,BANCO D MIRO S A,,Portoviejo,MANABI,,EC,+593 5-265-6726,https://location.westernunion.com/ec/manabi/portoviejo/2fdc81c8aa485286811e26138ffabfc2,Mo-Fr 09:00-17:00,Western Union,Q861042
078e544d290bc593d2d6275a6dddb28b,western_union,FM019 AV GUAYAQUIL PTO MACHALILLA,,Puerto Machalilla,MANABI,,EC,+593 4-371-0050,https://location.westernunion.com/ec/manabi/puerto-machalilla/078e544d290bc593d2d6275a6dddb28b,Mo-Su 08:00-21:00,Western Union,Q861042
98ea7e7929db9ade54a443f42edc96cf,western_union,SRNP TIENDA ANGELITA MANTA,,Manta,MANABI,,EC,+593 4-371-0050,https://location.westernunion.com/ec/manabi/manta/98ea7e7929db9ade54a443f42edc96cf,Mo-Su 08:00-21:00,Western Union,Q861042
d4d034ca6d02c920a79895fd243cdecc,western_union,NATALHY LISBETH MERCHAN PONCE,,Pajan,MANABI,,EC,+593 4-371-0050,https://location.westernunion.com/ec/manabi/pajan/d4d034ca6d02c920a79895fd243cdecc,Mo-Fr 08:00-17:00; Sa-Su 09:00-16:00,Western Union,Q861042
1472137dab2ccf0461de4d7f22649e76,western_union,SRNP LINXNET PAJAN,,Pajan,MANABI,,EC,+593 4-371-0050,https://location.westernunion.com/ec/manabi/pajan/1472137dab2ccf0461de4d7f22649e76,Mo-Su 08:00-21:00,Western Union,Q861042
c71039522df6e5f963d12ca2e27394bb,western_union,FM041 9 DE OCTUBRE PAJAN,,Pajan,MANABI,,EC,+593 4-371-0050,https://location.westernunion.com/ec/manabi/pajan/c71039522df6e5f963d12ca2e27394bb,Mo-Su 08:00-21:00,Western Union,Q861042
e6ee06e2da4f5e4582721493cdf3ed14,western_union,FIGUEROA MACIAS RONALD DANIEL,,Pajan,MANABI,,EC,+593 5-264-9694,https://location.westernunion.com/ec/manabi/pajan/e6ee06e2da4f5e4582721493cdf3ed14,Mo-Su 07:00-19:00,Western Union,Q861042
eda93b8149d7e32f829d8eaa98a2e75e,western_union,SRNP TIA 524 PAJAN,,Pajan,MANABI,,EC,+593 4-371-0050,https://location.westernunion.com/ec/manabi/pajan/eda93b8149d7e32f829d8eaa98a2e75e,Mo-Su 08:00-21:00,Western Union,Q861042
0a492fc777905e507a6afeb62aab0af9,western_union,SRNP DISENSA PAUL CAMPUZANO PAJAN,,Pajan,MANABI,,EC,+593 98 096 5144,https://location.westernunion.com/ec/manabi/pajan/0a492fc777905e507a6afeb62aab0af9,Mo-Su 08:00-21:00,Western Union,Q861042
ab6e4e62031189b10a64fc53e97bc66e,western_union,CIS GDP BETSY CELL,,Pajan,MANABI,,EC,(+593) 9-980691831,https://location.westernunion.com/ec/manabi/pajan/ab6e4e62031189b10a64fc53e97bc66e,Mo-Fr 08:30-19:00; Sa-Su 09:30-18:00,Western Union,Q861042
46e928c589a1c8cadf3d2b8f800909dc,western_union,TIENDA MATEO,,Jipijapa,MANABI,,EC,+593 4-371-0050,https://location.westernunion.com/ec/manabi/jipijapa/46e928c589a1c8cadf3d2b8f800909dc,Mo-Fr 08:00-18:00; Sa 08:00-13:00; Su 08:00-12:00,Western Union,Q861042
6503f6c352c39fb17b5671d9bb68138e,western_union,CIS PAG COAC POR EL PAN Y EL AGUA,,Jipijapa,MANABI,,EC,(+0593) 9-993126372,https://location.westernunion.com/ec/manabi/jipijapa/6503f6c352c39fb17b5671d9bb68138e,Mo-Su 08:00-20:00,Western Union,Q861042
e45e3e196d8a1e1c136c7ddb9715e3c6,western_union,CIS FTO AGENCIA CNT JIPIJAPA,,Jipijapa,MANABI,,EC,(+0593) 9-968490717,https://location.westernunion.com/ec/manabi/jipijapa/e45e3e196d8a1e1c136c7ddb9715e3c6,Mo-Fr 08:00-17:00; Sa 08:00-13:00,Western Union,Q861042
9135ec6204a7a6ff498bf23db73aabfc,western_union,SRNP PLASTICOS DE CESAR JIPIJA,,Jipijapa,MANABI,,EC,+593 99 671 4321,https://location.westernunion.com/ec/manabi/jipijapa/9135ec6204a7a6ff498bf23db73aabfc,Mo-Su 08:00-21:00,Western Union,Q861042
267691b64d244583e02d9bfe6b1f5d87,western_union,FM017 BOLIVAR JIPIJAPA,,Jipijapa,MANABI,,EC,+593 4-371-0050,https://location.westernunion.com/ec/manabi/jipijapa/267691b64d244583e02d9bfe6b1f5d87,Mo-Su 08:00-21:00,Western Union,Q861042
43cce78ba6f632cf041121eac09be96a,western_union,SRNP MINI MARKET LA PARADA MANTA,,Manta,MANABI,,EC,+593 4-371-0050,https://location.westernunion.com/ec/manabi/manta/43cce78ba6f632cf041121eac09be96a,Mo-Su 08:00-21:00,Western Union,Q861042
a6d0906fd0ee11b37711f88d5cc0cef3,western_union,CIS SPA JADRA,,Manta,MANABI,,EC,(+593) 9-995576139,https://location.westernunion.com/ec/manabi/manta/a6d0906fd0ee11b37711f88d5cc0cef3,Mo-Su 09:00-19:00,Western Union,Q861042
5ff8bebcc241a0f594590d42fd92b57b,western_union,FM018 BOLIVAR JIPIJAPA,,Jipijapa,MANABI,,EC,+593 4-371-0050,https://location.westernunion.com/ec/manabi/jipijapa/5ff8bebcc241a0f594590d42fd92b57b,Mo-Su 08:00-21:00,Western Union,Q861042
0945d653af0303830c5e9ad43d378732,western_union,SRNP FE FARM ECO VILLACRESES JIPIJAPA,,Jipijapa,MANABI,,EC,+593 4-371-0050,https://location.westernunion.com/ec/manabi/jipijapa/0945d653af0303830c5e9ad43d378732,Mo-Su 08:00-21:00,Western Union,Q861042
1ec9ce33d050c7cde3a9b48eb93a3d92,western_union,SRNP TIA 139 JIPIJAPA,,Jipijapa,MANABI,,EC,+593 4-259-8830,https://location.westernunion.com/ec/manabi/jipijapa/1ec9ce33d050c7cde3a9b48eb93a3d92,Mo-Su 08:00-19:00,Western Union,Q861042
7c5b54421cefe86383124ba0c24232b9,western_union,ACTIVA CA FARMACIA STA MARTHA JIPIJAPA,,Jipijapa,MANABI,,EC,+593 1800 937 837,https://location.westernunion.com/ec/manabi/jipijapa/7c5b54421cefe86383124ba0c24232b9,Mo-Su 09:00-19:00,Western Union,Q861042
f956f9898f990348057da194e3c9f65a,western_union,FM016 BOLIVAR JIPIJAPA,,Jipijapa,MANABI,,EC,+593 4-371-0050,https://location.westernunion.com/ec/manabi/jipijapa/f956f9898f990348057da194e3c9f65a,Mo-Su 08:00-21:00,Western Union,Q861042
fb7128239f7ee0cbf7637e3bed8ed5bf,western_union,SRNP TIENDA MELANY JIPIJAPA,,Jipijapa,MANABI,,EC,+593 4-371-0050,https://location.westernunion.com/ec/manabi/jipijapa/fb7128239f7ee0cbf7637e3bed8ed5bf,Mo-Su 08:00-21:00,Western Union,Q861042
99da8a969dff649671060a59413f665c,western_union,PINTURAS EL MAESTRO,,Manta,MANABI,,EC,+593 99 265 7589,https://location.westernunion.com/ec/manabi/manta/99da8a969dff649671060a59413f665c,Mo-Su 08:00-18:00,Western Union,Q861042
53996e447f75177e34c881750d15a9d4,western_union,CIS PGM COPIADORA CARLITOS,,Manta,MANABI,,EC,+593 99 467 3076,https://location.westernunion.com/ec/manabi/manta/53996e447f75177e34c881750d15a9d4,Mo-Sa 07:00-18:00,Western Union,Q861042
e851116a9cd3a1b3f18df5e67a29cb48,western_union,MARKET PUERTO BLUE,,Manta,MANABI,,EC,+593 4-371-0050,https://location.westernunion.com/ec/manabi/manta/e851116a9cd3a1b3f18df5e67a29cb48,Mo-Fr 08:00-20:00; Sa-Su 08:00-18:00,Western Union,Q861042
041d9db709e56220d7fd328177c8f720,western_union,SHALOM CELL LEIA,,Manta,MANABI,,EC,+593 4-371-0050,https://location.westernunion.com/ec/manabi/manta/041d9db709e56220d7fd328177c8f720,Mo-Fr 07:00-19:00; Sa-Su 07:00-18:00,Western Union,Q861042
edeb166ec3382e571f29f27f88af3502,western_union,TIA 106 SANTA MARTHA MANTA,,Manta,MANABI,,EC,+593 4-371-0050,https://location.westernunion.com/ec/manabi/manta/edeb166ec3382e571f29f27f88af3502,Mo-Su 08:00-21:00,Western Union,Q861042
24eb720f4659c1ab1e40a5bc646ea1f2,western_union,CIS PGM MULTISERVICIOS EL DIAMANTE,,Manta,MANABI,,EC,+593 99 347 7976,https://location.westernunion.com/ec/manabi/manta/24eb720f4659c1ab1e40a5bc646ea1f2,Mo-Su 07:30-21:00,Western Union,Q861042
701781b33313bd7ee2d5e10a5eac33a7,western_union,SRNP BCO PACIFICO SHOPPING MANTA,,Manta,MANABI,,EC,+593 1800 937 837,https://location.westernunion.com/ec/manabi/manta/701781b33313bd7ee2d5e10a5eac33a7,Mo-Su 09:00-17:00,Western Union,Q861042
78678c4e2bc8495ce118517415b136ab,western_union,CIS PGM WESTERN UNION PAGAMENT,,Manta,MANABI,,EC,(+593) 9-982988202,https://location.westernunion.com/ec/manabi/manta/78678c4e2bc8495ce118517415b136ab,Mo-Su 07:00-19:00,Western Union,Q861042
8f216ff8828011fcde9fe3b42e7a25c7,western_union,SRNP DISENSA VLOOR MANATA,,Manta,MANABI,,EC,+593 4-371-0050,https://location.westernunion.com/ec/manabi/manta/8f216ff8828011fcde9fe3b42e7a25c7,Mo-Su 08:00-21:00,Western Union,Q861042
26ab313c8016945ca1d63f5254af896a,western_union,CIS GDP CARLA MENDOZA,,Manta,MANABI,,EC,(+593) 9-992213620,https://location.westernunion.com/ec/manabi/manta/26ab313c8016945ca1d63f5254af896a,Mo-Fr 08:30-19:00; Sa-Su 09:30-18:00,Western Union,Q861042
3d6099cfba829ed01ac27eb644bc4443,western_union,CIS PAGO AGIL MULTISERVICIOS INARIEL,,Manta,MANABI,,EC,(+0593) 9-999151528,https://location.westernunion.com/ec/manabi/manta/3d6099cfba829ed01ac27eb644bc4443,Mo-Su 08:00-20:00,Western Union,Q861042
18171b3c5dc52981e6ecb38e25ced23a,western_union,SRNP SILVANA BASURTO MANTA,,Manta,MANABI,,EC,+593 4-371-0050,https://location.westernunion.com/ec/manabi/manta/18171b3c5dc52981e6ecb38e25ced23a,Mo-Su 08:00-21:00,Western Union,Q861042
454df8c5a76d043fd70fffa1d0569138,western_union,SRNP GLADYS ROLDAN PAGO FACIL 2,,Montecristi,MANABI,,EC,+593 4-371-0050,https://location.westernunion.com/ec/manabi/montecristi/454df8c5a76d043fd70fffa1d0569138,Mo-Su 08:00-21:00,Western Union,Q861042
85365b8f78e4d04526199a1823867cfa,western_union,SERVIEXPRESS,,Manta,MANABI,,EC,+593 5-261-0732,https://location.westernunion.com/ec/manabi/manta/85365b8f78e4d04526199a1823867cfa,Mo-Fr 07:00-20:30; Sa 07:00-19:00,Western Union,Q861042
4c8c78c9d2ed38d180c18ec776790906,western_union,MULTISERVICIOS APOLO,,Manta,MANABI,,EC,+593 98 387 7104,https://location.westernunion.com/ec/manabi/manta/4c8c78c9d2ed38d180c18ec776790906,Mo-Sa 07:00-19:00; Su 07:00-14:00,Western Union,Q861042
1f2254d805228d3de44db0c94c50f3cf,western_union,SRNP LA NETA CYBER MANTA,,Manabi,MANABI,,EC,+593 4-371-0050,https://location.westernunion.com/ec/manabi/manabi/1f2254d805228d3de44db0c94c50f3cf,Mo-Su 08:00-21:00,Western Union,Q861042
61d4cf18db43b896ca69f7c780309b8f,western_union,ACTIVA AG CC MALL DEL PACIFICO MANTA,,Manta,MANABI,,EC,+593 1800 937 837,https://location.westernunion.com/ec/manabi/manta/61d4cf18db43b896ca69f7c780309b8f,Mo-Su 09:00-18:00,Western Union,Q861042
1a0efd35aced9023f3aae0158d5152c4,western_union,CIS FTO AGENCIA CNT MALL DEL PACIFICO,,Manta,MANABI,,EC,(+0593) 9-968490717,https://location.westernunion.com/ec/manabi/manta/1a0efd35aced9023f3aae0158d5152c4,Mo-Fr 10:00-20:00; Sa-Su 10:00-19:00,Western Union,Q861042
bfbd1919166e5e0b0d924c2e9f1b8bb0,western_union,SRNP JUAN CARLOS PONCE DELGADO,,Manta,MANABI,,EC,+593 98 894 1198,https://location.westernunion.com/ec/manabi/manta/bfbd1919166e5e0b0d924c2e9f1b8bb0,Mo-Su 08:00-21:00,Western Union,Q861042
360fd22f38bfd9dfa60d76fd79161fc1,western_union,SRNP PAï¿½ALES Y PAPELERIA BABY HOUSE,,Manta,MANABI,,EC,+593 4-371-0050,https://location.westernunion.com/ec/manabi/manta/360fd22f38bfd9dfa60d76fd79161fc1,Mo-Su 08:00-21:00,Western Union,Q861042
c39dfd110331d172c540e103d6801cf8,western_union,GOLPECK,,Manta,MANABI,,EC,+593 99 882 7662,https://location.westernunion.com/ec/manabi/manta/c39dfd110331d172c540e103d6801cf8,Mo-Su 07:00-22:00,Western Union,Q861042
357e312c4a99635550de90765ed29a5e,western_union,ACTIVA MC AV ALEJO LASCANO JIPIJAPA,,Jipijapa,MANABI,,EC,+593 1800 937 837,https://location.westernunion.com/ec/manabi/jipijapa/357e312c4a99635550de90765ed29a5e,Mo-Sa 09:00-20:00; Su 09:00-19:00,Western Union,Q861042
86d11cc7ed993641692d63e0830bdb68,western_union,SRNP AMARILIS CACAO JIPIJAPA,,Manabi,MANABI,,EC,+593 1800 937 837,https://location.westernunion.com/ec/manabi/manabi/86d11cc7ed993641692d63e0830bdb68,Mo-Su 09:00-19:00,Western Union,Q861042
b31a58bae9f317ca45582a3143f37b66,western_union,SRNP MARKET CASANOVA MANTA,,Manta,MANABI,,EC,+593 98 975 9447,https://location.westernunion.com/ec/manabi/manta/b31a58bae9f317ca45582a3143f37b66,Mo-Su 08:00-21:00,Western Union,Q861042
3c90698963d493f29946c4474b20c333,western_union,CIS PGM MI ESPERANZA,,Manta,MANABI,,EC,(+593) 9-986991515,https://location.westernunion.com/ec/manabi/manta/3c90698963d493f29946c4474b20c333,Mo-Su 07:30-20:00,Western Union,Q861042
fe157eb5e151e1960d7771ae932ea473,western_union,CIS PAGO AGIL NELLY DEL JESUS,,Manta,MANABI,,EC,+593 99 209 1091,https://location.westernunion.com/ec/manabi/manta/fe157eb5e151e1960d7771ae932ea473,Mo-Su 08:00-20:00,Western Union,Q861042
3ac0a4d394b121a62ac2c534fdaf4cbe,western_union,FARMACIA MORALES,,Manta,MANABI,,EC,+593 99 490 9263,https://location.westernunion.com/ec/manabi/manta/3ac0a4d394b121a62ac2c534fdaf4cbe,Mo-Fr 08:30-19:30; Sa 08:30-19:00,Western Union,Q861042
3ad9384dea766e350724b5669e19ea57,western_union,MINIMARKET LA 8,,Manta,MANABI,,EC,+593 98 887 1980,https://location.westernunion.com/ec/manabi/manta/3ad9384dea766e350724b5669e19ea57,Mo-Su 07:00-21:30,Western Union,Q861042
60091385a2df31378b8bd490d95a9c22,western_union,ACTIVA TIA AV 14 MANTA,,Manta,MANABI,,EC,+593 4-223-3600,https://location.westernunion.com/ec/manabi/manta/60091385a2df31378b8bd490d95a9c22,Mo-Su 09:00-19:00,Western Union,Q861042
f82b6452f8154ced0fb90a3e8171d9a3,western_union,SRNP TIA 187 MANTA II,,Manta,MANABI,,EC,+593 4-259-8830,https://location.westernunion.com/ec/manabi/manta/f82b6452f8154ced0fb90a3e8171d9a3,Mo-Su 08:00-19:00,Western Union,Q861042
c2224da985654b0f273b82428d581c9e,western_union,3D GIROS&ASESORES II,,Manta,MANABI,,EC,+593 96 942 0605,https://location.westernunion.com/ec/manabi/manta/c2224da985654b0f273b82428d581c9e,Mo-Su 07:00-21:00,Western Union,Q861042
305086dc1e6c9a9dd17b7d37af4228ee,western_union,CIS GDP MULTICOMERCIO MARY,,Manta,MANABI,,EC,+593 99 639 6036,https://location.westernunion.com/ec/manabi/manta/305086dc1e6c9a9dd17b7d37af4228ee,Mo-Fr 08:30-19:30; Sa-Su 09:30-18:00,Western Union,Q861042
52c9b4753dee50ebd3846b971baa47ad,western_union,CIS PAG COAC CHIBULEO MANTA,,Manta,MANABI,,EC,(+0593) 3-33700190,https://location.westernunion.com/ec/manabi/manta/52c9b4753dee50ebd3846b971baa47ad,Mo-Su 08:00-20:00,Western Union,Q861042
64b29e08adb885202bd0400e9317ffa8,western_union,CIS FIA COAC IMBABURAPAK LTDA MANTA,,Manta,MANABI,,EC,+593 6-292-2846,https://location.westernunion.com/ec/manabi/manta/64b29e08adb885202bd0400e9317ffa8,Mo-Su 08:00-17:30,Western Union,Q861042
8001ba7507e8638caebe264f3abda2d5,western_union,CIS PGM MINIMARKET EL BODEGON,,Manta,MANABI,,EC,(+593) 9-994370812,https://location.westernunion.com/ec/manabi/manta/8001ba7507e8638caebe264f3abda2d5,Mo-Su 07:00-22:00,Western Union,Q861042
b02c51cfa166f228911c33cee2db89c3,western_union,FM004 PECHICHE MONTECRISTI,,Montecristi,MANABI,,EC,+593 4-371-0050,https://location.westernunion.com/ec/manabi/montecristi/b02c51cfa166f228911c33cee2db89c3,Mo-Su 08:00-21:00,Western Union,Q861042
cf031f055c366214b7b4fd07bd1fe202,western_union,SRNP FE MEDICITY UNIVERSITARIA MANTA,,Manta,MANABI,,EC,+593 4-371-0050,https://location.westernunion.com/ec/manabi/manta/cf031f055c366214b7b4fd07bd1fe202,Mo-Su 08:00-23:00,Western Union,Q861042
ce280041be525950e759694cdeb7221e,western_union,MULTISERVICIOS ALEXANDER,,Manta,MANABI,,EC,+593 98 050 7688,https://location.westernunion.com/ec/manabi/manta/ce280041be525950e759694cdeb7221e,Mo-Fr 08:00-19:00; Sa 08:00-18:00; Su 08:00-15:00,Western Union,Q861042
351fae2aef358e5d59320e6bdb8e0667,western_union,RED CORIVESA,,Manta,MANABI,,EC,+593 5-262-1353,https://location.westernunion.com/ec/manabi/manta/351fae2aef358e5d59320e6bdb8e0667,Mo-Fr 08:00-18:00; Sa 08:00-14:00,Western Union,Q861042
7ca49b34a0913f08673e7e93940037fa,western_union,CELULAR LISTO,,Manta,MANABI,,EC,+593 5-262-5675,https://location.westernunion.com/ec/manabi/manta/7ca49b34a0913f08673e7e93940037fa,Mo-Fr 08:00-19:00; Sa 08:00-16:00; Su 09:00-14:00,Western Union,Q861042
8506dc8faab73df73e43060a6fb1f7b8,western_union,SRNP TIA 358 MANTA CUBA,,Manta,MANABI,,EC,+593 4-259-8830,https://location.westernunion.com/ec/manabi/manta/8506dc8faab73df73e43060a6fb1f7b8,Mo-Su 08:00-19:00,Western Union,Q861042
d04fcd21548cc6dabf2b88501f7108ce,western_union,ACTIVA CABINA CREDITOS ECONOMICOS MANTA,,Manta,MANABI,,EC,+593 1800 937 837,https://location.westernunion.com/ec/manabi/manta/d04fcd21548cc6dabf2b88501f7108ce,Mo-Su 09:00-19:00,Western Union,Q861042
b567a765c003f56c0706cb83069a3126,western_union,SRNP BCO PACIFICO PRINCIPAL MANTA,,Manta,MANABI,,EC,+593 1800 937 837,https://location.westernunion.com/ec/manabi/manta/b567a765c003f56c0706cb83069a3126,Mo-Su 09:00-17:00,Western Union,Q861042
c2028065f23b0fc5f26dd1970124d6d5,western_union,BANCO DE AUSTRO MANTA,,Manta,MANABI,,EC,+593 5-262-4858,https://location.westernunion.com/ec/manabi/manta/c2028065f23b0fc5f26dd1970124d6d5,Mo-Su 09:00-20:00,Western Union,Q861042
baa277f6156e5155a5a92a944ce9feb4,western_union,JERUSALEN,,Manta,MANABI,,EC,+593 4-371-0050,https://location.westernunion.com/ec/manabi/manta/baa277f6156e5155a5a92a944ce9feb4,Mo-Fr 10:00-21:00; Sa-Su 10:00-22:00,Western Union,Q861042
cd28ce094501aff99780e1cb49b8318f,western_union,SUPERMARKET JOCAY,,Manta,MANABI,,EC,+593 5-292-7951,https://location.westernunion.com/ec/manabi/manta/cd28ce094501aff99780e1cb49b8318f,Mo-Fr 08:00-16:00; Sa 09:00-13:00,Western Union,Q861042
30fd24c9c2f1f028d5087c2f4eb515d3,western_union,ECONOCELL,,Manta,MANABI,,EC,+593 5-292-8772,https://location.westernunion.com/ec/manabi/manta/30fd24c9c2f1f028d5087c2f4eb515d3,Mo-Su 07:00-22:00,Western Union,Q861042
3aef826693088aee7268608fd33fd903,western_union,CIS GDP COMPUTER WORLD MANTA,,Manta,MANABI,,EC,(+0593) 9-982847111,https://location.westernunion.com/ec/manabi/manta/3aef826693088aee7268608fd33fd903,Mo-Fr 08:30-19:00; Sa-Su 09:30-18:00,Western Union,Q861042
9869ab65c7158452aeaf31a1639b1809,western_union,BANCO D MIRO S A,,Manta,MANABI,,EC,+593 5-292-8551,https://location.westernunion.com/ec/manabi/manta/9869ab65c7158452aeaf31a1639b1809,Mo-Fr 09:00-17:00,Western Union,Q861042
a2424b298c0bb47a1d8dd477f89d7daa,western_union,CIS PAGO AGIL DESPENSA JESMOR,,Manta,MANABI,,EC,+593 99 480 2802,https://location.westernunion.com/ec/manabi/manta/a2424b298c0bb47a1d8dd477f89d7daa,Mo-Su 08:00-20:00,Western Union,Q861042
5b112d30b8aea78e591e8c39ff623947,western_union,SRNP ACCESORIOS MOREIRA MANTA,,Manta,MANABI,,EC,+593 4-371-0050,https://location.westernunion.com/ec/manabi/manta/5b112d30b8aea78e591e8c39ff623947,Mo-Su 08:00-21:00,Western Union,Q861042
db7e9ac48cb1fc558a7ca3535fd34beb,western_union,SRNP TIA 531 MANTA JOCAY,,Manta,MANABI,,EC,+593 4-371-0050,https://location.westernunion.com/ec/manabi/manta/db7e9ac48cb1fc558a7ca3535fd34beb,Mo-Su 08:00-21:00,Western Union,Q861042
ef446313f80d3722a637cb7f85a6c833,western_union,DISTRIBUIDORA MIRAFLORES JOCAY,,Manta,MANABI,,EC,+593 99 540 8678,https://location.westernunion.com/ec/manabi/manta/ef446313f80d3722a637cb7f85a6c833,Mo-Fr 08:00-18:00; Sa 08:00-13:00,Western Union,Q861042
ce0486adc358d94b23adebf24725d364,western_union,ACTIVA MC MONTECRISTI,,Montecristi,MANABI,,EC,+593 1800 937 837,https://location.westernunion.com/ec/manabi/montecristi/ce0486adc358d94b23adebf24725d364,Mo-Su 09:00-20:00,Western Union,Q861042
ca940b52333227b2fe5ca518928bc2f3,western_union,SRNP ZUMRECAUDA CPN AG MANTA,,Manta,MANABI,,EC,+593 4-371-0050,https://location.westernunion.com/ec/manabi/manta/ca940b52333227b2fe5ca518928bc2f3,Mo-Su 08:00-21:00,Western Union,Q861042
16cab63c7b69c6afb6f7fd6c45ae086b,western_union,SRNP FE FARM ECO LA PRINCIPAL MANTA,,Manta,MANABI,,EC,+593 4-371-0050,https://location.westernunion.com/ec/manabi/manta/16cab63c7b69c6afb6f7fd6c45ae086b,Mo-Su 08:00-21:00,Western Union,Q861042
e7c84754ef3d5eab04a71d655d7306d3,western_union,ZAMBRANO ALAVA GICELA KATHERINE,,Montecristi,MANABI,,EC,+593 99 599 6956,https://location.westernunion.com/ec/manabi/montecristi/e7c84754ef3d5eab04a71d655d7306d3,Mo-Su 08:00-21:00,Western Union,Q861042
29d508c504fcb00352ab0d0e621676a2,western_union,SRNP FRANCISCO MENDIETA MONTECRISTI,,Montecristi,MANABI,,EC,+593 4-371-0050,https://location.westernunion.com/ec/manabi/montecristi/29d508c504fcb00352ab0d0e621676a2,Mo-Su 08:00-21:00,Western Union,Q861042
1afa736835adbf6b51af325ab58361ae,western_union,CIS GDP  MERO MER,,Manta,MANABI,,EC,(+593) 9-967708902,https://location.westernunion.com/ec/manabi/manta/1afa736835adbf6b51af325ab58361ae,Mo-Fr 08:30-19:00; Sa-Su 09:30-18:00,Western Union,Q861042
02bcecd9d68d4efb4fd99c9f060c4747,western_union,ACTIVA TIA AV 108 MANTA,,Manta,MANABI,,EC,+593 1800 937 837,https://location.westernunion.com/ec/manabi/manta/02bcecd9d68d4efb4fd99c9f060c4747,Mo-Su 09:00-20:00,Western Union,Q861042
d01c8b1a625d0a1cac8e24d106f650f2,western_union,CIS GDP JC SOFTWARE,,Montecristi,MANABI,,EC,(+593) 9-990521017,https://location.westernunion.com/ec/manabi/montecristi/d01c8b1a625d0a1cac8e24d106f650f2,Mo-Fr 08:00-19:30; Sa-Su 08:00-19:00,Western Union,Q861042
87c0d49d7d77605ed32894e69903f2a7,western_union,SRNP TIA 115 MANTA,,Manta,MANABI,,EC,+593 4-259-8830,https://location.westernunion.com/ec/manabi/manta/87c0d49d7d77605ed32894e69903f2a7,Mo-Su 08:00-19:00,Western Union,Q861042
edafeaf65620cbec9c4627cd708fdc5a,western_union,CIS GDP ALAIA PAGOS Y SERVICIOS,,Montecristi,MANABI,,EC,(+593) 9-998354889,https://location.westernunion.com/ec/manabi/montecristi/edafeaf65620cbec9c4627cd708fdc5a,Mo-Sa 08:30-18:30; Su 09:00-17:00,Western Union,Q861042
fab14fdc79c350b704f50325c0c8b585,western_union,CIS GDP MARGISS MANTA,,Manta,MANABI,,EC,(+593) 9-998915025,https://location.westernunion.com/ec/manabi/manta/fab14fdc79c350b704f50325c0c8b585,Mo-Su 07:30-21:30,Western Union,Q861042
59457afa430206cd563fa880ceadf1b2,western_union,CAB TARQUI 2 MANTA,,Manta,MANABI,,EC,+593 1800 628 749,https://location.westernunion.com/ec/manabi/manta/59457afa430206cd563fa880ceadf1b2,Mo-Su 09:00-18:00,Western Union,Q861042
a17a88e1641683289283ba29262f7b70,western_union,COAC 15 DE ABRIL AGENCIA MANTA,,Manta,MANABI,,EC,+593 5-262-2399,https://location.westernunion.com/ec/manabi/manta/a17a88e1641683289283ba29262f7b70,Mo-Sa 08:30-17:00,Western Union,Q861042
1eec38b30cf4ebb2e85bc3ce18784b49,western_union,CIS GDP MINI TIENDA ANDREITA,,Manta,MANABI,,EC,+593 95 883 9030,https://location.westernunion.com/ec/manabi/manta/1eec38b30cf4ebb2e85bc3ce18784b49,Mo-Fr 08:30-19:00; Sa-Su 09:30-18:00,Western Union,Q861042
c87b2333796a90ef333273c57016b1e9,western_union,CIS GDP ESPERANZA MARTINEZ,,Manta,MANABI,,EC,(+0593) 9-987375284,https://location.westernunion.com/ec/manabi/manta/c87b2333796a90ef333273c57016b1e9,Mo-Fr 08:30-19:00; Sa-Su 09:30-18:00,Western Union,Q861042
7baa97a502c265c94f843b771f35448a,western_union,CIS EXPRESS MANTA,,Manta,MANABI,,EC,+593 1800 989 898,https://location.westernunion.com/ec/manabi/manta/7baa97a502c265c94f843b771f35448a,Mo-Fr 08:30-18:00; Sa 09:00-13:00,Western Union,Q861042
86578009a88b499e491b1ada3ea1d081,western_union,TKOPIO,,Manta,MANABI,,EC,+593 5-261-2957,https://location.westernunion.com/ec/manabi/manta/86578009a88b499e491b1ada3ea1d081,Mo-Su 07:00-21:00,Western Union,Q861042
ca5de242eda7955fb6c806a25a1644e7,western_union,SRNP HEFNER RODRIGUEZ MANTA,,Manta,MANABI,,EC,+593 4-371-0050,https://location.westernunion.com/ec/manabi/manta/ca5de242eda7955fb6c806a25a1644e7,Mo-Su 08:00-21:00,Western Union,Q861042
96bc1b2e8b655f88b356b8db7e83766c,western_union,ECONOMICAS INTERBARRIAL MANTA,,Manta,MANABI,,EC,+593 4-371-0050,https://location.westernunion.com/ec/manabi/manta/96bc1b2e8b655f88b356b8db7e83766c,Mo-Su 08:00-23:00,Western Union,Q861042
e2a42bb24412c17cb81deef265d22df8,western_union,ACTIVA CAB TARQUI 2 MANTA,,Manta,MANABI,,EC,+593 1800 937 837,https://location.westernunion.com/ec/manabi/manta/e2a42bb24412c17cb81deef265d22df8,Mo-Su 09:00-19:00,Western Union,Q861042
e4e866799ada7f7364c0fb8f8c744cbc,western_union,CIS PAGO AGIL EL BAUL DE MARTHITA,,Manta,MANABI,,EC,(+0593) 9-994076290,https://location.westernunion.com/ec/manabi/manta/e4e866799ada7f7364c0fb8f8c744cbc,Mo-Su 08:00-20:00,Western Union,Q861042
d5b890021aa159b8d64aaeba3428bf83,western_union,CENTRO DE SERVICIOS EFTPS,,Manta,MANABI,,EC,+593 5-292-7814,https://location.westernunion.com/ec/manabi/manta/d5b890021aa159b8d64aaeba3428bf83,Mo-Fr 08:00-16:00; Sa 09:00-13:00,Western Union,Q861042
a7b633cfb29a5fe604428415d02ac8f4,western_union,SRNP PAGO DE SERVICIOS BASICOS Y MAS MAN,,Manta,MANABI,,EC,+593 4-371-0050,https://location.westernunion.com/ec/manabi/manta/a7b633cfb29a5fe604428415d02ac8f4,Mo-Su 08:00-21:00,Western Union,Q861042
21105c9b1ae4e6df0bee34de6e53b258,western_union,SERVICIOS CHOEZ,,Manta,MANABI,,EC,+593 96 743 7739,https://location.westernunion.com/ec/manabi/manta/21105c9b1ae4e6df0bee34de6e53b258,Mo-Sa 08:00-21:00; Su 09:00-17:00,Western Union,Q861042
4accb80d2b5badb004e4b50c7c02476b,western_union,CIS FTO MUNICIPIO DE MANTA,,Manta,MANABI,,EC,(+0593) 9-968490717,https://location.westernunion.com/ec/manabi/manta/4accb80d2b5badb004e4b50c7c02476b,Mo-Fr 08:00-17:00,Western Union,Q861042
2571d563183c5c7594e576a39e5ef9bc,western_union,CIS PAGO AGIL JAVIER MOLINA,,Manta,MANABI,,EC,+593 99 002 4613,https://location.westernunion.com/ec/manabi/manta/2571d563183c5c7594e576a39e5ef9bc,Mo-Su 08:00-20:00,Western Union,Q861042
9e0daa3d160c94568a52716e9411b9d7,western_union,CISLATAM MANTA 4,,Manta,MANABI,,EC,+593 5-238-3895,https://location.westernunion.com/ec/manabi/manta/9e0daa3d160c94568a52716e9411b9d7,Mo-Sa 07:30-19:30; Su 08:00-13:00,Western Union,Q861042
de0136db52427eee6181884aa2d69ab7,western_union,SRNP UNILIT MANTA,,Manta,MANABI,,EC,+593 4-371-0050,https://location.westernunion.com/ec/manabi/manta/de0136db52427eee6181884aa2d69ab7,Mo-Su 08:00-21:00,Western Union,Q861042
14f38f053dedfe3c7c43d0c7805f444c,western_union,FARMACIA FIAMITA,,Manta,MANABI,,EC,+593 99 277 8119,https://location.westernunion.com/ec/manabi/manta/14f38f053dedfe3c7c43d0c7805f444c,Mo-Su 07:00-22:00,Western Union,Q861042
003630f0a24a5689813b85135ec176e3,western_union,SRNP COMERCIAL ZAMBRANO MANTA,,Manta,MANABI,,EC,+593 4-371-0050,https://location.westernunion.com/ec/manabi/manta/003630f0a24a5689813b85135ec176e3,Mo-Su 08:00-21:00,Western Union,Q861042
2fa2ba4fbbd8825f19a3c8ef392914a1,western_union,SRNP TIA 349 MANTA III,,Manta,MANABI,,EC,+593 4-259-8830,https://location.westernunion.com/ec/manabi/manta/2fa2ba4fbbd8825f19a3c8ef392914a1,Mo-Su 08:00-19:00,Western Union,Q861042
45c42c403f930c534fc6c6055405b982,western_union,SRNP TIA 545 MANTA PRADERA,,Manta,MANABI,,EC,+593 4-371-0050,https://location.westernunion.com/ec/manabi/manta/45c42c403f930c534fc6c6055405b982,Mo-Su 08:00-21:00,Western Union,Q861042
7f80ded55dd0325d306195e4e4196286,western_union,SRNP TANI MENDOZA MANTA,,Manta,MANABI,,EC,+593 4-371-0050,https://location.westernunion.com/ec/manabi/manta/7f80ded55dd0325d306195e4e4196286,Mo-Su 08:00-21:00,Western Union,Q861042
f7598b836e4b4630c6e74e50d86443fb,western_union,SRNP BCO PACIFICO TARQUI MANTA 2,,Manabi,MANABI,,EC,+593 1800 937 837,https://location.westernunion.com/ec/manabi/manabi/f7598b836e4b4630c6e74e50d86443fb,Mo-Su 09:00-17:00,Western Union,Q861042
73ec0333f2391c44ef1b307744a9e643,western_union,ACTIVA MC PASEO SHOPPING MANTA,,Manta,MANABI,,EC,+593 1800 937 837,https://location.westernunion.com/ec/manabi/manta/73ec0333f2391c44ef1b307744a9e643,Mo-Su 09:00-19:00,Western Union,Q861042
30043ef5b9711d8e656189a98fa0920a,western_union,SRNP COMERCIAL DELPI MANTA,,Manta,MANABI,,EC,+593 1800 937 837,https://location.westernunion.com/ec/manabi/manta/30043ef5b9711d8e656189a98fa0920a,Mo-Su 09:00-18:00,Western Union,Q861042
28b3724b4ad31d625e5712cb9b305040,western_union,INVERSIONES MARY,,Manta,MANABI,,EC,+593 96 732 4903,https://location.westernunion.com/ec/manabi/manta/28b3724b4ad31d625e5712cb9b305040,Mo-Sa 08:00-21:00; Su 09:00-18:00,Western Union,Q861042
d2d716e60f698b4e7bf8bb5eb5607461,western_union,CIS BAZAR JUANITA,,Montecristi,MANABI,,EC,+593 98 229 7262,https://location.westernunion.com/ec/manabi/montecristi/d2d716e60f698b4e7bf8bb5eb5607461,Mo-Sa 08:00-20:00,Western Union,Q861042
71613304ca29954760f43de95df9f672,western_union,CIS GDP PUNTO DE PAGOS M & W,,Manta,MANABI,,EC,(+593) 9-981890094,https://location.westernunion.com/ec/manabi/manta/71613304ca29954760f43de95df9f672,Mo-Sa 07:00-20:00,Western Union,Q861042
da5dc0c46f4c6f2348b6bb2d134f39d7,western_union,CISLATAM MONTECRISTI,,Montecristi,MANABI,,EC,+593 98 662 2826,https://location.westernunion.com/ec/manabi/montecristi/da5dc0c46f4c6f2348b6bb2d134f39d7,Mo-Fr 09:00-18:00; Sa 10:00-15:00,Western Union,Q861042
c28acd65d9d46981666ac7a246034aa7,western_union,SRNP TIA 365 MONTECRISTI,,Montecristi,MANABI,,EC,+593 4-259-8830,https://location.westernunion.com/ec/manabi/montecristi/c28acd65d9d46981666ac7a246034aa7,Mo-Su 08:00-19:00,Western Union,Q861042
8f088c375e2a48058d583a37a5fdef82,western_union,ACTIVA TIA MONTECRISTI,,Montecristi,MANABI,,EC,+593 1800 937 837,https://location.westernunion.com/ec/manabi/montecristi/8f088c375e2a48058d583a37a5fdef82,Mo-Su 09:00-18:00,Western Union,Q861042
1d38be3e54b790f77eb8b1fe590444a2,western_union,WESTERN UNION RED CORIVESA 6,,Manta,MANABI,,EC,+593 5-262-1353,https://location.westernunion.com/ec/manabi/manta/1d38be3e54b790f77eb8b1fe590444a2,Mo-Sa 07:30-19:00; Su 07:30-17:00,Western Union,Q861042
f0128965bfed2da2e613ce3ebf45993b,western_union,FM020 METROPOLITANA MONTECRISTI,,Montecristi,MANABI,,EC,+593 4-371-0050,https://location.westernunion.com/ec/manabi/montecristi/f0128965bfed2da2e613ce3ebf45993b,Mo-Su 08:00-21:00,Western Union,Q861042
146571988d990315aa39c2ac30d220c5,western_union,CIS PAG COAC MICROEMPRESARIAL SUCRE,,Montecristi,MANABI,,EC,+593 5-267-0507,https://location.westernunion.com/ec/manabi/montecristi/146571988d990315aa39c2ac30d220c5,Mo-Su 08:00-20:00,Western Union,Q861042
94a5949a37e25ba506cf97953fe3d3b1,western_union,SRNP VANESSA ROLDAN SAN MATEO,,Manabi,MANABI,,EC,+593 4-371-0050,https://location.westernunion.com/ec/manabi/manabi/94a5949a37e25ba506cf97953fe3d3b1,Mo-Su 08:00-21:00,Western Union,Q861042
39d75e41756c0b40115e7629edeb294c,western_union,CIS GDP JHONNY VALDIVIEZO,,Manta,MANABI,,EC,+593 98 014 8679,https://location.westernunion.com/ec/manabi/manta/39d75e41756c0b40115e7629edeb294c,Mo-Fr 08:30-19:00; Sa-Su 09:30-18:00,Western Union,Q861042
6f7517c3ec3699ad155b4f94c1a62724,western_union,SRNP CYBER CABINA M&M MANTA,,Manta,MANABI,,EC,+593 95 898 8534,https://location.westernunion.com/ec/manabi/manta/6f7517c3ec3699ad155b4f94c1a62724,Mo-Su 09:00-21:00,Western Union,Q861042
46a51da5d32b17aa925147288bd3defe,western_union,3D GIROS&ASESORES,,Manta,MANABI,,EC,+593 96 942 0605,https://location.westernunion.com/ec/manabi/manta/46a51da5d32b17aa925147288bd3defe,Mo-Su 07:00-21:00,Western Union,Q861042
142029ca4faaec74a404a4f0b51a51e9,western_union,SRNP DISENSA 4 5 MONTECRISTI,,Manabi,MANABI,,EC,(+593) 4-2233600-123,https://location.westernunion.com/ec/manabi/manabi/142029ca4faaec74a404a4f0b51a51e9,Mo-Fr 08:00-17:00; Sa 08:00-14:00,Western Union,Q861042
1a552c3bd91923f8ba75f613438a2969,western_union,NEICER ALEXIS ARTEGA PILLASAGUA,,Manta,MANABI,,EC,+593 4-371-0050,https://location.westernunion.com/ec/manabi/manta/1a552c3bd91923f8ba75f613438a2969,Mo-Su 08:00-20:00,Western Union,Q861042
ae743e9cd9b78b6dfa12bca6411cb305,western_union,COMERCIAL LA MONEDA,,Manta,MANABI,,EC,+593 96 926 5017,https://location.westernunion.com/ec/manabi/manta/ae743e9cd9b78b6dfa12bca6411cb305,Mo-Su 08:00-19:00,Western Union,Q861042
c043dfde984830516abcf4f07d68ee13,western_union,WESTERN UNION RED CORIVESA,,Manta,MANABI,,EC,+593 99 262 1353,https://location.westernunion.com/ec/manabi/manta/c043dfde984830516abcf4f07d68ee13,Mo-Fr 07:30-19:00; Sa 07:30-18:00; Su 07:30-16:00,Western Union,Q861042
a125fb6daa7d07bf7362e839ee761c7b,western_union,AG CC CORAL MANTA,,Manta,MANABI,,EC,+593 4-371-0050,https://location.westernunion.com/ec/manabi/manta/a125fb6daa7d07bf7362e839ee761c7b,Mo-Su 08:00-21:00,Western Union,Q861042
e2f17c700d5b852e06f3eadc7906130b,western_union,ELECTROMONCE,,Manta,MANABI,,EC,+593 99 962 2185,https://location.westernunion.com/ec/manabi/manta/e2f17c700d5b852e06f3eadc7906130b,Mo-Fr 09:00-17:00; Sa 09:00-14:30,Western Union,Q861042
5cc6bc4a7024a253f201925d795e35b2,western_union,FARMACIA FIAMITA,,Jaramijo,MANABI,,EC,+593 5-238-5391,https://location.westernunion.com/ec/manabi/jaramijo/5cc6bc4a7024a253f201925d795e35b2,Mo-Fr 07:00-21:00; Sa-Su 08:00-21:00,Western Union,Q861042
9b91866c6afbdc9e98c249ad96172f1b,western_union,FM045 ANIBAL SAN ANDRES JARAMIJO,,Jaramijo,MANABI,,EC,+593 4-371-0050,https://location.westernunion.com/ec/manabi/jaramijo/9b91866c6afbdc9e98c249ad96172f1b,Mo-Su 08:00-21:00,Western Union,Q861042
c2c635b3763c03a44665897795e77c82,western_union,FM046 CARRETERO COLISA JARAMIJO,,Jaramijo,MANABI,,EC,+593 4-371-0050,https://location.westernunion.com/ec/manabi/jaramijo/c2c635b3763c03a44665897795e77c82,Mo-Su 08:00-21:00,Western Union,Q861042
2157d77dd2a38e56190303576a1f7cb8,western_union,CIS PAGO AGIL BAZAR Y PAPELERIA SAHID,,Montecristi,MANABI,,EC,(+0593) 9-984776828,https://location.westernunion.com/ec/manabi/montecristi/2157d77dd2a38e56190303576a1f7cb8,Mo-Su 08:00-20:00,Western Union,Q861042
cb64631fd79ae03d477aac74e9c17a45,western_union,SRNP MULTI SERVICES MONCOLL MANTA,,Manta,MANABI,,EC,+593 4-371-0050,https://location.westernunion.com/ec/manabi/manta/cb64631fd79ae03d477aac74e9c17a45,Mo-Su 08:00-21:00,Western Union,Q861042
0266af238ccaa09dc4b4c0420685776b,western_union,CIS GDP TIENDA LA ORIGINAL,,24 De Mayo,MANABI,,EC,(+593) 9-986580840,https://location.westernunion.com/ec/manabi/24-de-mayo/0266af238ccaa09dc4b4c0420685776b,Mo-Sa 08:30-18:30; Su 09:00-17:00,Western Union,Q861042
175543fd3fb606aa0f22d17adf5b2b5f,western_union,SRNP GUADALUPE CHOEZ 24 DE MAYO,,Sucre,MANABI,,EC,+593 4-371-0050,https://location.westernunion.com/ec/manabi/sucre/175543fd3fb606aa0f22d17adf5b2b5f,Mo-Su 08:00-21:00,Western Union,Q861042
3400d1e7157c46c20e01629d05101db1,western_union,FM007 COMERCIO 24 DE MAYO,,Sucre,MANABI,,EC,+593 4-371-0050,https://location.westernunion.com/ec/manabi/sucre/3400d1e7157c46c20e01629d05101db1,Mo-Su 08:00-21:00,Western Union,Q861042
28ff4d8fcdcbb9c9161821a34e485fda,western_union,CIS PAGO AGIL REPUESTOS SANTOS,,24 De Mayo,MANABI,,EC,+593 98 210 6975,https://location.westernunion.com/ec/manabi/24-de-mayo/28ff4d8fcdcbb9c9161821a34e485fda,Mo-Su 08:00-20:00,Western Union,Q861042
cc5209afe7645b0238899a381bfc5c1d,western_union,FM044 5 DE JUNIO JARAMIJO,,Jaramijo,MANABI,,EC,+593 4-371-0050,https://location.westernunion.com/ec/manabi/jaramijo/cc5209afe7645b0238899a381bfc5c1d,Mo-Su 08:00-21:00,Western Union,Q861042
d5d312d0edc3174fb2cae8ff06ffd651,western_union,SRNP TIA 709 JARAMIJO,,Jaramijo,MANABI,,EC,+593 4-371-0050,https://location.westernunion.com/ec/manabi/jaramijo/d5d312d0edc3174fb2cae8ff06ffd651,Mo-Su 08:00-21:00,Western Union,Q861042
db4083003c220b5e02e69575c79da6b8,western_union,FM047 23 DE OCT JARAMIJO,,Jaramijo,MANABI,,EC,+593 4-371-0050,https://location.westernunion.com/ec/manabi/jaramijo/db4083003c220b5e02e69575c79da6b8,Mo-Su 08:00-21:00,Western Union,Q861042
523944d06886d8914ca86ac2a9f005c5,western_union,MINI CYBER KARLITA,,Portoviejo,MANABI,,EC,+593 4-371-0050,https://location.westernunion.com/ec/manabi/portoviejo/523944d06886d8914ca86ac2a9f005c5,Mo 09:00-21:00; Tu-Fr 08:00-21:00; Sa-Su 09:00-19:00,Western Union,Q861042
df9d45d8bac2b7be8f2c691b482fe962,western_union,CM018 AV BOLIVARIANA PORTOVIEJO,,Portoviejo,MANABI,,EC,+593 4-371-0050,https://location.westernunion.com/ec/manabi/portoviejo/df9d45d8bac2b7be8f2c691b482fe962,Mo-Su 08:00-21:00,Western Union,Q861042
f20c1828f521a1160846429e809ad57f,western_union,SRNP TIA 396 SANTA ANA,,Santa Ana,MANABI,,EC,+593 4-259-8830,https://location.westernunion.com/ec/manabi/santa-ana/f20c1828f521a1160846429e809ad57f,Mo-Su 08:00-19:00,Western Union,Q861042
d213b5f07f21a1f649b8e838f16651cb,western_union,ACTIVA TIA SANTA ANA,,Santa Ana,MANABI,,EC,+593 1800 937 837,https://location.westernunion.com/ec/manabi/santa-ana/d213b5f07f21a1f649b8e838f16651cb,Mo-Su 09:00-18:00,Western Union,Q861042
29bdc195d686ad34410531fb7afcb913,western_union,FM053 AV 5 DE JUNIO PORTOVIEJO,,Portoviejo,MANABI,,EC,+593 4-371-0050,https://location.westernunion.com/ec/manabi/portoviejo/29bdc195d686ad34410531fb7afcb913,Mo-Su 08:00-21:00,Western Union,Q861042
ef51efeafe3c5b236e5ec5824096a5ca,western_union,COAC 15 DE ABRIL VENTANILLA,,Portoviejo,MANABI,,EC,(+593) 5-934943,https://location.westernunion.com/ec/manabi/portoviejo/ef51efeafe3c5b236e5ec5824096a5ca,Mo-Fr 10:00-17:30; Sa 10:00-17:00; Su 10:00-14:00,Western Union,Q861042
eb032729defefbde9ce91909b32c3a06,western_union,CM021 AV BOLIVARIANA PORTOVIEJO,,Portoviejo,MANABI,,EC,+593 4-371-0050,https://location.westernunion.com/ec/manabi/portoviejo/eb032729defefbde9ce91909b32c3a06,Mo-Su 08:00-21:00,Western Union,Q861042
e99595e154fe90699cc1a1d0d9d9ceac,western_union,SRNP OFERTSTORE PORTOVIEJO,,Portoviejo,MANABI,,EC,+593 4-371-0050,https://location.westernunion.com/ec/manabi/portoviejo/e99595e154fe90699cc1a1d0d9d9ceac,Mo-Su 08:00-21:00,Western Union,Q861042
232e5c0f147b43af9e23af9d2f509719,western_union,BRAVO BOWEN CARLOS DANIEL,,Portoviejo,MANABI,,EC,+593 5-293-4217,https://location.westernunion.com/ec/manabi/portoviejo/232e5c0f147b43af9e23af9d2f509719,Mo-Su 08:00-20:00,Western Union,Q861042
ca97f618df8552fe32528a06a2fdc08e,western_union,ESCONTRI,,Portoviejo,MANABI,,EC,+593 4-371-0050,https://location.westernunion.com/ec/manabi/portoviejo/ca97f618df8552fe32528a06a2fdc08e,Mo-Fr 08:00-19:00; Sa-Su 08:00-18:00,Western Union,Q861042
e95760d149dfab7b6cff5b54135f1785,western_union,SRNP A AND N MOVIL PORTOVIEJO,,Portoviejo,MANABI,,EC,+593 4-371-0050,https://location.westernunion.com/ec/manabi/portoviejo/e95760d149dfab7b6cff5b54135f1785,Mo-Su 08:00-21:00,Western Union,Q861042
d23dc51de784b7b909b89d8e53e2037b,western_union,LA GRAN REBAJA,,Portoviejo,MANABI,,EC,+593 93 948 7323,https://location.westernunion.com/ec/manabi/portoviejo/d23dc51de784b7b909b89d8e53e2037b,Mo-Fr 07:00-22:00; Sa 07:00-21:00; Su 07:00-20:00,Western Union,Q861042
19a98d863e19f4712d885329a802e290,western_union,CIS PAGO AGIL JAHAYRA SOLORZANO,,Portoviejo,MANABI,,EC,+593 96 380 1848,https://location.westernunion.com/ec/manabi/portoviejo/19a98d863e19f4712d885329a802e290,Mo-Su 08:00-20:00,Western Union,Q861042
c1d9e09d3029d687c557714eec87c5e7,western_union,LOOR BASURTO MARIA LISSETH,,Portoviejo,MANABI,,EC,+593 2-200-2046,https://location.westernunion.com/ec/manabi/portoviejo/c1d9e09d3029d687c557714eec87c5e7,Mo-Su 08:00-20:00,Western Union,Q861042
d83abaa85d884ba7c02e8860b7c3fd43,western_union,SRNP TIA 313 PORTOVIEJO II,,Portoviejo,MANABI,,EC,+593 4-259-8830,https://location.westernunion.com/ec/manabi/portoviejo/d83abaa85d884ba7c02e8860b7c3fd43,Mo-Su 08:00-19:00,Western Union,Q861042
8e26e2cdd9ea9df4412899217d479025,western_union,ACTIVA TIA ALAJUELA PORTOVIEJO,,Portoviejo,MANABI,,EC,+593 1800 937 837,https://location.westernunion.com/ec/manabi/portoviejo/8e26e2cdd9ea9df4412899217d479025,Mo-Sa 08:30-18:00; Su 09:00-13:00,Western Union,Q861042
fa9c3ee50f0df61713dfac71e9ef8450,western_union,CIS PAGO AGIL DECORANDO PRESENTES,,Portoviejo,MANABI,,EC,(+0593) 9-995616869,https://location.westernunion.com/ec/manabi/portoviejo/fa9c3ee50f0df61713dfac71e9ef8450,Mo-Su 08:00-20:00,Western Union,Q861042
a445a60760da5f0ce0373c7341e904f6,western_union,ACTIVA TIA PORTOVIEJO,,Portoviejo,MANABI,,EC,+593 1800 937 837,https://location.westernunion.com/ec/manabi/portoviejo/a445a60760da5f0ce0373c7341e904f6,Mo-Su 09:00-20:00,Western Union,Q861042
166e68f34dc263dd45a0938901e7bde4,western_union,EMIPARK,,Portoviejo,MANABI,,EC,+593 99 374 5479,https://location.westernunion.com/ec/manabi/portoviejo/166e68f34dc263dd45a0938901e7bde4,Mo-Su 07:00-21:00,Western Union,Q861042
b0fcdccd6e8ce93e86d9b54e16a3cb1f,western_union,FM033 ATANASIO SANTOS PORTOVIEJO,,Portoviejo,MANABI,,EC,+593 4-371-0050,https://location.westernunion.com/ec/manabi/portoviejo/b0fcdccd6e8ce93e86d9b54e16a3cb1f,Mo-Su 08:00-21:00,Western Union,Q861042
2c1c2832b0e2f6bead2ce099344435e9,western_union,SRNP CC EL CHONERO 12 DE MARZO,,Manabi,MANABI,,EC,+593 1800 937 837,https://location.westernunion.com/ec/manabi/manabi/2c1c2832b0e2f6bead2ce099344435e9,Mo-Su 09:00-18:00,Western Union,Q861042
14ba7e213417101a4ede73a72eab58eb,western_union,COAC MICROEMPRESARIAL SUCRE PORTOVIEJO,,Portoviejo,MANABI,,EC,+593 5-267-2498,https://location.westernunion.com/ec/manabi/portoviejo/14ba7e213417101a4ede73a72eab58eb,Mo-Su 08:00-20:00,Western Union,Q861042
563ccc1b824ce0afce5ab98878c24448,western_union,SRNP JULISSA ZAMBRANO PORTOVIEJO,,Portoviejo,MANABI,,EC,+593 1800 937 837,https://location.westernunion.com/ec/manabi/portoviejo/563ccc1b824ce0afce5ab98878c24448,Mo-Su 09:00-19:00,Western Union,Q861042
250a8eef270be599d05afe46a4eaac7f,western_union,SRNP CYBER & COPIAS HAPPY BAR PORTOVIEJO,,Portoviejo,MANABI,,EC,+593 99 647 2000,https://location.westernunion.com/ec/manabi/portoviejo/250a8eef270be599d05afe46a4eaac7f,Mo-Su 08:00-21:00,Western Union,Q861042
31eaa85391ea3390492c56a5e7ee23ab,western_union,SODA BAR D MAO,,Lodana,MANABI,,EC,+593 5-233-6188,https://location.westernunion.com/ec/manabi/lodana/31eaa85391ea3390492c56a5e7ee23ab,Mo-Sa 08:00-20:00; Su 08:00-16:00,Western Union,Q861042
19a5d07fd4e6e1a351bd3a2c55e74d4f,western_union,SRNP DIF CA CM019 AV 15 DE NOV PORTOVIEJ,,Portoviejo,MANABI,,EC,+593 4-371-0050,https://location.westernunion.com/ec/manabi/portoviejo/19a5d07fd4e6e1a351bd3a2c55e74d4f,Mo-Su 08:00-21:00,Western Union,Q861042
cc4c4eb99bf87bc98b26d3a4e01f304e,western_union,CIS DGL TIENDA CRISTHIAN,,Portoviejo,MANABI,,EC,(+593) 9-996463372,https://location.westernunion.com/ec/manabi/portoviejo/cc4c4eb99bf87bc98b26d3a4e01f304e,Mo-Su 07:00-23:00,Western Union,Q861042
968b0fe723a3cefea250e3543b54bbe2,western_union,FM008 AV ARGENTINA PORTOVIEJO,,Portoviejo,MANABI,,EC,+593 4-371-0050,https://location.westernunion.com/ec/manabi/portoviejo/968b0fe723a3cefea250e3543b54bbe2,Mo-Su 08:00-21:00,Western Union,Q861042
54aae2b2f29c48bed6acb25a941fd40c,western_union,LUNA,,Portoviejo,MANABI,,EC,+593 98 417 2225,https://location.westernunion.com/ec/manabi/portoviejo/54aae2b2f29c48bed6acb25a941fd40c,Mo-Sa 07:00-22:00; Su 09:00-19:00,Western Union,Q861042
cb3aa6ebc34f5c2297a07e0aa621d160,western_union,ACTIVA MC EL PASEO PORTOVIEJO,,Portoviejo,MANABI,,EC,+593 4-223-3600,https://location.westernunion.com/ec/manabi/portoviejo/cb3aa6ebc34f5c2297a07e0aa621d160,Mo-Sa 09:00-20:00; Su 10:00-20:00,Western Union,Q861042
c10f6646fbdd8fcfbd9871534968be89,western_union,CIS GDP EXCLUSIVIDADES NEYGIN,,Olmedo,MANABI,,EC,(+593) 9-996343335,https://location.westernunion.com/ec/manabi/olmedo/c10f6646fbdd8fcfbd9871534968be89,Mo-Sa 07:00-18:30; Su 07:00-17:00,Western Union,Q861042
3793d2eb236b9b86833c8882c2f66928,western_union,KIOSKO CACHARRY,,Olmedo,MANABI,,EC,+593 99 059 9883,https://location.westernunion.com/ec/manabi/olmedo/3793d2eb236b9b86833c8882c2f66928,Mo-Sa 08:00-19:00; Su 08:00-17:00,Western Union,Q861042
1ebb608993b7f23424e16e569e211218,western_union,CIS FTO AGENCIA CNT PORTOVIEJO,,Portoviejo,MANABI,,EC,(+0593) 9-968490717,https://location.westernunion.com/ec/manabi/portoviejo/1ebb608993b7f23424e16e569e211218,Mo-Su 08:00-18:00,Western Union,Q861042
f64792aa786b2d5329dd8e9e88b75b6f,western_union,CIS PAGO AGIL HELEN TARABO,,Olmedo,MANABI,,EC,+593 99 168 9562,https://location.westernunion.com/ec/manabi/olmedo/f64792aa786b2d5329dd8e9e88b75b6f,Mo-Su 08:00-20:00,Western Union,Q861042
b19b0cf465a5dfb54658011e24e29135,western_union,FM040 9 DE OCT OLMEDO,,Olmedo,MANABI,,EC,+593 4-371-0050,https://location.westernunion.com/ec/manabi/olmedo/b19b0cf465a5dfb54658011e24e29135,Mo-Su 08:00-21:00,Western Union,Q861042
4489efd692a2636ed140bf032fa51c04,western_union,FARMACIA HERMANO GREGORIO,,Santa Ana,MANABI,,EC,+593 4-371-0050,https://location.westernunion.com/ec/manabi/santa-ana/4489efd692a2636ed140bf032fa51c04,Mo-Sa 08:00-20:00; Su 08:00-15:00,Western Union,Q861042
d75d5718fce27b37393f2fb27edff54e,western_union,ACM CATALOGOS,,Santa Ana,MANABI,,EC,+593 5-264-0084,https://location.westernunion.com/ec/manabi/santa-ana/d75d5718fce27b37393f2fb27edff54e,Mo-Su 08:00-16:00,Western Union,Q861042
b792e61cf4ec6973d285c6a8bdcd8542,western_union,FM024 AV 15 DE ABRIL PORTOVIEJO,,Portoviejo,MANABI,,EC,+593 4-371-0050,https://location.westernunion.com/ec/manabi/portoviejo/b792e61cf4ec6973d285c6a8bdcd8542,Mo-Su 08:00-21:00,Western Union,Q861042
b2ec035bea024a1d62c5ee062eb74baa,western_union,SRNP TIA 520 PORTOVIEJO IV,,Portoviejo,MANABI,,EC,+593 4-371-0050,https://location.westernunion.com/ec/manabi/portoviejo/b2ec035bea024a1d62c5ee062eb74baa,Mo-Su 08:00-21:00,Western Union,Q861042
1fb9eea84bb1e3cfed71ac56853d279a,western_union,SRNP JIJON SERVIENTREGA SANTA ANA,,Santa Ana,MANABI,,EC,+593 4-371-0050,https://location.westernunion.com/ec/manabi/santa-ana/1fb9eea84bb1e3cfed71ac56853d279a,Mo-Su 08:00-21:00,Western Union,Q861042
0250c4c0f7bf55e1aedf983796294226,western_union,SRNP CELULARES PAEZ TT PORTOVIEJO,,Portoviejo,MANABI,,EC,+593 1800 937 837,https://location.westernunion.com/ec/manabi/portoviejo/0250c4c0f7bf55e1aedf983796294226,Mo-Su 09:00-19:00,Western Union,Q861042
6c9c1a3131ea022f73ee830c9be15f2d,western_union,PAGO AGIL TIENDAS 101,,Santa Ana,MANABI,,EC,+593 5-264-0518,https://location.westernunion.com/ec/manabi/santa-ana/6c9c1a3131ea022f73ee830c9be15f2d,Mo-Fr 08:00-16:00; Sa 09:00-13:00,Western Union,Q861042
32fa88a6609274ed28160aff09157515,western_union,SRNP ELIZABETH BARREZUETA PORTOVIEJ,,Manabi,MANABI,,EC,+593 4-371-0050,https://location.westernunion.com/ec/manabi/manabi/32fa88a6609274ed28160aff09157515,Mo-Su 08:00-21:00,Western Union,Q861042
89391f8c1311243fa20c45f583da2204,western_union,SERVICIOS VICTORIA,,Portoviejo,MANABI,,EC,+593 5-263-1335,https://location.westernunion.com/ec/manabi/portoviejo/89391f8c1311243fa20c45f583da2204,Mo-Fr 07:30-22:00; Sa-Su 08:30-22:00,Western Union,Q861042
e07c7bc112264d896ce057cb8c3b7158,western_union,SRNP CENTRO DE SERVICIOS SERVI,,Portoviejo,MANABI,,EC,+593 4-371-0050,https://location.westernunion.com/ec/manabi/portoviejo/e07c7bc112264d896ce057cb8c3b7158,Mo-Su 08:00-21:00,Western Union,Q861042
f82e3bb8038925fab5cc237633a39f4c,western_union,ROXANA ELIZABETH PARRALES ROSERO,,Portoviejo,MANABI,,EC,+593 4-371-0050,https://location.westernunion.com/ec/manabi/portoviejo/f82e3bb8038925fab5cc237633a39f4c,Mo-Fr 09:00-17:00; Sa-Su 09:00-13:00,Western Union,Q861042
1cb9b0a70b284d25862342c17e75015a,western_union,SRNP BCO PACIFICO RLS TAMRNDOS PTVIEJO,,Portoviejo,MANABI,,EC,+593 1800 937 837,https://location.westernunion.com/ec/manabi/portoviejo/1cb9b0a70b284d25862342c17e75015a,Mo-Su 09:00-18:00,Western Union,Q861042
1b4715efcb4a03a193b9da86006150e7,western_union,SRNP FE FARM ECONOMICAS IBIS PORTOVIEJO,,Portoviejo,MANABI,,EC,+593 4-371-0050,https://location.westernunion.com/ec/manabi/portoviejo/1b4715efcb4a03a193b9da86006150e7,Mo-Su 08:00-21:00,Western Union,Q861042
43da320226df44fa51a9ac3f93f95576,western_union,COAC 15 DE ABRIL MATRIZ,,Portoviejo,MANABI,,EC,+593 5-263-3032,https://location.westernunion.com/ec/manabi/portoviejo/43da320226df44fa51a9ac3f93f95576,Mo-Fr 08:30-16:30,Western Union,Q861042
5c3cf0d01dc95a4b697687dca5df1c20,western_union,FM032 PARQUE MAMEY PORTOVIEJO,,Portoviejo,MANABI,,EC,+593 4-371-0050,https://location.westernunion.com/ec/manabi/portoviejo/5c3cf0d01dc95a4b697687dca5df1c20,Mo-Su 08:00-21:00,Western Union,Q861042
7acb80781c2d8e2f4987992e8c48788a,western_union,CIS PAG COAC CHIBULEO PORTOVIEJO LTDA,,Portoviejo,MANABI,,EC,+593 96 070 5766,https://location.westernunion.com/ec/manabi/portoviejo/7acb80781c2d8e2f4987992e8c48788a,Mo-Su 08:00-20:00,Western Union,Q861042
b0c0e794c4a08a30ae02c3be11ce445b,western_union,SRNP DIF CA CM017 QUITO PORTOVIEJO,,Portoviejo,MANABI,,EC,+593 7-371-0050,https://location.westernunion.com/ec/manabi/portoviejo/b0c0e794c4a08a30ae02c3be11ce445b,Mo-Su 08:00-21:00,Western Union,Q861042
24227010338f05941f41d187cde8daa5,western_union,BAZAR Y NOVEDADES GALUCITA,,Portoviejo,MANABI,,EC,+593 98 548 7031,https://location.westernunion.com/ec/manabi/portoviejo/24227010338f05941f41d187cde8daa5,Mo-Fr 08:00-18:00; Sa 08:00-17:00; Su 07:00-14:00,Western Union,Q861042
49561f8bf29920eaf7741703917bab3a,western_union,SRNP BCO PACIFICO AMERICA PORTOVIEJO,,Portoviejo,MANABI,,EC,+593 1800 937 837,https://location.westernunion.com/ec/manabi/portoviejo/49561f8bf29920eaf7741703917bab3a,Mo-Su 09:00-17:00,Western Union,Q861042
0b22b15c1c852fe6a5a65951cd065920,western_union,FM036 15 DE ABRIL PORTOVIEJO,,Portoviejo,MANABI,,EC,+593 4-371-0050,https://location.westernunion.com/ec/manabi/portoviejo/0b22b15c1c852fe6a5a65951cd065920,Mo-Su 08:00-21:00,Western Union,Q861042
dc03e1e842cc06584241e079fe544c41,western_union,MC HIPER AV 15 DE ABRIL PORTOVIEJO,,Portoviejo,MANABI,,EC,+593 4-371-0050,https://location.westernunion.com/ec/manabi/portoviejo/dc03e1e842cc06584241e079fe544c41,Mo-Su 07:00-21:00,Western Union,Q861042
847ab245d0f87fe46afc9b4b8a4ea40d,western_union,ALUMINIO Y VIDRIO MARCELL,,Portoviejo,MANABI,,EC,+593 4-371-0050,https://location.westernunion.com/ec/manabi/portoviejo/847ab245d0f87fe46afc9b4b8a4ea40d,Mo-Fr 09:00-19:00; Sa-Su 09:00-17:00,Western Union,Q861042
583d2600937d71ee0ef6ad707c41146e,western_union,SRNP TIA 110 PORTOVIEJO,,Portoviejo,MANABI,,EC,+593 4-371-0050,https://location.westernunion.com/ec/manabi/portoviejo/583d2600937d71ee0ef6ad707c41146e,Mo-Su 08:00-21:00,Western Union,Q861042
107234f403fce8d4ae1d0937b7f07687,western_union,TIA AV  CHILE PORTOVIEJO,,Portoviejo,MANABI,,EC,+593 4-371-0050,https://location.westernunion.com/ec/manabi/portoviejo/107234f403fce8d4ae1d0937b7f07687,Mo-Su 08:00-21:00,Western Union,Q861042
1f60d38c5d46b6ae07d8db2bdf65bbeb,western_union,FM029 EL GUABITO PORTOVIEJO,,Portoviejo,MANABI,,EC,+593 4-371-0050,https://location.westernunion.com/ec/manabi/portoviejo/1f60d38c5d46b6ae07d8db2bdf65bbeb,Mo-Su 08:00-21:00,Western Union,Q861042
d9275e7e03c3dc740d3f45f3d8fa2661,western_union,SRNP BCO PACIFICO AG CNTRO PTOVIEJO CNTR,,Manabi,MANABI,,EC,+593 1800 937 837,https://location.westernunion.com/ec/manabi/manabi/d9275e7e03c3dc740d3f45f3d8fa2661,Mo-Su 08:30-16:00,Western Union,Q861042
3ba3248ba559e76ee254825d8965cca1,western_union,SRNP BANCO COMERCIAL M PORTOVI,,Portoviejo,MANABI,,EC,+593 5-263-2222,https://location.westernunion.com/ec/manabi/portoviejo/3ba3248ba559e76ee254825d8965cca1,Mo-Fr 09:00-15:00,Western Union,Q861042
9aafdacea50ddac5e3001e6cb9ddc373,western_union,ANCAR,,Portoviejo,MANABI,,EC,+593 5-265-1575,https://location.westernunion.com/ec/manabi/portoviejo/9aafdacea50ddac5e3001e6cb9ddc373,Mo-Fr 08:00-16:00; Sa 09:00-13:00,Western Union,Q861042
ada257e5a3144234899075c6bfacb2a4,western_union,TUS TRAMITESCOM NOVEDADES GHIS,,Portoviejo,MANABI,,EC,+593 5-265-4533,https://location.westernunion.com/ec/manabi/portoviejo/ada257e5a3144234899075c6bfacb2a4,Mo-Fr 08:00-16:00; Sa 09:00-13:00,Western Union,Q861042
8afafaa6ec608a605e50ed682317ac53,western_union,FM027 CDLA EL MAESTRO PORTOVIEJO,,Portoviejo,MANABI,,EC,+593 4-371-0050,https://location.westernunion.com/ec/manabi/portoviejo/8afafaa6ec608a605e50ed682317ac53,Mo-Su 08:00-21:00,Western Union,Q861042
2068631a48e5bcc49741bf3fb639a59d,western_union,SRNP PRINCES STORE PORTOVIEJO,,Portoviejo,MANABI,,EC,+593 4-371-0050,https://location.westernunion.com/ec/manabi/portoviejo/2068631a48e5bcc49741bf3fb639a59d,Mo-Su 08:00-21:00,Western Union,Q861042
d8782c367f39add8d3c72c3151a75b88,western_union,CIS VERSDESOTO ANGEL PORTOVIEJO,,Portoviejo,MANABI,,EC,(+593) 9-997785359,https://location.westernunion.com/ec/manabi/portoviejo/d8782c367f39add8d3c72c3151a75b88,Mo-Fr 07:30-21:00; Sa 08:00-20:00; Su 09:00-19:00,Western Union,Q861042
90a7bc1929b2e8a55602bb0aad815be7,western_union,SRNP ZUMRECAUDA CPN AG PORTOVIEJO,,Portoviejo,MANABI,,EC,+593 4-371-0050,https://location.westernunion.com/ec/manabi/portoviejo/90a7bc1929b2e8a55602bb0aad815be7,Mo-Su 08:00-21:00,Western Union,Q861042
27cf5212fcd6699991a007e666ba8b0c,western_union,FM003 MORALES PORTOVIEJO,,Portoviejo,MANABI,,EC,+593 4-371-0050,https://location.westernunion.com/ec/manabi/portoviejo/27cf5212fcd6699991a007e666ba8b0c,Mo-Su 08:00-21:00,Western Union,Q861042
112c7f71d317fc55fc43365b55f1571f,western_union,TIENDA KP,,Portoviejo,MANABI,,EC,+593 98 338 4619,https://location.westernunion.com/ec/manabi/portoviejo/112c7f71d317fc55fc43365b55f1571f,Mo-Su 05:00-23:30,Western Union,Q861042
fc3e9cc19ce76817045ad4aa81ed69fa,western_union,SRNP SANTA FE PORTOVIEJO,,Portoviejo,MANABI,,EC,+593 4-371-0050,https://location.westernunion.com/ec/manabi/portoviejo/fc3e9cc19ce76817045ad4aa81ed69fa,Mo-Su 08:00-21:00,Western Union,Q861042
2b99475a21e205d1049ea864d2b8a420,western_union,FM028 OLMEDO PORTOVIEJO,,Portoviejo,MANABI,,EC,+593 4-371-0050,https://location.westernunion.com/ec/manabi/portoviejo/2b99475a21e205d1049ea864d2b8a420,Mo-Su 08:00-21:00,Western Union,Q861042
adcb1e512a97c3aac7afc9c3ea229379,western_union,MULTICOMERCIO LADY,,Portoviejo,MANABI,,EC,+593 5-242-0284,https://location.westernunion.com/ec/manabi/portoviejo/adcb1e512a97c3aac7afc9c3ea229379,Mo-Su 07:00-22:00,Western Union,Q861042
609f93f918546aa1a725312a2299ba37,western_union,CIS DGL COAC LA UNION LTDA,,Portoviejo,MANABI,,EC,(+593) 9-990810225,https://location.westernunion.com/ec/manabi/portoviejo/609f93f918546aa1a725312a2299ba37,Mo-Sa 08:00-18:00; Su 09:00-13:00,Western Union,Q861042
571784e5b42b7c54ace45f707441aecf,western_union,FM005 KM 4 VIA A CRUCITA PORTOVIEJO,,Portoviejo,MANABI,,EC,+593 4-371-0050,https://location.westernunion.com/ec/manabi/portoviejo/571784e5b42b7c54ace45f707441aecf,Mo-Su 08:00-21:00,Western Union,Q861042
f3784f09c69f927a28ed697654e86682,western_union,FARMACIA CRUZ AZUL R,,Portoviejo,MANABI,,EC,+593 4-258-1300,https://location.westernunion.com/ec/manabi/portoviejo/f3784f09c69f927a28ed697654e86682,Mo-Fr 08:00-16:00; Sa 09:00-13:00,Western Union,Q861042
dd99144cd524b382cc9a8e7a6d3dd294,western_union,FM006 CDLA SAN MARCOS PORTOVIEJO,,Portoviejo,MANABI,,EC,+593 4-371-0050,https://location.westernunion.com/ec/manabi/portoviejo/dd99144cd524b382cc9a8e7a6d3dd294,Mo-Su 08:00-21:00,Western Union,Q861042
3b9e1c7ee58e0ed0e0e5fdc31ace386b,western_union,COMPU EXPRESS,,Portoviejo,MANABI,,EC,+593 98 690 0896,https://location.westernunion.com/ec/manabi/portoviejo/3b9e1c7ee58e0ed0e0e5fdc31ace386b,Mo-Fr 09:00-20:00; Sa 09:00-14:00,Western Union,Q861042
52d1c1ccd45f70d4d89dd0e007a3a074,western_union,CIS GDP SKYLERTECNOLOGY,,Portoviejo,MANABI,,EC,+593 99 957 3225,https://location.westernunion.com/ec/manabi/portoviejo/52d1c1ccd45f70d4d89dd0e007a3a074,Mo-Fr 08:30-19:00; Sa-Su 09:30-18:00,Western Union,Q861042
47f5ef4db001ac989b2efd523e2dfc53,western_union,PUNTO DE SERVICIOS,,Portoviejo,MANABI,,EC,+593 5-258-0696,https://location.westernunion.com/ec/manabi/portoviejo/47f5ef4db001ac989b2efd523e2dfc53,Mo-Su 08:00-20:00,Western Union,Q861042
ad1571905524f8e26f6fd0c128224e38,western_union,CIS CYBER MYM,,Portoviejo,MANABI,,EC,+593 99 649 5373,https://location.westernunion.com/ec/manabi/portoviejo/ad1571905524f8e26f6fd0c128224e38,Mo-Su 07:00-18:00,Western Union,Q861042
457a47ad7ecad2f8549a0c4725b83e32,western_union,CIS GDP BOTIQUIN LOS ANGELES,,Portoviejo,MANABI,,EC,(+593) 9-994113649,https://location.westernunion.com/ec/manabi/portoviejo/457a47ad7ecad2f8549a0c4725b83e32,Mo-Fr 08:30-19:00; Sa-Su 09:30-18:00,Western Union,Q861042
993d3e0823e2222fdb5e8d460c383fab,western_union,TIENDA LITOS,,Portoviejo,MANABI,,EC,+593 5-230-5098,https://location.westernunion.com/ec/manabi/portoviejo/993d3e0823e2222fdb5e8d460c383fab,Mo-Fr 08:00-16:00; Sa 09:00-13:00,Western Union,Q861042
604c08af433c10abb1cd56019c2c92e7,western_union,MULTICOMERCIO LADY 2,,Portoviejo,MANABI,,EC,+593 99 687 8064,https://location.westernunion.com/ec/manabi/portoviejo/604c08af433c10abb1cd56019c2c92e7,Mo-Su 06:00-23:00,Western Union,Q861042
ef6664cd68adccb9eb92110e8921ff0c,western_union,FARMACIA CRISTHIAN,,Portoviejo,MANABI,,EC,+593 98 484 5249,https://location.westernunion.com/ec/manabi/portoviejo/ef6664cd68adccb9eb92110e8921ff0c,Mo-Sa 08:00-21:00; Su 08:00-13:00,Western Union,Q861042
e19be4434938372045346ebf404b2b00,western_union,SRNP FLASH MOVIL PORTOVIEJO,,Portoviejo,MANABI,,EC,+593 4-371-0050,https://location.westernunion.com/ec/manabi/portoviejo/e19be4434938372045346ebf404b2b00,Mo-Su 08:00-21:00,Western Union,Q861042
2f86e37ff48e2cd1851bc3911c76c8da,western_union,SRNP MARIA ESCOBAR PORTOVIEJO,,Portoviejo,MANABI,,EC,+593 4-371-0050,https://location.westernunion.com/ec/manabi/portoviejo/2f86e37ff48e2cd1851bc3911c76c8da,Mo-Su 08:00-21:00,Western Union,Q861042
9355cc87f10bbcee1c58dfc226b9723b,western_union,SRNP FARMACIA NARANJO PORTOVIEJO,,Portoviejo,MANABI,,EC,+593 4-371-0050,https://location.westernunion.com/ec/manabi/portoviejo/9355cc87f10bbcee1c58dfc226b9723b,Mo-Su 08:00-21:00,Western Union,Q861042
9b37a94ef25908f341ef5875b28a1758,western_union,CIS GDP CINDY CELORIO,,Rocafuerte,MANABI,,EC,+593 99 733 4159,https://location.westernunion.com/ec/manabi/rocafuerte/9b37a94ef25908f341ef5875b28a1758,Mo-Fr 08:30-19:00; Sa-Su 09:30-18:00,Western Union,Q861042
880c6cd18180388ed745f6c5186b1670,western_union,CM022 KM 1.5 VIA A CRUCITA PORTOVIEJO,,Portoviejo,MANABI,,EC,+593 4-371-0050,https://location.westernunion.com/ec/manabi/portoviejo/880c6cd18180388ed745f6c5186b1670,Mo-Su 08:00-21:00,Western Union,Q861042
356af4bcb036fbc9ca5506b1e175dd6b,western_union,FM014 10 DE AGOSTO COLON,,Portoviejo,MANABI,,EC,+593 4-371-0050,https://location.westernunion.com/ec/manabi/portoviejo/356af4bcb036fbc9ca5506b1e175dd6b,Mo-Su 08:00-21:00,Western Union,Q861042
72566727bdd3d3ffb3fa3596a371c344,western_union,DESPENSA GOVIMO,,Portoviejo,MANABI,,EC,+593 5-265-1353,https://location.westernunion.com/ec/manabi/portoviejo/72566727bdd3d3ffb3fa3596a371c344,Mo-Fr 08:00-16:00; Sa 09:00-13:00,Western Union,Q861042
e7137cf472a12134c23fac7921f001cf,western_union,CIS PAG COAC MAQUITA CUSHUNCHIC PORTOVIE,,Portoviejo,MANABI,,EC,+593 99 920 4531,https://location.westernunion.com/ec/manabi/portoviejo/e7137cf472a12134c23fac7921f001cf,Mo-Su 08:00-20:00,Western Union,Q861042
2c0c8f6191fe316a177b008dee5d187e,western_union,FIA COOP ABDON CALDERON LTDA,,Portoviejo,MANABI,,EC,(+593) 5-647180,https://location.westernunion.com/ec/manabi/portoviejo/2c0c8f6191fe316a177b008dee5d187e,Mo 09:00-15:30; Th-Sa 09:00-15:30; Su 08:00-12:00,Western Union,Q861042
1b9da7b3f372cef8dd437e397a9b1692,western_union,SRNP PRODUSERVI PORTOVIEJO,,Portoviejo,MANABI,,EC,+593 4-371-0050,https://location.westernunion.com/ec/manabi/portoviejo/1b9da7b3f372cef8dd437e397a9b1692,Mo-Su 08:00-21:00,Western Union,Q861042
49df8598a422c6aef5be38d8e1a95eec,western_union,COAC MICROEMPRESARIAL SUCRE CR,,Portoviejo,MANABI,,EC,+593 5-267-2497,https://location.westernunion.com/ec/manabi/portoviejo/49df8598a422c6aef5be38d8e1a95eec,Mo-Su 08:00-20:00,Western Union,Q861042
48a5fad1678da0ed98a2b30ad01509f2,western_union,REZABALA GARCIA MARIA LIDUVINA,,Portoviejo,MANABI,,EC,+593 98 602 7385,https://location.westernunion.com/ec/manabi/portoviejo/48a5fad1678da0ed98a2b30ad01509f2,Mo-Su 08:00-20:00,Western Union,Q861042
4c3f2fce2e28b75bf1a643121f753a95,western_union,SRNP MULTISERVICIOS PARRAGA PORTOVIEJO,,Portoviejo,MANABI,,EC,+593 99 875 9882,https://location.westernunion.com/ec/manabi/portoviejo/4c3f2fce2e28b75bf1a643121f753a95,Mo-Su 08:00-21:00,Western Union,Q861042
3a2f3c21927147b22f58f99c10192c13,western_union,FM038 12 DE MARZO PORTOVIEJO,,Portoviejo,MANABI,,EC,+593 4-371-0050,https://location.westernunion.com/ec/manabi/portoviejo/3a2f3c21927147b22f58f99c10192c13,Mo-Su 08:00-21:00,Western Union,Q861042
8cb32612f3c975c55167da9499b94e42,western_union,FARMACIA SALVADOR,,Portoviejo,MANABI,,EC,+593 5-265-3451,https://location.westernunion.com/ec/manabi/portoviejo/8cb32612f3c975c55167da9499b94e42,Mo-Sa 07:00-21:00; Su 07:00-15:00,Western Union,Q861042
bc99d8e0458bdfa48588846fec61cfcc,western_union,SRNP MISTER CELL PORTOVIEJO,,Portoviejo,MANABI,,EC,+593 4-371-0050,https://location.westernunion.com/ec/manabi/portoviejo/bc99d8e0458bdfa48588846fec61cfcc,Mo-Su 08:00-21:00,Western Union,Q861042
fd344afa41e28a46758b1f5273791263,western_union,SRNP FERROELECTRICO PORTOVIEJO,,Portiviejo,MANABI,,EC,+593 4-371-0050,https://location.westernunion.com/ec/manabi/portiviejo/fd344afa41e28a46758b1f5273791263,Mo-Su 08:00-21:00,Western Union,Q861042
003d9199ddb67e87d4fa43a5bcb16cb0,western_union,MULTISERVICIOS KM 17,,Rocafuerte,MANABI,,EC,+593 5-247-8065,https://location.westernunion.com/ec/manabi/rocafuerte/003d9199ddb67e87d4fa43a5bcb16cb0,Mo-Sa 08:00-20:00; Su 08:00-13:00,Western Union,Q861042
4ea3d242d2c90f31d38d0341540ed42b,western_union,FM002 LOS ARENALES CRUCITA,,Portoviejo,MANABI,,EC,+593 4-371-0050,https://location.westernunion.com/ec/manabi/portoviejo/4ea3d242d2c90f31d38d0341540ed42b,Mo-Su 08:00-21:00,Western Union,Q861042
f7406b9e822608232ce621bc1e8b8d38,western_union,CIS PAGO AGIL CYBER NAUTICO,,Sucre,MANABI,,EC,+593 97 876 7687,https://location.westernunion.com/ec/manabi/sucre/f7406b9e822608232ce621bc1e8b8d38,Mo-Su 08:00-20:00,Western Union,Q861042
49acb06d37421e357e449a00c7e87f00,western_union,CYBER NAUTICO,,San Clemente,MANABI,,EC,+593 2-267-3034,https://location.westernunion.com/ec/manabi/san-clemente/49acb06d37421e357e449a00c7e87f00,Mo-Fr 09:00-22:00; Sa 09:00-23:30; Su 10:30-20:00,Western Union,Q861042
c7e7a1de00ebb56236ffd9e966586117,western_union,FM022 CAï¿½ITAS SUCRE,,Sucre,MANABI,,EC,+593 4-371-0050,https://location.westernunion.com/ec/manabi/sucre/c7e7a1de00ebb56236ffd9e966586117,Mo-Su 08:00-21:00,Western Union,Q861042
94c6c854eab5a88f2c7c83c4efde3f2f,western_union,SRNP TIA 132 EL CARMEN,,El Carmen,MANABI,,EC,+593 4-259-8830,https://location.westernunion.com/ec/manabi/el-carmen/94c6c854eab5a88f2c7c83c4efde3f2f,Mo-Su 08:00-19:00,Western Union,Q861042
911dd4efa4bf3b720007b19699557b94,western_union,R Y K TARJETERIA Y COPIADORA,,Charapoto,MANABI,,EC,+593 5-267-0436,https://location.westernunion.com/ec/manabi/charapoto/911dd4efa4bf3b720007b19699557b94,Mo-Fr 08:00-18:00; Sa 08:00-14:00,Western Union,Q861042
c19820f2c80f254dad5ced991b4f213c,western_union,CIS PAGO AGIL CLEAN CAR,,Sucre,MANABI,,EC,+593 98 029 5274,https://location.westernunion.com/ec/manabi/sucre/c19820f2c80f254dad5ced991b4f213c,Mo-Su 08:00-20:00,Western Union,Q861042
b6a20fa2590ba4c22fe86a4035c9ac13,western_union,FM021 SU SALUD SUCRE,,Sucre,MANABI,,EC,+593 4-371-0050,https://location.westernunion.com/ec/manabi/sucre/b6a20fa2590ba4c22fe86a4035c9ac13,Mo-Su 08:00-21:00,Western Union,Q861042
ebe65f676ee884017c26a2522200f1e0,western_union,CIS BRAVO MERO BRYAN,,Sucre,MANABI,,EC,+593 99 576 6153,https://location.westernunion.com/ec/manabi/sucre/ebe65f676ee884017c26a2522200f1e0,Mo-Su 08:30-20:00,Western Union,Q861042
ed4aab81a1ff6e2929d54f6920fdb095,western_union,COAC MICROEMPRESARIAL SUCRE CHARAPOTO,,Sucre,MANABI,,EC,+593 5-267-2497,https://location.westernunion.com/ec/manabi/sucre/ed4aab81a1ff6e2929d54f6920fdb095,Mo-Su 08:00-20:00,Western Union,Q861042
caf3badfe05a0311ad7c6086e7ac0711,western_union,SRNP FE FARM ECO CHARAPOTO PROGRESO 2,,Sucre,MANABI,,EC,+593 4-371-0050,https://location.westernunion.com/ec/manabi/sucre/caf3badfe05a0311ad7c6086e7ac0711,Mo-Su 08:00-21:00,Western Union,Q861042
1b24c5997454f4eccb386abb42043162,western_union,FM035 AV COSTA DEL SOL SUCRE,,Sucre,MANABI,,EC,+593 4-371-0050,https://location.westernunion.com/ec/manabi/sucre/1b24c5997454f4eccb386abb42043162,Mo-Su 08:00-21:00,Western Union,Q861042
fcb64d51e5415a3a3160c44e215faf7a,western_union,COAC MICROEMPRESARIAL SUCRE MATRIZ,,Sucre,MANABI,,EC,+593 5-267-2497,https://location.westernunion.com/ec/manabi/sucre/fcb64d51e5415a3a3160c44e215faf7a,Mo-Su 08:00-20:00,Western Union,Q861042
da831a0f3197e2109c79c13b5892e98d,western_union,SRNP COMERCIAL VELEZ PORTOVIEJO,,Portoviejo,MANABI,,EC,+593 4-371-0050,https://location.westernunion.com/ec/manabi/portoviejo/da831a0f3197e2109c79c13b5892e98d,Mo-Su 08:00-21:00,Western Union,Q861042
7d808b696c55fbe45ed2edac7ef1defd,western_union,FM009 OLMEDO ROCAFUERTE,,Rocafuerte,MANABI,,EC,+593 4-371-0050,https://location.westernunion.com/ec/manabi/rocafuerte/7d808b696c55fbe45ed2edac7ef1defd,Mo-Su 08:00-21:00,Western Union,Q861042
6e4613f22d22af41a394d3cc63305823,western_union,COAC MICROEMPRESARIAL SUCRE RO,,Rocafuerte,MANABI,,EC,+593 5-267-2497,https://location.westernunion.com/ec/manabi/rocafuerte/6e4613f22d22af41a394d3cc63305823,Mo-Su 08:00-20:00,Western Union,Q861042
a7a7f026bb446b4caa9d392b5082732b,western_union,FM026 JUAN MONTALVO ROCAFUERTE,,Rocafuerte,MANABI,,EC,+593 4-371-0050,https://location.westernunion.com/ec/manabi/rocafuerte/a7a7f026bb446b4caa9d392b5082732b,Mo-Su 08:00-21:00,Western Union,Q861042
f97c4fcdad0a49313fa4dd2206d6e3cc,western_union,CIS FTO AGENCIA CNT ROCAFUERTE,,Rocafuerte,MANABI,,EC,(+0593) 9-968490717,https://location.westernunion.com/ec/manabi/rocafuerte/f97c4fcdad0a49313fa4dd2206d6e3cc,Mo-Fr 10:00-20:00; Sa-Su 10:00-19:00,Western Union,Q861042
988cce0d0b0fd343c1dfec9fdfea57ae,western_union,JIMMY CARLOS ZAMORA CEDENO,,Rocafuerte,MANABI,,EC,+593 4-371-0050,https://location.westernunion.com/ec/manabi/rocafuerte/988cce0d0b0fd343c1dfec9fdfea57ae,Mo-Su 05:00-18:00,Western Union,Q861042
e86839f21b5df05308b16deecb01b5e3,western_union,FM010 BOLIVAR ROCAFUERTE,,Rocafuerte,MANABI,,EC,+593 4-371-0050,https://location.westernunion.com/ec/manabi/rocafuerte/e86839f21b5df05308b16deecb01b5e3,Mo-Su 08:00-21:00,Western Union,Q861042
a169199a5f39a331bf3c7e1ebf47c5ce,western_union,SRNP TIA 516 ROCAFUERTE,,Rocafuerte,MANABI,,EC,+593 4-371-0050,https://location.westernunion.com/ec/manabi/rocafuerte/a169199a5f39a331bf3c7e1ebf47c5ce,Mo-Su 08:00-21:00,Western Union,Q861042
66b74eabb5d38180d4683e393c7e97a7,western_union,FM025 30 DE SEPTIEMBRE ROCAFUERTE,,Rocafuerte,MANABI,,EC,+593 4-371-0050,https://location.westernunion.com/ec/manabi/rocafuerte/66b74eabb5d38180d4683e393c7e97a7,Mo-Su 08:00-21:00,Western Union,Q861042
a85d9db21d8299876d8b557671fd6650,western_union,MULTISERVICIOS RIO CHICO,,Portoviejo,MANABI,,EC,+593 5-230-8534,https://location.westernunion.com/ec/manabi/portoviejo/a85d9db21d8299876d8b557671fd6650,Mo-Su 07:00-21:00,Western Union,Q861042
5b8ddc0037cfbf725c7cba6cfdf5b692,western_union,SRNP WALTER BAZURTO PORTOVIEJO,,Portoviejo,MANABI,,EC,+593 1800 937 837,https://location.westernunion.com/ec/manabi/portoviejo/5b8ddc0037cfbf725c7cba6cfdf5b692,Mo-Sa 09:00-17:00; Su 09:00-18:00,Western Union,Q861042
d66e80b620d09aa8ad81b62ee0619855,western_union,SRNP FE FARM ECONOMICAS RIO CHICO PORTOV,,Portoviejo,MANABI,,EC,+593 4-371-0050,https://location.westernunion.com/ec/manabi/portoviejo/d66e80b620d09aa8ad81b62ee0619855,Mo 07:00-20:00; Tu-Su 07:00-22:00,Western Union,Q861042
2218a15eabfe5a66927bca392c0a3728,western_union,MULTISERVICIOS JHA DE BAG,,Portoviejo,MANABI,,EC,+593 96 114 7027,https://location.westernunion.com/ec/manabi/portoviejo/2218a15eabfe5a66927bca392c0a3728,Mo-Fr 08:00-19:00; Sa 09:00-16:00,Western Union,Q861042
6b1a6bde84fa3c440cac2990d6def74a,western_union,SANCHEZ CEDEO MARIA FERNANDA,,Abdon Calderon,MANABI,,EC,+593 5-264-7273,https://location.westernunion.com/ec/manabi/abdon-calderon/6b1a6bde84fa3c440cac2990d6def74a,Mo-Sa 07:00-18:00; Su 06:00-12:00,Western Union,Q861042
61f5edc194111c180790f446d1cff860,western_union,COMERCIAL CARLOS JIMENEZ,,San Placido,MANABI,,EC,+593 5-267-6008,https://location.westernunion.com/ec/manabi/san-placido/61f5edc194111c180790f446d1cff860,Mo-Su 08:00-19:00,Western Union,Q861042
3d7c122a6e8c15861d5c78169a8478c2,western_union,FM023 VIA A JUNIN PORTOVIEJO,,Portoviejo,MANABI,,EC,+593 4-371-0050,https://location.westernunion.com/ec/manabi/portoviejo/3d7c122a6e8c15861d5c78169a8478c2,Mo-Su 08:00-21:00,Western Union,Q861042
90c3250c37cfbba86238788e72784316,western_union,SRNP TIA 378 SAN VICENTE,,San Vicente,MANABI,,EC,+593 4-259-8830,https://location.westernunion.com/ec/manabi/san-vicente/90c3250c37cfbba86238788e72784316,Mo-Su 08:00-19:00,Western Union,Q861042
6a1239b8de14a492778628e89d2b09a6,western_union,FM034 AV MALECON SAN VICENTE,,San Vicente,MANABI,,EC,+593 4-371-0050,https://location.westernunion.com/ec/manabi/san-vicente/6a1239b8de14a492778628e89d2b09a6,Mo-Su 08:00-21:00,Western Union,Q861042
bfb098fd03f2139749290835f36157ab,western_union,SRNP FASHION EXPRESS MALECON SAN VICENTE,,San Vicente,MANABI,,EC,+593 1800 937 837,https://location.westernunion.com/ec/manabi/san-vicente/bfb098fd03f2139749290835f36157ab,Mo-Fr 08:00-17:30; Sa 08:00-14:00,Western Union,Q861042
3563d28b86b229298543f49a420f0b70,western_union,SRNP INMOBILIARIA NUEVA ESPERA,,San Vicente,MANABI,,EC,+593 99 397 9637,https://location.westernunion.com/ec/manabi/san-vicente/3563d28b86b229298543f49a420f0b70,Mo-Su 08:00-21:00,Western Union,Q861042
9e6e72e34d1e62d55f936bcdd6bea8b4,western_union,FM042 LEONIDAS PLAZA SUCRE,,Sucre,MANABI,,EC,+593 4-371-0050,https://location.westernunion.com/ec/manabi/sucre/9e6e72e34d1e62d55f936bcdd6bea8b4,Mo-Su 08:00-21:00,Western Union,Q861042
a9fc05f0f3e82d59941c96b980a7f1ad,western_union,MM002 AV CESAR RUPERTI SUCRE,,Sucre,MANABI,,EC,+593 4-371-0050,https://location.westernunion.com/ec/manabi/sucre/a9fc05f0f3e82d59941c96b980a7f1ad,Mo-Su 08:00-21:00,Western Union,Q861042
fd6cc218d06b42e54cfc0296bbafaff3,western_union,ACTIVA TIA TOSAGUA,,Tosagua,MANABI,,EC,+593 1800 937 837,https://location.westernunion.com/ec/manabi/tosagua/fd6cc218d06b42e54cfc0296bbafaff3,Mo-Su 09:00-18:00,Western Union,Q861042
85207ff51650720a0fb22a57d1b7cb14,western_union,SRNP TIA 315 TOSAGUA,,Tosagua,MANABI,,EC,+593 4-259-8830,https://location.westernunion.com/ec/manabi/tosagua/85207ff51650720a0fb22a57d1b7cb14,Mo-Su 08:00-19:00,Western Union,Q861042
64210fe818bdae6158800d656601750d,western_union,CIS GDP NOVEDADES JAEL,,Tosagua,MANABI,,EC,+593 98 147 7730,https://location.westernunion.com/ec/manabi/tosagua/64210fe818bdae6158800d656601750d,Mo-Fr 08:30-19:00; Sa-Su 09:30-18:00,Western Union,Q861042
c2b71bb5f2ae5ecc2695089916c3cdca,western_union,CIS FTO AGENCIA CNT BAHIA,,Sucre,MANABI,,EC,(+0593) 9-968490717,https://location.westernunion.com/ec/manabi/sucre/c2b71bb5f2ae5ecc2695089916c3cdca,Mo-Fr 08:00-17:00,Western Union,Q861042
9fb274ed112dd0cc761c8cd36b32e5b7,western_union,SRNP TIA 176 BAHIA MANABI,,Bahia De Caraquez,MANABI,,EC,+593 4-259-8830,https://location.westernunion.com/ec/manabi/bahia-de-caraquez/9fb274ed112dd0cc761c8cd36b32e5b7,Mo-Su 08:00-19:00,Western Union,Q861042
a3c854e2c7f90d4a2dd63dd83386b025,western_union,FM043 AV BOLIVAR SUCRE,,Sucre,MANABI,,EC,+593 4-371-0050,https://location.westernunion.com/ec/manabi/sucre/a3c854e2c7f90d4a2dd63dd83386b025,Mo-Su 08:00-21:00,Western Union,Q861042
9c3804285972e3c247ad064df6ccd7b4,western_union,ACTIVA MC HIPER BAHIA DE CARAQUEZ,,Sucre,MANABI,,EC,(+593) 1-997515902,https://location.westernunion.com/ec/manabi/sucre/9c3804285972e3c247ad064df6ccd7b4,Mo-Sa 09:00-19:00; Su 19:00-19:00,Western Union,Q861042
8cc5f3b93f08c3fc81b2f77ebd212971,western_union,CIS GDP JENNIFFER SOLORZANO,,San Vicente,MANABI,,EC,(+593) 9-981255939,https://location.westernunion.com/ec/manabi/san-vicente/8cc5f3b93f08c3fc81b2f77ebd212971,Mo-Fr 08:30-19:00; Sa-Su 09:30-18:00,Western Union,Q861042
50f24348191ec08ae539189333689791,western_union,COAC MICROEMPRESARIAL SUCRE TOSAGUA,,Tosagua,MANABI,,EC,+593 5-267-2497,https://location.westernunion.com/ec/manabi/tosagua/50f24348191ec08ae539189333689791,Mo-Su 08:00-20:00,Western Union,Q861042
c3091acda2e82272698c50417cd726ca,western_union,SRNP MIGUEL INTRIAGO JUNIN,,Junin,MANABI,,EC,+593 4-371-0050,https://location.westernunion.com/ec/manabi/junin/c3091acda2e82272698c50417cd726ca,Mo-Su 08:00-20:00,Western Union,Q861042
142c6e2007dfb0ad6131e608746f1d25,western_union,SANTANA PONCE WILLIAM LEOPOLDO,,Junin,MANABI,,EC,+593 5-268-9020,https://location.westernunion.com/ec/manabi/junin/142c6e2007dfb0ad6131e608746f1d25,Mo-Su 08:00-20:00,Western Union,Q861042
3e8eb1fb7e97301f8b16c77e768f3fdd,western_union,FM015 FLORIDA CHONE,,Chone,MANABI,,EC,+593 4-371-0050,https://location.westernunion.com/ec/manabi/chone/3e8eb1fb7e97301f8b16c77e768f3fdd,Mo-Su 08:00-21:00,Western Union,Q861042
4ed87435f98c1da43cea23d850b8a8ff,western_union,SRNP MEGAFIB SUCRE,,Sucre,MANABI,,EC,+593 4-371-0050,https://location.westernunion.com/ec/manabi/sucre/4ed87435f98c1da43cea23d850b8a8ff,Mo-Su 08:00-21:00,Western Union,Q861042
1875e7341a6212a07e1c8bee484ef844,western_union,ACTIVA TIA BOLIVAR CHONE,,Chone,MANABI,,EC,+593 4-223-3600,https://location.westernunion.com/ec/manabi/chone/1875e7341a6212a07e1c8bee484ef844,Mo-Sa 09:00-17:00,Western Union,Q861042
ce4b0976401ace2ccb8ccff7e64134e1,western_union,CIS PAGO AGIL REPRESENTACIONES CARVAJAL,,Chone,MANABI,,EC,+593 99 016 6405,https://location.westernunion.com/ec/manabi/chone/ce4b0976401ace2ccb8ccff7e64134e1,Mo-Su 08:00-20:00,Western Union,Q861042
c2d66401e74ad4a38995319aac92fbbe,western_union,SRNP TIA 129 CHONE,,Chone,MANABI,,EC,+593 4-259-8830,https://location.westernunion.com/ec/manabi/chone/c2d66401e74ad4a38995319aac92fbbe,Mo-Su 08:00-19:00,Western Union,Q861042
6a48f8c179f791077c150c03daadd3a7,western_union,FM013 SAN ISIDRO SUCRE,,Sucre,MANABI,,EC,+593 4-371-0050,https://location.westernunion.com/ec/manabi/sucre/6a48f8c179f791077c150c03daadd3a7,Mo-Su 08:00-21:00,Western Union,Q861042
d31850ef3a8b0e8884505391222176e5,western_union,CIS PAGO AGIL MULTISERVICIOS SS,,Sucre,MANABI,,EC,+593 99 442 8286,https://location.westernunion.com/ec/manabi/sucre/d31850ef3a8b0e8884505391222176e5,Mo-Su 08:00-20:00,Western Union,Q861042
140f982216e2551e3b5ebdfe492d158a,western_union,KENYA Y DIEGO RECARGAS,,Sucre,MANABI,,EC,+593 99 500 3605,https://location.westernunion.com/ec/manabi/sucre/140f982216e2551e3b5ebdfe492d158a,Mo-Fr 08:00-20:00; Sa 08:00-18:30; Su 08:00-18:00,Western Union,Q861042
7f0f1aa8cc2dc2d7cc6d86ca40e6d065,western_union,SRNP RAFICO S RESTAURANT CHONE,,Manabi,MANABI,,EC,+593 4-371-0050,https://location.westernunion.com/ec/manabi/manabi/7f0f1aa8cc2dc2d7cc6d86ca40e6d065,Mo-Su 08:00-21:00,Western Union,Q861042
0d98faa5e372321cd6d587e0a3b98d17,western_union,CIS FTO AGENCIA CNT CHONE,,Chone,MANABI,,EC,(+0593) 9-968490717,https://location.westernunion.com/ec/manabi/chone/0d98faa5e372321cd6d587e0a3b98d17,Mo-Fr 08:00-17:00; Sa 09:00-13:00,Western Union,Q861042
cd0b790ee4d53e25b0e025a33c3b22fe,western_union,AMADEUS PLUS,,Chone,MANABI,,EC,+593 96 066 5558,https://location.westernunion.com/ec/manabi/chone/cd0b790ee4d53e25b0e025a33c3b22fe,Mo-Sa 08:00-20:00; Su 08:00-13:00,Western Union,Q861042
9bb3f81cfc9e97649841db00b9d0f031,western_union,SRNP MINI MARKET CAMILIN CHONE,,Chone,MANABI,,EC,+593 4-371-0050,https://location.westernunion.com/ec/manabi/chone/9bb3f81cfc9e97649841db00b9d0f031,Mo-Su 08:00-21:00,Western Union,Q861042
4031a22d1780d3149db859fc6df9b377,western_union,SRNP DIF CA FM054 LUIS MA  PINTO PICHINC,,Pichincha,MANABI,,EC,+593 4-371-0050,https://location.westernunion.com/ec/manabi/pichincha/4031a22d1780d3149db859fc6df9b377,Mo-Su 08:00-21:00,Western Union,Q861042
32820d0dcac8397ff6308f1fc8b72e28,western_union,SRNP TIA 348 PICHINCHA,,Pichincha,MANABI,,EC,+593 4-259-8830,https://location.westernunion.com/ec/manabi/pichincha/32820d0dcac8397ff6308f1fc8b72e28,Mo-Su 08:00-19:00,Western Union,Q861042
dfe6eb9f48b49dfc21c712e4716ac2e8,western_union,CIS PAGO AGIL CYBERTRON,,Pichincha,MANABI,,EC,+593 99 488 3450,https://location.westernunion.com/ec/manabi/pichincha/dfe6eb9f48b49dfc21c712e4716ac2e8,Mo-Su 08:00-20:00,Western Union,Q861042
99d39d9550b755c110c2961dbf7a84f8,western_union,FM011 AMAZONAS CHONE,,Chone,MANABI,,EC,+593 4-371-0050,https://location.westernunion.com/ec/manabi/chone/99d39d9550b755c110c2961dbf7a84f8,Mo-Su 08:00-21:00,Western Union,Q861042
932e1fa89f39f0231834b8d8b227197c,western_union,CIS GDP MIGUEL CEVALLOS,,Jama,MANABI,,EC,(+0593) 9-988714154,https://location.westernunion.com/ec/manabi/jama/932e1fa89f39f0231834b8d8b227197c,Mo-Fr 08:30-19:00; Sa-Su 09:30-18:00,Western Union,Q861042
753ca705f4452141942e67e4d1014243,western_union,GINGER VICTORIA GARCIA AMEN,,Chone,MANABI,,EC,+593 4-371-0050,https://location.westernunion.com/ec/manabi/chone/753ca705f4452141942e67e4d1014243,Mo-Su 08:00-18:00,Western Union,Q861042
57f553fa8d0fe7c9509eb752a00704a3,western_union,SRNP CINDY SOLORZANO CALCETA,,Calceta,MANABI,,EC,+593 4-371-0050,https://location.westernunion.com/ec/manabi/calceta/57f553fa8d0fe7c9509eb752a00704a3,Mo-Su 08:00-21:00,Western Union,Q861042
9db7b42c9ba55bd625af0e41742c87bb,western_union,ACTIVA TIA CALCETA,,Manta,MANABI,,EC,(+593) 5-837,https://location.westernunion.com/ec/manabi/manta/9db7b42c9ba55bd625af0e41742c87bb,Mo-Su 09:00-18:00,Western Union,Q861042
be8fc6c1982063164712950b3381ac5a,western_union,ACTIVA TIA CALCETA,,Manta,MANABI,,EC,+593 1800 937 837,https://location.westernunion.com/ec/manabi/manta/be8fc6c1982063164712950b3381ac5a,Mo-Su 09:00-18:00,Western Union,Q861042
c6a576204ca5404e5c1743174da98bb4,western_union,SRNP TIA 158 CALCETA,,Calceta,MANABI,,EC,+593 4-259-8830,https://location.westernunion.com/ec/manabi/calceta/c6a576204ca5404e5c1743174da98bb4,Mo-Su 08:00-19:00,Western Union,Q861042
eed1119312bf10da543fad0892932757,western_union,FM039 AV CARLOS ARAY CHONE,,Chone,MANABI,,EC,+593 4-371-0050,https://location.westernunion.com/ec/manabi/chone/eed1119312bf10da543fad0892932757,Mo-Su 08:00-21:00,Western Union,Q861042
6cda372a5a599b25a95d65a51fb3f1d7,western_union,SRNP COMPAC XPRESS CHONE,,Chone,MANABI,,EC,+593 4-371-0050,https://location.westernunion.com/ec/manabi/chone/6cda372a5a599b25a95d65a51fb3f1d7,Mo-Su 08:00-21:00,Western Union,Q861042
ffaf5bee88437b4490e84f52dc906095,western_union,CA K POLLO AV 7 DE AGOSTO CHONE,,Chone,MANABI,,EC,+593 4-371-0050,https://location.westernunion.com/ec/manabi/chone/ffaf5bee88437b4490e84f52dc906095,Mo-Su 08:00-21:00,Western Union,Q861042
49ae58ef8aabcaa808ac7f22c1893330,western_union,PAGO FACIL,,Chone,MANABI,,EC,+593 99 008 1210,https://location.westernunion.com/ec/manabi/chone/49ae58ef8aabcaa808ac7f22c1893330,Mo-Su 07:00-22:00,Western Union,Q861042
27a416dc125c5f4f513fad5085e45bb9,western_union,FM012 VARGAS TORRES CHONE,,Chone,MANABI,,EC,+593 4-371-0050,https://location.westernunion.com/ec/manabi/chone/27a416dc125c5f4f513fad5085e45bb9,Mo-Su 08:00-21:00,Western Union,Q861042
9080ebc333b185c831f586982120c94e,western_union,FM037 VARGAS TORRES 2 CHONE,,Chone,MANABI,,EC,+593 4-371-0050,https://location.westernunion.com/ec/manabi/chone/9080ebc333b185c831f586982120c94e,Mo-Su 08:00-21:00,Western Union,Q861042
ff28652d51cb252f22dc30e9a04f036c,western_union,TIENDA RENACER,,Pedernales,MANABI,,EC,+593 98 932 4232,https://location.westernunion.com/ec/manabi/pedernales/ff28652d51cb252f22dc30e9a04f036c,Mo-Su 08:00-22:00,Western Union,Q861042
78eab7e44faf8b3e7364b32fdb58f2d4,western_union,SRNP DISENSA MANABI PEDERNALES,,Pedernales,MANABI,,EC,(+593) 1-800937837-123,https://location.westernunion.com/ec/manabi/pedernales/78eab7e44faf8b3e7364b32fdb58f2d4,Mo-Sa 09:00-18:00,Western Union,Q861042
bc91454c05d9131b0be1a48ceea964eb,western_union,SRNP MEGABANQUITOS PEDERNALES,,Pedernales,MANABI,,EC,+593 4-371-0050,https://location.westernunion.com/ec/manabi/pedernales/bc91454c05d9131b0be1a48ceea964eb,Mo-Su 08:00-21:00,Western Union,Q861042
8f5d9c4791d4b1e6d0a7aac0ef197a70,western_union,MM001 VELASCO IBARRA PEDERNALES,,Pedernales,MANABI,,EC,+593 4-371-0050,https://location.westernunion.com/ec/manabi/pedernales/8f5d9c4791d4b1e6d0a7aac0ef197a70,Mo-Su 08:00-21:00,Western Union,Q861042
2e4aab165e46be05ce470a16e25b8505,western_union,ACTIVA TIA PEDERNALES,,Pedernales,MANABI,,EC,+593 4-223-3600,https://location.westernunion.com/ec/manabi/pedernales/2e4aab165e46be05ce470a16e25b8505,Mo-Su 09:00-19:00,Western Union,Q861042
94509624386cf25fa59010e9e421eac4,western_union,SRNP TIA 177 PEDERNALES,,Pedernales,MANABI,,EC,+593 4-259-8830,https://location.westernunion.com/ec/manabi/pedernales/94509624386cf25fa59010e9e421eac4,Mo-Su 08:00-19:00,Western Union,Q861042
d47161726788c66bb84cb57c1343fca8,western_union,SOLUCIONES EXPRESS I,,Pedernales,MANABI,,EC,+593 99 193 2333,https://location.westernunion.com/ec/manabi/pedernales/d47161726788c66bb84cb57c1343fca8,Mo-Su 07:00-21:00,Western Union,Q861042
84a08af5784e5864bb27181eaf215f42,western_union,CLARK SPORT,,Pedernales,MANABI,,EC,+593 4-371-0050,https://location.westernunion.com/ec/manabi/pedernales/84a08af5784e5864bb27181eaf215f42,Mo-Su 08:00-19:00,Western Union,Q861042
42494f5a22f58cee057d8c76eb7b8786,western_union,MULTISERVICIOS VIRGEN DEL CARMEN,,Pedernales,MANABI,,EC,+593 96 184 4088,https://location.westernunion.com/ec/manabi/pedernales/42494f5a22f58cee057d8c76eb7b8786,Mo-Fr 08:00-19:00; Sa 08:00-17:00,Western Union,Q861042
2c690389cc853bf26bbec80b904f33d4,western_union,MULTISERVICIOS JUDITH,,Pedernales,MANABI,,EC,+593 99 193 6509,https://location.westernunion.com/ec/manabi/pedernales/2c690389cc853bf26bbec80b904f33d4,Mo-Sa 07:30-18:00; Su 08:00-18:00,Western Union,Q861042
16024ce30fa345c4765477a026079a50,western_union,SRNP NANCY CHIPANTIZA PEDERNALES,,Pedernales,MANABI,,EC,+593 4-371-0050,https://location.westernunion.com/ec/manabi/pedernales/16024ce30fa345c4765477a026079a50,Mo-Su 08:00-21:00,Western Union,Q861042
4c0f1b48f02c74c42bebcf1c92efa9f6,western_union,COAC MICROEMPRESARIAL SUCRE FLAVIO,,Flavio Alfaro,MANABI,,EC,+593 5-267-2501,https://location.westernunion.com/ec/manabi/flavio-alfaro/4c0f1b48f02c74c42bebcf1c92efa9f6,Mo-Su 08:00-20:00,Western Union,Q861042
5c6fdd0ab14f75d44ee8fddba7acf9ba,western_union,FM001 SANTA FE FLAVIO ALFARO,,Flavio Alfaro,MANABI,,EC,+593 4-371-0050,https://location.westernunion.com/ec/manabi/flavio-alfaro/5c6fdd0ab14f75d44ee8fddba7acf9ba,Mo-Su 08:00-21:00,Western Union,Q861042
8038f61cc903c44621270ccabc83f0c6,western_union,SRNP FE FARM ECONOMICAS FLAVIO ALFARO 2,,Flavio Alfaro,MANABI,,EC,+593 4-371-0050,https://location.westernunion.com/ec/manabi/flavio-alfaro/8038f61cc903c44621270ccabc83f0c6,Mo-Su 08:00-23:00,Western Union,Q861042
b0edaed41a2fd7efba398588e91fcbc9,western_union,SRNP CYBER ONNET FLAVIO ALFARO,,Flavio Alfaro,MANABI,,EC,+593 4-371-0050,https://location.westernunion.com/ec/manabi/flavio-alfaro/b0edaed41a2fd7efba398588e91fcbc9,Mo-Su 08:00-21:00,Western Union,Q861042
5ebb8851d492fca515bc92706ba1b7b1,western_union,SRNP DIF CA FM060 LUIS PINTO EL CARMEN,,El Carmen,MANABI,,EC,+593 4-371-0050,https://location.westernunion.com/ec/manabi/el-carmen/5ebb8851d492fca515bc92706ba1b7b1,Mo-Su 08:00-21:00,Western Union,Q861042
8ecc3dc4fcf29783bb52da72c2554f46,western_union,SRNP DIF CA FM061 STA MARIA #2 EL CARMEN,,El Carmen,MANABI,,EC,+593 4-371-0050,https://location.westernunion.com/ec/manabi/el-carmen/8ecc3dc4fcf29783bb52da72c2554f46,Mo-Su 08:00-21:00,Western Union,Q861042
795f92c2f96c974aa94ec933ca190feb,western_union,AGRO COMERCIAL,,El Carmen,MANABI,,EC,+593 98 931 6983,https://location.westernunion.com/ec/manabi/el-carmen/795f92c2f96c974aa94ec933ca190feb,Mo-Su 07:00-22:00,Western Union,Q861042
1cb3a2d6ba0e0a659141749ecc796bcd,western_union,CIS PAGO AGIL KATIUSKA DELGADO,,El Carmen,MANABI,,EC,+593 99 435 0574,https://location.westernunion.com/ec/manabi/el-carmen/1cb3a2d6ba0e0a659141749ecc796bcd,Mo-Su 08:00-20:00,Western Union,Q861042
d94cb32fba88cbf788d18115901b7027,western_union,CIS PAGO AGIL ALIMED,,El Carmen,MANABI,,EC,(+593) 9-997700991,https://location.westernunion.com/ec/manabi/el-carmen/d94cb32fba88cbf788d18115901b7027,Mo-Su 08:00-20:00,Western Union,Q861042
ee545831e75c3644c2dbb81c353dfaf8,western_union,CIS PAGO AGIL BENDICION DE DIOS,,El Carmen,MANABI,,EC,(+0593) 9-997568980,https://location.westernunion.com/ec/manabi/el-carmen/ee545831e75c3644c2dbb81c353dfaf8,Mo-Su 08:00-20:00,Western Union,Q861042
39d027cc6c74be91f6d5269324734dd1,western_union,SRNP MUNDINET EL CARMEN,,El Carmen,MANABI,,EC,+593 1800 937 837,https://location.westernunion.com/ec/manabi/el-carmen/39d027cc6c74be91f6d5269324734dd1,Mo-Su 07:00-22:00,Western Union,Q861042
9f04ec6299228d3b5753a4209f9ffe39,western_union,SRNP MINI DESPENSA LA FORTUNA EL CARMEN,,El Carmen,MANABI,,EC,+593 4-371-0050,https://location.westernunion.com/ec/manabi/el-carmen/9f04ec6299228d3b5753a4209f9ffe39,Mo-Su 08:00-21:00,Western Union,Q861042
3d38b1c3194981c2b1c034d250f25461,western_union,CM010 AV 3 DE JULIO EL CARMEN,,El Carmen,MANABI,,EC,+593 4-371-0050,https://location.westernunion.com/ec/manabi/el-carmen/3d38b1c3194981c2b1c034d250f25461,Mo-Su 08:00-21:00,Western Union,Q861042
dbe735a08189020bcd475d5e06342e35,western_union,GABYS MARKET,,El Carmen,MANABI,,EC,+593 98 106 4576,https://location.westernunion.com/ec/manabi/el-carmen/dbe735a08189020bcd475d5e06342e35,Mo-Sa 08:00-20:00; Su 08:00-14:00,Western Union,Q861042
973cf60685d59749234bc28d804ce2c3,western_union,CIS PAG COAC PADRE JULIAN LORENTE CARMEN,,El Carmen,MANABI,,EC,(+0593) 967391291,https://location.westernunion.com/ec/manabi/el-carmen/973cf60685d59749234bc28d804ce2c3,Mo-Su 08:00-20:00,Western Union,Q861042
7d4901a03c07bd2bd7f2b77701e7e2b7,western_union,ACTIVA AG EL CARMEN,,El Carmen,MANABI,,EC,+593 1800 937 837,https://location.westernunion.com/ec/manabi/el-carmen/7d4901a03c07bd2bd7f2b77701e7e2b7,Mo-Su 09:00-19:00,Western Union,Q861042
bcd87d9655ca9cc6f9b04ffd12111d76,western_union,SERVICIOS MARIZOL,,El Carmen,MANABI,,EC,+593 5-266-1698,https://location.westernunion.com/ec/manabi/el-carmen/bcd87d9655ca9cc6f9b04ffd12111d76,Mo-Su 07:00-19:30,Western Union,Q861042
e278a2ee93c3661d3fdd6c23bdd4097a,western_union,ACTIVA TIA CHONE EL CARMEN,,El Carmen,MANABI,,EC,+593 1800 937 837,https://location.westernunion.com/ec/manabi/el-carmen/e278a2ee93c3661d3fdd6c23bdd4097a,Mo-Su 09:00-18:00,Western Union,Q861042
f5c803c165c0298968c143b0b4ffda70,western_union,CIS FTO AGENCIA CNT EL CARMEN,,El Carmen,MANABI,,EC,(+0593) 9-968490717,https://location.westernunion.com/ec/manabi/el-carmen/f5c803c165c0298968c143b0b4ffda70,Mo-Fr 08:00-17:00; Sa 09:00-13:00,Western Union,Q861042
0ddd87d3eba4de2bfd1117df42a838a3,western_union,SRNP COMERCIAL 2 HERMANOS EL CARMEN,,El Carmen,MANABI,,EC,+593 4-371-0050,https://location.westernunion.com/ec/manabi/el-carmen/0ddd87d3eba4de2bfd1117df42a838a3,Mo-Su 08:00-21:00,Western Union,Q861042
8e0f46163404c4f011c0ba1605864302,western_union,MM SERVICIOS,,El Carmen,MANABI,,EC,+593 99 639 3623,https://location.westernunion.com/ec/manabi/el-carmen/8e0f46163404c4f011c0ba1605864302,Mo-Sa 07:30-21:00; Su 09:00-17:00,Western Union,Q861042
051bee4005819e811d97df1f31f534ba,western_union,SRNP FRIGORIFICO CRNS Y MARISC EL CARMEN,,El Carmen,MANABI,,EC,+593 4-371-0050,https://location.westernunion.com/ec/manabi/el-carmen/051bee4005819e811d97df1f31f534ba,Mo-Su 08:00-21:00,Western Union,Q861042
96f569c2c8dcf98285ad7b4c77036497,western_union,CIS PAGO AGIL SHOV VIAL,,El Carmen,MANABI,,EC,(+0593) 997811085,https://location.westernunion.com/ec/manabi/el-carmen/96f569c2c8dcf98285ad7b4c77036497,Mo-Su 08:00-20:00,Western Union,Q861042
22999e5aff225d42a881b6f28d6b3353,western_union,CIS PAGO AGIL EL GARAJE,,El Carmen,MANABI,,EC,(+593) 9-959869828,https://location.westernunion.com/ec/manabi/el-carmen/22999e5aff225d42a881b6f28d6b3353,Mo-Su 08:00-20:00,Western Union,Q861042
e070561fded0363de1c3759763c60791,western_union,SRNP MARIA MARMOLEJO EL CARMEN,,El Carmen,MANABI,,EC,+593 4-371-0050,https://location.westernunion.com/ec/manabi/el-carmen/e070561fded0363de1c3759763c60791,Mo-Su 08:00-21:00,Western Union,Q861042
9b436fec55bfa643fb7c43b18f349873,western_union,SRNP ISACAR GASOLINERA EL GRANJERITO,,El Carmen,MANABI,,EC,+593 4-371-0050,https://location.westernunion.com/ec/manabi/el-carmen/9b436fec55bfa643fb7c43b18f349873,Mo-Su 08:00-21:00,Western Union,Q861042
133955277a4b136957b4adb38f2a3582,western_union,SRNP DISENSA AV PRINCIPAL SAN SEBASTIAN,,Manabi,MANABI,,EC,(+593) 4-2233600-123,https://location.westernunion.com/ec/manabi/manabi/133955277a4b136957b4adb38f2a3582,Mo-Fr 08:00-17:00; Sa 08:00-14:00,Western Union,Q861042
d3c5c9dd3060f416bdce47c65537f83e,western_union,SRNP FE FARM ECON AV. JOSE MA.URB PORTOV,,Portoviejo,MANABI,,EC,+593 4-371-0050,https://location.westernunion.com/ec/manabi/portoviejo/d3c5c9dd3060f416bdce47c65537f83e,Mo-Su 08:00-21:00,Western Union,Q861042
367e752cc690e3397d85e6b0ea445444,western_union,SRNP FE FARM ECONOMICAS AV MALDON PICHIN,,Pichincha,MANABI,,EC,+593 4-371-0050,https://location.westernunion.com/ec/manabi/pichincha/367e752cc690e3397d85e6b0ea445444,Mo-Su 08:00-21:00,Western Union,Q861042
