Ref,Spider,Name,Address,City,State,Zipcode,Country,Phone,Website,Hours,Brand,WikiData
https://www.academy.com/storelocator/#8745573,academy_us,Academy Sports + Outdoors,,Wichita,KS,,US,+1 316-220-2220,https://www.academy.com/storelocator/kansas/wichita/store-0132,Mo-Th 09:00-21:00; Fr 09:00-22:00; Sa 08:00-22:00; Su 09:00-21:00,Academy Sports + Outdoors,Q4671380
https://locations.arbys.com/ks/wichita/7221-west-21-street.html,arbys_us,"Arby's Fast-Food Drive Through Near You in Wichita, KS",,Wichita,KS,,US,+1 316-773-4662,https://locations.arbys.com/ks/wichita/7221-west-21-street.html,Mo-Su 09:30-23:00,Arby's,Q630866
https://locations.arbys.com/ks/wichita/3730-n.-maize-rd..html,arbys_us,"Arby's Fast-Food Drive Through Near You in Wichita, KS",,Wichita,KS,,US,+1 316-721-1320,https://locations.arbys.com/ks/wichita/3730-n.-maize-rd..html,Mo-Su 09:30-22:00,Arby's,Q630866
12561,asics_us,Academy Sports + Outdoors ,2710 N Maize Rd,Wichita,KS,,US,+1 316-220-2220,,,asics,Q327247
19073,asics_us,Fleet Feet Wichita West,2556 N Maize Rd #108,Wichita,KS,,US,+1 316-978-9690,,Mo-Fr 10:00-19:00; Sa 10:00-18:00; Su 12:00-17:00,asics,Q327247
62261,asics_us,Shoe Carnival,2441 N Maize Rd,Wichita,KS,,US,+1 316-722-2436,,,asics,Q327247
1154,att_us,WICHITA WEST,,Wichita,KS,,US,+1 316-773-2355,https://www.att.com/stores/kansas/wichita/1154,Mo-Sa 09:00-20:00; Su 11:00-18:00,AT&T,Q298594
https://locations.auntieannes.com/#1208377010741574906,auntie_annes,Auntie Anne's Wichita,,Wichita,KS,,US,+1 316-942-4501,https://locations.auntieannes.com/ks/wichita/10209-w-29th-st-n,Mo-Sa 10:00-20:00; Su 12:00-18:00,Auntie Anne's,Q4822010
4471,autozone_us,AutoZone Auto Parts Wichita,,Wichita,KS,,US,+1 316-776-6526,https://www.autozone.com/locations/ks/wichita/3710-n--maize-rd.html,Mo-Sa 07:30-21:00; Su 09:00-19:00,AutoZone,Q4826087
https://locators.bankofamerica.com/ks/wichita/financial-centers-wichita-9492.html,bankofamerica,Bank of America Financial Center & Drive-Thru ATM | Reflection Ridge,,Wichita,KS,,US,+1 316-261-2210,https://locators.bankofamerica.com/ks/wichita/financial-centers-wichita-9492.html,Mo-Fr 10:00-16:00,Bank of America,Q487907
https://locators.bankofamerica.com/ks/wichita/atm-wichita-109255.html,bankofamerica,Bank of America Drive-Thru ATM | Northgate Shopping Center,,Wichita,KS,,US,+1 844-401-8500,https://locators.bankofamerica.com/ks/wichita/atm-wichita-109255.html,,Bank of America,Q487907
BBW01760,bathandbodyworks_us,NEW MARKET SQUARE,,WICHITA,KS,,US,+1 316-721-1840,,Mo-Sa 10:00-21:00; Su 11:00-18:00,Bath & Body Works,Q810773
195,batteriesplus,Shop our Wichita Location Today,,Wichita,KS,,US,+1 316-613-3872,https://www.batteriesplus.com/store-locator/ks/wichita/batteries-plus-195,Mo-Fr 08:00-19:00; Sa 09:00-19:00; Su 10:00-18:00,Batteries Plus Bulbs,Q17005157
https://stores.bestbuy.com/ks/wichita/2441-n-maize-rd-1513.html,bestbuy,Best Buy Northwest Wichita,,Wichita,KS,,US,+1 316-524-2079,https://stores.bestbuy.com/ks/wichita/2441-n-maize-rd-1513.html,,Best Buy,Q533415
178267,bluerhino,Kwik Shop #790,,Wichita,KS,,US,+1 316-722-4403,,,Blue Rhino,Q65681213
201864,bluerhino,Menards - WICHITA WEST #3276,,WICHITA,KS,,US,+1 316-729-5851,,,Blue Rhino,Q65681213
55029,bluerhino,Walmart #3283 - Supercenter,,Wichita,KS,,US,+1 316-729-5446,,,Blue Rhino,Q65681213
108952,bluerhino,Lowe's #2340,,Wichita,KS,,US,+1 316-206-1030,,,Blue Rhino,Q65681213
156346,bluerhino,Walgreens #6005,,Wichita,KS,,US,+1 316-722-0741,,,Blue Rhino,Q65681213
9770,bluerhino,Dillons #49,,Wichita,KS,,US,+1 316-729-1530,,,Blue Rhino,Q65681213
203457,bluerhino,CASEY'S GENERAL STORE #3599,,WICHITA,KS,,US,+1 316-722-1600,,,Blue Rhino,Q65681213
178221,bluerhino,Kwik Shop #727,,Wichita,KS,,US,+1 316-729-7312,,,Blue Rhino,Q65681213
https://local.buckle.com/ks/wichita/clothing-26.html,buckle_us,Wichita Men’s & Women’s Clothing,,Wichita,KS,,US,+1 316-943-7524,https://local.buckle.com/ks/wichita/clothing-26.html,Mo-Sa 10:00-20:00; Su 12:00-18:00,Buckle,Q4983306
//locations.carters.com/ks/wichita/carters-wichita-market-ks,carters_us,Carter's Wichita West,,Wichita,KS,,US,+1 316-773-2850,https://locations.carters.com/ks/wichita/carters-wichita-market-ks,Mo-Sa 10:00-19:00; Su 11:00-18:00,Carter's,Q5047083
ks_wichita_2241-n-maize-rd,chipotle, ,,Wichita,KS,,US,+1 316-722-4300,https://locations.chipotle.com/ks/wichita/2241-n-maize-rd,,Chipotle,Q465751
61768,citi,ATM Kwik Shop,,Wichita,KS,,US,,,,Citibank,Q857063
82189,citi,ATM Target,,Wichita,KS,,US,,,,Citibank,Q857063
57585,citi,ATM Fuzzy's Taco Shop,,Wichita,KS,,US,,,,Citibank,Q857063
55214,citi,ATM FIDELITY BANK,,Wichita,KS,,US,,,,Citibank,Q857063
55215,citi,ATM FIDELITY BANK,,Wichita,KS,,US,,,,Citibank,Q857063
55213,citi,ATM FIDELITY BANK,,Wichita,KS,,US,,,,Citibank,Q857063
89057,citi,ATM Walgreens,,Wichita,KS,,US,,,,Citibank,Q857063
75901,citi,ATM SIMMONS BANK,,Wichita,KS,,US,,,,Citibank,Q857063
61806,citi,ATM Kwik Shop,,Wichita,KS,,US,,,,Citibank,Q857063
wichita/6610,claires,Shop Ear Piercings & Jewelry at New Market Square,,Wichita,KS,,US,+1 316-942-4076,https://stores.claires.com/us/ks/wichita/6610.html,Mo-Sa 10:00-20:00; Su 12:00-18:00,Claire's,Q2974996
20702,coldstone_creamery,Cold Stone Creamery,,Wichita,KS,,US,+1 316-729-4245,https://www.coldstonecreamery.com/stores/20702,,Cold Stone Creamery,Q1094923
,credit_union_us,Quantum Credit Union,,Wichita,KS,,US,+1 316-263-5756,,Mo-Fr 09:00-05:30; Sa 09:00-12:00,,
80213166,cricket_wireless,Cricket Wireless Authorized Retailer,,Wichita,KS,,US,+1 316-260-2422,https://www.cricketwireless.com/stores/ll/US/KS/Wichita/8821-W-21st-St-N,Mo-Sa 10:00-19:00; Su 12:00-17:00,Cricket Wireless,Q5184987
17062,cvs_us,CVS Pharmacy,,Wichita,KS,,US,+1 316-729-2798,https://www.cvs.com/store-locator/wichita-ks-pharmacies/2727-n-maize-rd-wichita-ks-67205/storeid=17062,"Mo-Fr 10:00-13:30,14:00-19:00; Sa 11:00-13:30,14:00-17:00; Su 12:00-17:00",CVS Pharmacy,Q2078880
7915,dollartree,DollarTree,,Maize,KS,,US,+1 316-789-7060,,Mo-Sa 09:00-21:00; Su 10:00-20:00,Dollar Tree,Q5289230
6387,dominos_pizza_us,Domino's Pizza,,Wichita,KS,,US,+1 316-773-6868,https://pizza.dominos.com/kansas/wichita/10231-west-21st-street-suite-101a,Mo-Th 10:30-24:00; Fr-Sa 10:30-01:00; Su 10:30-24:00,Domino's,Q839466
363135,dunkin_us,Dunkin',,Wichita,KS,,US,+1 316-392-6192,https://locations.dunkindonuts.com/en/ks/wichita/3134-n-maize-rd/363135,Mo-Su 05:30-20:00,Dunkin',Q847743
DB611,dutchbros,Maize,,Wichita,KS,,US,,https://locations.dutchbros.com/dutch-bros-coffee-30d439561bab,Mo-Th 05:00-22:00; Fr-Sa 05:00-23:00; Su 05:00-22:00,Dutch Bros. Coffee,Q5317253
https://www.edwardjones.com/us-en/financial-advisor/travis-tanner,edwardjones,Travis Tanner,,Wichita,KS,,US,+1 316-440-0197,https://www.edwardjones.com/us-en/financial-advisor/travis-tanner,Mo-Th 09:00-17:00; Fr 09:00-16:00,Edward Jones,Q5343830
520651,eg_america_us,Kwik Shop,,Wichita,KS,,US,+1 316-722-4403,https://www.kwikshop.com/find-us/generic-store-page/?id=350790,,Kwik Shop,Q6450417
520603,eg_america_us,Kwik Shop,,Wichita,KS,,US,+1 316-729-7312,https://www.kwikshop.com/find-us/generic-store-page/?id=350727,,Kwik Shop,Q6450417
E1516E,enterprise,Wichita W. 21st St.,,Wichita,KS,,US,+1 316-721-1000,,,Enterprise Rent-A-Car,Q17085454
1329,european_wax_center_us,European Wax Center,,Wichita,KS,,US,+1 316-867-4515,https://locations.waxcenter.com/ks/wichita/wichita-new-market-square-1329.html,Mo-Fr 09:00-20:00; Sa 09:00-18:00; Su 09:00-17:00,European Wax Center,Q5413426
28827,firestone_auto_care,Firestone Complete Auto Care,,Wichita,KS,,US,+1 316-854-3988,https://local.firestonecompleteautocare.com/kansas/wichita/2318-n-maize-rd/,,Firestone,Q420837
https://locations.fivebelow.com/ks/wichita/2710-n-maize-rd,five_below,Five Below Central Park Plaza,,Wichita,KS,,US,,https://locations.fivebelow.com/ks/wichita/2710-n-maize-rd,Mo-Sa 10:00-20:00; Su 11:00-18:00,Five Below,Q5455836
https://restaurants.fiveguys.com/#15553302,five_guys_us,Five Guys North Maize Rd.,,Wichita,KS,,US,+1 316-722-5489,https://restaurants.fiveguys.com/3807-n-maize-road,"Mo-Su 11:00-21:30,11:00-22:00",Five Guys,Q1131810
https://fuzzystacoshop.com/locations/kansas/wichita-new-market-square/,fuzzys_taco_shop_us,Wichita (New Market Square),,Wichita,KS,,US,+1 316-260-2701,https://fuzzystacoshop.com/locations/kansas/wichita-new-market-square/,Mo-Su 10:00-22:00,Fuzzy's Taco Shop,Q85762348
4877,gamestop_us,New Market Square,,WICHITA,KS,,US,+1 316-729-9330,https://www.gamestop.com/search/?store=4877,Mo-Th 12:00-19:00; Fr-Sa 11:00-20:00; Su 12:00-18:00,GameStop,Q202210
https://stores.gnc.com/#24058009,gnc,GNC New Market Square,,,KS,,US,+1 316-773-3982,https://stores.gnc.com/all-stores-kansas/wichita/2441-north-maize-street,Mo-Sa 09:00-20:00; Su 12:00-18:00,GNC,Q4808595
dfb08ecf-458a-e111-8dde-005056934050,goodwill,3737 N. Maize Road Store,,Wichita,KS,,US,+1 316-729-6600,https://www.goodwill.org/locator/location/?store=ZGZiMDhlY2YtNDU4YS1lMTExLThkZGUtMDA1MDU2OTM0MDUw&lat=MzcuNzUwNA==&lng=LTk3LjQ2Mjg5,,Goodwill,Q5583655
https://salons.greatclips.com/us/ks/wichita/2441-n-maize-rd,greatclips,Great Clips,,Wichita,KS,,US,+1 316-773-2366,https://salons.greatclips.com/us/ks/wichita/2441-n-maize-rd,Mo-Fr 10:00-17:00; Sa-Su 10:00-18:00,Great Clips,Q5598967
https://www.harborfreight.com/storelocator/2414-n-maize-road-wichita-67205?number=3462,harborfreight,"Harbor Freight Tools Nw Wichita, KS",,Wichita,KS,,US,+1 316-243-9363,https://www.harborfreight.com/storelocator/2414-n-maize-road-wichita-67205?number=3462,Mo-Sa 08:00-20:00; Su 09:00-18:00,Harbor Freight Tools,Q5654601
https://www.blockadvisors.com/local-tax-offices/kansas/wichita/2441-n-maize-rd-ste-103/16544/,h_r_block,H&R Block,,Wichita,KS,,US,+1 316-942-7964,https://www.blockadvisors.com/local-tax-offices/kansas/wichita/2441-n-maize-rd-ste-103/16544/,,H&R Block,Q5627799
ks_wichita_breakfast-3204-n.-maize-rd-2144,ihop,IHOP Breakfast Restaurants Near You at 3204 N. Maize Rd,,Wichita,KS,,US,+1 316-928-2280,https://restaurants.ihop.com/en-us/ks/wichita/breakfast-3204-n.-maize-rd-2144,,IHOP,Q1185675
https://office.jacksonhewitt.com/#27575207,jackson_hewitt,Jackson Hewitt,,Wichita,KS,,US,+1 316-369-1899,https://office.jacksonhewitt.com/tax-preparation-services-locations/en/ks/wichita/10600-w-21st-st-n/53283,Mo-Th 11:00-19:00; Fr 10:00-18:00; Sa 09:00-17:00; Su 13:00-17:00,Jackson Hewitt,Q6117132
https://locations.jamba.com/#3805833357881072464,jambajuice,Jamba Wichita,,Wichita,KS,,US,,https://locations.jamba.com/ks/wichita/10209-w-29th-st-n,Mo-Sa 10:00-20:00; Su 12:00-18:00,Jamba Juice,Q3088784
west-wichita-deli,jasonsdeli,West Wichita Deli,"7447 West 21st St N, Wichita, Kansas 67205",Wichita,KS,,US,+1 316-721-4993,https://www.jasonsdeli.com/restaurants/west-wichita-deli,Mo-Su 10:00-22:00,Jason's Deli,Q16997641
3862,jiffy_lube_us,N. Maize Road,,WICHITA,KS,,US,+1 316-202-0889,https://www.jiffylube.com/locations/ks/wichita/3862,Mo-Fr 07:00-19:00; Sa 07:00-18:00,Jiffy Lube,Q6192247
https://locations.jimmyjohns.com/ks/wichita/sandwiches-1402.html,jimmy_johns,Jimmy John's,,Wichita,KS,,US,+1 316-722-9700,https://locations.jimmyjohns.com/ks/wichita/sandwiches-1402.html,,Jimmy John's,Q1689380
https://locations.kfc.com/#11249054,kfc,Chicken Nuggets Near Wichita,,Wichita,KS,,US,,https://locations.kfc.com/ks/wichita/7227-w-21st-street-north/chickennugget,Mo-Su 10:30-22:00,KFC,Q524757
39564,little_free_library,Little Free Library #39564 Wichita KS,,Wichita,KS,,US,,,,Little Free Library,Q6650101
https://locations.massageenvy.com/#1773720,massage_envy,Massage Envy Wichita West,,Wichita Wichita,KS,,US,+1 316-722-9100,https://locations.massageenvy.com/kansas/wichita/2441-n-maize-rd.html,Mo-Fr 09:00-21:00; Sa 09:00-20:00; Su 10:00-20:00,Massage Envy,Q10327170
16696,mattress_firm_us,Mattress Firm North Maize,,Wichita,KS,,US,+1 316-721-1447,https://www.mattressfirm.com/en-us/stores/ks/wichita/114010/,,Mattress Firm,Q6791878
https://locations.maurices.com/#11688643,maurices,maurices New Market Square,,Wichita,KS,,US,+1 316-773-2494,https://locations.maurices.com/us/ks/wichita/2441-n-maize-road,Mo-Sa 10:00-21:00; Su 11:00-18:00,maurices,Q6793571
3276,menards,WICHITA WEST,"3660 N MAIZE RD, WICHITA, KS 67205",WICHITA,KS,,US,,https://www.menards.com/main/storeDetails.html?store=3276,,Menards,Q1639897
71474995,moneygram,WAL-MART - #3283,,WICHITA,KS,,US,+1 316-729-5446,,Mo-Su 07:00-21:00,MoneyGram,Q1944412
51,old_chicago_us,West Wichita Tyler,"2240 N TYLER RD STE 100, WICHITA, KS 67205",WICHITA,KS,,US,,https://oldchicago.com/locations/west-wichita-tyler,Mo-We 11:00-00:00; Th-Sa 11:00-02:00; Su 11:00-00:00,Old Chicago,Q64411347
1267,orangetheory_fitness,"Wichita - West, KS",,Wichita,KS,,US,+1 316-239-6348,,,Orangetheory Fitness,Q25005163
https://locations.oreillyauto.com/ks/maize/check-engine-light-testing-4598.html,oreilly,Your Maize O'Reilly Auto Parts Store,,Maize,KS,,US,+1 316-722-2290,https://locations.oreillyauto.com/ks/maize/check-engine-light-testing-4598.html,Mo-Sa 07:30-21:00; Su 09:00-21:00,O'Reilly Auto Parts,Q7071951
https://locations.oreillyauto.com/ks/maize/wiper-installation-4598.html,oreilly,Your Maize O'Reilly Auto Parts Store,,Maize,KS,,US,+1 316-722-2290,https://locations.oreillyauto.com/ks/maize/wiper-installation-4598.html,Mo-Sa 07:30-21:00; Su 09:00-21:00,O'Reilly Auto Parts,Q7071951
https://locations.oreillyauto.com/ks/maize/battery-testing-4598.html,oreilly,Your Maize O'Reilly Auto Parts Store,,Maize,KS,,US,+1 316-722-2290,https://locations.oreillyauto.com/ks/maize/battery-testing-4598.html,Mo-Sa 07:30-21:00; Su 09:00-21:00,O'Reilly Auto Parts,Q7071951
https://locations.oreillyauto.com/ks/maize/autopartes-4598.html,oreilly,Tu tienda O'Reilly Auto Parts en Maize,,Maize,KS,,US,+1 316-722-2290,https://locations.oreillyauto.com/ks/maize/autopartes-4598.html,Mo-Sa 07:30-21:00; Su 09:00-21:00,O'Reilly Auto Parts,Q7071951
112383,pandaexpress,21st & Maize,,Wichita,KS,,US,+1 316-722-4649,https://www.pandaexpress.com/locations/ks/wichita/2760-n-maize-rd,Mo-Th 10:00-21:30; Fr-Sa 10:00-22:00; Su 10:00-21:30,Panda Express,Q1358690
https://locations.papajohns.com/#10691341,papa_johns,Papa John's,,Wichita,KS,,US,+1 316-729-8000,https://locations.papajohns.com/united-states/ks/67205/wichita/8918-w-21st-st-n,Mo-We 10:00-23:00; Th 10:00-24:00; Fr-Sa 10:00-01:00; Su 10:00-24:00,Papa John's Pizza,Q2759586
512333,penske,U-Stor Maize,,WICHITA,KS,,US,+1 620-662-6475,https://www.pensketruckrental.com/locations/us/kansas/wichita/512333/,,Penske,Q81234570
https://stores.petco.com/#27960246,petco,Petco Wichita Maize,,Wichita,KS,,US,+1 316-773-2650,https://stores.petco.com/ks/wichita/pet-supplies-wichita-ks-1672.html,Mo-Sa 09:00-20:00; Su 10:00-19:00,Petco,Q7171798
ks_wichita_8821-w-21st-st,pizza_hut_us,8821 W. 21st St.,,Wichita,KS,,US,+1 316-721-1616,https://locations.pizzahut.com/ks/wichita/8821-w-21st-st,,Pizza Hut,Q191615
ks_wichita_2727-maize-road,pizza_hut_us,2727 Maize Road,,Wichita,KS,,US,,https://locations.pizzahut.com/ks/wichita/2727-maize-road,,Pizza Hut,Q191615
restaurant_883456,popeyes_us_fr,Popeyes,"3166 N. Maize Rd Wichita, Kansas 67205 - USA",Wichita,KS,,US,+1 316-247-1995,https://www.popeyes.com/store-locator/store/restaurant_883456,Mo-Su 10:30-21:00,Popeyes,Q1330910
spectrum-paint-north-llc-65078,ppgpaints,SPECTRUM PAINT NORTH LLC,,"Wichita, ",KS,,US,+1 316-854-5240,https://www.ppgpaints.com/store-locator/us/kansas/wichita-paint-stores/spectrum-paint-north-llc-65078,,PPG Paints,Q83891559
369,primrose_schools,Primrose School of Wichita West,,Wichita,KS,,US,+1 316-670-0791,https://www.primroseschools.com/schools/wichita-west/,,Primrose Schools,Q7243677
https://www.publicstorage.com/self-storage-ks-wichita/6119.html,public_storage_us,Public Storage,,Wichita,KS,,US,+1 316-910-4855,https://www.publicstorage.com/self-storage-ks-wichita/6119.html,,Public Storage,Q1156045
https://locations.quiktrip.com/#16003810,quiktrip_us,QuikTrip Store #358 7120 W 21st St N,,Wichita,KS,,US,+1 316-729-5998,https://locations.quiktrip.com/ks/wichita/7120-w-21st-st-n,24/7,QuikTrip,Q7271953
https://locations.quiktrip.com/#16003811,quiktrip_us,QuikTrip Store #359 4051 N Ridge Rd,,Wichita,KS,,US,+1 316-721-1334,https://locations.quiktrip.com/ks/wichita/4051-n-ridge-rd,24/7,QuikTrip,Q7271953
https://locations.quiktrip.com/#18608397,quiktrip_us,QuikTrip Store #357 2954 N Maize Rd,,Wichita,KS,,US,+1 316-358-6197,https://locations.quiktrip.com/ks/wichita/2954-n-maize-rd,24/7,QuikTrip,Q7271953
2027,ross_dress_for_less_us,NW Wichita,,Wichita,KS,,US,+1 316-721-5408,,Mo-Th 09:30-21:30; Fr-Sa 09:30-22:00; Su 10:00-20:30,Ross Dress for Less,Q3442791
6275,sams_club,Wichita Sam's Club,,Wichita,KS,,US,+1 316-347-2578,https://www.samsclub.com/club/wichita-ks-sams-club/6275,Mo 10:00-20:00; Sa 09:00-20:00; Su 10:00-18:00,Sam's Club,Q1972120
location-9443,sbarro,KwikShop Wichita 790,3750 N Maize Rd,Wichita,KS,,US,,https://sbarro.com/locations/kansas/wichita/kwikshop-wichita-790/,,Sbarro,Q2589409
34,scooters_coffee_us,Ridge Rd,,Wichita,KS,,US,+1 816-853-4140,,Mo-Sa 06:00-19:00; Su 07:00-19:00,Scooter's Coffee,Q117280308
233,shoe_carnival_us,Shoe Carnival,,Wichita,KS,,US,+1 316-722-2436,https://stores.shoecarnival.com/ks/wichita/shoe-store-wichita-ks-233.html,Mo-Sa 10:00-21:00; Su 11:00-19:00,Shoe Carnival,Q7500007
14580055311673896852,sleep_number_us,Sleep Number,,Wichita,KS,,US,,https://www.sleepnumber.com/stores/ks/wichita/2441-north-maize-road,Mo 10:00-20:00; Tu-We 10:00-19:00; Th 11:00-19:00; Fr 10:00-20:00; Sa 11:00-20:00; Su 11:00-19:00,Sleep Number,Q7447640
13,sola_salon_studios,West Wichita,,Wichita,KS,,US,+1 316-272-7949,https://www.solasalonstudios.com/locations/west-wichita-ks,,Sola Salon Studios,Q64337426
https://restaurants.subway.com/#14902363,subway,Subway,,Wichita Segwick,KS,,US,+1 316-721-7777,https://restaurants.subway.com/united-states/ks/wichita/3704-n-maize-rd,Mo-Su 08:00-22:00,Subway,Q244457
https://restaurants.subway.com/#14900626,subway,Subway,,Wichita Sedgwick,KS,,US,+1 316-722-0006,https://restaurants.subway.com/united-states/ks/wichita/10243-w-21st-st,Mo-Su 09:00-22:00,Subway,Q244457
https://locations.tacobell.com/#6142311,taco_bell,Taco Bell,,Wichita,KS,,US,+1 316-729-1885,https://locations.tacobell.com/ks/wichita/7301-west-21st-street.html,Mo-Su 07:00-24:00,Taco Bell,Q752941
101182,tjx,Wichita,2441 N Maize Rd ,Wichita,KS,,US,+1 316-722-2350,,Mo-Sa 09:30-21:30; Su 10:00-20:00,Marshalls,Q15903261
3SHV,tmobile_us,Maize Rd & N Crestline Ct,,Wichita,KS,,US,+1 316-721-2267,https://www.t-mobile.com/store-locator/ks/wichita/maize-rd-n-crestline-ct,,T-Mobile,Q3511885
2B93,tmobile_us,Sam's Club Wichita KS,,Wichita,KS,,US,+1 316-227-2238,https://www.t-mobile.com/store-locator/ks/wichita/sams-club-wichita-ks,,T-Mobile,Q3511885
https://www.ubreakifix.com/locations/wichita,ubreakifix,uBreakiFix Wichita,,Wichita,KS,,US,+1 316-285-0055,https://www.ubreakifix.com/locations/wichita,Mo-Sa 10:00-19:00; Su 12:00-17:00,uBreakiFix,Q53685733
6720500011,usps_collection_boxes,USPS COLLECTION BOX - BLUE BOX,3710 N MAIZE RD,WICHITA,KS,,US,,,,United States Postal Service,Q668687
6720500007,usps_collection_boxes,USPS COLLECTION BOX - BLUE BOX,10222 W 21ST ST N,WICHITA,KS,,US,,,,United States Postal Service,Q668687
6720500009,usps_collection_boxes,USPS COLLECTION BOX - BLUE BOX,8821 W 21ST ST N,WICHITA,KS,,US,,,,United States Postal Service,Q668687
6720500001,usps_collection_boxes,USPS COLLECTION BOX - BLUE BOX,7570 W 21ST ST N,WICHITA,KS,,US,,,,United States Postal Service,Q668687
R00000250093,verizon_us,New Market Square,,Wichita,KS,,US,+1 316-722-4532,https://www.verizon.com/stores/details/kansas/wichita/new-market-square-1040010/,Mo-Fr 10:00-20:00; Sa 09:00-19:00; Su 10:00-17:00,Verizon,Q919641
,visa,,,WICHITA,KS,,US,,,,,
,visa,,,WICHITA,KS,,US,,,,,
,visa,,,WICHITA,KS,,US,,,,,
,visa,,,WICHITA,KS,,US,,,,,
,visa,,,WICHITA,KS,,US,,,,,
,visa,,,WICHITA,KS,,US,,,,,
,visa,,,WICHITA,KS,,US,,,,,
,visa,,,WICHITA,KS,,US,,,,,
,visa,,,WICHITA,KS,,US,,,,,
,visa,,,WICHITA,KS,,US,,,,,
,visa,,,WICHITA,KS,,US,,,,,
,visa,,,WICHITA,KS,,US,,,,,
,visa,,,WICHITA,KS,,US,,,,,
,visa,,,WICHITA,KS,,US,,,,,
,visa,,,WICHITA,KS,,US,,,,,
,visa,,,WICHITA,KS,,US,,,,,
,visa,,,WICHITA,KS,,US,,,,,
,visa,,,WICHITA,KS,,US,,,,,
https://www.walgreens.com/locator/walgreens-2229+n+maize+rd-wichita-ks-67205/id=6005,walgreens,Walgreens,,Wichita,KS,,US,+1 316-722-0741,https://www.walgreens.com/locator/walgreens-2229+n+maize+rd-wichita-ks-67205/id=6005,Mo-Sa 07:00-22:00; Su 08:00-22:00,Walgreens,Q1591889
https://locations.wendys.com/#16004951,wendys,"Wendy's 3751 N Ridge Rd in Wichita, KS",,Wichita,KS,,US,+1 316-665-4409,https://locations.wendys.com/united-states/ks/wichita/3751-n-ridge-rd,"Mo-Su 06:30-10:30,09:00-22:00",Wendy's,Q550258
38a0a6bdb5a10a1ee30d2e2845d90313,western_union,KWIK SHOP #790,,Wichita,KS,,US,+1 316-722-4403,https://location.westernunion.com/us/ks/wichita/38a0a6bdb5a10a1ee30d2e2845d90313,Mo-We 05:00-23:00; Th-Su 07:00-23:00,Western Union,Q861042
a11f0bf35b53260e438379b650bb6aa4,western_union,QUIKTRIP #357,,Wichita,KS,,US,+1 316-258-6197,https://location.westernunion.com/us/ks/wichita/a11f0bf35b53260e438379b650bb6aa4,,Western Union,Q861042
201122a32869c5bc6275031dfaa5f5e0,western_union,WALMART #003283,,Wichita,KS,,US,+1 316-729-5446,https://location.westernunion.com/us/ks/wichita/201122a32869c5bc6275031dfaa5f5e0,Mo-Su 07:00-21:00,Western Union,Q861042
bc5f113bbe6c8c6fd24be3ca178efc42,western_union,KWIK SHOP #727,,Wichita,KS,,US,+1 316-729-7312,https://location.westernunion.com/us/ks/wichita/bc5f113bbe6c8c6fd24be3ca178efc42,Mo-We 05:00-23:00; Th-Su 07:00-23:00,Western Union,Q861042
