Ref,Spider,Name,Address,City,State,Zipcode,Country,Phone,Website,Hours,Brand,WikiData
199695,bluerhino,"LNK Market, LLC DBA New Market",,Lincoln,NE,,US,+1 402-416-6823,,,Blue Rhino,Q65681213
178176,bluerhino,Kwik Shop #637,,Lincoln,NE,,US,+1 402-435-1033,,,Blue Rhino,Q65681213
152295,bluerhino,Walgreens #5736,,Lincoln,NE,,US,+1 402-435-5050,,,Blue Rhino,Q65681213
57658,bluerhino,Westlake Ace Hardware #037 - Ace #9639,,Lincoln,NE,,US,+1 402-466-2623,,,Blue Rhino,Q65681213
17497650,chase_us,DRIVE UP ISLAND - 792381,,LINCOLN,NE,,US,+1 800-935-9935,https://locator.chase.com/ne/lincoln/4625-vine-st,,Chase,Q524629
61751,citi,ATM Kwik Shop,,Lincoln,NE,,US,,,,Citibank,Q857063
93067,citi,ATM Walgreens,,Lincoln,NE,,US,,,,Citibank,Q857063
61762,citi,ATM Kwik Shop,,Lincoln,NE,,US,,,,Citibank,Q857063
63842,citi,ATM LINCONE FEDERAL CREDIT UNION,,Lincoln,NE,,US,,,,Citibank,Q857063
63807,citi,ATM LIBERTY FIRST CREDIT UNION,,Lincoln,NE,,US,,,,Citibank,Q857063
520555,eg_america_us,Kwik Shop,,Lincoln,NE,,US,+1 402-435-1033,https://www.kwikshop.com/find-us/generic-store-page/?id=350637,,Kwik Shop,Q6450417
520561,eg_america_us,Kwik Shop,,Lincoln,NE,,US,+1 402-466-9410,https://www.kwikshop.com/find-us/generic-store-page/?id=350646,,Kwik Shop,Q6450417
E162A2,enterprise,Lincoln N. 27th St.,,Lincoln,NE,,US,+1 402-477-6000,,,Enterprise Rent-A-Car,Q17085454
4ade83db-458a-e111-8dde-005056934050,goodwill,4555 Vine Street Store,,Lincoln,NE,,US,+1 402-466-3223,https://www.goodwill.org/locator/location/?store=NGFkZTgzZGItNDU4YS1lMTExLThkZGUtMDA1MDU2OTM0MDUw&lat=NDAuODIwNzE=&lng=LTk2LjY1NjY=,,Goodwill,Q5583655
https://office.jacksonhewitt.com/#27578771,jackson_hewitt,Jackson Hewitt,,Lincoln,NE,,US,+1 402-474-1041,https://office.jacksonhewitt.com/tax-preparation-services-locations/en/ne/lincoln/505-n-27th-street/17753,Mo-Fr 10:00-18:00; Sa 10:00-16:00; Su 12:00-16:00,Jackson Hewitt,Q6117132
6850300012,usps_collection_boxes,USPS COLLECTION BOX - BLUE BOX,3901 E CAMPUS LOOP,LINCOLN,NE,,US,,,,United States Postal Service,Q668687
,visa,,,LINCOLN,NE,,US,,,,,
,visa,,,LINCOLN,NE,,US,,,,,
,visa,,,LINCOLN,NE,,US,,,,,
,visa,,,LINCOLN,NE,,US,,,,,
,visa,,,LINCOLN,NE,,US,,,,,
,visa,,,LINCOLN,NE,,US,,,,,
,visa,,,LINCOLN,NE,,US,,,,,
,visa,,,LINCOLN,NE,,US,,,,,
,visa,,,LINCOLN,NE,,US,,,,,
,visa,,,LINCOLN,NE,,US,,,,,
,visa,,,LINCOLN,NE,,US,,,,,
,visa,,,LINCOLN,NE,,US,,,,,
,visa,,,LINCOLN,NE,,US,,,,,
,visa,,,LINCOLN,NE,,US,,,,,
,visa,,,LINCOLN,NE,,US,,,,,
,visa,,,LINCOLN,NE,,US,,,,,
,visa,,,LINCOLN,NE,,US,,,,,
,visa,,,LINCOLN,NE,,US,,,,,
,visa,,,LINCOLN,NE,,US,,,,,
,visa,,,LINCOLN,NE,,US,,,,,
,visa,,,LINCOLN,NE,,US,,,,,
,visa,,,LINCOLN,NE,,US,,,,,
,visa,,,LINCOLN,NE,,US,,,,,
https://www.walgreens.com/locator/walgreens-815+n+27th+st-lincoln-ne-68503/id=5736,walgreens,Walgreens,,Lincoln,NE,,US,+1 402-435-5151,https://www.walgreens.com/locator/walgreens-815+n+27th+st-lincoln-ne-68503/id=5736,Mo-Su 07:00-23:00,Walgreens,Q1591889
268eed53bcefc462e7929247f8cd1b72,western_union,KWIK SHOP #637,,Lincoln,NE,,US,+1 402-435-1033,https://location.westernunion.com/us/ne/lincoln/268eed53bcefc462e7929247f8cd1b72,Mo-We 05:00-23:00; Th-Su 07:00-23:00,Western Union,Q861042
838c0cb6d62aca24b9fd275a09bac587,western_union,LOBO CITY MEX MSB LLC,,Lincoln,NE,,US,+1 402-475-5559,https://location.westernunion.com/us/ne/lincoln/838c0cb6d62aca24b9fd275a09bac587,Mo-Su 08:00-22:00,Western Union,Q861042
9fa0e12ce0ba33045b8e1186ff89b05b,western_union,LOBO CITY MEX,,Lincoln,NE,,US,+1 402-475-5559,https://location.westernunion.com/us/ne/lincoln/9fa0e12ce0ba33045b8e1186ff89b05b,Mo-Su 08:00-22:00,Western Union,Q861042
9df0d8ba334b6750b60681f525fbfb14,western_union,LOBO CITY MEX,,Lincoln,NE,,US,+1 402-475-5559,https://location.westernunion.com/us/ne/lincoln/9df0d8ba334b6750b60681f525fbfb14,Mo-Su 08:00-22:00,Western Union,Q861042
74fb91251aa164f9bc287858ff43207a,western_union,KWIK SHOP #635,,Lincoln,NE,,US,+1 402-475-2801,https://location.westernunion.com/us/ne/lincoln/74fb91251aa164f9bc287858ff43207a,Mo-We 05:00-23:00; Th-Su 07:00-23:00,Western Union,Q861042
ea1a7446545415207e4e1d6250463472,western_union,AMPARITOS MARKET,,Lincoln,NE,,US,+1 402-890-2280,https://location.westernunion.com/us/ne/lincoln/ea1a7446545415207e4e1d6250463472,Mo-Su 08:00-21:00,Western Union,Q861042
71137e9836de92eca843082a69ac2e3a,western_union,AMPARITOS MARKET,,Lincoln,NE,,US,+1 402-890-2280,https://location.westernunion.com/us/ne/lincoln/71137e9836de92eca843082a69ac2e3a,Mo-Su 08:00-21:00,Western Union,Q861042
