Ref,Spider,Name,Address,City,State,Zipcode,Country,Phone,Website,Hours,Brand,WikiData
https://stores.advanceautoparts.com/md/charlotte-hall/30340-three-notch-rd,advance_auto_parts_us,Advance Auto Parts,,Charlotte Hall,MD,,US,+1 240-249-0429,https://stores.advanceautoparts.com/md/charlotte-hall/30340-three-notch-rd,Mo-Sa 07:30-21:00; Su 09:00-20:00,Advance Auto Parts,Q4686051
https://locations.arbys.com/md/charlottehall/30063-market-dr.html,arbys_us,"Arby's Fast-Food Drive Through Near You in Charlotte Hall, MD",,Charlotte Hall,MD,,US,+1 240-249-3171,https://locations.arbys.com/md/charlottehall/30063-market-dr.html,Mo-Th 10:00-22:00; Fr-Sa 10:00-23:00; Su 10:00-22:00,Arby's,Q630866
3492,autozone_us,AutoZone Auto Parts Charlotte Hall,,Charlotte Hall,MD,,US,+1 301-290-5256,https://www.autozone.com/locations/md/charlotte-hall/30263-triangle-dr.html,Mo-Sa 07:30-21:00; Su 08:00-20:00,AutoZone,Q4826087
146383,bluerhino,Dash In #13533 - Charlotte Hall,,Charlotte Hall,MD,,US,+1 301-472-4688,,,Blue Rhino,Q65681213
192002,bluerhino,Walgreens #17672,,Charlotte Hall,MD,,US,+1 301-472-1825,,,Blue Rhino,Q65681213
11764,bluerhino,Food Lion #1319,,Charlotte Hall,MD,,US,+1 301-884-6100,,,Blue Rhino,Q65681213
227687,bluerhino,Shoppers #52094,,Charlotte Hall,MD,,US,,,,Blue Rhino,Q65681213
md_charlotte-hall_30030-three-notch-rd,chipotle, ,,Charlotte Hall,MD,,US,+1 240-249-2081,https://locations.chipotle.com/md/charlotte-hall/30030-three-notch-rd,,Chipotle,Q465751
344505,dunkin_us,Dunkin',,Charlotte Hall,MD,,US,+1 301-290-1066,https://locations.dunkindonuts.com/en/md/charlotte-hall/30170-three-notch-rd/344505,Mo-Fr 04:00-21:00; Sa-Su 05:00-21:00,Dunkin',Q847743
74660311,moneygram,SHOPPERS FOOD AND PHARMACY - #2409 - SHO,,CHARLOTTE HALL,MD,,US,+1 301-298-7033,,Mo-Su 06:00-24:00,MoneyGram,Q1944412
https://locations.mtb.com/#25081779,mt_bank_us,,,,MD,,US,+1 800-724-2440,https://locations.mtb.com/md/charlottehall/bank-branches-and-atms-charlotte-hall-md-pm2309.html,24/7,M&T Bank,Q3272257
https://locations.mtb.com/#25081483,mt_bank_us,M&T Bank,,,MD,,US,+1 301-290-1538,https://locations.mtb.com/md/charlottehall/bank-branches-and-atms-charlotte-hall-md-6308.html,Mo-Th 09:00-16:00; Fr 09:00-17:00; Sa 09:00-12:00,M&T Bank,Q3272257
https://locations.papajohns.com/#10691179,papa_johns,Papa John's,,Charlotte Hall,MD,,US,+1 301-884-2500,https://locations.papajohns.com/united-states/md/20622/charlotte-hall/30320-triangle-dr,Mo-Th 10:00-23:00; Fr-Sa 10:00-24:00; Su 10:00-23:00,Papa John's Pizza,Q2759586
restaurant_83712,popeyes_us_fr,Popeyes,"30263 Triangle Dr Charlotte Hall, Maryland 20622 - USA",Charlotte Hall,MD,,US,+1 301-290-5140,https://www.popeyes.com/store-locator/store/restaurant_83712,Mo-Su 10:30-22:00,Popeyes,Q1330910
woods-paint-center-ii-33969,ppgpaints,WOODS PAINT CENTER II,,"Charlotte Hall, ",MD,,US,+1 301-884-3200,https://www.ppgpaints.com/store-locator/us/maryland/charlotte-hall-paint-stores/woods-paint-center-ii-33969,,PPG Paints,Q83891559
81328,ritasitalianice,Ritaâ€™s of Charlotte Hall MD,,Charlotte Hall,MD,,US,+1 301-884-6002,https://www.ritasice.com/location/ritas-of-charlotte-hall-md/,,Rita's Italian Ice,Q7336456
21067,seven_eleven_ca_us,7-11 Str   29969 Three Notch Road,,Charlotte Hall,MD,,US,+1 301-884-5991,https://www.7-eleven.com/locations/md/charlotte-hall/29969-three-notch-road-21067,,7-Eleven,Q259340
3289,shellrecharge,SMECO - Charlotte Hall Library,,Charlotte Hall,MD,,US,,,,Shell Recharge,Q105883058
https://restaurants.subway.com/#14905570,subway,Subway Shell Gas Station,,Charlotte Hall Saint Marys,MD,,US,+1 301-884-2424,https://restaurants.subway.com/united-states/md/charlotte-hall/30295-three-notch-rd,Mo-Th 05:00-22:30; Fr 06:00-22:30; Sa 05:00-22:30; Su 06:00-22:30,Subway,Q244457
https://locations.tacobell.com/#6144383,taco_bell,Taco Bell,,Charlotte Hall,MD,,US,+1 301-884-4721,https://locations.tacobell.com/md/charlotte-hall/30343-triangle-drive.html,Mo-Th 07:00-01:00; Fr-Sa 07:00-02:00; Su 07:00-01:00,Taco Bell,Q752941
1357694,usps,CHARLOTTE HALL,,CHARLOTTE HALL,MD,,US,+1 301-884-3050,,Mo-Fr 09:00-17:00; Sa 09:00-12:00,United States Postal Service,Q668687
2062200001,usps_collection_boxes,USPS COLLECTION BOX - BLUE BOX,29948 THREE NOTCH RD,CHARLOTTE HALL,MD,,US,,,,United States Postal Service,Q668687
2062200002,usps_collection_boxes,USPS COLLECTION BOX - PO LOBBY,29948 THREE NOTCH RD,CHARLOTTE HALL,MD,,US,,,,United States Postal Service,Q668687
2062200003,usps_collection_boxes,USPS COLLECTION BOX - PO LOBBY,29948 THREE NOTCH RD,CHARLOTTE HALL,MD,,US,,,,United States Postal Service,Q668687
A00000252376,verizon_us,Cellular Sales Charlotte Hall,,Charlotte Hall,MD,,US,+1 240-249-3782,https://www.verizon.com/stores/details/maryland/charlotte-hall/cellular-sales-charlotte-hall-1555122/,Mo-Sa 09:00-21:00; Su 11:00-18:00,Verizon,Q919641
,visa,,,CHARLOTTE HALL,MD,,US,,,,,
,visa,,,CHARLOTTE HALL,MD,,US,,,,,
,visa,,,CHARLOTTE HALL,MD,,US,,,,,
,visa,,,CHARLOTTE HALL,MD,,US,,,,,
,visa,,,CHARLOTTE HALL,MD,,US,,,,,
,visa,,,CHARLOTTE HALL,MD,,US,,,,,
,visa,,,CHARLOTTE HALL,MD,,US,,,,,
,visa,,,CHARLOTTE HAL,MD,,US,,,,,
,visa,,,CHARLOTTE HALL,MD,,US,,,,,
,visa,,,CHARLOTTE HALL,MD,,US,,,,,
,visa,,,MECHANICSVILLE,MD,,US,,,,,
,visa,,,CHARLOTTE HALL,MD,,US,,,,,
,visa,,,CHARLOTTE HALL,MD,,US,,,,,
,visa,,,CHARLOTTEHALL,MD,,US,,,,,
,visa,,,CHARLOTTE HALL,MD,,US,,,,,
,visa,,,CHARLOTTE HALL,MD,,US,,,,,
,visa,,,CHARLOTTE HALL,MD,,US,,,,,
,visa,,,CHARLOTTE HALL,MD,,US,,,,,
,visa,,,MECHANICSVILLE,MD,,US,,,,,
https://www.walgreens.com/locator/walgreens-30283+triangle+dr-charlotte+hall-md-20622/id=17672,walgreens,Walgreens,,Charlotte Hall,MD,,US,+1 301-472-1825,https://www.walgreens.com/locator/walgreens-30283+triangle+dr-charlotte+hall-md-20622/id=17672,Mo-Su 07:00-22:00,Walgreens,Q1591889
https://locations.wendys.com/#9251401,wendys,"Wendy's Charlotte Hall in Charlotte Hall, MD",,Charlotte Hall,MD,,US,+1 301-884-2965,https://locations.wendys.com/united-states/md/charlotte-hall/30273-triangle-drive,"Mo-Su 06:30-10:30,07:00-22:00",Wendy's,Q550258
ca14035a42c58ef115e5e89845988a68,western_union,WALGREENS #17672,,Charlotte Hall,MD,,US,+1 301-472-1825,https://location.westernunion.com/us/md/charlotte-hall/ca14035a42c58ef115e5e89845988a68,Mo-Fr 08:00-21:00; Sa 08:00-20:00; Su 08:00-19:00,Western Union,Q861042
6336e53fca75803163be2bd4cfc8b08d,western_union,7-ELEVEN #21067,,Charlotte Hall,MD,,US,+1 301-884-5991,https://location.westernunion.com/us/md/charlotte-hall/6336e53fca75803163be2bd4cfc8b08d,,Western Union,Q861042
