Ref,Spider,Name,Address,City,State,Zipcode,Country,Phone,Website,Hours,Brand,WikiData
https://locators.bankofamerica.com/ri/eastgreenwich/financial-centers-east-greenwich-14118.html,bankofamerica,Bank of America Financial Center & Drive-Thru ATM | East Greenwich,,East Greenwich,RI,,US,+1 401-234-9644,https://locators.bankofamerica.com/ri/eastgreenwich/financial-centers-east-greenwich-14118.html,Mo-Fr 10:00-16:00,Bank of America,Q487907
90070,bluerhino,Quaker Lane Shell #35,,Warwick,RI,,US,+1 401-884-9733,,,Blue Rhino,Q65681213
90787,bluerhino,Shell #27,,East Greenwich,RI,,US,+1 401-885-4476,,,Blue Rhino,Q65681213
196880,bluerhino,Chesca's,,East Greenwich,RI,,US,+1 401-533-8805,,,Blue Rhino,Q65681213
146277,bluerhino,Main Street Convenience Store,,East Greenwich,RI,,US,+1 401-886-4811,,,Blue Rhino,Q65681213
168418,bluerhino,Sunny Hill Convenience Store,,East Greenwich,RI,,US,+1 401-398-2016,,,Blue Rhino,Q65681213
24067291,chase_us,East Greenwich - New branch,,East Greenwich,RI,,US,+1 401-234-9875,https://locator.chase.com/ri/east-greenwich/1000-division-st,Mo-Fr 09:00-17:00; Sa 09:00-13:00,Chase,Q524629
ri_east-greenwich_1200-quaker-ln,chipotle, ,,East Greenwich,RI,,US,+1 401-234-0086,https://locations.chipotle.com/ri/east-greenwich/1200-quaker-ln,,Chipotle,Q465751
58734,citi,ATM HARBORONE BANK (MHC),,East Greenwich,RI,,US,,,,Citibank,Q857063
51659,citi,ATM CVS,,East Greenwich,RI,,US,,,,Citibank,Q857063
47624,citi,ATM CVS,,East Greenwich,RI,,US,,,,Citibank,Q857063
001066,citizens_us,Citizens East Greenwich,,East Greenwich,RI,,US,+1 401-884-7900,,Mo-Fr 09:00-16:00; Sa 09:00-12:00,Citizens,Q5122694
ATM-277,citizens_us,,,East Greenwich,RI,,US,+1 401-884-7900,,24/7,Citizens,Q5122694
ATM-1558,citizens_us,,,East Greenwich,RI,,US,,,,Citizens,Q5122694
ATM-1573,citizens_us,,,East Greenwich,RI,,US,,,,Citizens,Q5122694
520003,cumberland_farms_us,Cumberland Farms,,EAST GREENWICH,RI,,US,+1 401-885-3750,https://www.cumberlandfarms.com/find-us/generic-store-page/?id=001257,,Cumberland Farms,Q1143685
519990,cumberland_farms_us,Cumberland Farms,,EAST GREENWICH,RI,,US,+1 401-885-9471,https://www.cumberlandfarms.com/find-us/generic-store-page/?id=001217,,Cumberland Farms,Q1143685
852,cvs_us,CVS Pharmacy,,East Greenwich,RI,,US,+1 401-821-3145,https://www.cvs.com/store-locator/east-greenwich-ri-pharmacies/2250-new-london-turnpike-east-greenwich-ri-02818/storeid=852,Mo-Su 08:00-22:00,CVS Pharmacy,Q2078880
5107,cvs_us,CVS Pharmacy,,East Greenwich,RI,,US,+1 401-886-0902,https://www.cvs.com/store-locator/east-greenwich-ri-pharmacies/1285-s-county-trail-east-greenwich-ri-02818/storeid=5107,Mo-Th 07:00-22:00; Fr-Sa 07:00-23:00; Su 07:00-22:00,CVS Pharmacy,Q2078880
311,cvs_us,CVS Pharmacy,,East Greenwich,RI,,US,+1 401-884-7044,https://www.cvs.com/store-locator/east-greenwich-ri-pharmacies/507-main-street-east-greenwich-ri-02818/storeid=311,Mo-Su 07:00-22:00,CVS Pharmacy,Q2078880
310232,dunkin_us,Dunkin',,East Greenwich,RI,,US,+1 401-884-7065,https://locations.dunkindonuts.com/en/ri/east-greenwich/2611-s-county-trl/310232,Mo-Su 05:00-18:00,Dunkin',Q847743
331431,dunkin_us,Dunkin',,East Greenwich,RI,,US,+1 401-884-9677,https://locations.dunkindonuts.com/en/ri/east-greenwich/720-main-st/331431,Mo-Su 04:00-20:00,Dunkin',Q847743
332873,dunkin_us,Dunkin',,East Greenwich,RI,,US,+1 401-885-3462,https://locations.dunkindonuts.com/en/ri/east-greenwich/1239-division-rd/332873,24/7,Dunkin',Q847743
https://www.edwardjones.com/us-en/financial-advisor/ryan-corry,edwardjones,Ryan P Corry,,East Greenwich,RI,,US,+1 401-885-1046,https://www.edwardjones.com/us-en/financial-advisor/ryan-corry,Mo-Fr 08:30-16:00,Edward Jones,Q5343830
520003,eg_america_us,Cumberland Farms,,EAST GREENWICH,RI,,US,+1 401-885-3750,https://www.cumberlandfarms.com/find-us/generic-store-page/?id=001257,,Cumberland Farms,Q1143685
519990,eg_america_us,Cumberland Farms,,EAST GREENWICH,RI,,US,+1 401-885-9471,https://www.cumberlandfarms.com/find-us/generic-store-page/?id=001217,,Cumberland Farms,Q1143685
0677,european_wax_center_us,European Wax Center,,East Greenwich,RI,,US,+1 401-885-0770,https://locations.waxcenter.com/ri/eastgreenwich/east-greenwich-0677.html,Mo-Fr 08:00-20:00; Sa 08:00-18:00; Su 09:00-16:00,European Wax Center,Q5413426
Motorcraft3739USAEnglish,ford,Flood Ford of East Greenwich,,Rhode Island,RI,,US,+1 401-884-4000,,,Ford,Q44294
https://www.ford.com/dealerships/dealer-details/ri/east-greenwich/flood-ford-of-east-greenwich/,ford_dealers_us,Flood Ford of East Greenwich,,East Greenwich,RI,,US,+1 401-484-6125,https://www.ford.com/dealerships/dealer-details/ri/east-greenwich/flood-ford-of-east-greenwich/,Mo-Fr 08:00-19:00; Sa 08:00-17:00,Ford Motor Company,Q44294
38609,h_r_block,H&R Block,,East Greenwich,RI,,US,+1 401-884-0639,https://www.hrblock.com/local-tax-offices/rhode-island/east-greenwich/5600-post-rd-ste-103/38609/,,H&R Block,Q5627799
Dave's Marketplace #5953,iga,Dave's Marketplace #5953,"1000 Division Street, East Greenwich, RI, 02818",East Greenwich,RI,,US,+1 401-270-0887,http://www.davesmarketplace.com,,IGA,Q3146662
https://locations.ironmountain.com/ri/west-warwick/1103/,iron_mountain,"Iron Mountain in 1600 Division Rd, West Warwick, Rhode Island | Secure Shredding, Scanning, IT Asset Disposition, & Records Management",,West Warwick,RI,,US,+1 800-899-4766,https://locations.ironmountain.com/ri/west-warwick/1103/,,Iron Mountain Incorporated,Q1673079
https://locations.massageenvy.com/#1773377,massage_envy,Massage Envy East Greenwich,,East Greenwich East Greenwich,RI,,US,+1 401-336-2900,https://locations.massageenvy.com/rhode-island/east-greenwich/1000-division-st.html,Mo 09:00-20:30; Tu 09:00-22:00; We 09:00-21:00; Th 09:00-22:00; Fr 09:00-20:00; Sa 08:00-18:00; Su 09:00-19:00,Massage Envy,Q10327170
37283,orangetheory_fitness,"East Greenwich, RI",,East Greenwich,RI,,US,+1 401-287-2595,,,Orangetheory Fitness,Q25005163
https://restaurants.subway.com/#14898491,subway,Subway Cumberland Farms Plaza,,East Greenwich Kent,RI,,US,+1 401-886-7621,https://restaurants.subway.com/united-states/ri/east-greenwich/5687-post-road,Mo-Fr 07:00-19:00; Sa 11:00-17:00,Subway,Q244457
3346,upsstore,East Greenwich,5600 Post Rd #114,East Greenwich,RI,,US,+1 401-886-7447,https://locations.theupsstore.com/ri/east-greenwich/5600-post-rd,,UPS Store,Q7771029
1361733,usps,EAST GREENWICH,,EAST GREENWICH,RI,,US,+1 401-884-3962,,Mo-Fr 08:00-17:00; Sa 08:30-14:00,United States Postal Service,Q668687
0281800046,usps_collection_boxes,USPS COLLECTION BOX - BLUE BOX,1351 S COUNTY TRL,EAST GREENWICH,RI,,US,,,,United States Postal Service,Q668687
0281800038,usps_collection_boxes,USPS COLLECTION BOX - BLUE BOX,1000 DIVISION RD,EAST GREENWICH,RI,,US,,,,United States Postal Service,Q668687
0281800030,usps_collection_boxes,USPS COLLECTION BOX - BLUE BOX,800 QUAKER LN,EAST GREENWICH,RI,,US,,,,United States Postal Service,Q668687
0281800029,usps_collection_boxes,USPS COLLECTION BOX - BLUE BOX,752 QUAKER LN,EAST GREENWICH,RI,,US,,,,United States Postal Service,Q668687
0281800032,usps_collection_boxes,USPS COLLECTION BOX - BLUE BOX,940 QUAKER LN,EAST GREENWICH,RI,,US,,,,United States Postal Service,Q668687
0281800012,usps_collection_boxes,USPS COLLECTION BOX - BLUE BOX,357 MAIN ST,EAST GREENWICH,RI,,US,,,,United States Postal Service,Q668687
0281800015,usps_collection_boxes,USPS COLLECTION BOX - BLUE BOX,631 MAIN ST,EAST GREENWICH,RI,,US,,,,United States Postal Service,Q668687
0281800037,usps_collection_boxes,USPS COLLECTION BOX - BLUE BOX,5 DIVISION ST,EAST GREENWICH,RI,,US,,,,United States Postal Service,Q668687
0281800010,usps_collection_boxes,USPS COLLECTION BOX - BLUE BOX,130 MAIN ST,EAST GREENWICH,RI,,US,,,,United States Postal Service,Q668687
0281800014,usps_collection_boxes,USPS COLLECTION BOX - BLUE BOX,517 MAIN ST,EAST GREENWICH,RI,,US,,,,United States Postal Service,Q668687
0281800017,usps_collection_boxes,USPS COLLECTION BOX - BLUE BOX,821 MAIN ST,EAST GREENWICH,RI,,US,,,,United States Postal Service,Q668687
0281800045,usps_collection_boxes,USPS COLLECTION BOX - BLUE BOX,57 PIERCE ST,EAST GREENWICH,RI,,US,,,,United States Postal Service,Q668687
0281800018,usps_collection_boxes,USPS COLLECTION BOX - BLUE BOX,1050 MAIN ST,EAST GREENWICH,RI,,US,,,,United States Postal Service,Q668687
0281800008,usps_collection_boxes,USPS COLLECTION BOX - BLUE BOX,11 MAIN ST,EAST GREENWICH,RI,,US,,,,United States Postal Service,Q668687
0281800034,usps_collection_boxes,USPS COLLECTION BOX - BLUE BOX,300 6TH AVE,EAST GREENWICH,RI,,US,,,,United States Postal Service,Q668687
0281800043,usps_collection_boxes,USPS COLLECTION BOX - BLUE BOX,5600 POST RD,EAST GREENWICH,RI,,US,,,,United States Postal Service,Q668687
0281800002,usps_collection_boxes,USPS COLLECTION BOX - BLUE BOX,5775 POST RD,EAST GREENWICH,RI,,US,,,,United States Postal Service,Q668687
0281800003,usps_collection_boxes,USPS COLLECTION BOX - BLUE BOX,5775 POST RD,EAST GREENWICH,RI,,US,,,,United States Postal Service,Q668687
0281800054,usps_collection_boxes,USPS COLLECTION BOX - PO LOBBY,5775 POST RD,EAST GREENWICH,RI,,US,,,,United States Postal Service,Q668687
,visa,,,EAST GREENWICH,RI,,US,,,,,
,visa,,,EAST GREENWICH,RI,,US,,,,,
,visa,,,E GREENWICH,RI,,US,,,,,
,visa,,,EAST GREENWICH,RI,,US,,,,,
,visa,,,E GREENWICH,RI,,US,,,,,
,visa,,,EAST GREENWICH,RI,,US,,,,,
,visa,,,EAST GREENWICH,RI,,US,,,,,
,visa,,,EAST GREENWICH,RI,,US,,,,,
,visa,,,EAST GREENWICH,RI,,US,,,,,
,visa,,,EAST GREENWICH,RI,,US,,,,,
,visa,,,EAST GREENWICH,RI,,US,,,,,
,visa,,,EAST GREENWICH,RI,,US,,,,,
,visa,,,EAST GREENWICH,RI,,US,,,,,
,visa,,,E GREENWICH,RI,,US,,,,,
,visa,,,EAST GREENWICH,RI,,US,,,,,
,visa,,,EASTGREENWICH,RI,,US,,,,,
https://locations.wendys.com/#9252095,wendys,"Wendy's East Greenwich in East Greenwich, RI",,East Greenwich,RI,,US,+1 401-885-9757,https://locations.wendys.com/united-states/ri/east-greenwich/926-quaker-ln,"Mo-Su 06:30-10:30,07:00-22:00",Wendy's,Q550258
