Ref,Spider,Name,Address,City,State,Zipcode,Country,Phone,Website,Hours,Brand,WikiData
,visa,,,TOPOLOBAMPO,SINALOA,,MX,,,,,
,visa,,,CULIAC√ÅN,SINALOA,,MX,,,,,
ededca3d58ee78f28087e7f41c3631e6,western_union,OXXO MARINA LMM,,Ahome,SINALOA,,MX,+52 81 8389 2121,https://location.westernunion.com/mx/sinaloa/ahome/ededca3d58ee78f28087e7f41c3631e6,Mo-Su 08:00-22:00,Western Union,Q861042
b6b36e4e7954712238c51ab9e6095c52,western_union,OXXO MARINA LMM,,Ahome,SINALOA,,MX,+52 81 8389 2121,https://location.westernunion.com/mx/sinaloa/ahome/b6b36e4e7954712238c51ab9e6095c52,Mo-Su 08:00-22:00,Western Union,Q861042
d2cc168a42e1e05d4241cbaf714d144d,western_union,OXXO MARINA LMM,,Ahome,SINALOA,,MX,+52 81 8389 2121,https://location.westernunion.com/mx/sinaloa/ahome/d2cc168a42e1e05d4241cbaf714d144d,Mo-Su 08:00-22:00,Western Union,Q861042
214ddae50c7e0852ca886a1194d2307d,western_union,OXXO TOPOLOBAMPO LMM,,Ahome,SINALOA,,MX,+52 81 8389 2121,https://location.westernunion.com/mx/sinaloa/ahome/214ddae50c7e0852ca886a1194d2307d,Mo-Su 08:00-22:00,Western Union,Q861042
16031a6e09f25d0096f3fe59e03252b8,western_union,OXXO TOPOLOBAMPO LMM,,Ahome,SINALOA,,MX,+52 81 8389 2121,https://location.westernunion.com/mx/sinaloa/ahome/16031a6e09f25d0096f3fe59e03252b8,Mo-Su 08:00-22:00,Western Union,Q861042
f789c1ae535800076dec94e27d257350,western_union,OXXO TOPOLOBAMPO LMM,,Ahome,SINALOA,,MX,+52 81 8389 2121,https://location.westernunion.com/mx/sinaloa/ahome/f789c1ae535800076dec94e27d257350,Mo-Su 08:00-22:00,Western Union,Q861042
19a508acf5efb12a53f39068e808c3ee,western_union,OXXO PUERTO LMM,,Ahome,SINALOA,,MX,+52 81 8389 2121,https://location.westernunion.com/mx/sinaloa/ahome/19a508acf5efb12a53f39068e808c3ee,Mo-Su 08:00-22:00,Western Union,Q861042
8371d15d4e30f8979ec4d4ee7cb57eb1,western_union,OXXO PUERTO LMM,,Ahome,SINALOA,,MX,+52 81 8389 2121,https://location.westernunion.com/mx/sinaloa/ahome/8371d15d4e30f8979ec4d4ee7cb57eb1,Mo-Su 08:00-22:00,Western Union,Q861042
7a93158b09332d3df270477314cb431f,western_union,OXXO PUERTO LMM,,Ahome,SINALOA,,MX,+52 81 8389 2121,https://location.westernunion.com/mx/sinaloa/ahome/7a93158b09332d3df270477314cb431f,Mo-Su 08:00-22:00,Western Union,Q861042
874c0ffc44c37e347451208d70b46d0f,western_union,OXXO TOPOLOBAMPO II LMM,,Ahome,SINALOA,,MX,+52 81 8389 2121,https://location.westernunion.com/mx/sinaloa/ahome/874c0ffc44c37e347451208d70b46d0f,Mo-Su 08:00-22:00,Western Union,Q861042
0db907898e6a13781a573155588a62d7,western_union,OXXO TOPOLOBAMPO II LMM,,Ahome,SINALOA,,MX,+52 81 8389 2121,https://location.westernunion.com/mx/sinaloa/ahome/0db907898e6a13781a573155588a62d7,Mo-Su 08:00-22:00,Western Union,Q861042
313ced6c9dc8298b6d0b953883695207,western_union,OXXO TOPOLOBAMPO II LMM,,Ahome,SINALOA,,MX,+52 81 8389 2121,https://location.westernunion.com/mx/sinaloa/ahome/313ced6c9dc8298b6d0b953883695207,Mo-Su 08:00-22:00,Western Union,Q861042
ab0c1aed420a1fbe8f4da0628491188c,western_union,TELECOMM 25071,,Topolobampo,SINALOA,,MX,+52 800 800 8930,https://location.westernunion.com/mx/sinaloa/topolobampo/ab0c1aed420a1fbe8f4da0628491188c,Mo-Su 09:00-20:00,Western Union,Q861042
8ac9905ac72cabae59a404df612e182d,western_union,TELECOMM 25071,,Topolobampo,SINALOA,,MX,+52 800 800 8930,https://location.westernunion.com/mx/sinaloa/topolobampo/8ac9905ac72cabae59a404df612e182d,Mo-Sa 09:00-21:00,Western Union,Q861042
ac2732fb28a59ff5afbdff0144a9f5df,western_union,TELECOMM 25071,,Topolobampo,SINALOA,,MX,+52 800 800 9889,https://location.westernunion.com/mx/sinaloa/topolobampo/ac2732fb28a59ff5afbdff0144a9f5df,Mo-Fr 09:00-15:00,Western Union,Q861042
e4a31c782b73453c55f44225f258ffc1,western_union,SERVICHEQUES 8 TOPOLOB AP CASH,,Topolobampo,SINALOA,,MX,+52 668 862 0707,https://location.westernunion.com/mx/sinaloa/topolobampo/e4a31c782b73453c55f44225f258ffc1,Mo-Fr 08:30-18:00; Sa 08:30-17:00,Western Union,Q861042
afb6ccdaeaf71da20303405da8ccf933,western_union,SERVICHEQUES 8 TOPOLOB AP CASH,,Topolobampo,SINALOA,,MX,+52 668 862 0707,https://location.westernunion.com/mx/sinaloa/topolobampo/afb6ccdaeaf71da20303405da8ccf933,Mo-Fr 08:30-18:00; Sa 08:30-17:00,Western Union,Q861042
16c22dc005f0ac6bec0c2b7aaa86850c,western_union,SERVICHEQUES 8 TOPOLOB AP CASH,,Topolobampo,SINALOA,,MX,+52 668 862 0707,https://location.westernunion.com/mx/sinaloa/topolobampo/16c22dc005f0ac6bec0c2b7aaa86850c,Mo-Fr 08:30-18:00; Sa 08:30-17:00,Western Union,Q861042
