Ref,Spider,Name,Address,City,State,Zipcode,Country,Phone,Website,Hours,Brand,WikiData
55184762,deichmann,DEICHMANN Filiale Hückelhoven Am Landabsatz 9,,Hückelhoven,Nordrhein-Westfalen,,DE,+49 2433 442599,https://stores.deichmann.com/de-de/de/nordrhein-westfalen/hueckelhoven/am-landabsatz-9,Mo-Fr 09:00-20:00; Sa 09:00-18:00,Deichmann,Q664543
8003081,edeka_de,E center Plum,,Hückelhoven,Nordrhein-Westfalen,,DE,+49 2433 9808830,https://www.edeka.de/eh/rhein-ruhr/e-center-plum-parkhofstraße-53/index.jsp,Mo-Sa 07:00-21:00,E-Center,Q701755
2599,netto_de,Netto Getränke-Discount,,Hückelhoven-Baal,Nordrhein-Westfalen,,DE,,https://www.netto-online.de/filialen/hückelhoven-baal/richard-skor-weg-2/2599,Mo-Sa 08:00-20:00,Netto Getränke-Discount,Q879858
5173,netto_de,Netto Marken-Discount,,Hückelhoven-Ratheim,Nordrhein-Westfalen,,DE,,https://www.netto-online.de/filialen/hückelhoven-ratheim/ernst-reuter-str-5/5173,Mo-Sa 07:00-21:00,Netto Marken-Discount,Q879858
5510,netto_de,Netto Marken-Discount,,Hückelhoven-Brachelen,Nordrhein-Westfalen,,DE,,https://www.netto-online.de/filialen/hückelhoven-brachelen/fochsensteg-1/5510,Mo-Sa 07:00-21:00,Netto Marken-Discount,Q879858
5566,netto_de,Netto Marken-Discount,,Hückelhoven-Baal,Nordrhein-Westfalen,,DE,,https://www.netto-online.de/filialen/hückelhoven-baal/richard-skor-weg-1/5566,Mo-Sa 07:00-22:00,Netto Marken-Discount,Q879858
6725,netto_de,Netto Marken-Discount,,Hückelhoven,Nordrhein-Westfalen,,DE,,https://www.netto-online.de/filialen/hückelhoven/am-landabsatz-2/6725,Mo-Sa 07:00-22:00,Netto Marken-Discount,Q879858
https://www.obi.de/markt/hueckelhoven,obi_eu,Obi Markt Hückelhoven,,Hückelhoven,Nordrhein-Westfalen,,DE,+49 2433 524680,https://www.obi.de/markt/hueckelhoven,Mo-Sa 08:00-20:00,OBI,Q300518
93837189-2976-3791-9831-970224f3a3c9,penny_de,Penny Millich,,Hückelhoven,Nordrhein-Westfalen,,DE,,https://www.penny.de/markt/hueckelhoven/1930643/penny-millich-gronewaldstrasse-9-11,Mo-Sa 07:00-22:00,Penny,Q284688
10025800,shell,"HÜCKELHOVEN, JÜLICHER STR.20.",,HÜCKELHOVEN,Nordrhein-Westfalen,,DE,+49 2433 918114,https://find.shell.com/de/fuel/10025800-huckelhoven-julicher-str-20,24/7,Shell,Q110716465
12595830,shell,HUECKELHOVEN-BAAL,,HUECKELHOVEN-BAAL,Nordrhein-Westfalen,,DE,+49 2435 654010,https://find.shell.com/de/fuel/12595830-hueckelhoven-baal,,Shell,Q110716465
4501,tedi,TEDi GmbH & Co. KG,,Hückelhoven,NORDRHEIN-WESTFALEN,,DE,+49 231 555770,https://www.tedi.com/stores/4501/de/NORDRHEIN-WESTFALEN/Hueckelhoven/Rheinstr-21-23,Mo-Sa 00:00-24:00,TEDi,Q1364603
5492,tedi,TEDi GmbH & Co. KG,,Hückelhoven,NORDRHEIN-WESTFALEN,,DE,+49 231 555770,https://www.tedi.com/stores/5492/de/NORDRHEIN-WESTFALEN/Hueckelhoven/Parkhofstr-69,Mo-Sa 00:00-24:00,TEDi,Q1364603
,visa,,,HUECKELHOVEN,NORDRHEIN-WESTFALEN,,DE,,,,,
,visa,,,HUECKELHOVEN,NORDRHEIN-WESTFALEN,,DE,,,,,
,visa,,,HUECKELHOVEN,NORDRHEIN-WESTFALEN,,DE,,,,,
,visa,,,HUECKELHOVEN,NORDRHEIN-WESTFALEN,,DE,,,,,
,visa,,,HUECKELHOVEN,NORDRHEIN-WESTFALEN,,DE,,,,,
,visa,,,HUECKELHOVEN,NORDRHEIN-WESTFALEN,,DE,,,,,
,visa,,,HUECKELHOVEN,NORDRHEIN-WESTFALEN,,DE,,,,,
397ba2c8e5475147dca95b02548c1286,western_union,A AND M HANDELSGESELLSCHAFT,,Huckelhoven,NORDRHEIN WESTFALEN,,DE,+49 2433 918285,https://location.westernunion.com/de/nordrhein-westfalen/huckelhoven/397ba2c8e5475147dca95b02548c1286,Mo-Fr 09:00-18:30; Sa 09:00-14:30,Western Union,Q861042
