Ref,Spider,Name,Address,City,State,Zipcode,Country,Phone,Website,Hours,Brand,WikiData
https://restaurants.applebees.com/en-us/nv/reno/4805-kietzke-lane-82071,applebees,Connect with this Applebee's,,Reno,NV,,US,+1 775-825-2800,https://restaurants.applebees.com/en-us/nv/reno/4805-kietzke-lane-82071,Mo-Th 11:00-24:00; Fr-Sa 11:00-01:00; Su 11:00-24:00,Applebees,Q621532
197894,asics_us,Reno Running Company (Lakeside),3438 Lakeside Dr,Reno,NV,,US,+1 775-827-2276,,Mo-Fr 10:00-18:00; Sa 10:00-17:00,asics,Q327247
https://locators.bankofamerica.com/nv/reno/financial-centers-reno-10913.html,bankofamerica,Bank of America Financial Center & Walk-Up ATM | Caughlin Ranch,,Reno,NV,,US,+1 775-688-8500,https://locators.bankofamerica.com/nv/reno/financial-centers-reno-10913.html,Mo-Fr 10:00-16:00,Bank of America,Q487907
https://locators.bankofamerica.com/nv/reno/atm-reno-103377.html,bankofamerica,Bank of America Walk-Up ATM | Lakeridge Point,,Reno,NV,,US,+1 844-401-8500,https://locators.bankofamerica.com/nv/reno/atm-reno-103377.html,,Bank of America,Q487907
27663,bluerhino,Lowe's #321,,Reno,NV,,US,+1 775-824-4750,,,Blue Rhino,Q65681213
10841,brookdale_us,Brookdale Reno,,Reno,NV,,US,+1 775-828-5000,https://www.brookdale.com/en/communities/brookdale-reno.html,,Brookdale,Q4974387
11575103,chase_us,WALK UP BUILDING - 691456,,RENO,NV,,US,+1 800-935-9935,https://locator.chase.com/nv/reno/933-w-moana-ln,,Chase,Q524629
202788,chevron,Chevron Station #202788,3650 LAKESIDE DRIVE,RENO,NV,,US,+1 775-826-4466,,,Chevron,Q319642
nv_reno_6395-s-mccarran-blvd,chipotle, ,,Reno,NV,,US,+1 775-825-3862,https://locations.chipotle.com/nv/reno/6395-s-mccarran-blvd,,Chipotle,Q465751
31665,citi,ATM 7ELEVEN-FCTI,,Reno,NV,,US,,,,Citibank,Q857063
31716,citi,ATM 7ELEVEN-FCTI,,Reno,NV,,US,,,,Citibank,Q857063
32115,citi,ATM 7ELEVEN-FCTI,,Reno,NV,,US,,,,Citibank,Q857063
29373,citi,ATM 7ELEVEN-FCTI,,Reno,NV,,US,,,,Citibank,Q857063
47156,citi,ATM CVS,,Reno,NV,,US,,,,Citibank,Q857063
9168,cvs_us,CVS Pharmacy,,Reno,NV,,US,+1 775-323-0701,https://www.cvs.com/store-locator/reno-nv-pharmacies/1119-california-ave-reno-nv-89509/storeid=9168,Mo-Su 07:00-22:00,CVS Pharmacy,Q2078880
7401,dominos_pizza_us,Domino's Pizza,,Reno,NV,,US,+1 775-323-8080,https://pizza.dominos.com/nevada/reno/83-w-plumb-lane,Mo-Th 10:30-24:00; Fr-Sa 10:30-01:00; Su 10:30-24:00,Domino's,Q839466
https://www.edwardjones.com/us-en/financial-advisor/david-barnes,edwardjones,David W Barnes,,Reno,NV,,US,+1 775-857-1866,https://www.edwardjones.com/us-en/financial-advisor/david-barnes,,Edward Jones,Q5343830
https://restaurants.fiveguys.com/#15553584,five_guys_us,Five Guys Reno,,Reno,NV,,US,+1 775-710-3177,https://restaurants.fiveguys.com/6395-s-mccarren-blvd,"Mo-Su 11:00-21:30,11:00-22:00",Five Guys,Q1131810
https://salons.greatclips.com/us/nv/reno/4809-kietzke-ln,greatclips,Great Clips,,Reno,NV,,US,+1 775-827-2211,https://salons.greatclips.com/us/nv/reno/4809-kietzke-ln,Mo-Fr 10:00-19:00; Sa-Su 08:00-17:00,Great Clips,Q5598967
https://office.jacksonhewitt.com/#27576200,jackson_hewitt,Jackson Hewitt,,Reno,NV,,US,+1 775-856-8335,https://office.jacksonhewitt.com/tax-preparation-services-locations/en/nv/reno/75-west-plumb-lane/12808,Mo-Fr 11:00-19:00; Su 12:00-16:00,Jackson Hewitt,Q6117132
https://office.jacksonhewitt.com/#27575316,jackson_hewitt,Jackson Hewitt,,Reno,NV,,US,+1 775-856-8331,https://office.jacksonhewitt.com/tax-preparation-services-locations/en/nv/reno/4855-kietzke-lane/52189,Mo-Tu 11:00-19:00; Th-Sa 11:00-19:00; Su 12:00-16:00,Jackson Hewitt,Q6117132
128702,little_free_library,Greensburg Little Free Library #128702 Reno NV,,Reno,NV,,US,,,,Little Free Library,Q6650101
31065,little_free_library,Rick Kent #31065 Reno NV,,Reno,NV,,US,,,,Little Free Library,Q6650101
96068,little_free_library,Solari Dr Library #96068 Reno NV,,Reno,NV,,US,,,,Little Free Library,Q6650101
103365,little_free_library,Armstrong Lane Little Free Library #103365 Reno NV,,Reno,NV,,US,,,,Little Free Library,Q6650101
62509,little_free_library,Kathy Boardman #62509 Reno NV,,Reno,NV,,US,,,,Little Free Library,Q6650101
18140,little_free_library,Janis K #18140 Reno NV,,Reno,NV,,US,,,,Little Free Library,Q6650101
66823,little_free_library,Melissa Levy #66823 Reno NV,,Reno,NV,,US,,,,Little Free Library,Q6650101
16661,little_free_library,Sheila Ostrows Library #16661 Reno NV,,Reno,NV,,US,,,,Little Free Library,Q6650101
28386,little_free_library,Kathy Alford #28386 Reno NV,,Reno,NV,,US,,,,Little Free Library,Q6650101
74527,little_free_library,Matthew Stockholm #74527 Reno NV,,Reno,NV,,US,,,,Little Free Library,Q6650101
175651,little_free_library,The Petitebrary #175651 Reno NV,,Reno,NV,,US,,,,Little Free Library,Q6650101
67295,little_free_library,Carol Galantuomini #67295 Reno NV,,Reno,NV,,US,,,,Little Free Library,Q6650101
59919,little_free_library,Addie Goings #59919 Reno NV,,Reno,NV,,US,,,,Little Free Library,Q6650101
18596,little_free_library,melissa cowan #18596 reno NV,,reno,NV,,US,,,,Little Free Library,Q6650101
66042934,moneygram,LONGS/CVS - #9168,,RENO,NV,,US,+1 775-323-2701,,Mo-Su 07:00-22:00,MoneyGram,Q1944412
111502,pandaexpress,Kietzke & McCarran,,Reno,NV,,US,+1 775-825-5383,https://www.pandaexpress.com/locations/nv/reno/5140-kietzke-lane-suite-e,Mo-Th 09:30-21:30; Fr 09:30-22:00; Sa-Su 10:00-21:30,Panda Express,Q1358690
https://locations.papamurphys.com/#15429958,papamurphys,Pizza Takeout & Delivery,,Reno,NV,,US,+1 775-826-8767,https://locations.papamurphys.com/nv/reno/940-west-moana-lane,Mo-Su 11:00-20:00,Papa Murphy's,Q7132349
0000885385,phillips_66_conoco_76,76 RENO CALIFORNIA AVE,,RENO,NV,,US,+1 775-348-7508,,,U76,Q1658320
0000885386,phillips_66_conoco_76,76 PLUMB LANE,,RENO,NV,,US,+1 775-825-1185,,,U76,Q1658320
https://stores.saloncentric.com/#29173704,salon_centric_us,SalonCentric,,,NV,,US,+1 775-827-0466,https://stores.saloncentric.com/nv/reno/5805,Mo 08:00-18:30; Tu-Fr 08:00-18:00; Sa 08:30-16:00; Su 12:00-16:00,SalonCentric,Q124339481
4768,sams_club,Reno Sam's Club,,Reno,NV,,US,+1 775-829-7900,https://www.samsclub.com/club/reno-nv-sams-club/4768,Mo 10:00-20:00; Sa 09:00-20:00; Su 10:00-18:00,Sam's Club,Q1972120
33090,seven_eleven_ca_us,7-Eleven Store,,Reno,NV,,US,+1 775-825-1663,https://www.7-eleven.com/locations/nv/reno/6150-s.-mccarran-33090,,7-Eleven,Q259340
259,sola_salon_studios,Reno-Kietzke,,Reno,NV,,US,+1 775-846-7580,https://www.solasalonstudios.com/locations/reno-k,,Sola Salon Studios,Q64337426
08255,tjx,Reno,4821 Kietzke Lane,Reno,NV,,US,+1 775-823-9339,,Mo-Sa 09:30-21:30; Su 10:00-20:00,TJ Maxx,Q10860683
28278,tjx,Reno,4821 Kietzke Ln,Reno,NV,,US,+1 775-823-9339,,Mo-Sa 09:30-21:30; Su 10:00-20:00,HomeGoods,Q5887941
8950900020,usps_collection_boxes,USPS COLLECTION BOX - BLUE BOX,460 CALIFORNIA AVE,RENO,NV,,US,,,,United States Postal Service,Q668687
8950900006,usps_collection_boxes,USPS COLLECTION BOX - EXPRESS,460 CALIFORNIA AVE,RENO,NV,,US,,,,United States Postal Service,Q668687
8950900044,usps_collection_boxes,USPS COLLECTION BOX - BLUE BOX,300 BOOTH ST,RENO,NV,,US,,,,United States Postal Service,Q668687
8950900039,usps_collection_boxes,USPS COLLECTION BOX - BLUE BOX,100 CALIFORNIA AVE,RENO,NV,,US,,,,United States Postal Service,Q668687
8950900031,usps_collection_boxes,USPS COLLECTION BOX - BLUE BOX,1119 CALIFORNIA AVE,RENO,NV,,US,,,,United States Postal Service,Q668687
8950900012,usps_collection_boxes,USPS COLLECTION BOX - BLUE BOX,1015 PLUMAS ST,RENO,NV,,US,,,,United States Postal Service,Q668687
8950900018,usps_collection_boxes,USPS COLLECTION BOX - BLUE BOX,1200 S ARLINGTON AVE,RENO,NV,,US,,,,United States Postal Service,Q668687
8950900011,usps_collection_boxes,USPS COLLECTION BOX - BLUE BOX,1441 MAYBERRY DR,RENO,NV,,US,,,,United States Postal Service,Q668687
8950900032,usps_collection_boxes,USPS COLLECTION BOX - BLUE BOX,195 W PLUMB LN,RENO,NV,,US,,,,United States Postal Service,Q668687
8950900038,usps_collection_boxes,USPS COLLECTION BOX - BLUE BOX,195 W PLUMB LN,RENO,NV,,US,,,,United States Postal Service,Q668687
8950900004,usps_collection_boxes,USPS COLLECTION BOX - BLUE BOX,195 W PLUMB LN,RENO,NV,,US,,,,United States Postal Service,Q668687
8950900014,usps_collection_boxes,USPS COLLECTION BOX - BLUE BOX,580 BRINKBY AVE,RENO,NV,,US,,,,United States Postal Service,Q668687
8950900036,usps_collection_boxes,USPS COLLECTION BOX - BLUE BOX,960 W MOANA LN,RENO,NV,,US,,,,United States Postal Service,Q668687
8950900029,usps_collection_boxes,USPS COLLECTION BOX - EXPRESS,960 W MOANA LN,RENO,NV,,US,,,,United States Postal Service,Q668687
8950900028,usps_collection_boxes,USPS COLLECTION BOX - BLUE BOX,960 W MOANA LN,RENO,NV,,US,,,,United States Postal Service,Q668687
8950900009,usps_collection_boxes,USPS COLLECTION BOX - BLUE BOX,960 W MOANA LN,RENO,NV,,US,,,,United States Postal Service,Q668687
8950900022,usps_collection_boxes,USPS COLLECTION BOX - BLUE BOX,100 W PECKHAM LN,RENO,NV,,US,,,,United States Postal Service,Q668687
8950900037,usps_collection_boxes,USPS COLLECTION BOX - BLUE BOX,4995 KIETZKE LN,RENO,NV,,US,,,,United States Postal Service,Q668687
8950900047,usps_collection_boxes,USPS COLLECTION BOX - BLUE BOX,4819 KIETZKE LN,RENO,NV,,US,,,,United States Postal Service,Q668687
reno_oil-change-ig0003,valvoline_instant_oil_change,Valvoline,625 Booth St ,Reno,NV,,US,+1 775-971-4198,https://store.vioc.com/nv/reno/oil-change-ig0003.html,,Valvoline Instant Oil Change,Q7912852
,visa,,,RENO,NV,,US,,,,,
,visa,,,RENO,NV,,US,,,,,
,visa,,,RENO,NV,,US,,,,,
,visa,,,RENO,NV,,US,,,,,
,visa,,,RENO,NV,,US,,,,,
,visa,,,RENO,NV,,US,,,,,
,visa,,,RENO,NV,,US,,,,,
,visa,,,RENO,NV,,US,,,,,
,visa,,,RENO,NV,,US,,,,,
,visa,,,RENO,NV,,US,,,,,
,visa,,,RENO,NV,,US,,,,,
,visa,,,RENO,NV,,US,,,,,
,visa,,,RENO,NV,,US,,,,,
,visa,,,RENO,NV,,US,,,,,
,visa,,,RENO,NV,,US,,,,,
,visa,,,RENO,NV,,US,,,,,
,visa,,,RENO,NV,,US,,,,,
,visa,,,RENO,NV,,US,,,,,
,visa,,,RENO,NV,,US,,,,,
,visa,,,RENO,NV,,US,,,,,
,visa,,,RENO,NV,,US,,,,,
,visa,,,RENO,NV,,US,,,,,
,visa,,,RENO,NV,,US,,,,,
,visa,,,RENO,NV,,US,,,,,
,visa,,,RENO,NV,,US,,,,,
,visa,,,RENO,NV,,US,,,,,
,visa,,,RENO,NV,,US,,,,,
,visa,,,RENO,NV,,US,,,,,
,visa,,,RENO,NV,,US,,,,,
,visa,,,RENO,NV,,US,,,,,
,visa,,,RENO,NV,,US,,,,,
,visa,,,RENO,NV,,US,,,,,
,visa,,,RENO,NV,,US,,,,,
,visa,,,RENO,NV,,US,,,,,
,visa,,,RENO,NV,,US,,,,,
,visa,,,RENO,NV,,US,,,,,
,visa,,,RENO,NV,,US,,,,,
,visa,,,RENO,NV,,US,,,,,
,visa,,,RENO,NV,,US,,,,,
,visa,,,RENO,NV,,US,,,,,
,visa,,,RENO,NV,,US,,,,,
,visa,,,RENO,NV,,US,,,,,
490__CALIFORNIA__AVE_RENO_NV_89509,wellsfargo,Wells Fargo,490 CALIFORNIA AVE,RENO,NV,,US,+1 775-784-3556,https://www.wellsfargo.com/locator/bank/490__CALIFORNIA__AVE_RENO_NV_89509/,Mo-Fr 09:00-17:00,Wells Fargo,Q744149
3600__LAKESIDE__DR_RENO_NV_89509,wellsfargo,,3600 LAKESIDE DR,RENO,NV,,US,+1 800-869-3557,https://www.wellsfargo.com/locator/bank/3600__LAKESIDE__DR_RENO_NV_89509/,,Wells Fargo,Q744149
752d7c02585ed8f0f43daceac216e223,western_union,7-ELEVEN #14081,,Reno,NV,,US,+1 775-323-6224,https://location.westernunion.com/us/nv/reno/752d7c02585ed8f0f43daceac216e223,,Western Union,Q861042
53480a4798184724af5240b39510a9f2,western_union,WALMART #002189,,Reno,NV,,US,+1 775-829-8088,https://location.westernunion.com/us/nv/reno/53480a4798184724af5240b39510a9f2,Mo-Sa 08:00-20:00; Su 10:00-18:00,Western Union,Q861042
