Ref,Spider,Name,Address,City,State,Zipcode,Country,Phone,Website,Hours,Brand,WikiData
72136494,moneygram,COPPEL TRANSMISORES - ZITACUARO - LERDO,,ZITACUARO,MC,,MX,+52 715 153 7516,,Mo-Sa 10:00-20:00; Su 09:30-18:30,MoneyGram,Q1944412
72136232,moneygram,COPPEL TRANSMISORES - ZITACUARO - REVOLU,,ZITACUARO,MC,,MX,+52 715 153 0236,,Mo-Sa 10:00-20:00; Su 10:00-19:00,MoneyGram,Q1944412
69508909,moneygram,MODATELAS - #1058 - 58 MODATELAS ZITACUA,,ZITACUARO,MC,,MX,+52 715 153 1564,,Mo-Su 08:00-20:00,MoneyGram,Q1944412
74147902,moneygram,CAJA POPULAR CERANO - ZITACUARO MICH,,ZITACUARO,MC,,MX,+52 81 2133 2160,,Mo-Fr 08:00-18:00; Sa 08:00-14:00; Su 00:00-24:00,MoneyGram,Q1944412
70387931,moneygram,FARMACIAS GUADALAJARA - ZITACUARO LERDO,,ZITACUARO,MC,,MX,+52 713 278 5436,,Mo-Su 08:00-22:00,MoneyGram,Q1944412
70395350,moneygram,FARMACIAS GUADALAJARA - ZITACUARO 5 DE M,,ZITACUARO,MC,,MX,+52 713 278 5436,,Mo-Su 08:00-22:00,MoneyGram,Q1944412
68817044,moneygram,DINERO EXPRESS - #2901 - HEROICA ZITACUA,,HEROICA ZITACUARO,MC,,MX,+52 55 1720 8141,,Mo-Su 09:00-21:00,MoneyGram,Q1944412
70755097,moneygram,A WALDOS - 6219 ZITACUARO CENTRO (MICH),,ZITACUARO,MC,,MX,5252460700,,Mo-Su 07:00-23:00,MoneyGram,Q1944412
70755408,moneygram,ELECZION - #1107 - ZITACUARO - ZITACUARO,,ZITACUARO,MC,,MX,5263180635,,Mo-Su 07:00-23:00,MoneyGram,Q1944412
41312883,moneygram,BANORTE - #2460 - ZITACUARO,,ZITACUARO,MC,,MX,+52 715 153 7729,,Mo-Fr 09:00-18:00; Sa 09:30-16:30; Su 00:00-24:00,MoneyGram,Q1944412
44134958,moneygram,PAGOS INTERMEX - #70,,ZITACUARO,MC,,MX,+52 222 372 5125,,Mo-Fr 09:00-17:00; Sa 09:00-14:00; Su 00:00-24:00,MoneyGram,Q1944412
66286732,moneygram,WOOLWORTH - #2532,,ZITACUARO,MC,,MX,+52 800 833 4700,,Mo-Sa 09:00-20:30; Su 09:00-21:00,MoneyGram,Q1944412
71602518,moneygram,ELECZION - #1341 - ZITACUARO,,ZITACUARO,MC,,MX,+52 55 6318 0635,,Mo-Su 07:00-23:00,MoneyGram,Q1944412
71364445,moneygram,OXXO - EL POLVORIN TLC,,ZITACUARO,MC,,MX,+52 81 8389 2121,,Mo-Su 03:00-24:00,MoneyGram,Q1944412
71363394,moneygram,OXXO - JUNGAPEO TLC,,ZITACUARO,MC,,MX,+52 81 8389 2121,,Mo-Su 03:00-24:00,MoneyGram,Q1944412
71365101,moneygram,OXXO - REVOLUCION TLC,,ZITACUARO,MC,,MX,+52 81 8389 2121,,Mo-Su 03:00-24:00,MoneyGram,Q1944412
71366265,moneygram,OXXO - SALAZAR TLC,,ZITACUARO,MC,,MX,+52 81 8389 2121,,Mo-Su 03:00-24:00,MoneyGram,Q1944412
71366524,moneygram,OXXO - ZITACUARO CENTRO TLC,,ZITACUARO,MC,,MX,+52 81 8389 2121,,Mo-Su 03:00-24:00,MoneyGram,Q1944412
71366579,moneygram,OXXO - ZITACUARO TLC,,ZITACUARO,MC,,MX,+52 81 8389 2121,,Mo-Su 03:00-24:00,MoneyGram,Q1944412
71362405,moneygram,OXXO - JARDIN CONS TLC,,ZITACUARO,MC,,MX,+52 81 8389 2121,,Mo-Su 03:00-24:00,MoneyGram,Q1944412
68812832,moneygram,DINERO EXPRESS - #2092 - HEROICA ZITACUA,,HEROICA ZITACUARO,MC,,MX,+52 55 1720 8141,,Mo-Su 09:00-21:00,MoneyGram,Q1944412
