Ref,Spider,Name,Address,City,State,Zipcode,Country,Phone,Website,Hours,Brand,WikiData
https://awrestaurants.com/locations/utah/salt-lake-city/555-e-400-s/,awrestaurants,A&W Restaurant,,Salt Lake City,UT,,US,+1 801-363-9652,https://awrestaurants.com/locations/utah/salt-lake-city/555-e-400-s/,Mo-Su 10:30-21:00,A&W Restaurants,Q277641
https://locators.bankofamerica.com/ut/saltlakecity/atm-salt-lake-city-107728.html,bankofamerica,Bank of America Walk-Up ATM | Trolley Square Mall,,Salt Lake City,UT,,US,+1 844-401-8500,https://locators.bankofamerica.com/ut/saltlakecity/atm-salt-lake-city-107728.html,,Bank of America,Q487907
https://locators.bankofamerica.com/ut/saltlakecity/atm-salt-lake-city-110773.html,bankofamerica,Bank of America Walk-Up ATM | 1300 E And 200 S,,Salt Lake City,UT,,US,+1 844-401-8500,https://locators.bankofamerica.com/ut/saltlakecity/atm-salt-lake-city-110773.html,,Bank of America,Q487907
Judge Memorial Catholic High School,barnesnoblecollege,Judge Memorial Catholic High School,,Lake City,UT,,US,,https://www.bncollege.com/campus-stores/,,Barnes & Noble College,Q4861508
12986999,barre3,Salt Lake City,"602 East 500 South, Salt Lake City, UT, 84102",Salt Lake City,UT,,US,+1 385-489-1019,https://barre3.com/studio-locations/salt-lake-city,,Barre3,Q120601241
151374,bluerhino,Walgreens #9238,,Salt Lake City,UT,,US,+1 801-478-0700,,,Blue Rhino,Q65681213
157345,bluerhino,Smith's Marketplace # 94 - Fuel Site,,Salt Lake City,UT,,US,+1 801-328-6000,,,Blue Rhino,Q65681213
65487,bluerhino,Smith's Marketplace # 94,,Salt Lake City,UT,,US,+1 801-328-6000,,,Blue Rhino,Q65681213
192286,bluerhino,Speedway #9437,,Salt Lake City,UT,,US,+1 801-328-2671,,,Blue Rhino,Q65681213
150475,bluerhino,Smiths Food & Drug 044 - Fuel Site,,Salt Lake City,UT,,US,+1 801-355-2801,,,Blue Rhino,Q65681213
5402,bluerhino,Smiths Food & Drug 044,,Salt Lake City,UT,,US,+1 801-355-2801,,,Blue Rhino,Q65681213
31,cafe_zupas,Downtown - 400 South,,Salt Lake City,UT,,US,+1 801-746-0138,https://cafezupas.com/locationcopy/info/downtown---400-south,Mo-Th 10:00-21:00; Fr-Sa 10:00-22:00,Caf√© Zupas,Q123687995
001.005.0914,chilis,SLC Downtown,,Salt Lake City,UT,,US,+1 801-575-6933,https://www.chilis.com/locations/us/utah/salt-lake-city/slc-downtown/,Mo-Th 11:00-23:00; Fr-Sa 11:00-24:00; Su 11:00-22:00,Chili's,Q1072948
ut_salt-lake-city_734-e-400-s,chipotle, ,,Salt Lake City,UT,,US,+1 801-359-4535,https://locations.chipotle.com/ut/salt-lake-city/734-e-400-s,,Chipotle,Q465751
76229,citi,ATM Smiths Food And Drug,,Salt Lake City,UT,,US,,,,Citibank,Q857063
91717,citi,ATM Walgreens,,Salt Lake City,UT,,US,,,,Citibank,Q857063
78905,citi,ATM Speedway,,Salt Lake City,UT,,US,,,,Citibank,Q857063
58275,citi,ATM Goldenwest Credit Union,,Salt Lake City,UT,,US,,,,Citibank,Q857063
76218,citi,ATM Smiths Express,,Salt Lake City,UT,,US,,,,Citibank,Q857063
33287,citi,ATM 7ELEVEN-FCTI,,Salt Lake City,UT,,US,,,,Citibank,Q857063
27388,citi,ATM 7ELEVEN-FCTI,,Salt Lake City,UT,,US,,,,Citibank,Q857063
32665,citi,ATM 7ELEVEN-FCTI,,Salt Lake City,UT,,US,,,,Citibank,Q857063
2ehWB6UoAK19ue9Dq9D2Kk,corepower_yoga_us,Trolley Square,,Salt Lake City,UT,,US,,https://www.corepoweryoga.com/yoga-studios/ut/salt-lake-city/trolley-square,,Corepower Yoga,Q21015663
,credit_union_us,Goldenwest CU,,Salt Lake City,UT,,US,+1 800-283-4550,,Mo-Th 09:00-05:00; Fr 09:00-05:30; Sa 09:00-02:00,,
,credit_union_us,Ridgeline FCU,,Salt Lake City,UT,,US,+1 801-328-1521,,Mo-Fr 09:00-05:00,,
7507,dominos_pizza_us,Domino's Pizza,,Salt Lake City,UT,,US,+1 801-350-3807,https://pizza.dominos.com/utah/salt-lake-city/702-s-700-e,Mo-Th 10:00-24:00; Fr-Sa 10:00-01:00; Su 10:00-24:00,Domino's,Q839466
https://www.edwardjones.com/us-en/financial-advisor/laura-harkort,edwardjones,Laura A Harkort,,Salt Lake City,UT,,US,+1 801-359-9449,https://www.edwardjones.com/us-en/financial-advisor/laura-harkort,Mo-Th 08:30-16:30; Fr 08:30-14:00,Edward Jones,Q5343830
https://local.fedex.com/#25203319,fedex,,,Salt Lake City,UT,,US,+1 800-463-3339,https://local.fedex.com/en-us/ut/salt-lake-city/npvzi,,FedEx,Q459477
https://salons.greatclips.com/us/ut/salt-lake-city/532-e-400-s,greatclips,Great Clips,,Salt Lake City,UT,,US,+1 801-359-4013,https://salons.greatclips.com/us/ut/salt-lake-city/532-e-400-s,Mo-Fr 09:00-20:00; Sa 08:00-19:00; Su 10:00-17:00,Great Clips,Q5598967
https://www.blockadvisors.com/local-tax-offices/utah/salt-lake-city/645-e-400-s/43778/,h_r_block,H&R Block,,Salt Lake City,UT,,US,+1 801-355-4649,https://www.blockadvisors.com/local-tax-offices/utah/salt-lake-city/645-e-400-s/43778/,,H&R Block,Q5627799
ut_salt-lake-city_breakfast-635-east-400-south-3625,ihop,IHOP Breakfast Restaurants Near You at 635 East 400 South,,Salt Lake City,UT,,US,+1 385-419-9060,https://restaurants.ihop.com/en-us/ut/salt-lake-city/breakfast-635-east-400-south-3625,,IHOP,Q1185675
https://locations.jamba.com/#203-Jamba,jambajuice,Jamba 4th South,,Salt Lake City,UT,,US,+1 801-575-6756,https://locations.jamba.com/ut/salt-lake-city/613-east-400-south,Mo-Fr 07:00-21:00; Sa 08:00-21:00; Su 09:00-20:00,Jamba Juice,Q3088784
https://locations.jimmyjohns.com/ut/saltlakecity/sandwiches-1121.html,jimmy_johns,Jimmy John's,,Salt Lake City,UT,,US,+1 801-466-7827,https://locations.jimmyjohns.com/ut/saltlakecity/sandwiches-1121.html,,Jimmy John's,Q1689380
https://locations.kfc.com/#11248398,kfc,Chicken Nuggets Near Salt Lake City,,Salt Lake City,UT,,US,,https://locations.kfc.com/ut/salt-lake-city/555-east-400-south/chickennugget,Mo-Su 10:00-21:00,KFC,Q524757
174237,little_free_library,Kahve Cafe #174237 Salt Lake City UT,,Salt Lake City,UT,,US,,,,Little Free Library,Q6650101
110234,little_free_library,Juniper's Little Free Diverse Library #110234 Salt Lake City UT,,Salt Lake City,UT,,US,,,,Little Free Library,Q6650101
3905,little_free_library,Notions #3905 Salt Lake City UT,,Salt Lake City,UT,,US,,,,Little Free Library,Q6650101
https://locations.massageenvy.com/#1774080,massage_envy,Massage Envy Fourth South,,Salt Lake City Salt Lake City,UT,,US,+1 801-433-5333,https://locations.massageenvy.com/utah/salt-lake-city/655-east-400-south.html,Mo-Fr 08:00-22:00; Sa 08:00-19:00; Su 10:00-18:00,Massage Envy,Q10327170
17611,mattress_firm_us,Mattress Firm Downtown Salt Lake City,,Salt Lake City,UT,,US,+1 801-363-1909,https://www.mattressfirm.com/en-us/stores/ut/salt-lake-city/066021/,,Mattress Firm,Q6791878
https://locations.noodles.com/ut/salt-lake-city/358-south-700-east.html,noodles_and_company_us,Noodles & Company 400 South,,Salt Lake City,UT,,US,+1 801-359-8315,https://locations.noodles.com/ut/salt-lake-city/358-south-700-east.html,Mo-Th 10:30-22:00; Fr-Sa 10:30-23:00; Su 10:30-22:00,Noodles and Company,Q7049673
1891,orangetheory_fitness,"Salt Lake City, UT",,Salt Lake City,UT,,US,+1 801-255-9050,,,Orangetheory Fitness,Q25005163
https://locations.oreillyauto.com/ut/saltlakecity/check-engine-light-testing-6702.html,oreilly,Your Salt Lake City O'Reilly Auto Parts Store,,Salt Lake City,UT,,US,+1 801-441-5048,https://locations.oreillyauto.com/ut/saltlakecity/check-engine-light-testing-6702.html,Mo-Sa 07:30-22:00; Su 08:00-20:00,O'Reilly Auto Parts,Q7071951
https://locations.oreillyauto.com/ut/saltlakecity/wiper-installation-6702.html,oreilly,Your Salt Lake City O'Reilly Auto Parts Store,,Salt Lake City,UT,,US,+1 801-441-5048,https://locations.oreillyauto.com/ut/saltlakecity/wiper-installation-6702.html,Mo-Sa 07:30-22:00; Su 08:00-20:00,O'Reilly Auto Parts,Q7071951
https://locations.oreillyauto.com/ut/saltlakecity/battery-testing-6702.html,oreilly,Your Salt Lake City O'Reilly Auto Parts Store,,Salt Lake City,UT,,US,+1 801-441-5048,https://locations.oreillyauto.com/ut/saltlakecity/battery-testing-6702.html,Mo-Sa 07:30-22:00; Su 08:00-20:00,O'Reilly Auto Parts,Q7071951
https://locations.oreillyauto.com/ut/saltlakecity/autopartes-6702.html,oreilly,O'Reilly Auto Parts,,Salt Lake City,UT,,US,+1 801-441-5048,https://locations.oreillyauto.com/ut/saltlakecity/autopartes-6702.html,Mo-Sa 07:30-22:00; Su 08:00-20:00,O'Reilly Auto Parts,Q7071951
https://www.plannedparenthood.org/health-center/utah/salt-lake-city/84102/metro-health-center-3958-91730,planned_parenthood,Planned Parenthood,,Salt Lake City,UT,,US,,https://www.plannedparenthood.org/health-center/utah/salt-lake-city/84102/metro-health-center-3958-91730,,Planned Parenthood,Q2553262
https://www.plannedparenthood.org/health-center/utah/salt-lake-city/84102/salt-lake-health-center-3567-91730,planned_parenthood,Planned Parenthood,,Salt Lake City,UT,,US,,https://www.plannedparenthood.org/health-center/utah/salt-lake-city/84102/salt-lake-health-center-3567-91730,,Planned Parenthood,Q2553262
2278,ross_dress_for_less_us,SALT LAKE CITY,,Salt Lake City,UT,,US,+1 801-359-4062,,Mo-Th 10:30-21:30; Fr-Sa 10:00-22:00; Su 10:30-21:00,Ross Dress for Less,Q3442791
35818,seven_eleven_ca_us,7-Eleven Store,,Salt Lake City,UT,,US,+1 801-363-1773,https://www.7-eleven.com/locations/ut/salt-lake-city/887-e-400-south-35818,,7-Eleven,Q259340
https://stations.sinclairoil.com/ut/salt-lake-city/210-s-700-e,sinclair_us,Sinclair Gas Station,,Salt Lake City,UT,,US,+1 801-532-4821,https://stations.sinclairoil.com/ut/salt-lake-city/210-s-700-e,24/7,Sinclair,Q1290900
https://www.sprouts.com/store/ut/salt-lake-city/salt-lake-city/,sprouts_farmer_market,Sprouts Farmers Market 603-Salt Lake City,,Salt Lake City,UT,,US,+1 801-364-1602,https://www.sprouts.com/store/ut/salt-lake-city/salt-lake-city/,Mo-Su 07:00-22:00,Sprouts Farmer Market,Q7581369
https://restaurants.subway.com/#14900180,subway,Subway,,Salt Lake City Salt Lake,UT,,US,+1 801-582-5001,https://restaurants.subway.com/united-states/ut/salt-lake-city/221-south-1300-east,Mo-Sa 09:00-21:00; Su 11:00-19:00,Subway,Q244457
https://locations.tacobell.com/#6142739,taco_bell,Taco Bell,,Salt Lake City,UT,,US,+1 801-328-4499,https://locations.tacobell.com/ut/salt-lake-city/621-east-400-south.html,Mo-We 07:00-03:00; Th-Sa 07:00-04:00; Su 07:00-03:00,Taco Bell,Q752941
1SIV,tmobile_us,Downtown SLC,,Salt Lake City,UT,,US,+1 801-532-0900,https://www.t-mobile.com/store-locator/ut/salt-lake-city/downtown-slc,,T-Mobile,Q3511885
350,trader_joes_us,Trader Joe's Salt Lake City (350),,Salt Lake City,UT,,US,+1 801-359-2462,https://locations.traderjoes.com/ut/salt-lake-city/350/,Mo-Su 08:00-21:00,Trader Joe's,Q688825
https://www.trekbikes.com/us/en_US/retail/salt_lake_city_downtown/,trekbikes,Trek Bicycle Salt Lake City Downtown,,Salt Lake City,UT,,US,+1 801-746-8366,https://www.trekbikes.com/us/en_US/retail/salt_lake_city_downtown/,Tu-Sa 10:00-18:00; Su 12:00-17:00,Trek,Q1067617
8410200009,usps_collection_boxes,USPS COLLECTION BOX - BLUE BOX,24 S 1100 E,SALT LAKE CITY,UT,,US,,,,United States Postal Service,Q668687
8410200063,usps_collection_boxes,USPS COLLECTION BOX - BLUE BOX,731 E SOUTH TEMPLE,SALT LAKE CITY,UT,,US,,,,United States Postal Service,Q668687
8410200042,usps_collection_boxes,USPS COLLECTION BOX - BLUE BOX,731 E SOUTH TEMPLE,SALT LAKE CITY,UT,,US,,,,United States Postal Service,Q668687
8410200049,usps_collection_boxes,USPS COLLECTION BOX - BLUE BOX,100 S 600 E,SALT LAKE CITY,UT,,US,,,,United States Postal Service,Q668687
8410200023,usps_collection_boxes,USPS COLLECTION BOX - BLUE BOX,150 S 600 E,SALT LAKE CITY,UT,,US,,,,United States Postal Service,Q668687
8410200043,usps_collection_boxes,USPS COLLECTION BOX - BLUE BOX,500 E 200 S,SALT LAKE CITY,UT,,US,,,,United States Postal Service,Q668687
8410200036,usps_collection_boxes,USPS COLLECTION BOX - BLUE BOX,675 E 600 S,SALT LAKE CITY,UT,,US,,,,United States Postal Service,Q668687
8410200048,usps_collection_boxes,USPS COLLECTION BOX - EXPRESS,551 E 500 S,SALT LAKE CITY,UT,,US,,,,United States Postal Service,Q668687
8410200060,usps_collection_boxes,USPS COLLECTION BOX - BLUE BOX,551 E 500 S,SALT LAKE CITY,UT,,US,,,,United States Postal Service,Q668687
8410200061,usps_collection_boxes,USPS COLLECTION BOX - BLUE BOX,876 E 800 S,SALT LAKE CITY,UT,,US,,,,United States Postal Service,Q668687
,visa,,,SALT LAKE,UT,,US,,,,,
,visa,,,SALT LAKE CITY,UT,,US,,,,,
,visa,,,SALT LAKE,UT,,US,,,,,
,visa,,,SALT LAKE CITY,UT,,US,,,,,
,visa,,,SALT LAKE CITY,UT,,US,,,,,
,visa,,,SALT LAKE CIT,UT,,US,,,,,
,visa,,,SALT LAKE CITY,UT,,US,,,,,
,visa,,,SALT LAKE CITY,UT,,US,,,,,
,visa,,,SALT LAKE CIT,UT,,US,,,,,
,visa,,,SALT LAKE CITY,UT,,US,,,,,
,visa,,,SALT LAKE,UT,,US,,,,,
,visa,,,SALT LAKE CITY,UT,,US,,,,,
,visa,,,SALT LAKE CTY,UT,,US,,,,,
,visa,,,SALT LAKE CITY,UT,,US,,,,,
,visa,,,SALT LAKE CTY,UT,,US,,,,,
,visa,,,SALT LAKE CITY,UT,,US,,,,,
,visa,,,SALT LAKE CITY,UT,,US,,,,,
,visa,,,SALTLAKE CITY,UT,,US,,,,,
,visa,,,SALT LAKE CITY,UT,,US,,,,,
,visa,,,SALT LAKE CITY,UT,,US,,,,,
,visa,,,SALT LAKE CITY,UT,,US,,,,,
,visa,,,SALT LAKE,UT,,US,,,,,
,visa,,,SALT LAKE CITY,UT,,US,,,,,
,visa,,,SALT LAKE CITY,UT,,US,,,,,
,visa,,,SALT LAKE,UT,,US,,,,,
,visa,,,SALT LAKE CITY,UT,,US,,,,,
,visa,,,SALT LAKE CTY,UT,,US,,,,,
,visa,,,SALT LAKE CITY,UT,,US,,,,,
,visa,,,SALTLAKE CITY,UT,,US,,,,,
,visa,,,SALT LAKE CITY,UT,,US,,,,,
,visa,,,SLC,UT,,US,,,,,
,visa,,,SALT LAKE CITY,UT,,US,,,,,
,visa,,,SALT LAKE CITY,UT,,US,,,,,
,visa,,,SALT LAKE CITY,UT,,US,,,,,
,visa,,,SALT LAKE CITY,UT,,US,,,,,
,visa,,,SALT LAKE CITY,UT,,US,,,,,
,visa,,,SALT LAKE CITY,UT,,US,,,,,
,visa,,,SALT LAKE CIT,UT,,US,,,,,
https://www.walgreens.com/locator/walgreens-531+e+400+s-salt+lake+city-ut-84102/id=9238,walgreens,Walgreens,,Salt Lake City,UT,,US,+1 801-478-0703,https://www.walgreens.com/locator/walgreens-531+e+400+s-salt+lake+city-ut-84102/id=9238,Mo-Su 08:00-22:00,Walgreens,Q1591889
"https://www.walgreens.com/locator/community,+a+walgreens+pharmacy-201+s+1300+e-salt+lake+city-ut-84102/id=16481",walgreens,"Community, a Walgreens Pharmacy",,Salt Lake City,UT,,US,+1 801-736-9309,"https://www.walgreens.com/locator/community,+a+walgreens+pharmacy-201+s+1300+e-salt+lake+city-ut-84102/id=16481",,,
235__S__1300__E_SALT__LAKE__CITY_UT_84102,wellsfargo,Wells Fargo,235 S 1300 E,SALT LAKE CITY,UT,,US,+1 801-582-1235,https://www.wellsfargo.com/locator/bank/235__S__1300__E_SALT__LAKE__CITY_UT_84102/,Mo-Fr 09:00-17:00,Wells Fargo,Q744149
1800__E__50__N_SALT__LAKE__CITY_UT_84102,wellsfargo,,1800 E 50 N,SALT LAKE CITY,UT,,US,+1 800-869-3557,https://www.wellsfargo.com/locator/bank/1800__E__50__N_SALT__LAKE__CITY_UT_84102/,,Wells Fargo,Q744149
https://locations.wendys.com/#9255443,wendys,"Wendy's Fourth South in Salt Lake City, UT",,Salt Lake City,UT,,US,+1 801-328-0821,https://locations.wendys.com/united-states/ut/salt-lake-city/562-east-400-south,"Mo-Su 06:00-10:30,09:00-22:00",Wendy's,Q550258
25b8eb9723119af8fd6606f9e7aa8da6,western_union,7-ELEVEN #35818,,Salt Lake City,UT,,US,+1 801-363-1773,https://location.westernunion.com/us/ut/salt-lake-city/25b8eb9723119af8fd6606f9e7aa8da6,,Western Union,Q861042
trolleysquare,whole_foods,Trolley Square,544 S 700 E,Salt Lake City,UT,,US,+1 801-924-9060,https://www.wholefoodsmarket.com/stores/trolleysquare,Mo-Su 08:00-21:00,Whole Foods,Q1809448
3847,xfinity,Xfinity,,Salt Lake City,UT,,US,,https://www.xfinity.com/local/ut/salt-lake-city/616-east-400-south.html,Mo-Sa 10:00-19:00; Su 12:00-17:00,Xfinity,Q5151002
