Ref,Spider,Name,Address,City,State,Zipcode,Country,Phone,Website,Hours,Brand,WikiData
https://storelocations.ae.com/#1726302,american_eagle_outfitters,American Eagle Store City Creek Center,,Salt Lake City,UT,,US,+1 801-364-0735,https://storelocations.ae.com/us/ut/salt-lake-city/50-south-main-street.html,Mo-Th 11:00-20:00; Fr-Sa 11:00-21:00,American Eagle Store,Q2842931
R125,apple,Apple City Creek Center,,Salt Lake City,UT,,US,+1 801-456-9400,https://www.apple.com/retail/citycreekcenter,Mo-Th 10:00-20:00; Fr-Sa 10:00-21:00,Apple,Q421253
15295,asics_us,Nordstrom,55 West Temple,Salt Lake City,UT,,US,+1 801-322-4200,,,asics,Q327247
https://www.avis.com/en/locations/us/ut/salt-lake-city/sl1,avis,Avis U S A Salt Lake City,,Salt Lake City,UT,,US,+1 801-359-2177,https://www.avis.com/en/locations/us/ut/salt-lake-city/sl1,Mo-Fr 08:00-16:00; Sa 08:00-14:00; Su 08:00-12:00,Avis,Q791136
https://bananarepublic.gap.com/stores/ut/saltlakecity/banana-republic-4865.html,bananarepublic,Banana Republic,,Salt Lake City,UT,,US,+1 801-363-1942,https://bananarepublic.gap.com/stores/ut/saltlakecity/banana-republic-4865.html,Mo-Th 10:00-20:00; Fr-Sa 10:00-21:00,Banana Republic,Q806085
https://locators.bankofamerica.com/ut/saltlakecity/financial-centers-salt-lake-city-16965.html,bankofamerica,Bank of America Financial Center & Walk-Up ATM | Downtown SLC,,Salt Lake City,UT,,US,+1 801-410-7553,https://locators.bankofamerica.com/ut/saltlakecity/financial-centers-salt-lake-city-16965.html,Mo-Fr 09:00-16:00,Bank of America,Q487907
https://www.benihana.com/locations/saltlakecity-ut-sl/,benihana,"SALT LAKE CITY, UT",, Salt Lake City,UT,,US,+1 801-322-2421,https://www.benihana.com/locations/saltlakecity-ut-sl/,,Benihana,Q4887996
https://child-care-preschool.brighthorizons.com/UT/SaltLakeCity/Recursion,brighthorizons,Bright Horizons at Recursion ,,Salt Lake City,UT,,US,+1 385-279-2934,https://child-care-preschool.brighthorizons.com/ut/saltlakecity/recursion,Mo-Fr 07:00-18:00,Bright Horizons,Q4967421
81424,citi,ATM Target,,Salt Lake City,UT,,US,,,,Citibank,Q857063
24768,citi,ATM 7ELEVEN-FCTI,,Salt Lake City,UT,,US,,,,Citibank,Q857063
92682,citi,ATM Walgreens,,Salt Lake City,UT,,US,,,,Citibank,Q857063
saltlakecity/3190,claires,Shop Ear Piercings & Jewelry at City Creek Center,,SALT LAKE CITY,UT,,US,+1 801-532-2961,https://stores.claires.com/us/ut/saltlakecity/3190.html,Mo-Th 10:00-20:00; Fr-Sa 10:00-21:00,Claire's,Q2974996
https://www.coach.com/stores/#17277497,coach_us,COACH,,Salt Lake City,UT,,US,+1 385-257-9295,https://www.coach.com/stores/ut/salt-lake-city/50-south-main-street,Mo-Th 10:00-20:00; Fr-Sa 10:00-21:00,Coach,Q727697
17596,cvs_us,CVS Pharmacy,,Salt Lake City,UT,,US,+1 801-401-9563,https://www.cvs.com/store-locator/salt-lake-city-ut-pharmacies/1110-s-300-w-salt-lake-city-ut-84101/storeid=17596,"Mo-Fr 10:00-13:30,14:00-20:00; Sa 10:00-13:30,14:00-18:00; Su 11:00-13:30,14:00-17:00",CVS Pharmacy,Q2078880
3821,elpolloloco,El Pollo Loco,,Salt Lake City,UT,,US,+1 801-363-0863,,,El Pollo Loco,Q2353849
E14702,enterprise,Downtown Salt Lake City,,Salt Lake City,UT,,US,+1 801-534-1888,,,Enterprise Rent-A-Car,Q17085454
united-states#salt-lake-city,ernst_young,EY,"15 West South Temple, Suite 1800",Salt Lake City,UT,,US,+1 801-350-3300,https://www.ey.com/locations/united-states#salt-lake-city,,EY,Q489097
51-south-main-street,express,City Creek Center,,Salt Lake City,UT,,US,+1 385-282-6352,https://stores.express.com/us/ut/salt-lake-city/51-south-main-street,Mo-Th 10:00-20:00; Fr-Sa 10:00-21:00; Su 11:00-19:00,Express,Q1384784
1000000369,extra_space_storage,Salt Lake City Self Storage at 1150 S 500 W,,Salt Lake City,UT,,US,+1 801-974-9500,https://www.extraspace.com/storage/facilities/us/utah/salt_lake_city/1000000369/,Mo-Fr 09:30-18:00; Sa 09:00-17:30,Extra Space Storage,Q5422162
https://local.fedex.com/#25202079,fedex,,,Salt Lake City,UT,,US,+1 800-463-3339,https://local.fedex.com/en-us/ut/salt-lake-city/btfod,,FedEx,Q459477
https://locations.forever21.com/#35646858,forever21_us,City Creek Center,,Salt Lake City,UT,,US,+1 801-906-4033,https://locations.forever21.com/us/stores/ut/saltlakecity/51-s-main-st,Mo 10:00-18:00; Tu 10:00-21:00; We-Th 10:00-18:00; Fr-Sa 10:00-21:00,Forever 21,Q1060537
slccchh-hilton-salt-lake-city-center,hilton,Hilton Salt Lake City Center,,,UT,,US,+1 801-328-2000,https://www.hilton.com/ar/hotels/slccchh-hilton-salt-lake-city-center/,,Hilton Hotels & Resorts,Q598884
slcwsdt-doubletree-suites-salt-lake-city-downtown,hilton,DoubleTree Suites by Hilton Hotel Salt Lake City Downtown,,,UT,,US,+1 801-359-7800,https://www.hilton.com/ar/hotels/slcwsdt-doubletree-suites-salt-lake-city-downtown/,,DoubleTree by Hilton,Q2504643
US0257,hm,City Creek Center,,Salt Lake City,UT,,US,+1 855-466-7467,,Mo-Th 11:00-20:00; Fr-Sa 11:00-21:00; Su 00:00-24:00,H&M,Q188326
9923158,hugo_boss,BOSS Menswear Store,,Salt Lake City,UT,,US,+1 801-359-0951,https://www.hugoboss.com/us/storedetail?storeid=9923158,Mo-Sa 11:00-20:00,Hugo Boss,Q491627
43777,h_r_block,H&R Block,,Salt Lake City,UT,,US,+1 801-355-4643,https://www.hrblock.com/local-tax-offices/utah/salt-lake-city/38-west-200-south/43777/,,H&R Block,Q5627799
https://stores.jcrew.com/#1975213,j_crew_us,J.Crew,,Salt Lake City,UT,,US,+1 801-521-4275,https://stores.jcrew.com/us/ut/salt-lake-city/50-south-main-street,Mo-Th 10:00-20:00; Fr-Sa 10:00-21:00,J. Crew,Q5370765
133331,little_free_library,Under the Umbrella's Queer Lil Library #133331 Salt Lake City UT,,Salt Lake City,UT,,US,,,,Little Free Library,Q6650101
149929,little_free_library,Salt Lake City Visitor Information Center #14992 #149929 Salt Lake City UT,,Salt Lake City,UT,,US,,,,Little Free Library,Q6650101
City Creek Center,lululemon,Lululemon,"50 Main Street, Suite 270, Salt Lake City, UT, US, 84101",Salt Lake City,UT,,US,+1 385-338-6008,https://shop.lululemon.com/stores/us/salt-lake-city/trolleysquare,Mo-Th 10:00-20:00; Fr-Sa 10:00-21:00,Lululemon,Q6702957
https://stores.madewell.com/#2776580,madewell_us,Madewell,,Salt Lake City,UT,,US,+1 801-363-1857,https://stores.madewell.com/us/ut/salt-lake-city/50-south-main-st.,Mo-Th 10:00-20:00; Fr-Sa 10:00-21:00,Madewell,Q64026213
SLCAD,marriott,AC Hotel Salt Lake City Downtown,,Salt Lake City,UT,,US,+1 385-722-9600,https://www.marriott.com/SLCAD,,AC Hotels,Q5653536
SLCCD,marriott,Courtyard Salt Lake City Downtown,,Salt Lake City,UT,,US,+1 385-290-6500,https://www.marriott.com/SLCCD,,Courtyard by Marriott,Q1053170
SLCEL,marriott,Element Salt Lake City Downtown,,Salt Lake City,UT,,US,+1 801-658-4600,https://www.marriott.com/SLCEL,,Element Hotels,Q91948072
SLCFD,marriott,Fairfield Inn & Suites Salt Lake City Downtown,,Salt Lake City,UT,,US,+1 801-531-6000,https://www.marriott.com/SLCFD,,Fairfield by Marriott,Q5430314
SLCUT,marriott,Salt Lake Marriott Downtown at City Creek,,Salt Lake City,UT,,US,+1 801-531-0800,https://www.marriott.com/SLCUT,,Marriott Hotels & Resorts,Q3918608
SLCLD,marriott,Le Méridien Salt Lake City Downtown,,Salt Lake City,UT,,US,+1 801-658-4400,https://www.marriott.com/SLCLD,,Le Méridien,Q261077
SLCRI,marriott,Residence Inn Salt Lake City Downtown,,Salt Lake City,UT,,US,+1 801-355-3300,https://www.marriott.com/SLCRI,,Residence Inn by Marriott,Q7315394
SLCSH,marriott,SpringHill Suites Salt Lake City Downtown,,Salt Lake City,UT,,US,+1 801-238-3000,https://www.marriott.com/SLCSH,,SpringHill Suites,Q7580351
SLCSI,marriott,Sheraton Salt Lake City Hotel,,Salt Lake City,UT,,US,+1 801-401-2000,https://www.marriott.com/SLCSI,,Sheraton Hotels and Resorts,Q634831
SLCTD,marriott,TownePlace Suites Salt Lake City Downtown,,Salt Lake City,UT,,US,+1 801-509-7500,https://www.marriott.com/SLCTD,,Townplace Suites by Marriott,Q7830092
dealer_6391,maserati,MASERATI OF SALT LAKE CITY,,SALT LAKE CITY,UT,,US,(,,,Maserati,Q35962
65229499,moneygram,AWESOME TITLE LOANS,,SALT LAKE CITY,UT,,US,+1 801-364-4896,,Mo-Tu 09:00-20:00; We 09:00-20:30; Th-Fr 09:00-20:00; Sa 09:00-15:00; Su 00:00-24:00,MoneyGram,Q1944412
NNA3697,nissan_europe,KEN GARFF NISSAN OF SALT LAKE,,SALT LAKE CITY,UT,,US,+1 801-933-1882,https://www.kengarffnissanslc.com,Mo-Sa 09:00-19:00,Nissan,Q20165
73,nordstrom,Nordstrom City Creek Center,,Salt Lake City,UT,,US,+1 801-322-4200,https://www.nordstrom.com/store-details/nordstrom-city-creek-center,,Nordstrom,Q174310
113022,pandaexpress,Gateway,,Salt Lake City,UT,,US,+1 801-456-0393,https://www.pandaexpress.com/locations/ut/salt-lake-city/188-south-rio-grande-st,Mo-Th 10:00-23:00; Fr-Sa 10:00-23:30; Su 11:00-22:00,Panda Express,Q1358690
019021,penske,Uptown Security Storage,,SALT LAKE CITY,UT,,US,+1 801-359-4526,https://www.pensketruckrental.com/locations/us/utah/salt_lake_city/019021/,,Penske,Q81234570
https://www.pfchangs.com/locations/#5265444,pf_changs,P.F. Chang's Salt Lake City,,Salt Lake City,UT,,US,+1 801-539-0500,https://www.pfchangs.com/locations/us/ut/salt-lake-city/174-west-300-south/6000-salt-lake-city.html,Mo-Su 11:00-22:00,P. F. Chang's China Bistro,Q5360181
ut_salt-lake-city_165-south-rio-grande-st,pizza_hut_us,165 South Rio Grande St.,,Salt Lake City,UT,,US,,https://locations.pizzahut.com/ut/salt-lake-city/165-south-rio-grande-st,,Pizza Hut,Q191615
ut_salt-lake-city_1110-s-300-west,pizza_hut_us,1110 S. 300 West,,Salt Lake City,UT,,US,,https://locations.pizzahut.com/ut/salt-lake-city/1110-s-300-west,,Pizza Hut,Q191615
ppg-paints-9437-21932,ppgpaints,PPG Paints 9437,,"Salt Lake City, ",UT,,US,+1 801-908-0514,https://www.ppgpaints.com/store-locator/us/utah/salt-lake-city-paint-stores/ppg-paints-9437-21932,,PPG Paints,Q83891559
1570,pure_barre_us,Central Ninth,,Salt Lake City,UT,,US,+1 801-906-8874,https://www.purebarre.com/location/central-ninth-ut,,Pure Barre,Q86707084
https://stations.sinclairoil.com/ut/salt-lake-city/105-w-600-s,sinclair_us,Sinclair Gas Station,,Salt Lake City,UT,,US,+1 801-355-3344,https://stations.sinclairoil.com/ut/salt-lake-city/105-w-600-s,Mo-Sa 06:00-23:00; Su 07:00-21:00,Sinclair,Q1290900
https://restaurants.subway.com/#14900842,subway,Subway,,Salt Lake City Salt Lake,UT,,US,+1 801-834-6869,https://restaurants.subway.com/united-states/ut/salt-lake-city/311-west-600-south,Mo-Su 07:00-02:00,Subway,Q244457
https://restaurants.subway.com/#14909567,subway,Subway,,Salt Lake City Salt Lake,UT,,US,+1 385-528-2182,https://restaurants.subway.com/united-states/ut/salt-lake-city/18-w-100-south,Mo-Su 08:00-21:00,Subway,Q244457
https://stores.sunglasshut.com/us/ut/salt-lake-city/50-s-main-st,sunglass_hut_1,Sunglass Hut,,Salt Lake City,UT,,US,+1 801-364-4561,https://stores.sunglasshut.com/us/ut/salt-lake-city/50-s-main-st,Mo-Th 10:00-20:00; Fr-Sa 10:00-21:00; Su 00:00-24:00,Sunglass Hut,Q136311
1588456,usps,SLC DOWNTOWN RETAIL EAQ NEW,,SALT LAKE CITY,UT,,US,+1 801-532-5501,,,United States Postal Service,Q668687
1563340,usps,SLC DOWTOWN STA RETAIL EAQ,,SALT LAKE CITY,UT,,US,+1 801-532-5501,,Mo-Fr 08:00-17:30,United States Postal Service,Q668687
8410100107,usps_collection_boxes,USPS COLLECTION BOX - BLUE BOX,4 S MAIN ST,SALT LAKE CITY,UT,,US,,,,United States Postal Service,Q668687
8410100110,usps_collection_boxes,USPS COLLECTION BOX - BLUE BOX,4 S MAIN ST,SALT LAKE CITY,UT,,US,,,,United States Postal Service,Q668687
8410100132,usps_collection_boxes,USPS COLLECTION BOX - BLUE BOX,4 S MAIN ST,SALT LAKE CITY,UT,,US,,,,United States Postal Service,Q668687
8410100016,usps_collection_boxes,USPS COLLECTION BOX - BLUE BOX,8 W 100 S,SALT LAKE CITY,UT,,US,,,,United States Postal Service,Q668687
8410100133,usps_collection_boxes,USPS COLLECTION BOX - BLUE BOX,136 S MAIN ST,SALT LAKE CITY,UT,,US,,,,United States Postal Service,Q668687
8410100048,usps_collection_boxes,USPS COLLECTION BOX - BLUE BOX,20 W 300 S,SALT LAKE CITY,UT,,US,,,,United States Postal Service,Q668687
8410100131,usps_collection_boxes,USPS COLLECTION BOX - BLUE BOX,172 S RIO GRANDE ST,SALT LAKE CITY,UT,,US,,,,United States Postal Service,Q668687
8410100002,usps_collection_boxes,USPS COLLECTION BOX - BLUE BOX,215 W 800 S,SALT LAKE CITY,UT,,US,,,,United States Postal Service,Q668687
,visa,,,SALT LAKE CITY,UT,,US,,,,,
,visa,,,SALT LAKE CITY,UT,,US,,,,,
,visa,,,SALT LAKE CITY,UT,,US,,,,,
,visa,,,SALT LAKE,UT,,US,,,,,
,visa,,,SALT LAKE CITY,UT,,US,,,,,
,visa,,,SALT LAKE CITY,UT,,US,,,,,
,visa,,,SALT LAKE CITY,UT,,US,,,,,
,visa,,,SALT LAKE CITY,UT,,US,,,,,
,visa,,,SALT LAKE CITY,UT,,US,,,,,
,visa,,,SALT LAKE CITY,UT,,US,,,,,
,visa,,,SALT LAKE CITY,UT,,US,,,,,
,visa,,,SALT LAKE CITY,UT,,US,,,,,
,visa,,,SALT LAKE CITY,UT,,US,,,,,
,visa,,,SALT LAKE CITY,UT,,US,,,,,
,visa,,,SALT LAKE CITY,UT,,US,,,,,
,visa,,,SALT LAKE CITY,UT,,US,,,,,
,visa,,,SALT LAKE CITY,UT,,US,,,,,
,visa,,,SALT LAKE CITY,UT,,US,,,,,
,visa,,,SALT LAKE CITY,UT,,US,,,,,
,visa,,,SALT LAKE CITY,UT,,US,,,,,
,visa,,,SALT LAKE CITY,UT,,US,,,,,
,visa,,,SALT LAKE CITY,UT,,US,,,,,
,visa,,,SALT LAKE CITY,UT,,US,,,,,
,visa,,,SALT LAKE CITY,UT,,US,,,,,
,visa,,,SALT LAKE CITY,UT,,US,,,,,
,visa,,,SALT LAKE CITY,UT,,US,,,,,
,visa,,,SALT LAKE CITY,UT,,US,,,,,
,visa,,,SALT LAKE CITY,UT,,US,,,,,
,visa,,,SALT LAKE CITY,UT,,US,,,,,
,visa,,,SALK LAKE CITY,UT,,US,,,,,
,visa,,,SALT LAKE CITY,UT,,US,,,,,
,visa,,,SALT LAKE CITY,UT,,US,,,,,
,visa,,,SALT LAKE CITY,UT,,US,,,,,
,visa,,,SALT LAKE CITY,UT,,US,,,,,
,visa,,,SALT LAKE CITY,UT,,US,,,,,
,visa,,,SALT LAKE CITY,UT,,US,,,,,
,visa,,,SALT LAKE CITY,UT,,US,,,,,
,visa,,,SALT LAKE CITY,UT,,US,,,,,
,visa,,,SALT LAKE CITY,UT,,US,,,,,
,visa,,,SALT LAKE CIT,UT,,US,,,,,
,visa,,,SALT LAKE,UT,,US,,,,,
,visa,,,SALT LAKE CITY,UT,,US,,,,,
,visa,,,SALT LAKE CITY,UT,,US,,,,,
,visa,,,SALT LAKE CITY,UT,,US,,,,,
,visa,,,SALT LAKE CITY,UT,,US,,,,,
,visa,,,SALT LAKE CITY,UT,,US,,,,,
,visa,,,SALT LAKE CITY,UT,,US,,,,,
,visa,,,SALT LAKE CITY,UT,,US,,,,,
,visa,,,SALT LAKE CITY,UT,,US,,,,,
,visa,,,SALT LAKE CITY,UT,,US,,,,,
,visa,,,SALT LAKE CITY,UT,,US,,,,,
,visa,,,SALT LAKE CITY,UT,,US,,,,,
,visa,,,SALT LAKE CTY,UT,,US,,,,,
,visa,,,SALT LAKE CITY,UT,,US,,,,,
,visa,,,SALK LAKE CITY,UT,,US,,,,,
,visa,,,SALT LAKE CITY,UT,,US,,,,,
,visa,,,SALT LAKE CITY,UT,,US,,,,,
,visa,,,SALT LAKE CITY,UT,,US,,,,,
,visa,,,SALT LAKE CITY,UT,,US,,,,,
,visa,,,SALT LAKE CITY,UT,,US,,,,,
,visa,,,SALT LAKE CITY,UT,,US,,,,,
,visa,,,SALT LAKE CITY,UT,,US,,,,,
,visa,,,SALT LAKE CITY,UT,,US,,,,,
,visa,,,SALT LAKE CITY,UT,,US,,,,,
,visa,,,SALT LAKE CITY,UT,,US,,,,,
,visa,,,SALT LAKE CITY,UT,,US,,,,,
,visa,,,SALT LAKE CITY,UT,,US,,,,,
,visa,,,SALT LAKE CITY,UT,,US,,,,,
,visa,,,SALT LAKE CITY,UT,,US,,,,,
,visa,,,SALT LAKE CITY,UT,,US,,,,,
,visa,,,SALT LAKE CITY,UT,,US,,,,,
,visa,,,SALT LAKE CITY,UT,,US,,,,,
,visa,,,SALT LAKE CITY,UT,,US,,,,,
,visa,,,SALT LAKE CITY,UT,,US,,,,,
,visa,,,SALT LAKE CITY,UT,,US,,,,,
,visa,,,SALT LAKE CITY,UT,,US,,,,,
,visa,,,SALT LAKE CITY,UT,,US,,,,,
,visa,,,SALT LAKE CITY,UT,,US,,,,,
,visa,,,SALT LAKE CITY,UT,,US,,,,,
,visa,,,SALT LAKE CITY,UT,,US,,,,,
,visa,,,SALT LAKE CITY,UT,,US,,,,,
https://www.walgreens.com/locator/walgreens-72+s+main+st-salt+lake+city-ut-84101/id=19121,walgreens,Walgreens,,Salt Lake City,UT,,US,+1 801-531-0583,https://www.walgreens.com/locator/walgreens-72+s+main+st-salt+lake+city-ut-84101/id=19121,Mo-Fr 07:00-20:00; Sa 09:00-21:00; Su 11:00-17:00,Walgreens,Q1591889
https://locations.wendys.com/#9255435,wendys,"Wendy's Restaurant #6090 in Salt Lake City, UT",,Salt Lake City,UT,,US,+1 801-355-3407,https://locations.wendys.com/united-states/ut/salt-lake-city/1090-south-300-west,"Mo-Su 06:00-10:30,09:00-22:00",Wendy's,Q550258
1303,whitehouseblackmarket,City Creek Center,"50 South Main Street, Suite 262",Salt Lake City,UT,,US,+1 801-363-0201,,Mo-Th 11:00-19:00; Fr-Sa 11:00-20:00; Su 11:00-18:00,White House Black Market,Q7994858
