Ref,Spider,Name,Address,City,State,Zipcode,Country,Phone,Website,Hours,Brand,WikiData
https://stores.advanceautoparts.com/oh/cincinnati/8551-winton-rd,advance_auto_parts_us,Advance Auto Parts,,Cincinnati,OH,,US,+1 513-521-4694,https://stores.advanceautoparts.com/oh/cincinnati/8551-winton-rd,Mo-Sa 07:30-21:00; Su 09:00-20:00,Advance Auto Parts,Q4686051
https://stores.advanceautoparts.com/oh/cincinnati/10921-hamilton-ave,advance_auto_parts_us,Advance Auto Parts,,Cincinnati,OH,,US,+1 513-674-7600,https://stores.advanceautoparts.com/oh/cincinnati/10921-hamilton-ave,Mo-Sa 07:30-21:00; Su 09:00-20:00,Advance Auto Parts,Q4686051
https://locations.arbys.com/oh/cincinnati/8657-winton-rd.html,arbys_us,"Arby's Fast-Food Drive Through Near You in Cincinnati, OH",,Cincinnati,OH,,US,+1 513-521-0332,https://locations.arbys.com/oh/cincinnati/8657-winton-rd.html,Mo-Su 10:00-22:00,Arby's,Q630866
https://locators.bankofamerica.com/oh/cincinnati/sales-office-atm-cincinnati-111109.html,bankofamerica,Bank of America Bank of America Advanced Center™Virtual Banking & Separate ATM | Brentwood Plaza,,Cincinnati,OH,,US,+1 513-257-2111,https://locators.bankofamerica.com/oh/cincinnati/sales-office-atm-cincinnati-111109.html,Mo-Fr 09:00-17:00; Sa 09:00-15:00,Bank of America,Q487907
12229,bluerhino,Speedway #5218,,Cincinnati,OH,,US,+1 513-825-0710,,,Blue Rhino,Q65681213
105064,bluerhino,Coleram Marathon,,Cincinnati,OH,,US,+1 513-521-5123,,,Blue Rhino,Q65681213
239437,bluerhino,Circle K #4705292,,Cincinnati,OH,,US,+1 513-825-6170,,,Blue Rhino,Q65681213
32192,bluerhino,Speedway #1181,,Cincinnati,OH,,US,+1 513-851-9475,,,Blue Rhino,Q65681213
14523,bluerhino,Speedway #9693,,Cincinnati,OH,,US,+1 513-742-4040,,,Blue Rhino,Q65681213
152145,bluerhino,Walgreens #3672,,Cincinnati,OH,,US,+1 513-825-3862,,,Blue Rhino,Q65681213
211247,bluerhino,Dollar General #23771,,Mount Healthy,OH,,US,+1 513-914-1801,,,Blue Rhino,Q65681213
209221,bluerhino,Family Dollar #12623,,Mount Healthy,OH,,US,+1 937-307-4484,,,Blue Rhino,Q65681213
185530,bluerhino,Kroger #390 - Cincinnati- Fuel Site,,Cincinnati,OH,,US,+1 513-728-2700,,,Blue Rhino,Q65681213
59391,bluerhino,Kroger #390 - Cincinnati,,Cincinnati,OH,,US,+1 513-728-2700,,,Blue Rhino,Q65681213
79281,bluerhino,Kroger #384 - Cincinnati,,Cincinnati,OH,,US,+1 513-728-8630,,,Blue Rhino,Q65681213
229726,bluerhino,Great Lakes Ace #18528,,Cincinnati,OH,,US,+1 937-381-6092,,,Blue Rhino,Q65681213
185529,bluerhino,Kroger #384 - Cincinnati- Fuel Site,,Cincinnati,OH,,US,+1 513-728-8630,,,Blue Rhino,Q65681213
14522,bluerhino,Speedway #9610,,Cincinnati,OH,,US,+1 513-522-0025,,,Blue Rhino,Q65681213
152057,bluerhino,Walgreens #11269,,Cincinnati,OH,,US,+1 513-931-5411,,,Blue Rhino,Q65681213
67102,bluerhino,Winton Sunoco,,Cincinnati,OH,,US,+1 513-729-3672,,,Blue Rhino,Q65681213
47273,bobevans_us,Cincinnati,,Cincinnati,OH,,US,+1 513-521-2900,https://www.bobevans.com/locations/cincinnati-2,Mo-Su 07:00-21:00,Bob Evans,Q4932386
128332,bp,BP,,Cincinnati,OH,,US,+1 513-386-8829,,,BP,Q152057
46313063821954523100100000000000,bp,BP,,Cincinnati,OH,,US,+1 513-522-5300,,Mo-Sa 06:00-24:00; Su 07:00-24:00,BP,Q152057
10377,brookdale_us,Brookdale Finneytown,,Cincinnati,OH,,US,+1 513-729-5233,https://www.brookdale.com/en/communities/brookdale-finneytown.html,,Brookdale,Q4974387
oh_cincinnati_8375-winton-rd,chipotle, ,,Cincinnati,OH,,US,+1 513-931-9333,https://locations.chipotle.com/oh/cincinnati/8375-winton-rd,,Chipotle,Q465751
79910,citi,ATM SPEEDWAY # 5218,,Cincinnati,OH,,US,,,,Citibank,Q857063
77699,citi,ATM Speedway,,Cincinnati,OH,,US,,,,Citibank,Q857063
47281,citi,ATM CVS,,Cincinnati,OH,,US,,,,Citibank,Q857063
40373,citi,ATM Circle K,,Cincinnati,OH,,US,,,,Citibank,Q857063
76706,citi,ATM Speedway,,Cincinnati,OH,,US,,,,Citibank,Q857063
80432,citi,ATM SPEEDWAY #9693,,Cincinnati,OH,,US,,,,Citibank,Q857063
79712,citi,ATM SPEEDWAY#1181,,Cincinnati,OH,,US,,,,Citibank,Q857063
76730,citi,ATM Speedway,,Cincinnati,OH,,US,,,,Citibank,Q857063
89204,citi,ATM Walgreens,,Cincinnati,OH,,US,,,,Citibank,Q857063
85588,citi,ATM United Dairy Farmers,,Cincinnati,OH,,US,,,,Citibank,Q857063
68758,citi,ATM PNC AT UDF,,Cincinnati,OH,,US,,,,Citibank,Q857063
68749,citi,ATM PNC AT UDF,,Cincinnati,OH,,US,,,,Citibank,Q857063
85579,citi,ATM United Dairy Farmers,,Cincinnati,OH,,US,,,,Citibank,Q857063
85711,citi,ATM United Dairy Farmers,,Cincinnati,OH,,US,,,,Citibank,Q857063
68865,citi,ATM PNC AT UDF,,Cincinnati,OH,,US,,,,Citibank,Q857063
80407,citi,ATM SPEEDWAY #9585,,Mount Healthy,OH,,US,,,,Citibank,Q857063
79012,citi,ATM Speedway,,Mount Healthy,OH,,US,,,,Citibank,Q857063
61579,citi,ATM Kroger,,Cincinnati,OH,,US,,,,Citibank,Q857063
92507,citi,ATM Walgreens,,Cincinnati,OH,,US,,,,Citibank,Q857063
79956,citi,ATM SPEEDWAY # 9610,,Cincinnati,OH,,US,,,,Citibank,Q857063
79208,citi,ATM Speedway,,Cincinnati,OH,,US,,,,Citibank,Q857063
53127,citi,ATM CVS,,Cincinnati,OH,,US,,,,Citibank,Q857063
93090,citi,ATM Walgreens,,Cincinnati,OH,,US,,,,Citibank,Q857063
68881,citi,ATM PNC AT UDF,,Cincinnati,OH,,US,,,,Citibank,Q857063
85729,citi,ATM United Dairy Farmers,,Cincinnati,OH,,US,,,,Citibank,Q857063
6101,cvs_us,CVS Pharmacy,,Cincinnati,OH,,US,+1 513-931-9359,https://www.cvs.com/store-locator/cincinnati-oh-pharmacies/8560-winton-rd-cincinnati-oh-45231/storeid=6101,Mo-Fr 09:00-21:00; Sa 09:00-20:00; Su 10:00-18:00,CVS Pharmacy,Q2078880
7699,cvs_us,CVS Pharmacy,,Cincinnati,OH,,US,+1 513-742-1155,https://www.cvs.com/store-locator/cincinnati-oh-pharmacies/11611-hamilton-avenue-cincinnati-oh-45231/storeid=7699,Mo-Th 09:00-21:00; Fr 09:00-22:00; Sa 09:00-21:00; Su 10:00-18:00,CVS Pharmacy,Q2078880
3903,dollartree,DollarTree,,Cincinnati,OH,,US,+1 513-826-3557,,Mo-Sa 09:00-21:00; Su 10:00-21:00,Dollar Tree,Q5289230
2678,dominos_pizza_us,Domino's Pizza,,Cincinnati,OH,,US,+1 513-521-0301,https://pizza.dominos.com/ohio/cincinnati/9182-winton-rd,Mo-Th 10:00-24:00; Fr-Sa 10:00-01:00; Su 10:00-24:00,Domino's,Q839466
352232,dunkin_us,Dunkin',,Cincinnati,OH,,US,+1 513-620-8690,https://locations.dunkindonuts.com/en/oh/cincinnati/8611-winton-rd/352232,Mo-Sa 05:00-20:00; Su 06:00-20:00,Dunkin',Q847743
E138B1,enterprise,Mount Healthy,,Cincinnati,OH,,US,+1 513-698-8818,,,Enterprise Rent-A-Car,Q17085454
900349,extra_space_storage,Cincinnati Self Storage at 8100 Hamilton Ave,,Cincinnati,OH,,US,+1 513-521-1200,https://www.extraspace.com/storage/facilities/us/ohio/cincinnati/900349/,Mo-Su 06:00-22:00,Extra Space Storage,Q5422162
https://locations.53.com/#3033676,fifththirdbank,Fifth Third Bank Compton Road,,Cincinnati,OH,,US,+1 513-521-5090,https://locations.53.com/oh/cincinnati/9020-winton-road.html,Mo-Th 09:00-17:00; Fr 09:00-18:00; Sa 09:00-12:00,Fifth Third Bank,Q1411810
2615,gamestop_us,Brentwood Plaza,,Cincinnati,OH,,US,+1 513-521-0176,https://www.gamestop.com/search/?store=2615,Mo-Th 12:00-20:00; Fr-Sa 11:00-21:00; Su 12:00-20:00,GameStop,Q202210
https://salons.greatclips.com/us/oh/cincinnati/9174-winton-rd,greatclips,Great Clips,,Cincinnati,OH,,US,+1 513-522-2547,https://salons.greatclips.com/us/oh/cincinnati/9174-winton-rd,Mo-Fr 09:00-19:00; Sa 09:00-18:00; Su 11:00-16:00,Great Clips,Q5598967
88,huntingtonbank,North College Hill ,,Cincinnati,OH,,US,+1 513-931-7635,https://www.huntington.com/Community/branch-info?locationId=88,Mo-Fr 09:00-17:00; Sa 09:00-12:00; Su 00:00-00:00,Huntington Bank,Q798819
34103,h_r_block,H&R Block,,Cincinnati,OH,,US,+1 513-931-4200,https://www.hrblock.com/local-tax-offices/ohio/cincinnati/7829-hamilton-ave/34103/,,H&R Block,Q5627799
33582,h_r_block,H&R Block,,Cincinnati,OH,,US,+1 513-729-5800,https://www.hrblock.com/local-tax-offices/ohio/cincinnati/brentwood-plaza/33582/,,H&R Block,Q5627799
https://office.jacksonhewitt.com/#27577920,jackson_hewitt,Jackson Hewitt,,Cincinnati,OH,,US,+1 513-845-0192,https://office.jacksonhewitt.com/tax-preparation-services-locations/en/oh/cincinnati/8204-hamilton-ave/13223,Mo-Sa 11:00-19:00; Su 12:00-16:00,Jackson Hewitt,Q6117132
https://locations.kfc.com/#11248928,kfc,Chicken Nuggets Near Cincinnati,,Cincinnati,OH,,US,,https://locations.kfc.com/oh/cincinnati/8505-winton-rd/chickennugget,Mo-Su 10:00-22:00,KFC,Q524757
300422,kindercare,Hamilton Avenue KinderCare,,Cincinnati,OH,,US,,https://www.kindercare.com/our-centers/cincinnati/oh/300422,,KinderCare Learning Centers,Q6410551
https://www.mercy.com/#e424a1f3-3637-4782-b84e-5b7cfe792ecb,mercy_health_us,Mercy Health — StoneBridge at Winton Woods,,Cincinnati,OH,,US,+1 513-825-0460,https://www.mercy.com/locations/senior-living/cincinnati/mercy-health-stonebridge-at-winton-woods,,Mercy Health,Q5053169
3267,mightyflame,NEIGHBORHOOD GROCERY LLC,,CINCINNATI,OH,,US,+1 513-521-2067,,,Mighty Flame,
https://locations.oreillyauto.com/oh/cincinnati/check-engine-light-testing-5736.html,oreilly,Your Cincinnati O'Reilly Auto Parts Store,,Cincinnati,OH,,US,+1 513-800-1169,https://locations.oreillyauto.com/oh/cincinnati/check-engine-light-testing-5736.html,Mo-Sa 07:30-21:00; Su 08:00-21:00,O'Reilly Auto Parts,Q7071951
https://locations.oreillyauto.com/oh/cincinnati/battery-testing-5736.html,oreilly,Your Cincinnati O'Reilly Auto Parts Store,,Cincinnati,OH,,US,+1 513-800-1169,https://locations.oreillyauto.com/oh/cincinnati/battery-testing-5736.html,Mo-Sa 07:30-21:00; Su 08:00-21:00,O'Reilly Auto Parts,Q7071951
https://locations.oreillyauto.com/oh/cincinnati/autopartes-5736.html,oreilly,Tu tienda O'Reilly Auto Parts en Cincinnati,,Cincinnati,OH,,US,+1 513-800-1169,https://locations.oreillyauto.com/oh/cincinnati/autopartes-5736.html,Mo-Sa 07:30-21:00; Su 08:00-21:00,O'Reilly Auto Parts,Q7071951
https://locations.oreillyauto.com/oh/cincinnati/wiper-installation-5736.html,oreilly,Your Cincinnati O'Reilly Auto Parts Store,,Cincinnati,OH,,US,+1 513-800-1169,https://locations.oreillyauto.com/oh/cincinnati/wiper-installation-5736.html,Mo-Sa 07:30-21:00; Su 08:00-21:00,O'Reilly Auto Parts,Q7071951
https://locations.papajohns.com/#10691999,papa_johns,Papa John's,,Cincinnati,OH,,US,+1 513-729-4449,https://locations.papajohns.com/united-states/oh/45231/cincinnati/9211-winton-rd,Mo-Th 10:15-23:30; Fr-Sa 10:15-00:30; Su 10:15-23:30,Papa John's Pizza,Q2759586
https://stores.petco.com/#27959460,petco,Petco Cincinnati Winton Road,,Cincinnati,OH,,US,+1 513-522-7387,https://stores.petco.com/oh/cincinnati/pet-supplies-cincinnati-oh-2837.html,Mo-Sa 09:00-20:00; Su 10:00-19:00,Petco,Q7171798
oh_cincinnati_913-w-galbraith-rd,pizza_hut_us,913 W Galbraith Rd,,Cincinnati,OH,,US,+1 513-522-4000,https://locations.pizzahut.com/oh/cincinnati/913-w-galbraith-rd,,Pizza Hut,Q191615
https://www.publicstorage.com/self-storage-oh-cincinnati/6149.html,public_storage_us,Public Storage,,Cincinnati,OH,,US,+1 800-688-8057,https://www.publicstorage.com/self-storage-oh-cincinnati/6149.html,,Public Storage,Q1156045
4550,rentacenter,Rent-A-Center,,Cincinnati,OH,,US,+1 513-742-0300,https://locations.rentacenter.com/ohio/cincinnati/10968-hamilton-ave/,Mo-Fr 10:00-18:00; Sa 09:00-18:00,Rent-A-Center,Q7313497
275,skyline_chili,Skyline Chili,9115 Winton Road,Cincinnati,OH,,US,+1 513-931-4008,https://locations.skylinechili.com/skyline-chili-6c7bf9e4d4b2,Mo-Th 10:30-22:00; Fr 10:30-24:00; Sa 10:30-22:00; Su 11:00-22:00,Skyline Chili,Q151224
251,skyline_chili,Skyline Chili,11929 Hamilton Avenue,Cincinnati,OH,,US,+1 513-851-0630,https://locations.skylinechili.com/skyline-chili-671a46d4d4e5,Mo-Th 10:30-22:00; Fr-Sa 10:30-22:30; Su 11:00-21:00,Skyline Chili,Q151224
https://restaurants.subway.com/#14916557,subway,Subway Winton & Galbraith Plaza,,Cincinnati Hamilton,OH,,US,+1 513-521-8700,https://restaurants.subway.com/united-states/oh/cincinnati/875-w-galbraith-rd,Mo-Su 08:00-21:00,Subway,Q244457
https://restaurants.subway.com/#14914507,subway,Subway,,Cincinnati Hamilton,OH,,US,+1 513-674-7827,https://restaurants.subway.com/united-states/oh/cincinnati/11943-hamilton-ave,Mo 09:00-21:30; Tu-Th 08:30-21:30; Fr 08:00-21:30; Sa-Su 08:30-21:30,Subway,Q244457
0368148300,sunoco_us,Sunoco,,CINCINNATI,OH,,US,+1 513-742-5419,,24/7,Sunoco,Q1423218
0354120800,sunoco_us,Sunoco,,CINCINNATI,OH,,US,+1 513-521-3225,,Mo-Su 06:00-00:00,Sunoco,Q1423218
0185377900,sunoco_us,Sunoco,,CINCINNATI,OH,,US,+1 513-742-5362,,Mo-Sa 08:00-17:00; Su 08:00-12:00,Sunoco,Q1423218
https://locations.tacobell.com/#6141726,taco_bell,Taco Bell,,Cincinnati,OH,,US,+1 513-991-7463,https://locations.tacobell.com/oh/cincinnati/9200-winton-rd.html,Mo-Su 08:00-01:00,Taco Bell,Q752941
https://locations.tacobell.com/#6147066,taco_bell,Taco Bell,,Cincinnati,OH,,US,+1 513-991-7420,https://locations.tacobell.com/oh/cincinnati/11020-hamilton-ave.html,Mo-Su 09:00-01:00,Taco Bell,Q752941
2SOT,tmobile_us,Brentwood Plaza,,Cincinnati,OH,,US,+1 513-904-4090,https://www.t-mobile.com/store-locator/oh/cincinnati/brentwood-plaza,,T-Mobile,Q3511885
1974,united_dairy_farmers_us,United Dairy Farmers,9167 Winton Rd,Cincinnati,OH,,US,+1 513-521-7680,,,United Dairy Farmers,Q7887677
2278,united_dairy_farmers_us,United Dairy Farmers,7900 Hamilton Ave,Cincinnati,OH,,US,+1 513-729-5510,,,United Dairy Farmers,Q7887677
2005,united_dairy_farmers_us,United Dairy Farmers,11886 Hamilton Ave,Cincinnati,OH,,US,+1 513-825-4422,,,United Dairy Farmers,Q7887677
1982,united_dairy_farmers_us,United Dairy Farmers,10811 Hamilton Ave,Cincinnati,OH,,US,+1 513-851-2368,,,United Dairy Farmers,Q7887677
1437018,usps,MOUNT HEALTHY,,CINCINNATI,OH,,US,+1 513-521-6061,,Mo-Fr 08:30-17:00; Sa 09:00-13:00,United States Postal Service,Q668687
4523100025,usps_collection_boxes,USPS COLLECTION BOX - BLUE BOX,11951 HAMILTON AVE,CINCINNATI,OH,,US,,,,United States Postal Service,Q668687
4523100022,usps_collection_boxes,USPS COLLECTION BOX - BLUE BOX,2555 HOUSTON RD,CINCINNATI,OH,,US,,,,United States Postal Service,Q668687
4523100023,usps_collection_boxes,USPS COLLECTION BOX - BLUE BOX,10938 HAMILTON AVE,CINCINNATI,OH,,US,,,,United States Postal Service,Q668687
4523100028,usps_collection_boxes,USPS COLLECTION BOX - BLUE BOX,2745 MERRIWAY LN,CINCINNATI,OH,,US,,,,United States Postal Service,Q668687
4523100029,usps_collection_boxes,USPS COLLECTION BOX - BLUE BOX,9523 PIPPIN RD,CINCINNATI,OH,,US,,,,United States Postal Service,Q668687
4523100043,usps_collection_boxes,USPS COLLECTION BOX - BLUE BOX,8118 HAMILTON AVE,CINCINNATI,OH,,US,,,,United States Postal Service,Q668687
4523100077,usps_collection_boxes,USPS COLLECTION BOX - BLUE BOX,7858 COMPTON LAKE DR,CINCINNATI,OH,,US,,,,United States Postal Service,Q668687
4523100074,usps_collection_boxes,USPS COLLECTION BOX - BLUE BOX,8115 SEWARD AVE,CINCINNATI,OH,,US,,,,United States Postal Service,Q668687
4523100073,usps_collection_boxes,USPS COLLECTION BOX - BLUE BOX,8125 SEWARD AVE,CINCINNATI,OH,,US,,,,United States Postal Service,Q668687
4523100088,usps_collection_boxes,USPS COLLECTION BOX - BLUE BOX,7626 HAMILTON AVE,CINCINNATI,OH,,US,,,,United States Postal Service,Q668687
4523100076,usps_collection_boxes,USPS COLLECTION BOX - BLUE BOX,7433 HAMILTON AVE,CINCINNATI,OH,,US,,,,United States Postal Service,Q668687
4523100086,usps_collection_boxes,USPS COLLECTION BOX - PO LOBBY,7504 PERRY ST,CINCINNATI,OH,,US,,,,United States Postal Service,Q668687
4523100087,usps_collection_boxes,USPS COLLECTION BOX - PO LOBBY,7504 PERRY ST,CINCINNATI,OH,,US,,,,United States Postal Service,Q668687
4523100102,usps_collection_boxes,USPS COLLECTION BOX - PO LOBBY,7504 PERRY ST,CINCINNATI,OH,,US,,,,United States Postal Service,Q668687
4523100004,usps_collection_boxes,USPS COLLECTION BOX - BLUE BOX,7504 PERRY ST,CINCINNATI,OH,,US,,,,United States Postal Service,Q668687
4523100084,usps_collection_boxes,USPS COLLECTION BOX - BLUE BOX,7504 PERRY ST,CINCINNATI,OH,,US,,,,United States Postal Service,Q668687
4523100050,usps_collection_boxes,USPS COLLECTION BOX - BLUE BOX,1702 NORCOL LN,CINCINNATI,OH,,US,,,,United States Postal Service,Q668687
4523100094,usps_collection_boxes,USPS COLLECTION BOX - BLUE BOX,7132 HAMILTON AVE,CINCINNATI,OH,,US,,,,United States Postal Service,Q668687
4523100082,usps_collection_boxes,USPS COLLECTION BOX - BLUE BOX,1260 W GALBRAITH RD,CINCINNATI,OH,,US,,,,United States Postal Service,Q668687
4523100054,usps_collection_boxes,USPS COLLECTION BOX - BLUE BOX,1172 W GALBRAITH RD,CINCINNATI,OH,,US,,,,United States Postal Service,Q668687
4523100018,usps_collection_boxes,USPS COLLECTION BOX - BLUE BOX,1069 REDBIRD DR,CINCINNATI,OH,,US,,,,United States Postal Service,Q668687
4523100095,usps_collection_boxes,USPS COLLECTION BOX - BLUE BOX,8250 WINTON RD,CINCINNATI,OH,,US,,,,United States Postal Service,Q668687
4523100056,usps_collection_boxes,USPS COLLECTION BOX - BLUE BOX,877 W GALBRAITH RD,CINCINNATI,OH,,US,,,,United States Postal Service,Q668687
4523100066,usps_collection_boxes,USPS COLLECTION BOX - BLUE BOX,939 HEMPSTEAD DR,CINCINNATI,OH,,US,,,,United States Postal Service,Q668687
4523100067,usps_collection_boxes,USPS COLLECTION BOX - BLUE BOX,939 HEMPSTEAD DR,CINCINNATI,OH,,US,,,,United States Postal Service,Q668687
4523100053,usps_collection_boxes,USPS COLLECTION BOX - BLUE BOX,833 REYNARD AVE,CINCINNATI,OH,,US,,,,United States Postal Service,Q668687
4523100069,usps_collection_boxes,USPS COLLECTION BOX - BLUE BOX,800 COMPTON RD,CINCINNATI,OH,,US,,,,United States Postal Service,Q668687
cincinnati_oil-change-040031,valvoline_instant_oil_change,Valvoline,8990 Winton Road ,Cincinnati,OH,,US,+1 513-521-5548,https://store.vioc.com/oh/cincinnati/oil-change-040031.html,,Valvoline Instant Oil Change,Q7912852
,visa,,,CINCINNATI,OH,,US,,,,,
,visa,,,CINCINNATI,OH,,US,,,,,
,visa,,,CINCINNATI,OH,,US,,,,,
,visa,,,CINCINNATI,OH,,US,,,,,
,visa,,,CINCINNATI,OH,,US,,,,,
,visa,,,CINCINNATI,OH,,US,,,,,
,visa,,,CINCINNATI,OH,,US,,,,,
,visa,,,CINCINNATI,OH,,US,,,,,
,visa,,,CINCINNATTI,OH,,US,,,,,
,visa,,,CINCINNATI,OH,,US,,,,,
,visa,,,CINCINNATI,OH,,US,,,,,
,visa,,,CINCINNATI,OH,,US,,,,,
,visa,,,CINCINNATI,OH,,US,,,,,
,visa,,,CINCINNATI,OH,,US,,,,,
,visa,,,CINCINNATI,OH,,US,,,,,
,visa,,,CINCINNATI,OH,,US,,,,,
,visa,,,CINCINNATI,OH,,US,,,,,
,visa,,,CINCINNATI,OH,,US,,,,,
,visa,,,CINCINNATI,OH,,US,,,,,
,visa,,,CINCINNATI,OH,,US,,,,,
,visa,,,CINCINNATI,OH,,US,,,,,
,visa,,,CINCINNATI,OH,,US,,,,,
,visa,,,CINCINNATI,OH,,US,,,,,
,visa,,,CINCINNATI,OH,,US,,,,,
,visa,,,CINCINNATI,OH,,US,,,,,
,visa,,,CINCINNATI,OH,,US,,,,,
,visa,,,CINCINNATI,OH,,US,,,,,
,visa,,,CINCINNATI,OH,,US,,,,,
,visa,,,MOUNT HEALTHY,OH,,US,,,,,
,visa,,,CINCINNATI,OH,,US,,,,,
,visa,,,CINCINNATI,OH,,US,,,,,
,visa,,,CINCINNATI,OH,,US,,,,,
,visa,,,CINCINNATI,OH,,US,,,,,
,visa,,,CINCINNATI,OH,,US,,,,,
,visa,,,MOUNT HEALTHY,OH,,US,,,,,
,visa,,,MOUNT HEALTHY,OH,,US,,,,,
,visa,,,MT HEALTHY,OH,,US,,,,,
,visa,,,MT HEALTHY,OH,,US,,,,,
,visa,,,CINCINNATI,OH,,US,,,,,
,visa,,,CINCINNATI,OH,,US,,,,,
,visa,,,CINCINNATI,OH,,US,,,,,
,visa,,,CINCINNATI,OH,,US,,,,,
,visa,,,CINCINNATI,OH,,US,,,,,
,visa,,,CINCINNATI,OH,,US,,,,,
,visa,,,CINCINNATI,OH,,US,,,,,
,visa,,,MT HEALTHY,OH,,US,,,,,
,visa,,,MOUNT HEALTHY,OH,,US,,,,,
,visa,,,MOUNT HEALTHY,OH,,US,,,,,
,visa,,,CINCINNATI,OH,,US,,,,,
,visa,,,CINCINNATI,OH,,US,,,,,
,visa,,,CINCINNATI,OH,,US,,,,,
,visa,,,CINCINNATI,OH,,US,,,,,
,visa,,,CINCINNATI,OH,,US,,,,,
,visa,,,CINCINNATI,OH,,US,,,,,
,visa,,,CINCINNATI,OH,,US,,,,,
,visa,,,CINCINNATI,OH,,US,,,,,
,visa,,,CINCINNATI,OH,,US,,,,,
,visa,,,CINCINNATI,OH,,US,,,,,
,visa,,,CINCINNATI,OH,,US,,,,,
,visa,,,CINCINNATI,OH,,US,,,,,
,visa,,,CINCINNATI,OH,,US,,,,,
,visa,,,CINCINNATI,OH,,US,,,,,
,visa,,,CINCINNATI,OH,,US,,,,,
,visa,,,CINCINNATI,OH,,US,,,,,
,visa,,,CINCINNATI,OH,,US,,,,,
,visa,,,CINCINNATI,OH,,US,,,,,
,visa,,,CINCINNATI,OH,,US,,,,,
,visa,,,CINCINNATI,OH,,US,,,,,
,visa,,,CINCINNATI,OH,,US,,,,,
,visa,,,CINCINNATI,OH,,US,,,,,
,visa,,,CINCINNATI,OH,,US,,,,,
,visa,,,CINCINNATI,OH,,US,,,,,
,visa,,,CINCINNATI,OH,,US,,,,,
,visa,,,CINCINNATI,OH,,US,,,,,
,visa,,,CINCINNATI,OH,,US,,,,,
,visa,,,CINCINNATI,OH,,US,,,,,
,visa,,,CINCINNATI,OH,,US,,,,,
,visa,,,CINCINNATI,OH,,US,,,,,
,visa,,,CINCINNATI,OH,,US,,,,,
,visa,,,CINCINNATI,OH,,US,,,,,
,visa,,,CINCINNATI,OH,,US,,,,,
https://www.walgreens.com/locator/walgreens-6918+hamilton+ave-cincinnati-oh-45231/id=11630,walgreens,Walgreens,,Cincinnati,OH,,US,+1 513-931-1717,https://www.walgreens.com/locator/walgreens-6918+hamilton+ave-cincinnati-oh-45231/id=11630,24/7,Walgreens,Q1591889
https://www.walgreens.com/locator/walgreens-8210+winton+rd-cincinnati-oh-45231/id=11269,walgreens,Walgreens,,Cincinnati,OH,,US,+1 513-931-5411,https://www.walgreens.com/locator/walgreens-8210+winton+rd-cincinnati-oh-45231/id=11269,Mo-Su 07:00-22:00,Walgreens,Q1591889
https://www.walgreens.com/locator/walgreens-2335+john+gray+rd-cincinnati-oh-45231/id=3672,walgreens,Walgreens,,Cincinnati,OH,,US,+1 513-825-3862,https://www.walgreens.com/locator/walgreens-2335+john+gray+rd-cincinnati-oh-45231/id=3672,Mo-Su 07:00-22:00,Walgreens,Q1591889
https://locations.wendys.com/#9251518,wendys,"Wendy's 601 Galbraith in Cincinnati, OH",,Cincinnati,OH,,US,+1 513-488-7287,https://locations.wendys.com/united-states/oh/cincinnati/912-west-galbraith-road,"Mo-Su 06:30-10:30,07:00-22:00",Wendy's,Q550258
https://locations.wendys.com/#9251500,wendys,"Wendy's Dallas Blvd. in Cincinnati, OH",,Cincinnati,OH,,US,+1 513-742-9999,https://locations.wendys.com/united-states/oh/cincinnati/11400-dallas-boulevard,"Mo-Fr 06:00-10:30,08:00-20:00; Sa 06:30-10:30,08:00-20:00; Su 07:00-10:30,08:00-20:00",Wendy's,Q550258
0d3a4a2177f480a0b2ea0e282b339eb5,western_union,WINTON ROAD SUNOCO,,Cincinnati,OH,,US,+1 513-729-3672,https://location.westernunion.com/us/oh/cincinnati/0d3a4a2177f480a0b2ea0e282b339eb5,Mo-Sa 05:00-12:00; Su 06:00-12:00,Western Union,Q861042
46356,wingstop,Wingstop Cincinnati Galbraith Road,881 W. Galbraith Rd,Cincinnati,OH,,US,+1 513-521-5999,,,Wingstop,Q8025339
