Ref,Spider,Name,Address,City,State,Zipcode,Country,Phone,Website,Hours,Brand,WikiData
72152193,moneygram,COPPEL TRANSMISORES - SANTA ANA CHIAUTEM,,SANTA ANA CHIAUTEMPAN,TL,,MX,+52 246 458 0764,,Mo-Sa 10:00-20:00; Su 01:00-20:00,MoneyGram,Q1944412
72152229,moneygram,COPPEL TRANSMISORES - SANTA ANA CHIAUTEM,,SANTA ANA CHIAUTEMPAN,TL,,MX,+52 246 464 2424,,Mo-Sa 10:00-20:00; Su 11:00-20:00,MoneyGram,Q1944412
72243565,moneygram,FARMACIAS DEL AHORRO - #2214 - CHIAUTEMP,,CHIAUTEMPAN,TL,,MX,5253224320,,Mo-Su 07:00-23:00,MoneyGram,Q1944412
73550011,moneygram,FARMACIAS DEL AHORRO - #2413 - F A PUEBL,,SANTA ANA CHIAUTEMPAN,TL,,MX,5253224320,,Mo-Su 07:00-23:00,MoneyGram,Q1944412
73551117,moneygram,FARMACIAS DEL AHORRO - #2595 - F A PUEBL,,PUEBLA,TL,,MX,5253224320,,Mo-Su 07:00-23:00,MoneyGram,Q1944412
70388781,moneygram,FARMACIAS GUADALAJARA - TLAXCALA SANTA A,,CHIAUTEMPAN,TL,,MX,+52 713 278 5436,,Mo-Su 08:00-22:00,MoneyGram,Q1944412
70754551,moneygram,WALDOS - #4217 - SANTA ANA CHIAUTEMPAN -,,SANTA ANA CHIAUTEMPAN,TL,,MX,5263180635,,Mo-Su 07:00-23:00,MoneyGram,Q1944412
68825081,moneygram,DINERO EXPRESS - #7388 - CHIAUTEMPAN - E,,CHIAUTEMPAN,TL,,MX,+52 55 1720 8141,,Mo-Su 09:00-21:00,MoneyGram,Q1944412
71127488,moneygram,TELECOMM - #TELECOMM 29008 - CHIAUTEMPAN,,CHIAUTEMPAN,TL,,MX,55118008334700,,Mo-Fr 09:00-16:00; Sa-Su 00:00-24:00,MoneyGram,Q1944412
68823025,moneygram,DINERO EXPRESS - #9269 - CHIAUTEMPAN - B,,CHIAUTEMPAN,TL,,MX,+52 55 1720 8141,,Mo-Su 09:00-21:00,MoneyGram,Q1944412
71146812,moneygram,ELEKTRA - #7388 - CHIAUTEMPAN - BA MEGA,,CHIAUTEMPAN,TL,,MX,+52 55 1720 7000,,Mo-Su 09:00-21:00,MoneyGram,Q1944412
71149741,moneygram,ELEKTRA - #9269 - CHIAUTEMPAN - BA BDR S,,CHIAUTEMPAN,TL,,MX,+52 55 1720 7000,,Mo-Su 09:00-21:00,MoneyGram,Q1944412
44710547,moneygram,BODEGA CHIAUTEMPAN,,CHIAUTEMPAN,TL,,MX,+52 246 458 0549,,Mo-Su 08:00-21:00,MoneyGram,Q1944412
66557173,moneygram,BANORTE - CHIAUTEMPAN,,SANTA ANA CHIAUTEMPAN,TL,,MX,+52 800 495 5674,,Mo-Fr 09:00-17:00; Sa-Su 00:00-24:00,MoneyGram,Q1944412
71344847,moneygram,OXXO - ITURBIDE PBF,,CHIAUTEMPAN,TL,,MX,+52 81 8389 2121,,Mo-Su 03:00-24:00,MoneyGram,Q1944412
71387066,moneygram,OXXO - PICAZO PBF,,CHIAUTEMPAN,TL,,MX,+52 81 8389 2121,,Mo-Su 03:00-24:00,MoneyGram,Q1944412
71386782,moneygram,OXXO - PLAZA DIAMANTE PBF,,CHIAUTEMPAN,TL,,MX,+52 81 8389 2121,,Mo-Su 03:00-24:00,MoneyGram,Q1944412
71344436,moneygram,OXXO - SABINAL PBF,,CHIAUTEMPAN,TL,,MX,+52 81 8389 2121,,Mo-Su 03:00-24:00,MoneyGram,Q1944412
71389093,moneygram,OXXO - SANTA ANA PBF,,CHIAUTEMPAN,TL,,MX,+52 81 8389 2121,,Mo-Su 03:00-24:00,MoneyGram,Q1944412
71343673,moneygram,OXXO - SUPER DIEZ PBF,,CHIAUTEMPAN,TL,,MX,+52 81 8389 2121,,Mo-Su 03:00-24:00,MoneyGram,Q1944412
