Ref,Spider,Name,Address,City,State,Zipcode,Country,Phone,Website,Hours,Brand,WikiData
https://vertretung.allianz.de/dina.kahse/,allianz_de,Allianz Versicherung Dina Kahse GENERALVERTRETUNG,,Hamburg,,,DE,+49 40 64424758,https://vertretung.allianz.de/dina.kahse/,Mo-Fr 08:30-17:30,Allianz SE,Q487292
Hamburg_22391_31,birkenstock,BIRKENSTOCK STORE Hamburg AEZ,,Hamburg,,,DE,+49 None,https://www.birkenstock.com/de-en/search?cgid=store-Hamburg_22391_31,,Birkenstock,Q648458
1117,birkenstock,Store Hamburg AEZ,,Hamburg,,,DE,,https://www.birkenstock.com/de-en/search?cgid=store-1117,,Birkenstock,Q648458
124,deutsche_telekom_de,Telekom Shop Hamburg-Alstertal,,Hamburg,,,DE,+49 40 60679644,https://shopseite.telekom.de/nord-ost/hamburg/heegbarg-33,Mo-Sa 10:00-20:00,Deutsche Telekom,Q9396
de:2709,dm,dm-drogerie markt,,Hamburg,,,DE,+49 40 53753328,https://www.dm.de/store/d4gl/hamburg/heegbarg-31,Mo-Sa 09:00-20:00,dm,Q266572
0001027918,ecco,ECCO STORE Alstertal Fil.09,,Hamburg,,,DE,+49 40 60298753,,Mo-Sa 09:30-20:00; Su 00:00-00:00,Ecco,Q1280255
15185099,esprit,Esprit Store Hamburg,,Hamburg,,,DE,+49 40 63669870,"https://www.esprit.com/storefinder?storeid=15185099&location=53.65380000,10.09100000",Tu-Su 10:00-20:00,Esprit,Q532746
3135313835HndR82,eyes_and_more,"eyes + more Hamburg, AEZ","Heegbarg   31, Hamburg, 22391",,,,DE,+49 40 61183510,https://www.eyesandmore.de/termin-vereinbaren/?storeId=3135313835HndR82,Mo-Sa 10:00-19:00,eyes + more,Q1385775
607,gant,GANT Hamburg AEZ,,Hamburg,,,DE,+49 40 61168697,,Mo-Sa 10:00-19:00,GANT,Q1493667
2760917154,gls_de,Wellingsbüttler Getränkemarkt,,Hamburg-Wellingsbüttel,,,DE,+49 163 2103877,,Mo-Fr 09:00-19:00; Sa 09:00-16:00,General Logistics Systems,Q46495823
3581,jack_and_jones,Hamburg AEZ,,Hamburg,,,DE,+49 40 63649721,,,Jack & Jones,Q6077665
233,junge_de,Junge,,Hamburg,,,DE,+49 40 37087718,,Mo-Sa 08:30-20:00,Junge,Q1561751
223,junge_de,Junge,,Hamburg,,,DE,+49 40 35967332,,Mo-Fr 06:00-18:00; Sa-Su 07:00-14:00,Junge,Q1561751
DE152,longchamp,Appelrath-Cüpper,,HAMBURG,,,DE,+49 40 61168370,,,Longchamp,Q1869471
98,neuhaus,Neuhaus Hamburg Aez,,Hamburg,,,DE,+49 40 63640110,https://www.neuhauschocolates.com/en_US/stores/detail?store=98,Mo-Sa 10:00-20:00,Neuhaus,Q1813801
https://www.rossmann.de/de/filialen/hamburg/hamburg/heegbarg-2.html,rossmann_de,Rossmann Drogerie-Markt Heegbarg 2,,Hamburg,,,DE,+49 40 61130457,https://www.rossmann.de/de/filialen/hamburg/hamburg/heegbarg-2.html,Mo-Fr 07:30-21:00; Sa 08:00-21:00,Rossmann,Q316004
2118,santander_de,,,Hamburg,,,DE,,,,Santander,Q875292
https://www.sixt.co.uk/car-hire/germany/hamburg/hamburg-north-alstertal/,sixt,Car Hire Hamburg Poppenbüttel | SIXT rent a car,,Hamburg,,,DE,,https://www.sixt.co.uk/car-hire/germany/hamburg/hamburg-north-alstertal/,Mo-Fr 06:00-20:00; Sa 06:00-14:00; Su 08:00-12:00,SIXT,Q705664
33708,sparkasse_de,Hamburger Sparkasse Geldautomat Poppenbüttel,,Hamburg,,,DE,+49 40 35780,https://www.sparkasse.de/standorte/geldautomaten/hamburger-sparkasse-geldautomat-poppenbuettel-33708,Mo-Sa 08:00-20:00,Sparkasse,Q13601825
33538,sparkasse_de,Hamburger Sparkasse Filiale Poppenbüttel,,Hamburg,,,DE,+49 40 357895865,https://www.sparkasse.de/standorte/filialen/hamburger-sparkasse-filiale-poppenbuettel-33538,Mo 09:00-13:00; We 09:00-13:00,Sparkasse,Q13601825
33515,sparkasse_de,Hamburger Sparkasse Filiale Poppenbüttel,,Hamburg,,,DE,+49 40 357895860,https://www.sparkasse.de/standorte/filialen/hamburger-sparkasse-filiale-poppenbuettel-33515,Mo 09:00-16:00; Tu 09:00-18:00; We 09:00-16:00; Th 09:00-18:00; Fr 09:00-16:00; Sa 10:00-13:00,Sparkasse,Q13601825
33574,sparkasse_de,Hamburger Sparkasse Geldautomat Wellingsbüttel,,Hamburg,,,DE,+49 40 35780,https://www.sparkasse.de/standorte/geldautomaten/hamburger-sparkasse-geldautomat-wellingsbuettel-33574,24/7,Sparkasse,Q13601825
33386,sparkasse_de,Hamburger Sparkasse Filiale Wellingsbüttel,,Hamburg,,,DE,+49 40 357895720,https://www.sparkasse.de/standorte/filialen/hamburger-sparkasse-filiale-wellingsbuettel-33386,Mo 09:00-13:00; Tu 09:00-18:00; We 09:00-13:00; Th 09:00-18:00; Fr 09:00-13:00,Sparkasse,Q13601825
168556,sparkasse_de,Sparkasse Holstein Geldautomat AEZ Poppenbüttel,,Hamburg,,,DE,+49 4531 5080,https://www.sparkasse.de/standorte/geldautomaten/sparkasse-holstein-geldautomat-aez-poppenbuettel-168556,Mo-Sa 10:00-20:00,Sparkasse,Q13601825
168555,sparkasse_de,Sparkasse Holstein SB-Filiale AEZ Poppenbüttel,,Hamburg,,,DE,+49 4531 5080,https://www.sparkasse.de/standorte/filialen/sparkasse-holstein-sb-filiale-aez-poppenbuettel-168555,Mo-Sa 10:00-20:00,Sparkasse,Q13601825
8796395995159,thebodyshop,Hamburg Alstertal Ezentrum,,HAMBURG,,,DE,,https://www.thebodyshop.com/de-de/store-details/hamburg-alstertal-ezentrum/3243,,The Body Shop,Q837851
THDE0002,tommy_hilfiger,Tommy Hilfiger,,Hamburg,,,DE,+49 40 61182571,,,Tommy Hilfiger,Q634881
3455,valora,U-Store,,Hamburg,,,DE,,,,U-Store,Q113290511
3371,valora,Cigo,,Hamburg,,,DE,,,,Cigo,Q113290782
https://www.vlh.de/bst/2283/Oeffnungszeiten.html,vhl_de,VLH-Beraterin Elisabeth Schürmann in Hamburg,,Hamburg,,,DE,+49 40 21906395,https://www.vlh.de/bst/2283/,,Vereinigte Lohnsteuerhilfe e.V.,Q15852617
,visa,,,HAMBURG,,,DE,,,,,
,visa,,,HAMBURG,,,DE,,,,,
,visa,,,HAMBURG,,,DE,,,,,
,visa,,,HAMBURG,,,DE,,,,,
,visa,,,HAMBURG,,,DE,,,,,
https://shops.vodafone.de/hamburg/heegbarg-31,vodafone_de,Vodafone-Shop,,Hamburg,,,DE,+49 40 98237080,https://shops.vodafone.de/hamburg/heegbarg-31,Mo-Sa 10:00-20:00,Vodafone,Q122141
