Ref,Spider,Name,Address,City,State,Zipcode,Country,Phone,Website,Hours,Brand,WikiData
https://vertretung.allianz.de/patrick.fluechter/,allianz_de,Allianz Versicherung Patrick Flüchter HAUPTVERTRETUNG,,Lippstadt,,,DE,+49 2941 285555,https://vertretung.allianz.de/patrick.fluechter/,"Mo-Tu 09:00-12:30,14:30-18:00; We 09:00-12:30; Th 09:00-12:30,14:30-18:00; Fr 09:00-12:30",Allianz SE,Q487292
03454_1,bmw_group,Autohaus Walter Ritzel GmbH & Co. KG,,Lippstadt,,,DE,+49 2941 28580,https://www.mini.de/autohaus_walter_ritzelgmbhcokg,,BMW,Q26678
26071,burgerking,Burger King,,Lippstadt,,,DE,+49 2941 9888980,https://www.burgerking.de/store-locator/store/restaurant_76531,Mo-Th 10:00-01:00; Fr-Sa 10:00-03:00; Su 10:00-01:00,Burger King,Q177054
51.6675278.3383,dpd_de,Midas Markt,,Lippstadt,,,DE,,,,DPD,Q541030
51.6609548.344191,dpd_de,Der-Drucker-Shop,,Lippstadt,,,DE,,,,DPD,Q541030
51.6555658.343524,dpd_de,Kamila's Perfekter Schnitt,,Lippstadt,,,DE,,,,DPD,Q541030
PADW62,enterprise,Lippstadt,,Lippstadt,,,DE,+49 2941 2047461,,,Enterprise Rent-A-Car,Q17085454
FordGK1D56D  DEU,ford,Auto Mertens GmbH - Lippstadt,,Lippstadt,,,DE,+49 2941 28250,ford-mertens-lippstadt.de,,Ford,Q44294
https://www.fressnapf.de/stores/fressnapf-xxl-lippstadt/,fressnapf_de,Fressnapf XXL Lippstadt,,Lippstadt,,,DE,+49 2941 2023271,https://www.fressnapf.de/stores/fressnapf-xxl-lippstadt/,Mo-Sa 09:00-20:00,Fressnapf,Q875796
2760915604,gls_de,Kamila´s Perfekter Schnitt,,Lippstadt,,,DE,+49 2941 22021,,Mo-Fr 09:00-18:30; Sa 09:00-14:00,General Logistics Systems,Q46495823
1272,jysk,Lippstadt,,Lippstadt,,,DE,+49 2941 28190,https://jysk.de/filialen?storeId=1272,Mo-Fr 10:00-18:30; Sa 09:30-17:00,JYSK,Q138913
https://kamps.de/standort/kamps-baeckerei-kaufland-lippstadt-boekenfoerder-strasse-181,kamps_de,Kamps,,Lippstadt,,,DE,+49 2941 18210,https://kamps.de/standort/kamps-baeckerei-kaufland-lippstadt-boekenfoerder-strasse-181,Mo-Sa 07:00-20:00,Kamps,Q1723381
DE4553,kaufland,"Kaufland Lippstadt-Kernst., Bö",,Lippstadt-Kernstadt,,,DE,+49 2941 728850,https://filiale.kaufland.de/service/filiale/frankfurt-oder-spitzkrug-multi-center-lippstadt-kernstadt-boekenfoerder-str--4553.html,Mo-Sa 07:00-22:00,Kaufland,Q685967
DE8290,kaufland,"Kaufland Lippstadt-Kernst., Pl",,Lippstadt-Kernstadt,,,DE,+49 2941 2868830,https://filiale.kaufland.de/service/filiale/frankfurt-oder-spitzkrug-multi-center-lippstadt-kernstadt-planckstr--8290.html,Mo-Sa 07:00-22:00,Kaufland,Q685967
6728,lidl_de,,,Lippstadt-Süd,,,DE,,,Mo-Sa 07:00-21:00,Lidl,Q151954
70238,man_truck_and_bus,Autohaus Sternpark GmbH & Co. KG,,Lippstadt,,,DE,+49 2941 22225,,,MAN Truck & Bus,Q708667
27616423_001-renault,renault,Hecker Automobile GmbH,,Lippstadt,,,DE,+49 2941 97750,,,Renault,Q6686
27616423_001-dacia,renault,Hecker Automobile GmbH,,Lippstadt,,,DE,+49 2941 97750,,,Dacia,Q27460
40454,seat_de,Autohaus Berglar GmbH,,Lippstadt,,,DE,+49 2941 5086,https://berglar.seat.de,,SEAT,Q188217
https://www.sixt.co.uk/car-hire/germany/lippstadt/lippstadt-hella-6195/,sixt,Car Hire Lippstadt/Hella | SIXT rent a car,,Lippstadt,,,DE,,https://www.sixt.co.uk/car-hire/germany/lippstadt/lippstadt-hella-6195/,Mo-Fr 08:00-16:00; Sa 09:00-11:00,SIXT,Q705664
https://www.sixt.co.uk/car-hire/germany/lippstadt/lippstadt/,sixt,Car Hire Lippstadt | SIXT rent a car,,Lippstadt,,,DE,,https://www.sixt.co.uk/car-hire/germany/lippstadt/lippstadt/,Mo-Fr 08:00-12:00; Sa 09:00-11:00,SIXT,Q705664
173720,sparkasse_de,"Sparkasse Hellweg-Lippe Geldautomat Lippstadt, Kaufland Bökenförder Str.",,Lippstadt,,,DE,+49 2941 7570,https://www.sparkasse.de/standorte/geldautomaten/sparkasse-hellweg-lippe-geldautomat-lippstadt-kaufland-boekenfoerder-str-173720,Mo-Sa 07:00-22:00,Sparkasse,Q13601825
60625,sparkasse_de,"Sparkasse Hellweg-Lippe SB-Filiale Lippstadt, Kaufland Bökenförder Str",,Lippstadt,,,DE,+49 2941 7570,https://www.sparkasse.de/standorte/filialen/sparkasse-hellweg-lippe-sb-filiale-lippstadt-kaufland-boekenfoerder-str-60625,Mo-Sa 07:00-22:00,Sparkasse,Q13601825
60631,sparkasse_de,Sparkasse Hellweg-Lippe Geldautomat Overhagener Straße,,Lippstadt,,,DE,+49 2941 7570,https://www.sparkasse.de/standorte/geldautomaten/sparkasse-hellweg-lippe-geldautomat-overhagener-strasse-60631,Mo-Su 05:00-24:00,Sparkasse,Q13601825
1904,sparkasse_de,Sparkasse Hellweg-Lippe Filiale Overhagener Straße,,Lippstadt,,,DE,+49 2941 7570,https://www.sparkasse.de/standorte/filialen/sparkasse-hellweg-lippe-filiale-overhagener-strasse-1904,"Mo-Th 09:30-12:30,14:30-16:30; Fr 09:00-15:00",Sparkasse,Q13601825
https://www.vlh.de/bst/5491/Oeffnungszeiten.html,vhl_de,VLH-Beraterin Janine Sosniak in Lippstadt,,Lippstadt,,,DE,+49 2941 9248821,https://www.vlh.de/bst/5491/,Mo-Fr 14:00-18:00,Vereinigte Lohnsteuerhilfe e.V.,Q15852617
,visa,,,LIPPSTADT,,,DE,,,,,
,visa,,,LIPPSTADT,,,DE,,,,,
6DE02337,volvo,Autohaus Berglar GmbH,,Lippstadt,,,DE,+49 2941 5086,http://www.volvocars-haendler.de/berglar/,,Volvo,Q215293
https://www.vr.de/standorte/L/filiale-sued-volksbank-beckum-lippstadt-eg-10065.html,vr_bank,Filiale Süd - Volksbank Beckum-Lippstadt eG,,Lippstadt,,,DE,+49 2941 7548545,https://www.voba-bl.de,"Mo 09:00-12:00; Tu 09:00-12:00,14:00-16:30; We 09:00-12:00; Th 09:00-12:00,14:00-16:30; Fr 09:00-12:00",,
