Ref,Spider,Name,Address,City,State,Zipcode,Country,Phone,Website,Hours,Brand,WikiData
6848,aaa,Irving Branch,,Irving,TX,,US,+1 972-444-7800,,,American Automobile Association,Q463436
3011 Gateway Drive,allied_universal,Allied Universal,,Irving,TX,,US,+1 214-234-1600,https://www.aus.com/dallas-security-services-systems,,Allied Universal,Q4732537
https://locations.arbys.com/tx/irving/1730-market-place-blvd..html,arbys_us,"Arby's Fast-Food Drive Through Near You in Irving, TX",,Irving,TX,,US,+1 972-869-4339,https://locations.arbys.com/tx/irving/1730-market-place-blvd..html,Mo-Su 10:00-22:00,Arby's,Q630866
12002,asics_us,DICK'S Sporting Goods  - Irving,2000 Market Pl Blvd,Irving,TX,,US,+1 972-402-0600,,,asics,Q327247
93066,att_us,MACARTHUR CROSSING,,Irving,TX,,US,+1 972-444-9147,https://www.att.com/stores/texas/irving/93066,Mo-Fr 10:00-21:00; Sa 10:00-20:00; Su 11:00-18:00,AT&T,Q298594
https://www.banfield.com/locations/veterinarians/tx/irving/lco,banfield_pet_hospital,Las Colinas MacArthur Pointe,,Irving,TX,,US,+1 972-432-1769,https://www.banfield.com/locations/veterinarians/tx/irving/lco,Mo-Sa 08:00-18:00; Su 09:00-17:00,Banfield Pet Hospital,Q2882416
https://www.banfield.com/locations/veterinarians/tx/irving/adu,banfield_pet_hospital,Las Colinas,,Irving,TX,,US,+1 972-645-2454,https://www.banfield.com/locations/veterinarians/tx/irving/adu,Mo-Fr 09:00-15:00; Sa-Su 00:00-24:00,Banfield Pet Hospital,Q2882416
https://locators.bankofamerica.com/tx/irving/financial-centers-irving-15707.html,bankofamerica,Bank of America Financial Center & Drive-Thru ATM | Macarthur/Kinwest,,Irving,TX,,US,+1 972-444-0859,https://locators.bankofamerica.com/tx/irving/financial-centers-irving-15707.html,Mo-Fr 09:00-17:00; Sa 09:00-14:00,Bank of America,Q487907
BBW01228,bathandbodyworks_us,MACARTHUR PARK,,IRVINE,TX,,US,+1 469-420-9022,,Mo-Sa 10:00-21:00; Su 11:00-18:00,Bath & Body Works,Q810773
446,batteriesplus,Visit Us In Irving Today,,Irving,TX,,US,+1 469-599-1402,https://www.batteriesplus.com/store-locator/tx/irving/batteries-plus-446,Mo-Fr 08:00-19:00; Sa 08:00-18:00; Su 10:00-17:00,Batteries Plus Bulbs,Q17005157
9523,baylorscottwhite,Baylor Scott & White Pediatrics - Las Colinas,,Irving,TX,,US,+1 972-481-6400,https://www.bswhealth.com/locations/pediatrics-las-colinas,Mo-Fr 08:00-17:00,Baylor Scott & White Health,Q41568258
9425,baylorscottwhite,Baylor Scott & White Institute for Rehabilitation - Las Colinas Day Neuro Program,,Irving,TX,,US,+1 214-574-7848,https://www.bswrehab.com/locations/outpatient/las-colinas-day-neuro/,,Baylor Scott & White Health,Q41568258
9522,baylorscottwhite,Baylor Scott & White Internal Medicine - Las Colinas,,Irving,TX,,US,+1 972-406-1199,https://www.bswhealth.com/locations/internal-medicine-las-colinas,Mo-Fr 07:30-16:30,Baylor Scott & White Health,Q41568258
9424,baylorscottwhite,Baylor Scott & White Institute for Rehabilitation - Irving/Las Colinas Kinwest,,Irving,TX,,US,+1 972-506-0931,https://www.bswphysicaltherapy.com/contact/find-a-location/tx/irving/irving-las-colinas-kinwest/,,Baylor Scott & White Health,Q41568258
3732119,baylorscottwhite,Baylor Scott & White Medical & Surgical Clinic - Las Colinas (Primary Care),,Irving,TX,,US,+1 972-817-1000,https://www.bswhealth.com/locations/medical-and-surgical-clinic-las-colinas-primary-care,Mo-Fr 08:00-17:00,Baylor Scott & White Health,Q41568258
230533,baylorscottwhite,Baylor Scott & White Cottonwood Cardiology - Las Colinas,,Irving,TX,,US,+1 972-817-0200,https://www.bswhealth.com/locations/cottonwood-cardiology,,Baylor Scott & White Health,Q41568258
9573,baylorscottwhite,Baylor Scott & White Family Medicine - Las Colinas | Coppell,,Irving,TX,,US,+1 469-800-0440,https://www.bswhealth.com/locations/family-medicine-las-colinas,Mo-Fr 08:00-16:30,Baylor Scott & White Health,Q41568258
9403,baylorscottwhite,Baylor Scott & White Comprehensive Wound Center - Las Colinas,,Irving,TX,,US,+1 972-990-5222,https://www.bswhealth.com/locations/irving/specialties/wound-care,Mo-Fr 08:00-16:30,Baylor Scott & White Health,Q41568258
9361,baylorscottwhite,Baylor Scott & White Surgical Hospital - Las Colinas,,Irving,TX,,US,+1 972-868-4000,http://www.baylorlascolinas.com/,,Baylor Scott & White Health,Q41568258
9961,baylorscottwhite,Baylor Scott & White Sleep Center - Las Colinas,,Irving,TX,,US,+1 972-579-8100,https://www.bswhealth.com/locations/irving/specialties/sleep-disorders,,Baylor Scott & White Health,Q41568258
128058,baylorscottwhite,Touchstone Imaging Las Colinas,,Irving,TX,,US,+1 214-647-6161,https://www.touchstoneimaging.com/locations/irving-las-colinas/,,Baylor Scott & White Health,Q41568258
9831,baylorscottwhite,Baylor Scott & White Women's Imaging Center - Las Colinas (MacArthur & I-635),,Irving,TX,,US,+1 972-990-5650,https://www.bswhealth.com/locations/irving/specialties/womens-imaging,,Baylor Scott & White Health,Q41568258
https://stores.bestbuy.com/tx/irving/1900-market-place-blvd-1032.html,bestbuy,Best Buy North Irving,,Irving,TX,,US,+1 972-910-0330,https://stores.bestbuy.com/tx/irving/1900-market-place-blvd-1032.html,,Best Buy,Q533415
136675,blaze_pizza,Blaze Pizza Irving,,Irving,TX,,US,+1 972-544-0164,https://blazepizza.olo.com/menu/blaze-pizza-irving/,,Blaze Pizza,Q23016666
40590,bluerhino,Walmart #2649 - Supercenter,,Irving,TX,,US,+1 214-574-4517,,,Blue Rhino,Q65681213
49479,bluerhino,Kroger #577 - Southwest,,Irving,TX,,US,+1 972-831-8357,,,Blue Rhino,Q65681213
185998,bluerhino,Kroger #577 - Southwest- Fuel Site,,Irving,TX,,US,+1 972-831-8357,,,Blue Rhino,Q65681213
155321,bluerhino,Walgreens #3921,,Irving,TX,,US,+1 972-501-9202,,,Blue Rhino,Q65681213
3151,bueno,Taco Bueno - 3151,"707 W Lyndon B Johnson Fwy Irving,  , Irving, TX, 75063, US",Irving,TX,,US,+1 972-805-8484,,Mo-Su 10:30-22:00,Taco Bueno,Q7673958
IRVGTXMW,builders_firstsource_us,Irving TX Millwork,,Irving,TX,,US,+1 972-621-2233,https://www.bldr.com/location/irving-tx-millwork/IRVGTXMW,Mo-Fr 06:00-17:00,Builders FirstSource,Q27686100
2043577,chase_us,Valley Ranch - New branch,,Irving,TX,,US,+1 972-910-9803,https://locator.chase.com/tx/irving/8585-n-macarthur-blvd,Mo-Fr 09:00-17:00; Sa 09:00-14:00,Chase,Q524629
2038535,chase_us,MacArthur Park - New branch,,Irving,TX,,US,+1 214-496-1700,https://locator.chase.com/tx/irving/7825-n-macarthur-blvd,Mo-Fr 09:00-17:00; Sa 09:00-14:00,Chase,Q524629
001.005.0623,chilis,Valley Ranch,,Irving,TX,,US,+1 214-574-4574,https://www.chilis.com/locations/us/texas/irving/valley-ranch/,Mo-Th 11:00-22:30; Fr-Sa 11:00-24:00; Su 11:00-22:30,Chili's,Q1072948
tx_irving_8445-n-belt-line-rd,chipotle, ,,Irving,TX,,US,+1 972-915-6918,https://locations.chipotle.com/tx/irving/8445-n-belt-line-rd,,Chipotle,Q465751
tx_irving_7717-n-macarthur-blvd,chipotle, ,,Irving,TX,,US,+1 972-501-9925,https://locations.chipotle.com/tx/irving/7717-n-macarthur-blvd,,Chipotle,Q465751
32974,citi,ATM 7ELEVEN-FCTI,,Irving,TX,,US,,,,Citibank,Q857063
84678,citi,ATM TRANSFUND,,Irving,TX,,US,,,,Citibank,Q857063
84679,citi,ATM TRANSFUND,,Irving,TX,,US,,,,Citibank,Q857063
32685,citi,ATM 7ELEVEN-FCTI,,Irving,TX,,US,,,,Citibank,Q857063
33043,citi,ATM 7ELEVEN-FCTI,,Irving,TX,,US,,,,Citibank,Q857063
72021,citi,ATM Racetrac,,Irving,TX,,US,,,,Citibank,Q857063
53166,citi,ATM CVS,,Irving,TX,,US,,,,Citibank,Q857063
29060,citi,ATM 7ELEVEN-FCTI,,Irving,TX,,US,,,,Citibank,Q857063
55050,citi,ATM FCTIINC.,,Irving,TX,,US,,,,Citibank,Q857063
83042,citi,ATM Target,,Irving,TX,,US,,,,Citibank,Q857063
32627,citi,ATM 7ELEVEN-FCTI,,Irving,TX,,US,,,,Citibank,Q857063
53129,citi,ATM CVS,,Irving,TX,,US,,,,Citibank,Q857063
63659,citi,ATM Las Colinas Federal Credit Union,,Irving,TX,,US,,,,Citibank,Q857063
24232,citi,ATM 7ELEVEN-FCTI,,Irving,TX,,US,,,,Citibank,Q857063
334985437,clinical_pathology_laboratories,LAS COLINAS PSC,,IRVING,TX,,US,,,,Clinical Pathology Laboratories,Q91911320
macarthur-park,corner_bakery_cafe,MacArthur Park,,Irving,TX,,US,+1 214-574-5135,https://cornerbakerycafe.com/location/macarthur-park,Mo-Su 07:00-21:00,Corner Bakery Cafe,Q5171598
,credit_union_us,American Airlines FCU,,Irving,TX,,US,+1 972-621-3232,,Mo-Fr 08:00-04:00,,
,credit_union_us,Mobility Credit Union,,Irving,TX,,US,+1 214-574-2000,,Mo-Fr 09:00-05:00,,
11389,cvs_us,CVS Pharmacy,,Irving,TX,,US,+1 214-765-2014,https://www.cvs.com/store-locator/irving-tx-pharmacies/8700-north-belt-line-road-irving-tx-75063/storeid=11389,Mo-Su 08:00-22:00,CVS Pharmacy,Q2078880
10880,cvs_us,CVS Pharmacy,,Irving,TX,,US,+1 469-420-9260,https://www.cvs.com/store-locator/irving-tx-pharmacies/8580-n-macarthur-blvd-irving-tx-75063/storeid=10880,Mo-Su 07:00-23:00,CVS Pharmacy,Q2078880
16419,cvs_us,CVS Pharmacy,,Irving,TX,,US,+1 972-869-0474,https://www.cvs.com/store-locator/irving-tx-pharmacies/7845-n-macarthur-blvd-irving-tx-75063/storeid=16419,"Mo-Fr 09:00-13:30,14:00-19:00; Sa 10:00-13:30,14:00-18:00; Su 11:00-13:30,14:00-17:00",CVS Pharmacy,Q2078880
12553555,daiso_us,Irving,,Irving,TX,,US,+1 972-993-2683,,Mo-Su 10:00-21:00,Daiso Japan,Q866991
246450,dennys,Denny's,,Irving,TX,,US,+1 972-929-4282,https://locations.dennys.com/TX/IRVING/246450,24/7,Denny's,Q1189695
249646,dennys,Denny's,,Irving,TX,,US,+1 972-677-7845,https://locations.dennys.com/TX/IRVING/249646,24/7,Denny's,Q1189695
6824,dominos_pizza_us,Domino's Pizza,,Irving,TX,,US,+1 972-501-9900,https://pizza.dominos.com/texas/irving/10045-macarthur-blvd-109,Mo-Th 10:00-24:00; Fr-Sa 10:00-01:00; Su 10:00-24:00,Domino's,Q839466
200324535,exxonmobil,7-ELEVEN 38151,,IRVING,TX,,US,+1 972-828-0711,https://www.exxon.com/en/find-station/exxon-irving-tx-7eleven38151-200324535,24/7,Exxon,Q109675651
200316852,exxonmobil,7-ELEVEN 39047,,IRVING,TX,,US,+1 972-432-0978,https://www.exxon.com/en/find-station/exxon-irving-tx-7eleven39047-200316852,24/7,Exxon,Q109675651
https://local.fedex.com/#25202439,fedex,,,Irving,TX,,US,+1 800-463-3339,https://local.fedex.com/en-us/tx/irving/bsjhv,,FedEx,Q459477
https://local.fedex.com/#25458297,fedex,,,Irving,TX,,US,+1 800-463-3339,https://local.fedex.com/en-us/tx/irving/00jq6,,FedEx,Q459477
22756,firestone_auto_care,Firestone Complete Auto Care,,Irving,TX,,US,+1 972-892-7514,https://local.firestonecompleteautocare.com/texas/irving/7550-n-macarthur-blvd/,,Firestone,Q420837
https://restaurants.fiveguys.com/#1026095083,five_guys_us,Five Guys Irving,,Irving,TX,,US,+1 469-565-2028,https://restaurants.fiveguys.com/8445-n-beltline-rd,,Five Guys,Q1131810
https://branches.fleetpride.com/tx/irving/truckparts-pdc.html,fleet_pride_us,FleetPride,,Irving,TX,,US,+1 800-967-6206,https://branches.fleetpride.com/tx/irving/truckparts-pdc.html,Mo-Fr 08:00-17:00,FleetPride,Q121436710
4937,gamestop_us,Macarthur Park,,IRVING,TX,,US,+1 972-556-9413,https://www.gamestop.com/search/?store=4937,Mo-Th 12:00-20:00; Fr-Sa 12:00-21:00; Su 11:00-20:00,GameStop,Q202210
https://salons.greatclips.com/us/tx/irving/7447-n-macarthur-blvd,greatclips,Great Clips,,Irving,TX,,US,+1 972-869-0633,https://salons.greatclips.com/us/tx/irving/7447-n-macarthur-blvd,Mo-Fr 09:00-20:00; Sa 09:00-18:00; Su 11:00-17:00,Great Clips,Q5598967
dfwindt-doubletree-dallas-dfw-airport-north,hilton,DoubleTree by Hilton Hotel Dallas - DFW Airport North,,,TX,,US,+1 972-929-8181,https://www.hilton.com/ar/hotels/dfwindt-doubletree-dallas-dfw-airport-north/,,DoubleTree by Hilton,Q2504643
tx_irving_breakfast-900-market-place-1939,ihop,IHOP Breakfast Restaurants Near You at 900 Market Place,,Irving,TX,,US,+1 833-920-4486,https://restaurants.ihop.com/en-us/tx/irving/breakfast-900-market-place-1939,,IHOP,Q1185675
https://locations.jackinthebox.com/us/tx/irving/8655-cypress-waters-blvd,jackinthebox,Jack in the Box,,Irving,TX,,US,+1 972-556-2588,https://locations.jackinthebox.com/us/tx/irving/8655-cypress-waters-blvd,Mo-We 06:00-23:00; Th-Sa 06:00-02:00; Su 06:00-23:00,Jack in the Box,Q1538507
https://office.jacksonhewitt.com/#27575576,jackson_hewitt,Jackson Hewitt,,Irving,TX,,US,+1 469-758-3561,https://office.jacksonhewitt.com/tax-preparation-services-locations/en/tx/irving/1635-market-place/52649,Mo-Sa 11:00-19:00; Su 12:00-16:00,Jackson Hewitt,Q6117132
irving-deli,jasonsdeli,Irving Deli,"7707 N MacArthur Blvd, Irving, Texas 75063",Irving,TX,,US,+1 972-432-0555,https://www.jasonsdeli.com/restaurants/irving-deli,Mo-Su 10:00-22:00,Jason's Deli,Q16997641
https://locations.jimmyjohns.com/tx/irving/sandwiches-973.html,jimmy_johns,Jimmy John's,,Irving,TX,,US,+1 972-402-0300,https://locations.jimmyjohns.com/tx/irving/sandwiches-973.html,,Jimmy John's,Q1689380
https://stores.factory.jcrew.com/#1024383119,j_crew_us,J.Crew Factory,,Irving,TX,,US,+1 214-807-1809,https://stores.factory.jcrew.com/us/tx/irving/7763-n-macarthur-blvd,Mo-Sa 10:00-20:00; Su 11:00-18:00,J. Crew,Q5370765
https://locations.kfc.com/#11250374,kfc,Chicken Nuggets Near Irving,,Irving,TX,,US,,https://locations.kfc.com/tx/irving/7990-n-macarthur-blvd/chickennugget,Mo-Th 10:30-24:00; Fr-Sa 10:30-01:00; Su 10:30-24:00,KFC,Q524757
1233,kohls_us,Kohl's,,Irving,TX,,US,+1 972-409-0233,https://www.kohls.com/stores/tx/irving-1233.shtml,Mo-Sa 09:00-22:00; Su 09:00-21:00,Kohl's,Q967265
https://local.lenscrafters.com/tx/irving/7805-north-macarthur-blvd.html,lenscrafters,LensCrafters,,Irving,TX,,US,+1 972-315-0111,https://local.lenscrafters.com/tx/irving/7805-north-macarthur-blvd.html,Mo-Sa 09:00-20:00; Su 11:00-18:00,LensCrafters,Q6523209
173129,little_free_library,TEXAS YES Project - Landry Elementary School #173129 Irving TX,,Irving,TX,,US,,,,Little Free Library,Q6650101
DFWAN,marriott,Aloft DFW Airport North,,Irving,TX,,US,,https://www.marriott.com/DFWAN,,Aloft Hotels,Q4734166
DFWCY,marriott,Courtyard Dallas DFW Airport North/Irving,,Irving,TX,,US,+1 972-929-4004,https://www.marriott.com/DFWCY,,Courtyard by Marriott,Q1053170
DFWEL,marriott,Element Dallas Fort Worth Airport North,,Irving,TX,,US,+1 972-929-9800,https://www.marriott.com/DFWEL,,Element Hotels,Q91948072
DFWFN,marriott,Fairfield Inn & Suites Dallas DFW Airport North/ Irving,,Irving,TX,,US,+1 972-929-7257,https://www.marriott.com/DFWFN,,Fairfield by Marriott,Q5430314
DFWAP,marriott,Dallas/Fort Worth Airport Marriott,,Irving,TX,,US,+1 972-929-8800,https://www.marriott.com/DFWAP,,Marriott Hotels & Resorts,Q3918608
DFWRA,marriott,Residence Inn Dallas DFW Airport North/Irving,,Irving,TX,,US,+1 972-871-1331,https://www.marriott.com/DFWRA,,Residence Inn by Marriott,Q7315394
DFWAH,marriott,Sheraton DFW Airport Hotel,,Irving,TX,,US,+1 972-929-8400,https://www.marriott.com/DFWAH,,Sheraton Hotels and Resorts,Q634831
DFWTI,marriott,TownePlace Suites Dallas DFW Airport North/Irving,,Irving,TX,,US,+1 972-374-3600,https://www.marriott.com/DFWTI,,Townplace Suites by Marriott,Q7830092
17806,mattress_firm_us,Mattress Firm Clearance Center at Las Colinas,,Irving,TX,,US,+1 972-506-0711,https://www.mattressfirm.com/en-us/stores/tx/irving/002083/,,Mattress Firm Clearance,Q6791878
17735,mattress_firm_us,Sleep Experts Valley Ranch,,Irving,TX,,US,+1 469-484-4861,https://www.mattressfirm.com/en-us/stores/tx/irving/117038/,,Sleep Experts,Q7539688
3501-regent-blvd,mcalisters_deli,McAlister's Deli Irving ,,Irving,TX,,US,+1 972-929-1790,https://locations.mcalistersdeli.com/tx/irving/3501-regent-blvd,Mo-Su 10:00-21:00,McAlister's Deli,Q17020829
d2b32061-2305-4c1e-a415-53ddf2035705,medical_city_healthcare,CareNow Urgent Care - Las Colinas,,Irving,TX,,US,+1 214-496-0820,https://medicalcityhealthcare.com/locations/,,Medical City Healthcare,
cbe06c05-14e1-45da-af2b-bdf6356affd4,medical_city_healthcare,CareNow Urgent Care - Las Colinas - MacArthur,,Irving,TX,,US,+1 469-804-9295,https://medicalcityhealthcare.com/locations/,,Medical City Healthcare,
1056,michaels,DFW-IRVING,,Irving,TX,,US,+1 972-501-0525,https://locations.michaels.com/tx/irving/1056,Mo-Sa 09:00-21:00; Su 10:00-19:00,Michaels,Q6835667
71481409,moneygram,WAL-MART - #2649,,IRVING,TX,,US,+1 214-574-4517,,Mo-Su 07:00-21:00,MoneyGram,Q1944412
44295729,moneygram,WAL-MART - #2649,,IRVING,TX,,US,+1 214-574-4517,,Mo-Su 07:00-21:00,MoneyGram,Q1944412
7457-las-colinas-blvd,my_eye_dr,,,Irving,TX,,US,+1 214-382-3061,https://locations.myeyedr.com/tx/irving/7457-las-colinas-blvd,,MyEyeDr.,Q117864710
2445,orangetheory_fitness,"Las Colinas, TX",,Irving,TX,,US,+1 972-474-0404,,,Orangetheory Fitness,Q25005163
112695,pandaexpress,Regent & Bent Branch,,Irving,TX,,US,+1 469-420-9710,https://www.pandaexpress.com/locations/tx/irving/8411-bent-branch-dr,Mo-Su 10:00-22:30,Panda Express,Q1358690
https://locations.papajohns.com/#10691812,papa_johns,Papa John's,,Irving,TX,,US,+1 469-665-7272,https://locations.papajohns.com/united-states/tx/75063/irving/8150-n-macarthur-blvd,Mo-Th 10:00-23:00; Fr-Sa 10:00-24:00; Su 10:00-23:00,Papa John's Pizza,Q2759586
011973,penske,Home Depot #6557,,IRVING,TX,,US,+1 972-409-0118,https://www.pensketruckrental.com/locations/us/texas/irving/011973/,,Penske,Q81234570
restaurant_83835,popeyes_us_fr,Popeyes,"1000 Market Place Blvd Irving, Texas 75063 - USA",Irving,TX,,US,+1 972-869-3181,https://www.popeyes.com/store-locator/store/restaurant_83835,Mo-Su 10:00-22:00,Popeyes,Q1330910
136763,potbelly_sandwich,Las Colinas,,Irving,TX,,US,+1 972-556-0081,,Mo-Su 10:00-21:00,Potbelly Sandwich Shop,Q7234777
home-depot-6557-12615,ppgpaints,HOME DEPOT 6557,,"Irving, ",TX,,US,+1 972-506-3006,https://www.ppgpaints.com/store-locator/us/texas/irving-paint-stores/home-depot-6557-12615,,PPG Paints,Q83891559
42,primrose_schools,Primrose School of Valley Ranch,,Irving,TX,,US,+1 972-444-9500,https://www.primroseschools.com/schools/valley-ranch/,,Primrose Schools,Q7243677
https://www.publicstorage.com/self-storage-tx-irving/5304.html,public_storage_us,Public Storage,,Irving,TX,,US,+1 972-808-6410,https://www.publicstorage.com/self-storage-tx-irving/5304.html,,Public Storage,Q1156045
https://www.publicstorage.com/self-storage-tx-irving/1975.html,public_storage_us,Public Storage,,Irving,TX,,US,+1 682-206-3307,https://www.publicstorage.com/self-storage-tx-irving/1975.html,,Public Storage,Q1156045
https://www.publicstorage.com/self-storage-tx-irving/5618.html,public_storage_us,Public Storage,,Irving,TX,,US,+1 972-947-2822,https://www.publicstorage.com/self-storage-tx-irving/5618.html,,Public Storage,Q1156045
https://locations.quiktrip.com/#16004181,quiktrip_us,QuikTrip Store #997 7575 N Beltline Rd,,Irving,TX,,US,+1 214-277-0574,https://locations.quiktrip.com/tx/irving/7575-n-beltline-rd,24/7,QuikTrip,Q7271953
https://www.racetrac.com/locations/texas/irving/las-colinas,racetrac_us,RaceTrac,,Irving,TX,,US,+1 972-910-9449,https://www.racetrac.com/locations/texas/irving/las-colinas,,RaceTrac,Q735942
8590,regal_nails_us,"Regal Nails, Salon &#038; Spa",1635 Market Place,Irving,TX,,US,+1 972-402-0796,,,Regal Nails,Q108918028
442,ross_dress_for_less_us,No Irving,,Irving,TX,,US,+1 972-432-9998,,Mo-Th 09:30-22:00; Fr-Sa 09:00-22:30; Su 09:30-22:00,Ross Dress for Less,Q3442791
6265,sams_club,Irving Sam's Club,,Irving,TX,,US,+1 972-401-0143,https://www.samsclub.com/club/irving-tx-sams-club/6265,Mo 10:00-20:00; Sa 09:00-20:00; Su 10:00-18:00,Sam's Club,Q1972120
42139,seven_eleven_ca_us,7-Eleven,,Irving,TX,,US,,,,7-Eleven,Q259340
38151,seven_eleven_ca_us,7-Eleven Store,,Irving,TX,,US,+1 469-974-9064,https://www.7-eleven.com/locations/tx/irving/8235-esters-blvd-38151,,7-Eleven,Q259340
39047,seven_eleven_ca_us,Bcp Str    10025 N Macarthur,,Irving,TX,,US,+1 214-558-6581,https://www.7-eleven.com/locations/tx/irving/10025-n-macarthur-39047,,7-Eleven,Q259340
36364,seven_eleven_ca_us,7-11 Str   770 W Lyndon B Johnson,,Irving,TX,,US,+1 214-496-0216,https://www.7-eleven.com/locations/tx/irving/770-w-lyndon-b-johnson-36364,,7-Eleven,Q259340
37126,seven_eleven_ca_us,7-11 Str   3200 Hackberry Rd,,Irving,TX,,US,+1 800-255-0711,https://www.7-eleven.com/locations/tx/irving/3200-hackberry-rd-37126,,7-Eleven,Q259340
518,steak_n_shake,Steak n Shake,,Irving,TX,,US,+1 214-574-5300,https://www.steaknshake.com/locations/tx-irving-market-place-boulevard/,,Steak N Shake,Q7605233
https://restaurants.subway.com/#14895343,subway,Subway Parkway Tower,,Irving Dallas,TX,,US,+1 972-929-3630,https://restaurants.subway.com/united-states/tx/irving/8445-freeport-pky,Mo-Fr 09:00-21:00; Sa 10:00-21:00,Subway,Q244457
https://restaurants.subway.com/#14902643,subway,Subway Macarthur Crossing Ii,,Irving Dallas,TX,,US,+1 972-685-6449,https://restaurants.subway.com/united-states/tx/irving/7600-n-macarthur-blvd,Mo-Su 09:00-21:00,Subway,Q244457
https://restaurants.subway.com/#14908192,subway,Subway The Shops at Regent Cross,,Irving Dallas,TX,,US,+1 972-514-1716,https://restaurants.subway.com/united-states/tx/irving/3601-regent-blvd,Mo-Su 09:00-22:00,Subway,Q244457
https://locations.tacobell.com/#8284009,taco_bell,Taco Bell,,Irving,TX,,US,+1 972-373-9234,https://locations.tacobell.com/tx/irving/7990-n-macarthur-blvd.html,Mo-We 07:00-24:00; Th-Fr 07:00-01:00; Sa-Su 07:00-24:00,Taco Bell,Q752941
https://locations.tacobell.com/#8958052,taco_bell,Taco Bell,,Irving,TX,,US,+1 214-496-0371,https://locations.tacobell.com/tx/irving/3255-regent-blvd.html,Mo-Th 09:00-01:00; Fr-Sa 09:00-02:00; Su 09:00-01:00,Taco Bell,Q752941
20329,taco_cabana_us,8645 Cypress Waters Blvd,"8645 Cypress Waters Blvd, Irving, TX, USA",Irving,TX,,US,+1 214-496-0385,,,Taco Cabana,Q12070488
086,tjx,Irving,7735 N. Macarthur Blvd.,Irving,TX,,US,+1 972-556-0206,,Mo-Sa 09:30-21:30; Su 10:00-20:00,TJ Maxx,Q10860683
28406,tjx,Irving,7735 N. MacArthur Blvd.,Irving,TX,,US,+1 972-556-0206,,Mo-Sa 09:30-21:30; Su 10:00-20:00,HomeGoods,Q5887941
8638,tmobile_us,Macarthur & Kinwest Pkwy,,Irving,TX,,US,+1 972-501-9069,https://www.t-mobile.com/store-locator/tx/irving/macarthur-kinwest-pkwy,,T-Mobile,Q3511885
Las Colinas,torchys_tacos,Torchy's Tacos,7855 Las Colinas Ridge,Irving,TX,,US,+1 214-743-8565,https://torchystacos.com/location/las-colinas/,Mo-Sa 09:00-22:00; Su 09:00-21:00,Torchy's Tacos,Q106769573
535,total_wine_and_more_us,Las Colinas (Irving),,Irving,TX,,US,+1 469-250-5599,https://www.totalwine.com/store-info/535,Mo-Sa 10:00-21:00,Total Wine & More,Q7828084
00687,twenty_four_hour_fitness_us,Valley Ranch,,Irving,TX,,US,+1 972-556-1316,https://www.24hourfitness.com/Website/Club/00687,,24 Hour Fitness Sport,Q4631849
https://www.ubreakifix.com/locations/irving,ubreakifix,uBreakiFix Irving,,Irving,TX,,US,+1 972-290-0300,https://www.ubreakifix.com/locations/irving,Mo-Sa 10:00-19:00; Su 12:00-17:00,uBreakiFix,Q53685733
"Baylor Surgical Hospital at Las Colinas, Irving, Texas",united_surgical_partners_international,Baylor Surgical Hospital at Las Colinas,400 West I-635 Suite 101b,Irving,TX,,US,+1 972-868-4000,na,,United Surgical Partners International,Q7893575
1368067,usps,VALLEY RANCH,,IRVING,TX,,US,+1 972-506-9104,,Mo-Fr 08:30-18:00; Sa 09:00-12:00,United States Postal Service,Q668687
7506300018,usps_collection_boxes,USPS COLLECTION BOX - BLUE BOX,5101 STATESMAN DR,IRVING,TX,,US,,,,United States Postal Service,Q668687
7506300024,usps_collection_boxes,USPS COLLECTION BOX - BLUE BOX,8925 STERLING ST,IRVING,TX,,US,,,,United States Postal Service,Q668687
7506300013,usps_collection_boxes,USPS COLLECTION BOX - BLUE BOX,9400 N MACARTHUR BLVD,IRVING,TX,,US,,,,United States Postal Service,Q668687
7506300031,usps_collection_boxes,USPS COLLECTION BOX - BLUE BOX,8501 N MACARTHUR BLVD,IRVING,TX,,US,,,,United States Postal Service,Q668687
7506300030,usps_collection_boxes,USPS COLLECTION BOX - BLUE BOX,8501 N MACARTHUR BLVD,IRVING,TX,,US,,,,United States Postal Service,Q668687
7506300032,usps_collection_boxes,USPS COLLECTION BOX - APC,8501 N MACARTHUR BLVD,IRVING,TX,,US,,,,United States Postal Service,Q668687
7506300039,usps_collection_boxes,USPS COLLECTION BOX - PO LOBBY,8501 N MACARTHUR BLVD,IRVING,TX,,US,,,,United States Postal Service,Q668687
7506300025,usps_collection_boxes,USPS COLLECTION BOX - PO LOBBY,8501 N MACARTHUR BLVD,IRVING,TX,,US,,,,United States Postal Service,Q668687
7506300026,usps_collection_boxes,USPS COLLECTION BOX - PO LOBBY,8501 N MACARTHUR BLVD,IRVING,TX,,US,,,,United States Postal Service,Q668687
7506300029,usps_collection_boxes,USPS COLLECTION BOX - PO LOBBY,8501 N MACARTHUR BLVD,IRVING,TX,,US,,,,United States Postal Service,Q668687
7506300012,usps_collection_boxes,USPS COLLECTION BOX - BLUE BOX,7750 N MACARTHUR BLVD,IRVING,TX,,US,,,,United States Postal Service,Q668687
7506300017,usps_collection_boxes,USPS COLLECTION BOX - BLUE BOX,8150 SPRINGWOOD DR STE 100,IRVING,TX,,US,,,,United States Postal Service,Q668687
7506300015,usps_collection_boxes,USPS COLLECTION BOX - BLUE BOX,7900 RIDGEPOINT DR,IRVING,TX,,US,,,,United States Postal Service,Q668687
7506300004,usps_collection_boxes,USPS COLLECTION BOX - BLUE BOX,8304 ESTERS BLVD,IRVING,TX,,US,,,,United States Postal Service,Q668687
7506300000,usps_collection_boxes,USPS COLLECTION BOX - BLUE BOX,6201 CAMPUS CIRCLE DR E,IRVING,TX,,US,,,,United States Postal Service,Q668687
7506300021,usps_collection_boxes,USPS COLLECTION BOX - BLUE BOX,8411 STERLING ST,IRVING,TX,,US,,,,United States Postal Service,Q668687
R00000237167,verizon_us,North Irving,,Irving,TX,,US,+1 469-559-0798,https://www.verizon.com/stores/details/texas/irving/north-irving-350402/,Mo-Sa 10:00-19:00; Su 11:00-18:00,Verizon,Q919641
,visa,,,IRVING,TX,,US,,,,,
,visa,,,IRVING,TX,,US,,,,,
,visa,,,IRVING,TX,,US,,,,,
,visa,,,IRVING,TX,,US,,,,,
,visa,,,IRVING,TX,,US,,,,,
,visa,,,IRVING,TX,,US,,,,,
,visa,,,IRVING,TX,,US,,,,,
,visa,,,IRVING,TX,,US,,,,,
,visa,,,IRVING,TX,,US,,,,,
,visa,,,IRVING,TX,,US,,,,,
,visa,,,IRVING,TX,,US,,,,,
,visa,,,IRVING,TX,,US,,,,,
,visa,,,IRVING,TX,,US,,,,,
,visa,,,IRVING,TX,,US,,,,,
,visa,,,IRVING,TX,,US,,,,,
,visa,,,IRVING,TX,,US,,,,,
,visa,,,IRVING,TX,,US,,,,,
,visa,,,IRVING,TX,,US,,,,,
,visa,,,IRVING,TX,,US,,,,,
,visa,,,IRVING,TX,,US,,,,,
,visa,,,IRVING,TX,,US,,,,,
,visa,,,IRVING,TX,,US,,,,,
,visa,,,IRVING,TX,,US,,,,,
,visa,,,IRVING,TX,,US,,,,,
,visa,,,IRVING,TX,,US,,,,,
,visa,,,IRVING,TX,,US,,,,,
,visa,,,IRVING,TX,,US,,,,,
,visa,,,IRVING,TX,,US,,,,,
,visa,,,IRVING,TX,,US,,,,,
,visa,,,IRVING,TX,,US,,,,,
,visa,,,IRVING,TX,,US,,,,,
,visa,,,IRVING,TX,,US,,,,,
,visa,,,IRVING,TX,,US,,,,,
,visa,,,IRVING,TX,,US,,,,,
,visa,,,IRVING,TX,,US,,,,,
,visa,,,IRVING,TX,,US,,,,,
,visa,,,IRVING,TX,,US,,,,,
,visa,,,IRVING,TX,,US,,,,,
,visa,,,IRVING,TX,,US,,,,,
,visa,,,IRVING,TX,,US,,,,,
,visa,,,IRVING,TX,,US,,,,,
,visa,,,IRVING,TX,,US,,,,,
,visa,,,IRVING,TX,,US,,,,,
,visa,,,IRVING,TX,,US,,,,,
,visa,,,IRVING,TX,,US,,,,,
,visa,,,IRVING,TX,,US,,,,,
,visa,,,IRVING,TX,,US,,,,,
,visa,,,IRVING,TX,,US,,,,,
,visa,,,IRVING,TX,,US,,,,,
,visa,,,IRVING,TX,,US,,,,,
,visa,,,IRVING,TX,,US,,,,,
,visa,,,IRVING,TX,,US,,,,,
,visa,,,IRVING,TX,,US,,,,,
,visa,,,IRVING,TX,,US,,,,,
,visa,,,IRVING,TX,,US,,,,,
,visa,,,IRVING,TX,,US,,,,,
,visa,,,IRVING,TX,,US,,,,,
,visa,,,IRVING,TX,,US,,,,,
,visa,,,IRVING,TX,,US,,,,,
,visa,,,IRVING,TX,,US,,,,,
,visa,,,IRVING,TX,,US,,,,,
,visa,,,IRVING,TX,,US,,,,,
,visa,,,IRVING,TX,,US,,,,,
,visa,,,IRVING,TX,,US,,,,,
,visa,,,IRVING,TX,,US,,,,,
,visa,,,IRVING,TX,,US,,,,,
,visa,,,IRVING,TX,,US,,,,,
,visa,,,IRVING,TX,,US,,,,,
,visa,,,IRVING,TX,,US,,,,,
,visa,,,IRVING,TX,,US,,,,,
,visa,,,IRVING,TX,,US,,,,,
,visa,,,IRVING,TX,,US,,,,,
,visa,,,IRVING,TX,,US,,,,,
,visa,,,MANSFIELD,TX,,US,,,,,
,visa,,,MANSFIELD,TX,,US,,,,,
,visa,,,ARLINGTON,TX,,US,,,,,
,visa,,,FORT WORTH,TX,,US,,,,,
https://locations.vitaminshoppe.com/tx/irving/vitamins-supplements-irving-tx-191.html,vitamin_shoppe,The Vitamin ShoppeÂ® Las Colinas (Irving) ,800 Market Place Blvd ,Irving,TX,,US,+1 972-501-0395,https://locations.vitaminshoppe.com/tx/irving/vitamins-supplements-irving-tx-191.html,Su 10:30-19:00; Mo 09:30-21:00; Tu 09:30-21:00; We 09:30-21:00; Th 09:30-21:00; Fr 09:30-21:00; Sa 09:00-20:30,The Vitamin Shoppe,Q7772938
https://www.walgreens.com/locator/walgreens-10001+n+macarthur+blvd-irving-tx-75063/id=3921,walgreens,Walgreens,,Irving,TX,,US,+1 972-501-9202,https://www.walgreens.com/locator/walgreens-10001+n+macarthur+blvd-irving-tx-75063/id=3921,Mo-Su 07:00-24:00,Walgreens,Q1591889
1050__MARKET__PL__BLVD_IRVING_TX_75063,wellsfargo,Wells Fargo,1050 MARKET PL BLVD,IRVING,TX,,US,+1 972-401-5200,https://www.wellsfargo.com/locator/bank/1050__MARKET__PL__BLVD_IRVING_TX_75063/,Mo-Fr 09:00-17:00,Wells Fargo,Q744149
https://locations.wendys.com/#9253124,wendys,"Wendy's 7700 N Macarthur in Irving, TX",,Irving,TX,,US,+1 972-432-7918,https://locations.wendys.com/united-states/tx/irving/7700-n-macarthur,"Mo-Sa 06:30-10:30,07:00-22:00; Su 08:00-10:30,08:00-22:00",Wendy's,Q550258
7801f81bc83b03cb1a4d5b446508d805,western_union,7-ELEVEN #38151,,Irving,TX,,US,+1 469-974-9064,https://location.westernunion.com/us/tx/irving/7801f81bc83b03cb1a4d5b446508d805,,Western Union,Q861042
7728a12ba12a748a355979fbcdab4b31,western_union,QUIKTRIP #997,,Irving,TX,,US,+1 214-277-0572,https://location.westernunion.com/us/tx/irving/7728a12ba12a748a355979fbcdab4b31,,Western Union,Q861042
0cba1ed9c07b9944f6bc7b9942b37e50,western_union,WALMART #002649,,Irving,TX,,US,+1 214-574-4517,https://location.westernunion.com/us/tx/irving/0cba1ed9c07b9944f6bc7b9942b37e50,Mo-Su 07:00-21:00,Western Union,Q861042
2d8607e5d951be44b99c88f311cae92d,western_union,7-ELEVEN #36364,,Irving,TX,,US,+1 214-496-0216,https://location.westernunion.com/us/tx/irving/2d8607e5d951be44b99c88f311cae92d,,Western Union,Q861042
https://locations.whataburger.com/tx/irving/850-market-pl.html,whataburger,Loop 635 & MacArthur,850 MARKET PL,IRVING,TX,,US,,https://locations.whataburger.com/tx/irving/850-market-pl.html,,Whataburger,Q376627
8702,wingstop,Wingstop Irving N MacArthur,10009 N Macarthur Blvd Ste 117,Irving,TX,,US,+1 214-238-7715,,,Wingstop,Q8025339
