Ref,Spider,Name,Address,City,State,Zipcode,Country,Phone,Website,Hours,Brand,WikiData
4173,anytime_fitness,Anytime Fitness,,Morrilton,AR,,US,+1 501-289-6534,https://www.anytimefitness.com/gyms/4173/morrilton-ar-72110/,,Anytime Fitness,Q4778364
22059,asics_us,Hibbett Sports,100 Walmart Drive,Morrilton,AR,,US,+1 501-477-2442,,,asics,Q327247
3861,autozone_us,AutoZone Auto Parts Morrilton,,Morrilton,AR,,US,+1 501-242-6018,https://www.autozone.com/locations/ar/morrilton/1508-e-harding-st.html,Mo-Sa 07:30-20:00; Su 09:00-19:00,AutoZone,Q4826087
https://www.baptist-health.com/location/baptist-health-heart-institute-satellite-clinic-morrilton/,bha_us,Baptist Health Heart Institute Satellite Clinic-Morrilton,,Morrilton,AR,,US,+1 501-327-7555,https://www.baptist-health.com/location/baptist-health-heart-institute-satellite-clinic-morrilton/,,Baptist Health Foundation,Q50379824
59358,bluerhino,Love's #267,,Morrilton,AR,,US,+1 501-354-6701,,,Blue Rhino,Q65681213
202244,bluerhino,CASEY'S GENERAL STORE #3881,,MORRILTON,AR,,US,+1 501-977-0253,,,Blue Rhino,Q65681213
208701,bluerhino,Family Dollar  #12749,,Morrilton,AR,,US,+1 501-242-6305,,,Blue Rhino,Q65681213
70153484,cricket_wireless,Cricket Wireless Authorized Retailer,,Morrilton,AR,,US,+1 501-306-5131,https://www.cricketwireless.com/stores/ll/US/AR/Morrilton/100-Walmart-Dr,Mo-Sa 10:00-19:00,Cricket Wireless,Q5184987
9627,dominos_pizza_us,Domino's Pizza,,Morrilton,AR,,US,+1 501-289-6247,https://pizza.dominos.com/arkansas/morrilton/1750-university-blvd,Mo-Th 10:00-24:00; Fr-Sa 10:00-01:00; Su 10:00-24:00,Domino's,Q839466
https://www.edwardjones.com/us-en/financial-advisor/doug-cahill,edwardjones,Doug Cahill,,Morrilton,AR,,US,+1 501-354-6630,https://www.edwardjones.com/us-en/financial-advisor/doug-cahill,Mo-Fr 08:00-16:30,Edward Jones,Q5343830
32749,family_dollar_us,FAMILY DOLLAR #12749,,Morrilton,AR,,US,+1 501-242-6305,https://www.familydollar.com/locations/ar/morrilton/32749/,Mo-Su 09:00-21:00,Family Dollar,Q5433101
Motorcraft1770USAEnglish,ford,Allison Ford Lincoln,,Arkansas,AR,,US,+1 501-354-4541,,,Ford,Q44294
https://www.ford.com/dealerships/dealer-details/ar/morrilton/jay-hodge-ford-of-morrilton/,ford_dealers_us,Jay Hodge Ford of Morrilton,,Morrilton,AR,,US,+1 501-242-4896,https://www.ford.com/dealerships/dealer-details/ar/morrilton/jay-hodge-ford-of-morrilton/,Mo-Fr 08:00-18:00; Sa 09:00-17:00,Ford Motor Company,Q44294
3110,h_r_block,H&R Block,,Morrilton,AR,,US,+1 501-354-4477,https://www.hrblock.com/local-tax-offices/arkansas/morrilton/700-e-harding/3110/,,H&R Block,Q5627799
https://office.jacksonhewitt.com/#52049452,jackson_hewitt,Jackson Hewitt,,Morrilton,AR,,US,+1 501-512-1331,https://office.jacksonhewitt.com/tax-preparation-services-locations/en/ar/morrilton/1750-university-blvd/14555,Mo-Sa 11:00-19:00; Su 13:00-17:00,Jackson Hewitt,Q6117132
267,loves,Site 267,,Morrilton,AR,,US,+1 501-354-6701,,,Love's,Q1872496
6535,murphy_usa_us,,,Morrilton,AR,,US,+1 501-354-0423,,Mo-Sa 05:00-00:00; Su 06:00-00:00,Murphy USA,Q19604459
https://locations.oreillyauto.com/ar/morrilton/check-engine-light-testing-365.html,oreilly,Your Morrilton O'Reilly Auto Parts Store,,Morrilton,AR,,US,+1 501-354-8005,https://locations.oreillyauto.com/ar/morrilton/check-engine-light-testing-365.html,Mo-Fr 07:30-21:00; Sa 07:30-20:00; Su 09:00-19:00,O'Reilly Auto Parts,Q7071951
https://locations.oreillyauto.com/ar/morrilton/wiper-installation-365.html,oreilly,Your Morrilton O'Reilly Auto Parts Store,,Morrilton,AR,,US,+1 501-354-8005,https://locations.oreillyauto.com/ar/morrilton/wiper-installation-365.html,Mo-Fr 07:30-21:00; Sa 07:30-20:00; Su 09:00-19:00,O'Reilly Auto Parts,Q7071951
https://locations.oreillyauto.com/ar/morrilton/battery-testing-365.html,oreilly,Your Morrilton O'Reilly Auto Parts Store,,Morrilton,AR,,US,+1 501-354-8005,https://locations.oreillyauto.com/ar/morrilton/battery-testing-365.html,Mo-Fr 07:30-21:00; Sa 07:30-20:00; Su 09:00-19:00,O'Reilly Auto Parts,Q7071951
https://locations.oreillyauto.com/ar/morrilton/autopartes-365.html,oreilly,Tu tienda O'Reilly Auto Parts en Morrilton,,Morrilton,AR,,US,+1 501-354-8005,https://locations.oreillyauto.com/ar/morrilton/autopartes-365.html,Mo-Fr 07:30-21:00; Sa 07:30-20:00; Su 09:00-19:00,O'Reilly Auto Parts,Q7071951
ar_morrilton_1804-e-harding,pizza_hut_us,1804 E Harding,,Morrilton,AR,,US,+1 501-354-4000,https://locations.pizzahut.com/ar/morrilton/1804-e-harding,,Pizza Hut,Q191615
https://restaurants.subway.com/#14903608,subway,Subway,,Morrilton Conway,AR,,US,+1 501-354-3515,https://restaurants.subway.com/united-states/ar/morrilton/1812-north-business-9,Mo-Su 08:00-21:00,Subway,Q244457
https://restaurants.subway.com/#14905903,subway,"Subway Love's Travel Stop, #267",,Morrilton Conway,AR,,US,+1 501-354-6701,https://restaurants.subway.com/united-states/ar/morrilton/1600-north-highway-95,,Subway,Q244457
0135703700,sunoco_us,Sunoco,,OPPELO,AR,,US,+1 479-226-2050,,,Sunoco,Q1423218
0364730200,sunoco_us,Sunoco,,MORRILTON,AR,,US,+1 501-354-3126,,Mo-Su 05:00-00:00,Sunoco,Q1423218
https://locations.tacobell.com/#6141583,taco_bell,Taco Bell,,Morrilton,AR,,US,+1 501-208-5884,https://locations.tacobell.com/ar/morrilton/98-medical-services-drive.html,Mo-Th 08:00-02:00; Fr-Sa 08:00-03:00; Su 08:00-02:00,Taco Bell,Q752941
044273,uhaul,McKeys Lawn & Car Care,209 E Vine St,Morrilton,AR,,US,+1 501-354-8252,,Mo-Fr 00:00-17:00; Sa 00:00-24:00,U-Haul,Q7862902
1373801,usps,MORRILTON,,MORRILTON,AR,,US,+1 501-354-4133,,Mo-Fr 08:30-17:00; Sa 08:30-12:00,United States Postal Service,Q668687
7211000027,usps_collection_boxes,USPS COLLECTION BOX - PO LOBBY,500 N MOOSE ST,MORRILTON,AR,,US,,,,United States Postal Service,Q668687
7211000028,usps_collection_boxes,USPS COLLECTION BOX - PO LOBBY,500 N MOOSE ST,MORRILTON,AR,,US,,,,United States Postal Service,Q668687
7211000030,usps_collection_boxes,USPS COLLECTION BOX - BLUE BOX,500 N MOOSE ST,MORRILTON,AR,,US,,,,United States Postal Service,Q668687
7211000033,usps_collection_boxes,USPS COLLECTION BOX - PO LOBBY,500 N MOOSE ST,MORRILTON,AR,,US,,,,United States Postal Service,Q668687
7211000003,usps_collection_boxes,USPS COLLECTION BOX - BLUE BOX,117 S MOOSE ST,MORRILTON,AR,,US,,,,United States Postal Service,Q668687
7211000026,usps_collection_boxes,USPS COLLECTION BOX - BLUE BOX,1621 E HARDING ST,MORRILTON,AR,,US,,,,United States Postal Service,Q668687
A00000200364,verizon_us,Russell Cellular Morrilton,,Morrilton,AR,,US,+1 501-208-5836,https://www.verizon.com/stores/details/arkansas/morrilton/russell-cellular-morrilton-1516522/,Mo-Sa 09:00-19:00; Su 11:00-17:00,Verizon,Q919641
,visa,,,MORRILTON,AR,,US,,,,,
,visa,,,MORRILTON,AR,,US,,,,,
,visa,,,MORRILTON,AR,,US,,,,,
,visa,,,MORRILTON,AR,,US,,,,,
,visa,,,MORRILTON,AR,,US,,,,,
,visa,,,MORRILTON,AR,,US,,,,,
,visa,,,MORRILTON,AR,,US,,,,,
,visa,,,MORRILTON,AR,,US,,,,,
,visa,,,MORRILTON,AR,,US,,,,,
,visa,,,MORRILTON,AR,,US,,,,,
,visa,,,MORRILTON,AR,,US,,,,,
,visa,,,MORRILTON,AR,,US,,,,,
,visa,,,MORRLITON,AR,,US,,,,,
,visa,,,OPPELO,AR,,US,,,,,
,visa,,,OPPELO,AR,,US,,,,,
,visa,,,OPPELO,AR,,US,,,,,
868,waffle_house_us,Waffle House #868,,MORRILTON,AR,,US,+1 501-354-6367,https://locations.wafflehouse.com/morrilton-ar-868,24/7,Waffle House,Q1701206
https://locations.wendys.com/#9254252,wendys,"Wendy's Morrilton in Morrilton, AR",,Morrilton,AR,,US,+1 501-354-4119,https://locations.wendys.com/united-states/ar/morrilton/1631-e-harding-st,"Mo-Su 06:30-10:30,08:00-22:00",Wendy's,Q550258
5344baa9a3f8f77572d9718362806027,western_union,WALMART #000008,,Morrilton,AR,,US,+1 501-354-0290,https://location.westernunion.com/us/ar/morrilton/5344baa9a3f8f77572d9718362806027,Mo-Su 07:00-21:00,Western Union,Q861042
