Ref,Spider,Name,Address,City,State,Zipcode,Country,Phone,Website,Hours,Brand,WikiData
72806452,moneygram,BUNG TONG,,THBONG KHMUM,,,KH,+855 17 434 111,,Mo-Su 07:00-17:00,MoneyGram,Q1944412
72820140,moneygram,HUOT SIELIM,,MEMOT,,,KH,+855 17 308 866,,Mo-Su 07:00-17:00,MoneyGram,Q1944412
72822708,moneygram,AUN SREYLEAK,,THBONG KHMUM,,,KH,+855 89 945 552,,Mo-Su 07:00-17:00,MoneyGram,Q1944412
72822054,moneygram,BUN SREYMOM,,MEMOT,,,KH,+855 12 499 398,,Mo-Su 07:00-17:00,MoneyGram,Q1944412
72822067,moneygram,CHREUNG THEARY,,MEMOT,,,KH,+855 12 663 586,,Mo-Su 07:00-17:00,MoneyGram,Q1944412
72822601,moneygram,HENG PIDOR,,PONHEA KRAEK,,,KH,+855 69 555 449,,Mo-Su 07:00-17:00,MoneyGram,Q1944412
72822038,moneygram,PAN SOKLEANG,,MEMOT,,,KH,+855 96 377 7962,,Mo-Su 07:00-17:00,MoneyGram,Q1944412
72822041,moneygram,TAING KUYHUOT,,MEMOT,,,KH,+855 12 288 060,,Mo-Su 07:00-17:00,MoneyGram,Q1944412
72838022,moneygram,HONG PISEY,,THBONG KHMUM,,,KH,+855 96 400 8243,,Mo-Su 07:00-17:00,MoneyGram,Q1944412
72837984,moneygram,LIMPIV,,PONHEA KRAEK,,,KH,+855 88 424 3938,,Mo-Su 07:00-17:00,MoneyGram,Q1944412
72837971,moneygram,OENG LEANGMEY,,PONHEA KRAEK,,,KH,+855 12 783 375,,Mo-Su 07:00-17:00,MoneyGram,Q1944412
72837968,moneygram,THA CHANTEANG,,PONHEA KRAEK,,,KH,+855 99 333 373,,Mo-Su 07:00-17:00,MoneyGram,Q1944412
72919721,moneygram,PREAP SOPHIE,,PONHEA KRAEK,,,KH,+855 96 585 8066,,Mo-Su 07:00-17:00,MoneyGram,Q1944412
72807325,moneygram,EN THEARITH,,THBONG KHMUM,,,KH,+855 99 222 033,,Mo-Su 07:00-17:00,MoneyGram,Q1944412
72807312,moneygram,HENG DARO,,THBONG KHMUM,,,KH,+855 95 900 058,,Mo-Su 07:00-17:00,MoneyGram,Q1944412
72807309,moneygram,KAO THUON,,THBONG KHMUM,,,KH,+855 61 692 473,,Mo-Su 07:00-17:00,MoneyGram,Q1944412
72807260,moneygram,PHY NGOUNHAK,,THBONG KHMUM,,,KH,+855 92 977 771,,Mo-Su 07:00-17:00,MoneyGram,Q1944412
72948501,moneygram,BUN CHEA,,SUONG,,,KH,+855 12 674 767,,Mo-Su 07:00-17:00,MoneyGram,Q1944412
72948365,moneygram,EAN EM,,MEMOT,,,KH,+855 99 948 168,,Mo-Su 07:00-17:00,MoneyGram,Q1944412
72948556,moneygram,PA SOPHAON,,THBONG KHMUM,,,KH,+855 11 299 486,,Mo-Su 07:00-17:00,MoneyGram,Q1944412
72948514,moneygram,SOKUN RATANA,,SUONG,,,KH,+855 11 286 284,,Mo-Su 07:00-17:00,MoneyGram,Q1944412
72980048,moneygram,OUN VUTHY,,DAMBAE,,,KH,+855 12 297 770,,Mo-Su 07:00-17:00,MoneyGram,Q1944412
73095110,moneygram,CHAN LIDA,,OU REANG OV,,,KH,+855 70 838 444,,Mo-Su 07:00-17:00,MoneyGram,Q1944412
73078027,moneygram,CHANTHA SREYNEAT,,PONHEA KRAEK,,,KH,+855 17 588 821,,Mo-Su 07:00-17:00,MoneyGram,Q1944412
73080507,moneygram,CHHAY BUNLEANG,,OU REANG OV,,,KH,+855 92 967 708,,Mo-Su 07:00-17:00,MoneyGram,Q1944412
73075994,moneygram,CHHEANG BUNHONG,,THBONG KHMUM,,,KH,+855 12 236 066,,Mo-Su 07:00-17:00,MoneyGram,Q1944412
73088871,moneygram,CHHEANG LOUN BUNG TERK PHLERNG,,OU REANG OV,,,KH,+855 95 330 663,,Mo-Su 07:00-17:00,MoneyGram,Q1944412
73076870,moneygram,CHHEANG RANY,,THBONG KHMUM,,,KH,+855 12 481 638,,Mo-Su 07:00-17:00,MoneyGram,Q1944412
73082738,moneygram,CHHEANG SOKHENG,,PONHEA KRAEK,,,KH,+855 12 989 138,,Mo-Su 07:00-17:00,MoneyGram,Q1944412
73078991,moneygram,CHHENG CHANBOT,,OU REANG OV,,,KH,+855 11 800 991,,Mo-Su 07:00-17:00,MoneyGram,Q1944412
73088541,moneygram,CHIDA POUTIN,,PONHEA KRAEK,,,KH,+855 92 957 774,,Mo-Su 07:00-17:00,MoneyGram,Q1944412
73085764,moneygram,EM NEANG,,THBONG KHMUM,,,KH,+855 85 780 087,,Mo-Su 07:00-17:00,MoneyGram,Q1944412
73089692,moneygram,ENG PHA NITH,,PONHEA KRAEK,,,KH,+855 11 404 666,,Mo-Su 07:00-17:00,MoneyGram,Q1944412
73084558,moneygram,HAK HOUR,,PONHEA KRAEK,,,KH,+855 12 394 547,,Mo-Su 07:00-17:00,MoneyGram,Q1944412
73079314,moneygram,HEANG SIEKVEY,,THBONG KHMUM,,,KH,+855 17 999 293,,Mo-Su 07:00-17:00,MoneyGram,Q1944412
73079107,moneygram,HEANG SOKOL,,THBONG KHMUM,,,KH,+855 92 896 015,,Mo-Su 07:00-17:00,MoneyGram,Q1944412
73089799,moneygram,HENG KANEKA,,THBONG KHMUM,,,KH,+855 78 625 222,,Mo-Su 07:00-17:00,MoneyGram,Q1944412
73081988,moneygram,IM CHANTHY,,OU REANG OV,,,KH,+855 92 915 326,,Mo-Su 07:00-17:00,MoneyGram,Q1944412
73091635,moneygram,KEA SIEKMEY,,PONHEA KRAEK,,,KH,+855 81 939 471,,Mo-Su 07:00-17:00,MoneyGram,Q1944412
73091949,moneygram,KHEAV BIN,,OU REANG OV,,,KH,+855 96 877 7196,,Mo-Su 07:00-17:00,MoneyGram,Q1944412
73084626,moneygram,KHUN SARAN,,PONHEA KRAEK,,,KH,+855 92 363 283,,Mo-Su 07:00-17:00,MoneyGram,Q1944412
73091198,moneygram,KUNTHEA HENGHENG,,PONHEA KRAEK,,,KH,+855 95 985 030,,Mo-Su 07:00-17:00,MoneyGram,Q1944412
73091648,moneygram,LADY DARIKA,,THBONG KHMUM,,,KH,+855 98 569 293,,Mo-Su 07:00-17:00,MoneyGram,Q1944412
73082013,moneygram,LI DAVIN,,OU REANG OV,,,KH,+855 11 897 076,,Mo-Su 07:00-17:00,MoneyGram,Q1944412
73088143,moneygram,LIM KEO TA,,PONHEA KRAEK,,,KH,+855 89 970 707,,Mo-Su 07:00-17:00,MoneyGram,Q1944412
73076430,moneygram,LIZA SAOVDY,,THBONG KHMUM,,,KH,+855 92 467 446,,Mo-Su 07:00-17:00,MoneyGram,Q1944412
73091651,moneygram,LY SARIM,,OU REANG OV,,,KH,+855 12 623 522,,Mo-Su 07:00-17:00,MoneyGram,Q1944412
73078014,moneygram,MEANG SINET,,PONHEA KRAEK,,,KH,+855 85 755 525,,Mo-Su 07:00-17:00,MoneyGram,Q1944412
73080578,moneygram,MUNY,,PONHEA KRAEK,,,KH,+855 12 214 161,,Mo-Su 07:00-17:00,MoneyGram,Q1944412
73082550,moneygram,NEAK PI,,THBONG KHMUM,,,KH,+855 11 444 992,,Mo-Su 07:00-17:00,MoneyGram,Q1944412
73081771,moneygram,NGO HAI MENG,,PONHEA KRAEK,,,KH,+855 12 606 712,,Mo-Su 07:00-17:00,MoneyGram,Q1944412
73079301,moneygram,NHAK KIMEANG,,THBONG KHMUM,,,KH,+855 12 886 211,,Mo-Su 07:00-17:00,MoneyGram,Q1944412
73084286,moneygram,PANG KIMYI,,PONHEA KRAEK,,,KH,+855 99 333 331,,Mo-Su 07:00-17:00,MoneyGram,Q1944412
73092980,moneygram,PHENG VECHHRA,,PONHEA KRAEK,,,KH,+855 11 750 709,,Mo-Su 07:00-17:00,MoneyGram,Q1944412
73088716,moneygram,RORN SOKKHEAN,,OU REANG OV,,,KH,+855 96 698 4834,,Mo-Su 07:00-17:00,MoneyGram,Q1944412
73093060,moneygram,SAN PUNLEU,,PONHEA KRAEK,,,KH,+855 10 635 809,,Mo-Su 07:00-17:00,MoneyGram,Q1944412
73095411,moneygram,SEAN TRA,,PONHEA KRAEK,,,KH,+855 86 830 023,,Mo-Su 07:00-17:00,MoneyGram,Q1944412
73089809,moneygram,SIEV YI WEILUY,,PONHEA KRAEK,,,KH,+855 70 626 265,,Mo-Su 07:00-17:00,MoneyGram,Q1944412
73079097,moneygram,SIM BOTOM,,THBONG KHMUM,,,KH,+855 17 314 768,,Mo-Su 07:00-17:00,MoneyGram,Q1944412
73094292,moneygram,SIN MARIN,,THBONG KHMUM,,,KH,+855 88 900 8204,,Mo-Su 07:00-17:00,MoneyGram,Q1944412
73091376,moneygram,SOEM SOKUNTHEA,,PONHEA KRAEK,,,KH,+855 96 868 0021,,Mo-Su 07:00-17:00,MoneyGram,Q1944412
73076825,moneygram,SOK NET,,THBONG KHMUM,,,KH,+855 17 296 517,,Mo-Su 07:00-17:00,MoneyGram,Q1944412
73083504,moneygram,SOMNANG SOKTY,,THBONG KHMUM,,,KH,+855 85 443 087,,Mo-Su 07:00-17:00,MoneyGram,Q1944412
73080895,moneygram,SOPANHA WEI LUY,,THBONG KHMUM,,,KH,+855 12 342 646,,Mo-Su 07:00-17:00,MoneyGram,Q1944412
73079851,moneygram,SOPHAL UNA,,PONHEA KRAEK,,,KH,+855 85 996 966,,Mo-Su 07:00-17:00,MoneyGram,Q1944412
73091570,moneygram,SOR SOT,,PONHEA KRAEK,,,KH,+855 12 924 574,,Mo-Su 07:00-17:00,MoneyGram,Q1944412
73077028,moneygram,SOTHEA SYLA,,PONHEA KRAEK,,,KH,+855 88 410 0093,,Mo-Su 07:00-17:00,MoneyGram,Q1944412
73094807,moneygram,SREYNETH,,THBONG KHMUM,,,KH,+855 16 660 761,,Mo-Su 07:00-17:00,MoneyGram,Q1944412
73079864,moneygram,TAING SOVANNA,,OU REANG OV,,,KH,+855 61 881 107,,Mo-Su 07:00-17:00,MoneyGram,Q1944412
73085418,moneygram,THEA SOURPHEA,,PONHEA KRAEK,,,KH,+855 89 240 889,,Mo-Su 07:00-17:00,MoneyGram,Q1944412
73080950,moneygram,THY NY,,THBONG KHMUM,,,KH,+855 92 573 095,,Mo-Su 07:00-17:00,MoneyGram,Q1944412
73087623,moneygram,TIET MARY,,PONHEA KRAEK,,,KH,+855 96 776 1848,,Mo-Su 07:00-17:00,MoneyGram,Q1944412
73089838,moneygram,TRY HORN,,THBONG KHMUM,,,KH,+855 96 248 5555,,Mo-Su 07:00-17:00,MoneyGram,Q1944412
73090791,moneygram,TRY HORN,,THBONG KHMUM,,,KH,+855 12 669 838,,Mo-Su 07:00-17:00,MoneyGram,Q1944412
73086116,moneygram,VORN PHALLEAP,,THBONG KHMUM,,,KH,+855 92 755 568,,Mo-Su 07:00-17:00,MoneyGram,Q1944412
73076896,moneygram,YIM POV,,PONHEA KRAEK,,,KH,+855 92 777 141,,Mo-Su 07:00-17:00,MoneyGram,Q1944412
73188700,moneygram,KRUY THEARA,,DAMBAE,,,KH,+855 99 378 168,,Mo-Su 07:00-17:00,MoneyGram,Q1944412
