Ref,Spider,Name,Address,City,State,Zipcode,Country,Phone,Website,Hours,Brand,WikiData
41,baby_city,Baby City Moffett Gqeberha,,Port Elizabeth,Eastern Cape,,ZA,+27 41 368 1400,,,Baby City,Q116732888
000219,bash_za,Foschini Walmer,,Gqeberha,Eastern Cape,,ZA,,https://bash.com/store/foschini-walmer-6070/000219,Mo 09:00-14:00; Tu-Sa 09:00-18:00; Su 08:30-17:00,Foschini,Q116391780
060638,bash_za,Totalsports Walmer Park,,Gqeberha,Eastern Cape,,ZA,,https://bash.com/store/totalsports-walmer-park-6070/060638,Mo 09:00-14:00; Tu-Sa 09:00-18:00; Su 09:00-17:00,Totalsports,Q116379123
020536,bash_za,Markham Walmer Park,,Gqeberha,Eastern Cape,,ZA,,https://bash.com/store/markham-walmer-park-6070/020536,Mo 09:00-14:00; Tu-Sa 09:00-18:00; Su 08:30-17:00,Markham,Q116378583
010775,bash_za,AMERICAN SWISS WALMER PORT ELIZABETH,,PORT ELIZABETH,Eastern Cape,,ZA,,https://bash.com/store/american-swiss-walmer-port-elizabeth-6070/010775,Mo 09:00-14:00; Tu-Sa 09:00-18:00; Su 09:00-17:00,American Swiss,Q116430764
330071,bash_za,@Home Livingspace Moffett Retail Park,,Port Elizabeth,Eastern Cape,,ZA,,https://bash.com/store/@home-livingspace-moffett-retail-park-6070/330071,Mo 09:00-15:00; Tu-Sa 09:00-18:00; Su 09:00-17:00,@Home Livingspace,Q117406343
330235,bash_za,@Home Walmer Park,,Gqeberha,Eastern Cape,,ZA,,https://bash.com/store/@home-walmer-park-6070/330235,Mo 09:00-14:00; Tu-Sa 09:00-18:00; Su 09:00-17:00,@Home,Q116429887
068244,bash_za,SPORTSCENE WALMER PORT ELIZABETH,,PORT ELIZABETH,Eastern Cape,,ZA,,https://bash.com/store/sportscene-walmer-port-elizabeth-6070/068244,Mo 09:00-14:00; Tu-Sa 09:00-18:00; Su 09:00-17:00,Sportscene,Q116378841
459367,bash_za,JET WALMER PARK MALL PORT ELIZABETH,,PORT ELIZABETH,Eastern Cape,,ZA,,https://bash.com/store/jet-walmer-park-mall-port-elizabeth-6070/459367,Mo 09:00-14:00; Tu-Sa 09:00-18:00; Su 09:00-17:00,Jet,Q61995123
038875,bash_za,EXACT WALMER PORT ELIZABETH,,PORT ELIZABETH,Eastern Cape,,ZA,,https://bash.com/store/exact-walmer-port-elizabeth-6070/038875,,Exact,Q116379381
PORTCAPC1R,bp,BP @ Greenacres,,PORT ELIZABETH,Eastern Cape,,ZA,+27 41 363 1920,,24/7,BP,Q152057
WALMHEUA1R,bp,6th Avenue Auto Centre,,WALMER,Eastern Cape,,ZA,+27 41 581 4247,,24/7,BP,Q152057
LORRLUNA1R,bp,Lorraine Motors,,LORRAINE,Eastern Cape,,ZA,+27 41 367 2319,,24/7,BP,Q152057
BB15139,dsv_locker_za,DSV Locker - Engen Aerofill Convenience Centre,,Schoenmakerskop,Eastern Cape,,ZA,+27 86 100 0853,,24/7,DSV Locker,Q1155771
BB15234,dsv_locker_za,DSV Locker - Engen Mount Pleasant Motors,,Mount Pleasant,Eastern Cape,,ZA,+27 86 100 0853,,24/7,DSV Locker,Q1155771
ZA0019,hm,Walmer park,,Port Elizabeth,Eastern Cape,,ZA,+27 860 690 707,,Mo-Fr 09:00-18:00; Sa 09:00-17:00; Su 09:00-15:00,H&M,Q188326
58883,liquorshop_za,Checkers LiquorShop 6th Avenue,"Sixth Avenue Shopping Centre, Sixth Avenue, Walmer",Port Elizabeth,Eastern Cape,,ZA,+27 41 502 6903,https://www.liquorshop.co.za/store-finder/country/ZA/58883,Mo-Fr 09:00-19:00; Sa 09:00-17:00,LiquorShop,Q5089126
82315,liquorshop_za,Checkers LiquorShop Lorraine,"Verdun Road, Lorraine, Port Elizabeth, Lorraine",Port Elizabeth,Eastern Cape,,ZA,+27 41 391 7500,https://www.liquorshop.co.za/store-finder/country/ZA/82315,Mo-Fr 09:00-19:00; Sa 09:00-17:00,LiquorShop,Q5089126
58875,liquorshop_za,Checkers LiquorShop Moffett-on-main,"Moffett On Main Lifestyle Centre, 109 17th Avenue, Charlo",Port Elizabeth,Eastern Cape,,ZA,+27 41 502 7005,https://www.liquorshop.co.za/store-finder/country/ZA/58875,Mo-Fr 09:00-19:00; Sa 09:00-17:00,LiquorShop,Q5089126
1c8f6f7d-e1e7-40c1-a2fa-79e2e329918a,nandos_za,Nando's Walmer Drive Thru,,Gqeberha,Eastern Cape,,ZA,+27 41 368 2028,https://store.nandos.co.za/details/walmer-drive-thru,Mo-Th 10:00-22:00; Fr-Sa 10:00-23:00; Su 10:00-22:00,Nando's,Q3472954
10042724,shell,AIRPORT MOTORS,,WALMER PE,Eastern Cape,,ZA,+27 41 581 6761,https://find.shell.com/za/fuel/10042724-airport-motors,24/7,Shell,Q110716465
10042966,shell,KAMMARIDGE MOTORS,,KRAGGA KAMMA,Eastern Cape,,ZA,+27 82 654 3293,https://find.shell.com/za/fuel/10042966-kammaridge-motors,24/7,Shell,Q110716465
CG51,the_courier_guy,Walmer Park Shopping Centre,"Main Rd, WalmerEntrance 1 close to PnP liquor",Nelson Mandela Bay Metropolitan Municipality,Eastern Cape,,ZA,,,,The Courier Guy,Q116753262
CG238,the_courier_guy,Sasol Buffelsfontein,1 Buffelsfontein RdGreenshields Parkon the grass area,Nelson Mandela Bay Metropolitan Municipality,Eastern Cape,,ZA,,,,The Courier Guy,Q116753262
CG241,the_courier_guy,Sasol Fig Tree,Figtree Retail ParkWilliam Moffett Expy ,Nelson Mandela Bay Metropolitan Municipality,Eastern Cape,,ZA,,,,The Courier Guy,Q116753262
K140,the_courier_guy,The Courier Guy Walmer,"Cnr Springfield Rd & William Moffet Expressway, Fig Tree Retail Centre Dev",Nelson Mandela Bay Metropolitan Municipality,Eastern Cape,,ZA,,,,The Courier Guy,Q116753262
CG1015,the_courier_guy,Coastal Aquariums & Pet Supplies,"Unit 2, 172 Circular DrLorraine, Gqeberha",Nelson Mandela Bay Metropolitan Municipality,Eastern Cape,,ZA,,,,The Courier Guy,Q116753262
764,truworths,Truworths Walmer,,Port Elizabeth,Eastern Cape,,ZA,+27 81 171 0764,,,Truworths,Q24233998
,visa,,,PORT ELIZABETH,EASTERN CAPE,,ZA,,,,,
,visa,,,PORT ELIZABETH,EASTERN CAPE,,ZA,,,,,
,visa,,,PORT ELIZABETH,EASTERN CAPE,,ZA,,,,,
,visa,,,PORT ELIZABETH,EASTERN CAPE,,ZA,,,,,
f55d2486aa0c8a3f64bded07be9dc45e,western_union,TOURVEST FINANCIAL SERVICES,,Port Elizabeth,EASTERN CAPE,,ZA,+27 41 368 8030,https://location.westernunion.com/za/eastern-cape/port-elizabeth/f55d2486aa0c8a3f64bded07be9dc45e,Mo-Fr 08:30-16:30; Sa 09:00-11:30,Western Union,Q861042
