Ref,Spider,Name,Address,City,State,Zipcode,Country,Phone,Website,Hours,Brand,WikiData
https://local.vons.com/#5605118,albertsons,Vons,,Covina,CA,,US,+1 626-967-0072,https://local.vons.com/ca/covina/932-e-badillo-st.html,Mo-Su 06:00-23:00,Vons,Q7941609
5477,autozone_us,AutoZone Auto Parts Covina,,Covina,CA,,US,+1 909-599-6846,https://www.autozone.com/locations/ca/covina/21356-e-arrow-hwy.html,Mo-Sa 07:30-21:00; Su 08:00-21:00,AutoZone,Q4826087
https://locations.baskinrobbins.com/ca/covina/1311-n-grand-ave-361379-br,baskin_robbins_us,Baskin-Robbins™,,Covina,CA,,US,+1 626-915-4114,https://locations.baskinrobbins.com/ca/covina/1311-n-grand-ave-361379-br,Mo 11:30-21:30; Tu-Su 11:00-21:30,Baskin-Robbins,Q584601
237539,bluerhino,Circle K #2709512,,Covina,CA,,US,+1 626-331-2520,,,Blue Rhino,Q65681213
198018,bluerhino,United Pacific #645,,Covina,CA,,US,+1 626-479-2373,,,Blue Rhino,Q65681213
154203,bluerhino,Walgreens #6972,,Covina,CA,,US,+1 626-966-8497,,,Blue Rhino,Q65681213
220183,bluerhino,U-Haul Independence-713025,,Covina,CA,,US,+1 626-482-7998,,,Blue Rhino,Q65681213
27194,citi,ATM 7ELEVEN-FCTI,,Covina,CA,,US,,,,Citibank,Q857063
24563,citi,ATM 7ELEVEN-FCTI,,Covina,CA,,US,,,,Citibank,Q857063
60432,citi,ATM Jerry's Auto Service Inc.,,Covina,CA,,US,,,,Citibank,Q857063
43873,citi,ATM Circle K,,Covina,CA,,US,,,,Citibank,Q857063
8174,dominos_pizza_us,Domino's Pizza,,Covina,CA,,US,+1 626-331-9911,https://pizza.dominos.com/california/covina/826-n-glendora-ave,Mo-Th 10:00-24:00; Fr-Sa 10:00-01:00; Su 10:00-24:00,Domino's,Q839466
3523,elpolloloco,El Pollo Loco,,Covina,CA,,US,+1 626-967-6450,,,El Pollo Loco,Q2353849
https://www.fitness19.com/centers/covina/,fitness19_us,Fitness 19,,Covina,CA,,US,+1 626-339-1919,https://www.fitness19.com/centers/covina/,,Fitness 19,Q121787953
3479,h_r_block,H&R Block,,Covina,CA,,US,+1 626-332-1031,https://www.hrblock.com/local-tax-offices/california/covina/grand-covina-plaza/3479/,,H&R Block,Q5627799
2,innout,Covina,,Covina,CA,,US,,http://locations.in-n-out.com/2,,In-N-Out Burger,Q1205312
https://locations.jackinthebox.com/us/ca/covina/1052-n-grand-ave,jackinthebox,Jack in the Box,,Covina,CA,,US,+1 626-364-7448,https://locations.jackinthebox.com/us/ca/covina/1052-n-grand-ave,Mo-Th 06:00-00:00; Fr-Sa 06:00-02:00; Su 06:00-00:00,Jack in the Box,Q1538507
https://healthy.kaiserpermanente.org/southern-california/facilities/vitas-healthcare-corporation-of-california-429895,kaiser_permanente_us,Vitas Healthcare Corporation Of California,,Covina,CA,,US,+1 626-918-2273,https://healthy.kaiserpermanente.org/southern-california/facilities/vitas-healthcare-corporation-of-california-429895,,Kaiser Permanente,Q1721601
https://healthy.kaiserpermanente.org/southern-california/facilities/heritage-group-homes-inc-enhanced-care-management-ecm-173888,kaiser_permanente_us,"Heritage Group Homes, Inc - Enhanced Care Management (ECM)",,Covina,CA,,US,+1 909-559-8222,https://healthy.kaiserpermanente.org/southern-california/facilities/heritage-group-homes-inc-enhanced-care-management-ecm-173888,,Kaiser Permanente,Q1721601
https://healthy.kaiserpermanente.org/southern-california/facilities/heritage-group-homes-inc-enhanced-care-management-ecm-172569,kaiser_permanente_us,"Heritage Group Homes, Inc - Enhanced Care Management (ECM)",,Covina,CA,,US,+1 909-559-8222,https://healthy.kaiserpermanente.org/southern-california/facilities/heritage-group-homes-inc-enhanced-care-management-ecm-172569,,Kaiser Permanente,Q1721601
https://healthy.kaiserpermanente.org/southern-california/facilities/aurora-charter-oak-hospital-340303,kaiser_permanente_us,Aurora Charter Oak Hospital,,Covina,CA,,US,+1 626-966-1632,https://healthy.kaiserpermanente.org/southern-california/facilities/aurora-charter-oak-hospital-340303,,Kaiser Permanente,Q1721601
https://locations.kfc.com/#11246473,kfc,Chicken Nuggets Near Covina,,Covina,CA,,US,,https://locations.kfc.com/ca/covina/1057-n-grand-avenue/chickennugget,Mo-Su 10:00-22:00,KFC,Q524757
175434,little_free_library,Little Book Nook on Jenifer Ave. #175434 Covina CA,,Covina,CA,,US,,,,Little Free Library,Q6650101
177026,little_free_library,Mimi’s Book Barn #177026 Covina CA,,Covina,CA,,US,,,,Little Free Library,Q6650101
108853,little_free_library,Cypress Library #108853 Covina CA,,Covina,CA,,US,,,,Little Free Library,Q6650101
87255,little_free_library,North Garsden Drive Little Free Library #87255 Covina CA,,Covina,CA,,US,,,,Little Free Library,Q6650101
100498,little_free_library,Adriel Galindo #100498 Charter Oak CA,,Charter Oak,CA,,US,,,,Little Free Library,Q6650101
101335,little_free_library,Wendy McKissick #101335 Covina CA,,Covina,CA,,US,,,,Little Free Library,Q6650101
65923,little_free_library,David Cartwright #65923 Covina CA,,Covina,CA,,US,,,,Little Free Library,Q6650101
https://locations.oreillyauto.com/ca/covina/check-engine-light-testing-6211.html,oreilly,Your Covina O'Reilly Auto Parts Store,,Covina,CA,,US,+1 626-388-1030,https://locations.oreillyauto.com/ca/covina/check-engine-light-testing-6211.html,Mo-Sa 07:30-22:00; Su 07:30-21:00,O'Reilly Auto Parts,Q7071951
https://locations.oreillyauto.com/ca/covina/wiper-installation-6211.html,oreilly,Your Covina O'Reilly Auto Parts Store,,Covina,CA,,US,+1 626-388-1030,https://locations.oreillyauto.com/ca/covina/wiper-installation-6211.html,Mo-Sa 07:30-22:00; Su 07:30-21:00,O'Reilly Auto Parts,Q7071951
https://locations.oreillyauto.com/ca/covina/battery-testing-6211.html,oreilly,Your Covina O'Reilly Auto Parts Store,,Covina,CA,,US,+1 626-388-1030,https://locations.oreillyauto.com/ca/covina/battery-testing-6211.html,Mo-Sa 07:30-22:00; Su 07:30-21:00,O'Reilly Auto Parts,Q7071951
https://locations.oreillyauto.com/ca/covina/autopartes-6211.html,oreilly,O'Reilly Auto Parts,,Covina,CA,,US,+1 626-388-1030,https://locations.oreillyauto.com/ca/covina/autopartes-6211.html,Mo-Sa 07:30-22:00; Su 07:30-21:00,O'Reilly Auto Parts,Q7071951
https://locations.oreillyauto.com/ca/covina/check-engine-light-testing-3037.html,oreilly,Your Covina O'Reilly Auto Parts Store,,Covina,CA,,US,+1 626-914-5606,https://locations.oreillyauto.com/ca/covina/check-engine-light-testing-3037.html,Mo-Sa 07:30-21:00; Su 08:00-21:00,O'Reilly Auto Parts,Q7071951
https://locations.oreillyauto.com/ca/covina/wiper-installation-3037.html,oreilly,Your Covina O'Reilly Auto Parts Store,,Covina,CA,,US,+1 626-914-5606,https://locations.oreillyauto.com/ca/covina/wiper-installation-3037.html,Mo-Sa 07:30-21:00; Su 08:00-21:00,O'Reilly Auto Parts,Q7071951
https://locations.oreillyauto.com/ca/covina/battery-testing-3037.html,oreilly,Your Covina O'Reilly Auto Parts Store,,Covina,CA,,US,+1 626-914-5606,https://locations.oreillyauto.com/ca/covina/battery-testing-3037.html,Mo-Sa 07:30-21:00; Su 08:00-21:00,O'Reilly Auto Parts,Q7071951
https://locations.oreillyauto.com/ca/covina/autopartes-3037.html,oreilly,Tu tienda O'Reilly Auto Parts en Covina,,Covina,CA,,US,+1 626-914-5606,https://locations.oreillyauto.com/ca/covina/autopartes-3037.html,Mo-Sa 07:30-21:00; Su 08:00-21:00,O'Reilly Auto Parts,Q7071951
https://www.orkin.com/locations/california-ca/covina-pest-control/branch-767,orkin_us,Orkin,,Covina,CA,,US,+1 626-328-2017,https://www.orkin.com/locations/california-ca/covina-pest-control/branch-767,,Orkin,Q7102943
https://www.orkin.com/locations/california-ca/covina-pest-control/branch-748,orkin_us,Orkin,,Covina,CA,,US,+1 626-460-7305,https://www.orkin.com/locations/california-ca/covina-pest-control/branch-748,,Orkin,Q7102943
https://www.orkin.com/locations/california-ca/covina-pest-control/branch-742,orkin_us,Orkin,,Covina,CA,,US,+1 626-586-1163,https://www.orkin.com/locations/california-ca/covina-pest-control/branch-742,,Orkin,Q7102943
111593,pandaexpress,Grand & Badillo,,Covina,CA,,US,+1 626-332-6718,https://www.pandaexpress.com/locations/ca/covina/980-e-badillo-st,Mo-Su 10:00-22:00,Panda Express,Q1358690
https://locations.papajohns.com/#10692348,papa_johns,Papa John's,,Covina,CA,,US,+1 626-331-8200,https://locations.papajohns.com/united-states/ca/91724/covina/20772-east-arrow-highway-q,Mo-Su 10:30-22:00,Papa John's Pizza,Q2759586
993424,rocket_us,Rocket,,Covina,CA,,US,+1 626-479-2373,,,Rocket,Q121513516
194,stater_bros_us,Stater Bros. Markets Covina,"1023 N Grand Ave, Covina, CA 91724, USA",Covina,CA,,US,+1 626-543-1104,https://www.staterbros.com/stores/194,Mo-Su 06:00-23:00,Stater Bros.,Q7604016
https://restaurants.subway.com/#14896096,subway,Subway,,Covina Los Angeles,CA,,US,+1 626-332-3113,https://restaurants.subway.com/united-states/ca/covina/900-e-badillo-st,Mo-Su 08:00-21:00,Subway,Q244457
80009,supercuts,Berkly Square,984 E Badillo St Ste B,Covina,CA,,US,+1 626-966-3997,https://www.supercuts.com/checkin/80009,Mo-Sa 10:00-18:00; Su 10:00-17:00,Supercuts,Q7643239
044489,uhaul,Jerrys Auto Service,4560 N Grand Av,Covina,CA,,US,+1 626-722-5807,,Mo-Fr 00:00-17:00,U-Haul,Q7862902
713044,uhaul,U-Haul Moving & Storage of Charter Oak,1961 E Covina Bl,Covina,CA,,US,+1 626-332-6215,,Mo-Th 00:00-19:00; Fr 00:00-20:00; Sa 00:00-19:00; Su 00:00-17:00,U-Haul,Q7862902
9172400010,usps_collection_boxes,USPS COLLECTION BOX - BLUE BOX,1290 CENTER COURT DR,COVINA,CA,,US,,,,United States Postal Service,Q668687
9172400015,usps_collection_boxes,USPS COLLECTION BOX - BLUE BOX,1290 CENTER COURT DR,COVINA,CA,,US,,,,United States Postal Service,Q668687
9172400016,usps_collection_boxes,USPS COLLECTION BOX - BLUE BOX,1290 CENTER COURT DR,COVINA,CA,,US,,,,United States Postal Service,Q668687
9172400007,usps_collection_boxes,USPS COLLECTION BOX - BLUE BOX,20240 E CIENEGA AVE,COVINA,CA,,US,,,,United States Postal Service,Q668687
,visa,,,COVINA,CA,,US,,,,,
,visa,,,COVINA,CA,,US,,,,,
,visa,,,COVINA,CA,,US,,,,,
,visa,,,COVINA,CA,,US,,,,,
,visa,,,COVINA,CA,,US,,,,,
,visa,,,COVINA,CA,,US,,,,,
,visa,,,COVINA,CA,,US,,,,,
,visa,,,CHARTER OAK,CA,,US,,,,,
,visa,,,COVINA,CA,,US,,,,,
,visa,,,COVINA,CA,,US,,,,,
,visa,,,COVINA,CA,,US,,,,,
,visa,,,COVINA,CA,,US,,,,,
,visa,,,COVINA,CA,,US,,,,,
,visa,,,COVINA,CA,,US,,,,,
,visa,,,COVINA,CA,,US,,,,,
,visa,,,COVINA,CA,,US,,,,,
,visa,,,COVINA,CA,,US,,,,,
,visa,,,COVINA,CA,,US,,,,,
,visa,,,COVINA,CA,,US,,,,,
,visa,,,COVINA,CA,,US,,,,,
,visa,,,COVINA,CA,,US,,,,,
,visa,,,COVINA,CA,,US,,,,,
,visa,,,COVINA,CA,,US,,,,,
,visa,,,COVINA,CA,,US,,,,,
,visa,,,COVINA,CA,,US,,,,,
,visa,,,COVINA,CA,,US,,,,,
,visa,,,COVINA,CA,,US,,,,,
,visa,,,COVINA,CA,,US,,,,,
,visa,,,COVINA,CA,,US,,,,,
,visa,,,COVINA,CA,,US,,,,,
,visa,,,COVINA,CA,,US,,,,,
,visa,,,COVINA,CA,,US,,,,,
,visa,,,COVINA,CA,,US,,,,,
,visa,,,COVINA,CA,,US,,,,,
,visa,,,COVINA,CA,,US,,,,,
,visa,,,COVINA,CA,,US,,,,,
,visa,,,COVINA,CA,,US,,,,,
,visa,,,COVINA,CA,,US,,,,,
,visa,,,COVINA,CA,,US,,,,,
https://www.walgreens.com/locator/walgreens-150+s+grand+ave-covina-ca-91724/id=6972,walgreens,Walgreens,,Covina,CA,,US,+1 626-966-8497,https://www.walgreens.com/locator/walgreens-150+s+grand+ave-covina-ca-91724/id=6972,Mo-Su 07:00-22:00,Walgreens,Q1591889
https://locations.wendys.com/#9251791,wendys,"Wendy's 970 E. Badillo in Covina, CA",,Covina,CA,,US,+1 626-858-1956,https://locations.wendys.com/united-states/ca/covina/970-e-badillo,"Mo-Su 06:30-10:30,07:00-22:00",Wendy's,Q550258
