Ref,Spider,Name,Address,City,State,Zipcode,Country,Phone,Website,Hours,Brand,WikiData
6644,aaa,Greenhaven,,Sacramento,CA,,US,+1 916-288-2000,,,American Automobile Association,Q463436
https://locators.bankofamerica.com/ca/sacramento/financial-centers-sacramento-8068.html,bankofamerica,Bank of America Financial Center & Drive-Thru ATM | Florin & Greenhaven,,Sacramento,CA,,US,+1 916-321-2726,https://locators.bankofamerica.com/ca/sacramento/financial-centers-sacramento-8068.html,Mo-Fr 09:00-17:00; Sa 09:00-16:00,Bank of America,Q487907
https://locations.baskinrobbins.com/ca/sacramento/6375-riverside-blvd-361060-br,baskin_robbins_us,Baskin-Robbins™,,Sacramento,CA,,US,+1 916-393-1331,https://locations.baskinrobbins.com/ca/sacramento/6375-riverside-blvd-361060-br,Mo-Sa 10:00-21:00; Su 11:00-21:00,Baskin-Robbins,Q584601
139471,bluerhino,Greenhaven Shell,,Sacramento,CA,,US,+1 916-422-6053,,,Blue Rhino,Q65681213
87008,bluerhino,Greenhaven Ace Hardware #4717,,Sacramento,CA,,US,+1 916-391-3038,,,Blue Rhino,Q65681213
217697,bluerhino,Smart & Final #479,,SACRAMENTO,CA,,US,+1 916-399-5859,,,Blue Rhino,Q65681213
1102759,carlsjr_us,Carl's Jr.,,Sacramento,CA,,US,+1 916-427-9999,https://locations.carlsjr.com/ca/sacramento/1315-florin-road,,Carl's Jr.,Q1043486
2043099,chase_us,Florin West - New branch - Newly renovated,,Sacramento,CA,,US,+1 916-394-2570,https://locator.chase.com/ca/sacramento/1331-florin-rd,Mo-Fr 09:00-17:00; Sa 09:00-14:00,Chase,Q524629
89383,citi,ATM Walgreens,,Sacramento,CA,,US,,,,Citibank,Q857063
58457,citi,ATM Greenhaven Liquors,,Sacramento,CA,,US,,,,Citibank,Q857063
73739,citi,ATM Rite Aid,,Sacramento,CA,,US,,,,Citibank,Q857063
754,citi,Sacramento-Greenhaven,,Sacramento,CA,,US,+1 800-627-3999,,,Citibank,Q857063
52690,citi,ATM CVS,,Sacramento,CA,,US,,,,Citibank,Q857063
47782,citi,ATM CVS,,Sacramento,CA,,US,,,,Citibank,Q857063
8578,dominos_pizza_us,Domino's Pizza,,Sacramento,CA,,US,+1 916-504-4000,https://pizza.dominos.com/california/sacramento/7385-greenhaven-drive,Mo-Th 10:30-24:00; Fr-Sa 10:30-01:00; Su 10:30-24:00,Domino's,Q839466
https://www.edwardjones.com/us-en/financial-advisor/james-yancey,edwardjones,Matt Yancey,,Sacramento,CA,,US,+1 916-443-3100,https://www.edwardjones.com/us-en/financial-advisor/james-yancey,Mo-Th 08:00-17:00; Fr 08:00-13:00,Edward Jones,Q5343830
bfb142d7-024c-ed11-8104-00505689ac90,goodwill,Donation Xpress - Greenhaven,,Sacramento,CA,,US,+1 916-898-3428,https://www.goodwill.org/locator/location/?store=YmZiMTQyZDctMDI0Yy1lZDExLTgxMDQtMDA1MDU2ODlhYzkw&lat=MzguNTEwNTE=&lng=LTEyMS41NDExMg==,,Goodwill,Q5583655
1d49bb93-458a-e111-8dde-005056934050,goodwill,Donation Xpress - Pocket,,Sacramento,CA,,US,+1 916-429-2789,https://www.goodwill.org/locator/location/?store=MWQ0OWJiOTMtNDU4YS1lMTExLThkZGUtMDA1MDU2OTM0MDUw&lat=MzguNDg1MzE=&lng=LTEyMS41MzU0NA==,,Goodwill,Q5583655
https://salons.greatclips.com/us/ca/sacramento/1054-florin-rd,greatclips,Great Clips,,Sacramento,CA,,US,+1 916-429-7868,https://salons.greatclips.com/us/ca/sacramento/1054-florin-rd,Mo-Fr 09:00-20:00; Sa 09:00-19:00; Su 09:00-18:00,Great Clips,Q5598967
4742,h_r_block,H&R Block,,Sacramento,CA,,US,+1 916-392-4854,https://www.hrblock.com/local-tax-offices/california/sacramento/the-promenade-shopping-center/4742/,,H&R Block,Q5627799
https://healthy.kaiserpermanente.org/northern-california/facilities/eskaton-care-center-greenhaven-328195,kaiser_permanente_us,Eskaton Care Center - Greenhaven,,Sacramento,CA,,US,+1 916-393-2550,https://healthy.kaiserpermanente.org/northern-california/facilities/eskaton-care-center-greenhaven-328195,,Kaiser Permanente,Q1721601
https://healthy.kaiserpermanente.org/northern-california/facilities/acc-care-center-339045,kaiser_permanente_us,ACC Care Center,,Sacramento,CA,,US,+1 916-393-9020,https://healthy.kaiserpermanente.org/northern-california/facilities/acc-care-center-339045,,Kaiser Permanente,Q1721601
144539,little_free_library,Cedar River #144539 #144539 Sacramento CA,,Sacramento,CA,,US,,,,Little Free Library,Q6650101
102935,little_free_library,Dan Holsapple #102935 Sacramento CA,,Sacramento,CA,,US,,,,Little Free Library,Q6650101
101737,little_free_library,Lauren Goff #101737 Sacramento CA,,Sacramento,CA,,US,,,,Little Free Library,Q6650101
66619,little_free_library,Nancy Blake #66619 Sacramento CA,,Sacramento,CA,,US,,,,Little Free Library,Q6650101
131402,little_free_library,Heinonen family’s Little Free Library #131402 Sacramento CA,,Sacramento,CA,,US,,,,Little Free Library,Q6650101
50505,little_free_library,Grand River Drive Little Library #50505 Sacramento CA,,Sacramento,CA,,US,,,,Little Free Library,Q6650101
44189,little_free_library,Kathi Windheim #44189 Sacramento CA,,Sacramento,CA,,US,,,,Little Free Library,Q6650101
85102,little_free_library,Mim’s Books #85102 Sacramento CA,,Sacramento,CA,,US,,,,Little Free Library,Q6650101
62303,little_free_library,Little Free Library #62303 Sacramento CA,,Sacramento,CA,,US,,,,Little Free Library,Q6650101
86398,little_free_library,Kristen Cox #86398 Sacramento CA,,Sacramento,CA,,US,,,,Little Free Library,Q6650101
110680,little_free_library,Lisa's Little Library #110680 Sacramento CA,,Sacramento,CA,,US,,,,Little Free Library,Q6650101
99376,little_free_library,Sebastian #99376 Sacramento CA,,Sacramento,CA,,US,,,,Little Free Library,Q6650101
180007,little_free_library,47th Avenue Reading Palace #180007 SACRAMENTO CA,,SACRAMENTO,CA,,US,,,,Little Free Library,Q6650101
135605,little_free_library,Chet #135605 Sacramento CA,,Sacramento,CA,,US,,,,Little Free Library,Q6650101
137464,little_free_library,Suzie Haughton #137464 Sacramento CA,,Sacramento,CA,,US,,,,Little Free Library,Q6650101
69616,little_free_library,Carol Cook #69616 Sacramento CA,,Sacramento,CA,,US,,,,Little Free Library,Q6650101
88221,little_free_library,Webkins World #88221 Sacramento CA,,Sacramento,CA,,US,,,,Little Free Library,Q6650101
148298,little_free_library,Geary-Estes Little Lending Library #148298 Sacramento CA,,Sacramento,CA,,US,,,,Little Free Library,Q6650101
134502,little_free_library,The M&M Little Free Library #134502 Sacramento CA,,Sacramento,CA,,US,,,,Little Free Library,Q6650101
https://locations.massageenvy.com/#1774246,massage_envy,Massage Envy Sacramento Pocket,,Sacramento,CA,,US,+1 916-391-3689,https://locations.massageenvy.com/california/sacramento/990-florin-road.html,Mo-Sa 09:00-20:00; Su 09:00-18:00,Massage Envy,Q10327170
https://locations.oreillyauto.com/ca/sacramento/check-engine-light-testing-2588.html,oreilly,Your Sacramento O'Reilly Auto Parts Store,,Sacramento,CA,,US,+1 916-391-4440,https://locations.oreillyauto.com/ca/sacramento/check-engine-light-testing-2588.html,Mo-Sa 07:30-21:00; Su 08:00-20:00,O'Reilly Auto Parts,Q7071951
https://locations.oreillyauto.com/ca/sacramento/wiper-installation-2588.html,oreilly,Your Sacramento O'Reilly Auto Parts Store,,Sacramento,CA,,US,+1 916-391-4440,https://locations.oreillyauto.com/ca/sacramento/wiper-installation-2588.html,Mo-Sa 07:30-21:00; Su 08:00-20:00,O'Reilly Auto Parts,Q7071951
https://locations.oreillyauto.com/ca/sacramento/battery-testing-2588.html,oreilly,Your Sacramento O'Reilly Auto Parts Store,,Sacramento,CA,,US,+1 916-391-4440,https://locations.oreillyauto.com/ca/sacramento/battery-testing-2588.html,Mo-Sa 07:30-21:00; Su 08:00-20:00,O'Reilly Auto Parts,Q7071951
https://locations.oreillyauto.com/ca/sacramento/autopartes-2588.html,oreilly,Tu tienda O'Reilly Auto Parts en Sacramento,,Sacramento,CA,,US,+1 916-391-4440,https://locations.oreillyauto.com/ca/sacramento/autopartes-2588.html,Mo-Sa 07:30-21:00; Su 08:00-20:00,O'Reilly Auto Parts,Q7071951
https://locations.papamurphys.com/#15430220,papamurphys,Pizza Takeout & Delivery,,Sacramento,CA,,US,+1 916-424-7272,https://locations.papamurphys.com/ca/sacramento/7465-rush-river-drive,Mo-Th 11:00-20:30; Fr-Sa 11:00-21:00; Su 11:00-20:30,Papa Murphy's,Q7132349
https://stores.petco.com/#27959511,petco,Petco Greenhaven,,Sacramento,CA,,US,+1 916-395-4216,https://stores.petco.com/ca/sacramento/pet-supplies-sacramento-ca-5301.html,Mo-Su 10:00-19:00,Petco,Q7171798
https://www.publicstorage.com/self-storage-ca-sacramento/1700.html,public_storage_us,Public Storage,,Sacramento,CA,,US,+1 916-800-1173,https://www.publicstorage.com/self-storage-ca-sacramento/1700.html,,Public Storage,Q1156045
06084,rite_aid_us,Rite Aid #06084 Sacramento,,Sacramento,CA,,US,+1 916-422-7202,https://locations2.riteaid.com.yext-cdn.com/ca/sacramento/980-florin-road.html,Mo-Su 08:00-22:00,Rite Aid,Q3433273
2303,round_table_pizza,Round Table Pizza 398 Florin Rd,,Sacramento ,CA,,US,+1 916-395-0507,https://ordering.roundtablepizza.com/site/rtp1157,,Round Table Pizza,Q7371139
2309,round_table_pizza,Round Table Pizza 1307 Florin Rd,,Sacramento ,CA,,US,+1 916-422-7557,https://ordering.roundtablepizza.com/site/rtp1163,,Round Table Pizza,Q7371139
https://restaurants.subway.com/#14907260,subway,Subway,,Sacramento Sacramento,CA,,US,+1 916-392-6720,https://restaurants.subway.com/united-states/ca/sacramento/7600-greenhaven-drive,Mo-Su 08:00-21:00,Subway,Q244457
https://restaurants.subway.com/#14908212,subway,Subway Lake Crest Village S/C,,Sacramento Sacramento,CA,,US,+1 916-428-4808,https://restaurants.subway.com/united-states/ca/sacramento/1036-florin-rd,Mo-Th 08:00-21:00; Fr-Sa 08:00-21:30; Su 09:00-21:00,Subway,Q244457
https://www.sutterhealth.org/find-location/facility/sutter-medical-plaza-greenhaven-lab,sutter_health,Sutter Medical Plaza Greenhaven Lab,,Sacramento,CA,,US,+1 866-961-8534,https://www.sutterhealth.org/find-location/facility/sutter-medical-plaza-greenhaven-lab,Mo-Fr 07:00-16:00,Sutter Health,Q7650154
https://www.sutterhealth.org/find-location/facility/sutter-medical-plaza-greenhaven,sutter_health,Sutter Medical Plaza Greenhaven,,Sacramento,CA,,US,+1 916-399-6015,https://www.sutterhealth.org/find-location/facility/sutter-medical-plaza-greenhaven,,Sutter Health,Q7650154
https://locations.tacobell.com/#6143994,taco_bell,Taco Bell,,Sacramento,CA,,US,+1 916-393-8557,https://locations.tacobell.com/ca/sacramento/356-florin-rd.html,,Taco Bell,Q752941
10115,tjx,Sacramento ,1000 Florin Rd,Sacramento ,CA,,US,+1 916-427-1917,,Mo-Sa 09:30-21:30; Su 10:00-20:00,Marshalls,Q15903261
4SHF,tmobile_us,Florin Rd & Corporate Way,,Sacramento,CA,,US,+1 916-758-9128,https://www.t-mobile.com/store-locator/ca/sacramento/florin-rd-corporate-way,,T-Mobile,Q3511885
00560,twenty_four_hour_fitness_us,Riverlake,,Sacramento,CA,,US,+1 916-399-8181,https://www.24hourfitness.com/Website/Club/00560,,24 Hour Fitness,Q4631849
019155,uhaul,Afrikico International Market,7230 S Land Park Dr Unit  101,Sacramento,CA,,US,+1 916-661-4843,,Mo-Fr 00:00-18:00; Sa 00:00-18:00,U-Haul,Q7862902
9583100004,usps_collection_boxes,USPS COLLECTION BOX - BLUE BOX,1301 FLORIN RD,SACRAMENTO,CA,,US,,,,United States Postal Service,Q668687
9583100021,usps_collection_boxes,USPS COLLECTION BOX - BLUE BOX,930 FLORIN RD,SACRAMENTO,CA,,US,,,,United States Postal Service,Q668687
9583100017,usps_collection_boxes,USPS COLLECTION BOX - BLUE BOX,7465 RUSH RIVER DR,SACRAMENTO,CA,,US,,,,United States Postal Service,Q668687
9583100000,usps_collection_boxes,USPS COLLECTION BOX - BLUE BOX,250 FLORIN RD,SACRAMENTO,CA,,US,,,,United States Postal Service,Q668687
9583100025,usps_collection_boxes,USPS COLLECTION BOX - BLUE BOX,7201 S LAND PARK DR,SACRAMENTO,CA,,US,,,,United States Postal Service,Q668687
https://vcahospitals.com/greenhaven,vca,VCA Greenhaven Pocket Animal Hospital,,Sacramento,CA,,US,+1 916-391-3677,https://vcahospitals.com/greenhaven,Mo-Fr 07:30-18:00; Sa 08:00-18:00,VCA,Q7906620
,visa,,,SACRAMENTO,CA,,US,,,,,
,visa,,,SACRAMENTO,CA,,US,,,,,
,visa,,,SACRAMENTO,CA,,US,,,,,
,visa,,,SACRAMENTO,CA,,US,,,,,
,visa,,,SACRAMENTO,CA,,US,,,,,
,visa,,,SACRAMENTO,CA,,US,,,,,
,visa,,,SACRAMENTO,CA,,US,,,,,
,visa,,,SACRAMENTO,CA,,US,,,,,
,visa,,,SACRAMENTO,CA,,US,,,,,
,visa,,,SACRAMENTO,CA,,US,,,,,
,visa,,,SACRAMENTO,CA,,US,,,,,
,visa,,,SACRAMENTO,CA,,US,,,,,
,visa,,,SACRAMENTO,CA,,US,,,,,
,visa,,,SACRAMENTO,CA,,US,,,,,
,visa,,,SACRAMENTO,CA,,US,,,,,
,visa,,,SACRAMENTO,CA,,US,,,,,
,visa,,,SACRAMENTO,CA,,US,,,,,
,visa,,,SACRAMENTO,CA,,US,,,,,
,visa,,,SACRAMENTO,CA,,US,,,,,
,visa,,,SACRAMENTO,CA,,US,,,,,
,visa,,,SACRAMENTO,CA,,US,,,,,
,visa,,,SACRAMENTO,CA,,US,,,,,
,visa,,,SACRAMENTO,CA,,US,,,,,
https://www.walgreens.com/locator/walgreens-250+florin+rd-sacramento-ca-95831/id=10716,walgreens,Walgreens,,Sacramento,CA,,US,+1 916-399-0650,https://www.walgreens.com/locator/walgreens-250+florin+rd-sacramento-ca-95831/id=10716,Mo-Su 07:00-23:00,Walgreens,Q1591889
7465__RUSH__RIVER__DR_SACRAMENTO_CA_95831,wellsfargo,,7465 RUSH RIVER DR,SACRAMENTO,CA,,US,+1 800-869-3557,https://www.wellsfargo.com/locator/bank/7465__RUSH__RIVER__DR_SACRAMENTO_CA_95831/,,Wells Fargo,Q744149
7375__GREENHAVEN__DR_SACRAMENTO_CA_95831,wellsfargo,Wells Fargo,7375 GREENHAVEN DR,SACRAMENTO,CA,,US,+1 916-395-8034,https://www.wellsfargo.com/locator/bank/7375__GREENHAVEN__DR_SACRAMENTO_CA_95831/,Mo-Fr 09:00-17:00,Wells Fargo,Q744149
1301__FLORIN__RD_SACRAMENTO_CA_95831,wellsfargo,,1301 FLORIN RD,SACRAMENTO,CA,,US,+1 800-869-3557,https://www.wellsfargo.com/locator/bank/1301__FLORIN__RD_SACRAMENTO_CA_95831/,,Wells Fargo,Q744149
131315,wingstop,Wingstop Sacramento Florin Road,1052 Florin Road,Sacramento,CA,,US,+1 916-706-1627,,,Wingstop,Q8025339
