Ref,Spider,Name,Address,City,State,Zipcode,Country,Phone,Website,Hours,Brand,WikiData
https://stores.advanceautoparts.com/nm/albuquerque/1308-juan-tabo-blvd-ne,advance_auto_parts_us,Advance Auto Parts,,Albuquerque,NM,,US,+1 505-337-8145,https://stores.advanceautoparts.com/nm/albuquerque/1308-juan-tabo-blvd-ne,Mo-Sa 07:30-21:00; Su 09:00-20:00,Advance Auto Parts,Q4686051
https://local.pharmacy.albertsonsmarket.com/#5672813,albertsons,Albertsons Market Pharmacy,,Albuquerque,NM,,US,+1 505-299-8600,https://local.pharmacy.albertsonsmarket.com/nm/albuquerque/2910-juan-tabo-blvd-ne.html,Mo-Fr 09:00-19:00; Sa 09:00-17:00; Su 10:00-16:00,Albertsons Market,Q115350320
https://local.pharmacy.albertsonsmarket.com/#5672805,albertsons,Albertsons Market Pharmacy,,Albuquerque,NM,,US,+1 505-294-1597,https://local.pharmacy.albertsonsmarket.com/nm/albuquerque/2801-a-eubank-blvd-ne.html,Mo-Fr 09:00-19:00; Sa 09:00-17:00; Su 10:00-16:00,Albertsons Market,Q115350320
https://local.pharmacy.albertsonsmarket.com/#5672801,albertsons,Albertsons Market Pharmacy,,Albuquerque,NM,,US,+1 505-293-9156,https://local.pharmacy.albertsonsmarket.com/nm/albuquerque/11825-lomas-blvd-ne.html,Mo-Fr 09:00-19:00; Sa 09:00-17:00; Su 10:00-16:00,Albertsons Market,Q115350320
https://local.albertsonsmarket.com/#5603586,albertsons,Albertsons Market,,Albuquerque,NM,,US,+1 505-299-3800,https://local.albertsonsmarket.com/nm/albuquerque/2910-juan-tabo-blvd-ne.html,Mo-Su 06:00-22:00,Albertsons Market,Q115350320
https://local.albertsonsmarket.com/#5603576,albertsons,Albertsons Market,,Albuquerque,NM,,US,+1 505-298-7571,https://local.albertsonsmarket.com/nm/albuquerque/2801-a-eubank-blvd-ne.html,Mo-Su 06:00-22:00,Albertsons Market,Q115350320
https://local.albertsonsmarket.com/#5603571,albertsons,Albertsons Market,,Albuquerque,NM,,US,+1 505-293-9280,https://local.albertsonsmarket.com/nm/albuquerque/11825-lomas-blvd-ne.html,Mo-Su 06:00-22:00,Albertsons Market,Q115350320
https://restaurants.applebees.com/en-us/nm/albuquerque/10600-lomas-blvd-n-e-79036,applebees,Connect with this Applebee's,,Albuquerque,NM,,US,+1 505-237-9083,https://restaurants.applebees.com/en-us/nm/albuquerque/10600-lomas-blvd-n-e-79036,Mo-Th 11:00-23:00; Fr-Sa 11:00-24:00; Su 11:00-23:00,Applebees,Q621532
2512,autozone_us,AutoZone Auto Parts Albuquerque,,Albuquerque,NM,,US,+1 505-296-6111,https://www.autozone.com/locations/nm/albuquerque/1428-eubank-ne.html,Mo-Sa 07:30-22:00; Su 08:00-22:00,AutoZone,Q4826087
3407,autozone_us,AutoZone Auto Parts Albuquerque,,Albuquerque,NM,,US,+1 505-298-1720,https://www.autozone.com/locations/nm/albuquerque/12904-lomas-blvd-ne.html,Mo-Sa 08:00-21:00; Su 08:00-20:00,AutoZone,Q4826087
2506,autozone_us,AutoZone Auto Parts Albuquerque,,Albuquerque,NM,,US,+1 505-299-7787,https://www.autozone.com/locations/nm/albuquerque/11205-candelaria-rd-ne.html,Mo-Th 07:30-20:00; Fr-Sa 07:30-21:00; Su 08:00-19:00,AutoZone,Q4826087
https://locators.bankofamerica.com/nm/albuquerque/financial-centers-albuquerque-10166.html,bankofamerica,Bank of America Financial Center & Drive-Thru ATM | Juan Tabo,,Albuquerque,NM,,US,+1 505-282-2724,https://locators.bankofamerica.com/nm/albuquerque/financial-centers-albuquerque-10166.html,Mo-Fr 10:00-16:00; Sa 10:00-14:00,Bank of America,Q487907
https://locators.bankofamerica.com/nm/albuquerque/atm-albuquerque-100986.html,bankofamerica,Bank of America Walk-Up ATM | Carquest Auto Parts,,Albuquerque,NM,,US,+1 844-401-8500,https://locators.bankofamerica.com/nm/albuquerque/atm-albuquerque-100986.html,,Bank of America,Q487907
https://locations.baskinrobbins.com/nm/albuquerque/8400-menaul-blvd-ne-ste-e-362057-br,baskin_robbins_us,Baskin-Robbinsâ„¢,,Albuquerque,NM,,US,+1 505-294-3101,https://locations.baskinrobbins.com/nm/albuquerque/8400-menaul-blvd-ne-ste-e-362057-br,Mo-Su 11:00-21:00,Baskin-Robbins,Q584601
78534,blakes_lotaburgers,"1801 Juan Tabo Boulevard Northeast, Albuquerque, NM (64)",,Albuquerque,NM,,US,+1 505-916-0756,https://www.lotaburger.com/locations/1801-juan-tabo-boulevard-northeast-albuquerque-nm-64/,Mo-Sa 06:00-22:00; Su 07:00-22:00,Blakes Lotaburgers,Q4924308
236733,bluerhino,Circle K #2706141,,Albuquerque,NM,,US,+1 505-298-0898,,,Blue Rhino,Q65681213
192863,bluerhino,Murphy's #8856,,Albuquerque,NM,,US,+1 505-292-9298,,,Blue Rhino,Q65681213
236739,bluerhino,Circle K #2741245,,Albuquerque,NM,,US,+1 505-323-0528,,,Blue Rhino,Q65681213
72251,bluerhino,DK #1711,,Albuquerque,NM,,US,+1 505-293-5950,,,Blue Rhino,Q65681213
236718,bluerhino,Circle K #2706299,,Albuquerque,NM,,US,+1 505-292-5164,,,Blue Rhino,Q65681213
152000,bluerhino,Walgreens #6587,,Albuquerque,NM,,US,+1 505-299-9541,,,Blue Rhino,Q65681213
236719,bluerhino,Circle K #2708551,,Albuquerque,NM,,US,+1 505-291-1738,,,Blue Rhino,Q65681213
191031,bluerhino,Quick Track #87,,Albuquerque,NM,,US,+1 505-299-6822,,,Blue Rhino,Q65681213
236716,bluerhino,Circle K #2706118,,Albuquerque,NM,,US,+1 505-292-4907,,,Blue Rhino,Q65681213
236715,bluerhino,Circle K #2705317,,Albuquerque,NM,,US,+1 505-292-9151,,,Blue Rhino,Q65681213
151997,bluerhino,Walgreens #5923,,Albuquerque,NM,,US,+1 505-298-0413,,,Blue Rhino,Q65681213
nm_albuquerque_1000-juan-tabo-blvd-ne,chipotle, ,,Albuquerque,NM,,US,+1 505-407-4437,https://locations.chipotle.com/nm/albuquerque/1000-juan-tabo-blvd-ne,,Chipotle,Q465751
2307-juan-tabo-boulevard-ne,churchs_chicken,Juan Tabo Boulevard N.E.,,Albuquerque,NM,,US,+1 505-294-2794,https://locations.churchs.com/nm/albuquerque/2307-juan-tabo-boulevard-ne,,Church's Chicken,Q1089932
40667,citi,ATM Circle K,,Albuquerque,NM,,US,,,,Citibank,Q857063
48036,citi,ATM CVS,,Albuquerque,NM,,US,,,,Citibank,Q857063
36919,citi,ATM Border Laundry Sales,,Albuquerque,NM,,US,,,,Citibank,Q857063
36920,citi,ATM Border Laundry Sales,,Albuquerque,NM,,US,,,,Citibank,Q857063
35902,citi,ATM BANK OF ALBUQUERQUE,,Albuquerque,NM,,US,,,,Citibank,Q857063
24066,citi,ATM 3D Kutz,,Albuquerque,NM,,US,,,,Citibank,Q857063
81429,citi,ATM Target,,Albuquerque,NM,,US,,,,Citibank,Q857063
44263,citi,ATM Circle K,,Albuquerque,NM,,US,,,,Citibank,Q857063
34223,citi,"ATM Alon 7ELEVEN, INC.",,Albuquerque,NM,,US,,,,Citibank,Q857063
93618,citi,ATM Walgreens,,Albuquerque,NM,,US,,,,Citibank,Q857063
53484,citi,ATM CVS,,Albuquerque,NM,,US,,,,Citibank,Q857063
41102,citi,ATM Circle K,,Albuquerque,NM,,US,,,,Citibank,Q857063
34446,citi,"ATM Alon 7ELEVEN, INC.",,Albuquerque,NM,,US,,,,Citibank,Q857063
88457,citi,ATM Walgreens,,Albuquerque,NM,,US,,,,Citibank,Q857063
35906,citi,ATM BANK OF ALBUQUERQUE,,Albuquerque,NM,,US,,,,Citibank,Q857063
42066,citi,ATM Circle K,,Albuquerque,NM,,US,,,,Citibank,Q857063
,credit_union_us,Rio Grande CU,,Albuquerque,NM,,US,+1 505-262-1401,,Mo-Th 09:00-05:00; Fr 09:00-05:30; Sa 09:00-01:00,,
70235129,cricket_wireless,Cricket Wireless Authorized Retailer,,Albuquerque,NM,,US,+1 505-271-0011,https://www.cricketwireless.com/stores/ll/US/NM/Albuquerque/1415-Eubank-Blvd-NE,Mo-Fr 10:00-19:00; Sa 10:00-18:00; Su 11:00-16:00,Cricket Wireless,Q5184987
70232480,cricket_wireless,Cricket Wireless Authorized Retailer,,Albuquerque,NM,,US,+1 505-508-2117,https://www.cricketwireless.com/stores/ll/US/NM/Albuquerque/2520-Juan-Tabo-Blvd-NE,Mo-Fr 10:00-19:00; Sa 10:00-18:00; Su 12:00-17:00,Cricket Wireless,Q5184987
8915,cvs_us,CVS Pharmacy,,Albuquerque,NM,,US,+1 505-294-4167,https://www.cvs.com/store-locator/albuquerque-nm-pharmacies/9640-menaul-blvd-ne-albuquerque-nm-87112/storeid=8915,Mo-Su 08:00-22:00,CVS Pharmacy,Q2078880
16135,cvs_us,CVS Pharmacy,,Albuquerque,NM,,US,+1 505-346-0193,https://www.cvs.com/store-locator/albuquerque-nm-pharmacies/11120-lomas-blvd-ne-albuquerque-nm-87112/storeid=16135,"Mo-Fr 10:00-13:30,14:00-19:00; Sa-Su 11:00-13:30,14:00-17:00",CVS Pharmacy,Q2078880
5494,cvs_us,CVS Pharmacy,,Albuquerque,NM,,US,+1 505-296-4803,https://www.cvs.com/store-locator/albuquerque-nm-pharmacies/1500-tramway-blvd-ne-albuquerque-nm-87112/storeid=5494,Mo-Su 08:00-22:00,CVS Pharmacy,Q2078880
246214,dennys,Denny's,,Albuquerque,NM,,US,+1 505-292-8964,https://locations.dennys.com/NM/ALBUQUERQUE/246214,24/7,Denny's,Q1189695
1369,dickeys_barbecue_pit_us,Albuquerque - Wyoming Blvd,,Albuquerque,NM,,US,+1 505-750-3331,https://www.dickeys.com/locations/new mexico/albuquerque/wyoming,Mo-Su 11:00-21:00,Dickey's Barbecue Pit,Q19880747
6550,dominos_pizza_us,Domino's Pizza,,Albuquerque,NM,,US,+1 505-833-3030,https://pizza.dominos.com/new-mexico/albuquerque/9550-sage-road-sw,Mo-Th 10:00-24:00; Fr-Sa 10:00-01:00; Su 10:00-24:00,Domino's,Q839466
6524,dominos_pizza_us,Domino's Pizza,,Albuquerque,NM,,US,+1 505-275-3030,https://pizza.dominos.com/new-mexico/albuquerque/1016-juan-tabo-ne,Mo-Th 10:00-01:00; Fr-Sa 10:00-02:00; Su 10:00-01:00,Domino's,Q839466
6521,dominos_pizza_us,Domino's Pizza,,Albuquerque,NM,,US,+1 505-341-3030,https://pizza.dominos.com/new-mexico/albuquerque/1512-a-wyoming-ne,Mo-Th 10:00-01:00; Fr-Sa 10:00-02:00; Su 10:00-01:00,Domino's,Q839466
355019,dunkin_us,Dunkin',,Albuquerque,NM,,US,+1 505-200-0925,https://locations.dunkindonuts.com/en/nm/albuquerque/2301-juan-tabo-blvd-ne/355019,Mo-Su 05:00-22:00,Dunkin',Q847743
DB446,dutchbros,Juan Tabo,,Albuquerque,NM,,US,,https://locations.dutchbros.com/dutch-bros-coffee-0804bba29843,Mo-Su 05:00-23:00,Dutch Bros. Coffee,Q5317253
DB825,dutchbros,ABQ Central,,Albuquerque,NM,,US,,https://locations.dutchbros.com/dutch-bros-coffee-3d4eec8fb11e,Mo-Su 05:00-23:00,Dutch Bros. Coffee,Q5317253
https://www.edwardjones.com/us-en/financial-advisor/roman-anaya,edwardjones,Roman Anaya,,Albuquerque,NM,,US,+1 505-293-5926,https://www.edwardjones.com/us-en/financial-advisor/roman-anaya,Mo-Fr 08:00-16:30,Edward Jones,Q5343830
11255-menaul-blvd-ne,einsteinbros,Juan Tabo & Menual Einstein Bros. Bagels,,Albuquerque,NM,,US,+1 505-332-1526,https://locations.einsteinbros.com/us/nm/albuquerque/11255-menaul-blvd-ne,Mo-Su 06:00-14:00,Einstein Bros. Bagels,Q5349788
E13431,enterprise,Albuquerque Coronado & Lomas,,Albuquerque,NM,,US,+1 505-237-9864,,,Enterprise Rent-A-Car,Q17085454
501521,extra_space_storage,Albuquerque Self Storage at 11820 Lomas Blvd NE,,Albuquerque,NM,,US,+1 505-294-2474,https://www.extraspace.com/storage/facilities/us/new_mexico/albuquerque/501521/,Mo-Fr 09:30-18:00; Sa 09:00-17:30,Extra Space Storage,Q5422162
6044,extra_space_storage,Albuquerque Self Storage at 10101 Snow Heights Blvd NE,,Albuquerque,NM,,US,+1 505-296-2712,https://www.extraspace.com/storage/facilities/us/new_mexico/albuquerque/6044/,Mo-Fr 09:30-18:00; Sa 09:00-17:30,Extra Space Storage,Q5422162
28207,firestone_auto_care,Firestone Complete Auto Care,,Albuquerque,NM,,US,+1 505-835-7812,https://local.firestonecompleteautocare.com/new-mexico/albuquerque/1501-juan-tabo-blvd-ne/,,Firestone,Q420837
Motorcraft1748USAEnglish,ford,"Rich Ford Sales, Inc.",,New Mexico,NM,,US,+1 505-292-0000,,,Ford,Q44294
https://www.ford.com/dealerships/dealer-details/nm/albuquerque/rich-ford-sales-inc/,ford_dealers_us,"Rich Ford Sales, Inc.",,Albuquerque,NM,,US,+1 505-308-6018,https://www.ford.com/dealerships/dealer-details/nm/albuquerque/rich-ford-sales-inc/,Mo-Fr 08:00-20:00; Sa 08:00-19:00; Su 10:00-18:00,Ford Motor Company,Q44294
1349,fresenius_kidney_care_us,Fresenius Kidney Care Northeast Albuquerque,,Albuquerque,NM,,US,+1 888-489-4718,https://www.freseniuskidneycare.com/dialysis-centers/new-mexico/1349,Mo 05:00-22:00; Tu 05:30-17:30; We 05:00-22:00; Th 05:30-17:30; Fr 05:00-22:00; Sa 05:30-17:30,,
2695,gamestop_us,Foothills Shopping Center,,Albuquerque,NM,,US,+1 505-323-1142,https://www.gamestop.com/search/?store=2695,Mo-Th 12:00-19:00; Fr-Su 11:00-19:00,GameStop,Q202210
albuquerque-santa-fe_jay-lapierre,geico,Jay Lapierre,,Albuquerque,NM,,US,+1 505-265-1600,https://www.geico.com/insurance-agents/new-mexico/albuquerque-santa-fe/jay-lapierre/,,GEICO,Q1498689
2483f55d-458a-e111-8dde-005056934050,goodwill,Goodwill Industries of New Mexico - Menaul Store,,Albuquerque,NM,,US,+1 505-998-7860,https://www.goodwill.org/locator/location/?store=MjQ4M2Y1NWQtNDU4YS1lMTExLThkZGUtMDA1MDU2OTM0MDUw&lat=MzUuMTA3OTY=&lng=LTEwNi41MTMzNQ==,,Goodwill,Q5583655
https://salons.greatclips.com/us/nm/albuquerque/2270-wyoming-boulevard-ne,greatclips,Great Clips,,Albuquerque,NM,,US,+1 505-294-4403,https://salons.greatclips.com/us/nm/albuquerque/2270-wyoming-boulevard-ne,Mo-Fr 10:00-18:00; Sa 09:00-17:00; Su 10:00-15:00,Great Clips,Q5598967
https://www.harborfreight.com/storelocator/11035-menaul-blvd-ne-albuquerque-87112?number=56,harborfreight,"Harbor Freight Tools Albuquerque, NM",,Albuquerque,NM,,US,+1 505-323-2052,https://www.harborfreight.com/storelocator/11035-menaul-blvd-ne-albuquerque-87112?number=56,Mo-Sa 08:00-20:00; Su 09:00-18:00,Harbor Freight Tools,Q5654601
29126,h_r_block,H&R Block,,Albuquerque,NM,,US,+1 505-298-9113,https://www.hrblock.com/local-tax-offices/new-mexico/albuquerque/mission-sq-shopping-center/29126/,,H&R Block,Q5627799
https://office.jacksonhewitt.com/#27578074,jackson_hewitt,Jackson Hewitt,,Albuquerque,NM,,US,+1 505-268-2222,https://office.jacksonhewitt.com/tax-preparation-services-locations/en/nm/albuquerque/2266-wyoming-blvd-ne/55491,Mo-Fr 10:00-18:00; Sa 09:00-17:00; Su 11:00-18:00,Jackson Hewitt,Q6117132
https://office.jacksonhewitt.com/#27575011,jackson_hewitt,Jackson Hewitt,,Albuquerque,NM,,US,+1 505-268-2222,https://office.jacksonhewitt.com/tax-preparation-services-locations/en/nm/albuquerque/11603-menaul-blvd-ne/11078,Mo-Fr 09:00-18:00; Sa 09:00-17:00; Su 12:00-17:00,Jackson Hewitt,Q6117132
https://locations.kfc.com/#11246640,kfc,Chicken Nuggets Near Albuquerque,,Albuquerque,NM,,US,,https://locations.kfc.com/nm/albuquerque/2201-eubank-boulevard-ne/chickennugget,Mo-Su 10:30-22:00,KFC,Q524757
72040629,moneygram,7-11 - #51707,,ALBUQUERQUE,NM,,US,+1 505-294-0039,,Mo-Su 09:00-20:00,MoneyGram,Q1944412
72040632,moneygram,7-11 - #51711,,ALBUQUERQUE,NM,,US,+1 505-293-5950,,Mo-Su 09:00-20:00,MoneyGram,Q1944412
8856,murphy_usa_us,,,Albuquerque,NM,,US,+1 505-294-8361,,Mo-Sa 05:00-23:00; Su 05:30-23:00,Murphy USA,Q19604459
https://locations.oreillyauto.com/nm/albuquerque/check-engine-light-testing-2699.html,oreilly,Your Albuquerque O'Reilly Auto Parts Store,,Albuquerque,NM,,US,+1 505-296-3044,https://locations.oreillyauto.com/nm/albuquerque/check-engine-light-testing-2699.html,Mo-Sa 07:30-21:00; Su 08:00-20:00,O'Reilly Auto Parts,Q7071951
https://locations.oreillyauto.com/nm/albuquerque/wiper-installation-2699.html,oreilly,Your Albuquerque O'Reilly Auto Parts Store,,Albuquerque,NM,,US,+1 505-296-3044,https://locations.oreillyauto.com/nm/albuquerque/wiper-installation-2699.html,Mo-Sa 07:30-21:00; Su 08:00-20:00,O'Reilly Auto Parts,Q7071951
https://locations.oreillyauto.com/nm/albuquerque/battery-testing-2699.html,oreilly,Your Albuquerque O'Reilly Auto Parts Store,,Albuquerque,NM,,US,+1 505-296-3044,https://locations.oreillyauto.com/nm/albuquerque/battery-testing-2699.html,Mo-Sa 07:30-21:00; Su 08:00-20:00,O'Reilly Auto Parts,Q7071951
https://locations.oreillyauto.com/nm/albuquerque/autopartes-2699.html,oreilly,Tu tienda O'Reilly Auto Parts en Albuquerque,,Albuquerque,NM,,US,+1 505-296-3044,https://locations.oreillyauto.com/nm/albuquerque/autopartes-2699.html,Mo-Sa 07:30-21:00; Su 08:00-20:00,O'Reilly Auto Parts,Q7071951
https://locations.papamurphys.com/#15430811,papamurphys,Pizza Takeout & Delivery,,Albuquerque,NM,,US,+1 505-299-7272,https://locations.papamurphys.com/nm/albuquerque/8400-menaul-blvd-ne,Mo-Th 11:00-20:00; Fr-Sa 11:00-21:00; Su 11:00-20:00,Papa Murphy's,Q7132349
622147,penske,Uptown Storage,,ALBUQUERQUE,NM,,US,+1 505-244-9404,https://www.pensketruckrental.com/locations/us/new_mexico/albuquerque/622147/,,Penske,Q81234570
0000875832,phillips_66_conoco_76,CIRCLE K 2706299,,ALBUQUERQUE,NM,,US,+1 505-292-5164,,24/7,Phillips 66,Q1656230
0000875836,phillips_66_conoco_76,CIRCLE K 2705317,,ALBUQUERQUE,NM,,US,+1 505-292-9151,,,Phillips 66,Q1656230
nm_albuquerque_1020-juan-tb-blvd-ne,pizza_hut_us,1020 Juan T.b. Blvd NE,,Albuquerque,NM,,US,+1 505-294-9800,https://locations.pizzahut.com/nm/albuquerque/1020-juan-tb-blvd-ne,,Pizza Hut,Q191615
https://www.plannedparenthood.org/health-center/new-mexico/albuquerque/87112/northeast-heights-2803-90210,planned_parenthood,Planned Parenthood,,Albuquerque,NM,,US,,https://www.plannedparenthood.org/health-center/new-mexico/albuquerque/87112/northeast-heights-2803-90210,,Planned Parenthood,Q2553262
1371,ross_dress_for_less_us,East Albuquerque,,Albuquerque,NM,,US,+1 505-292-9936,,Mo-Th 09:30-20:00; Fr-Sa 09:00-20:00; Su 09:30-20:00,Ross Dress for Less,Q3442791
2273,snap_fitness,"ABQ Tramway, NM",1530 Tramway Blvd NE,Albuquerque,NM,,US,+1 505-839-1535,https://www.snapfitness.com/us/gyms/abq-tramway-nm,24/7,Snap Fitness,Q7547254
https://restaurants.subway.com/#14901874,subway,Subway Hoffmantown Square S/C,,Albuquerque Bernalillo,NM,,US,+1 505-296-9501,https://restaurants.subway.com/united-states/nm/albuquerque/2225-k-wyoming-blvd-ne,Mo 07:30-21:30; Tu-Fr 08:00-21:30; Sa 08:30-21:00; Su 09:00-20:00,Subway,Q244457
https://restaurants.subway.com/#14912362,subway,Subway Princess Jeanne S/C,,Albuquerque Bernalillo,NM,,US,+1 505-275-1438,https://restaurants.subway.com/united-states/nm/albuquerque/1514-eubank-blvd-ne,Mo-Sa 08:00-22:00; Su 08:00-21:00,Subway,Q244457
https://restaurants.subway.com/#14914972,subway,Subway,,Albuquerque Bernalillo,NM,,US,+1 505-296-6783,https://restaurants.subway.com/united-states/nm/albuquerque/11111-menaul-blvd-ne,Mo-Fr 08:00-21:30; Sa 08:00-20:00; Su 08:00-19:30,Subway,Q244457
8225,supercuts,Juan Tabo Square,1016 Juan Tabo Blvd Ne Ste A,Albuquerque,NM,,US,+1 505-296-9555,https://www.supercuts.com/checkin/8225,Mo-Tu 10:00-18:00; We 00:00-01:00; Th-Sa 10:00-18:00; Su 00:00-01:00,Supercuts,Q7643239
8550,supercuts,Albuquerque,8400 Menaul Blvd Ne Ste D,Albuquerque,NM,,US,+1 505-294-5046,https://www.supercuts.com/checkin/8550,Mo-Sa 10:00-18:00; Su 00:00-01:00,Supercuts,Q7643239
https://locations.tacobell.com/#6147402,taco_bell,Taco Bell,,Albuquerque,NM,,US,+1 505-299-8472,https://locations.tacobell.com/nm/albuquerque/1001-juan-tabo-blvd-ne.html,Mo-Th 08:00-02:30; Fr-Sa 08:00-03:30; Su 08:00-02:30,Taco Bell,Q752941
1906,tmobile_us,Juan Tabo and Menaul,,Albuquerque,NM,,US,+1 505-323-1019,https://www.t-mobile.com/store-locator/nm/albuquerque/juan-tabo-and-menaul,,T-Mobile,Q3511885
1371733,usps,MANZANO,,ALBUQUERQUE,NM,,US,+1 505-346-0947,,Mo-Fr 08:00-17:00; Sa 09:00-15:00,United States Postal Service,Q668687
8711200020,usps_collection_boxes,USPS COLLECTION BOX - BLUE BOX,2601 WYOMING BLVD NE,ALBUQUERQUE,NM,,US,,,,United States Postal Service,Q668687
8711200061,usps_collection_boxes,USPS COLLECTION BOX - BLUE BOX,1900 WYOMING BLVD NE,ALBUQUERQUE,NM,,US,,,,United States Postal Service,Q668687
8711200004,usps_collection_boxes,USPS COLLECTION BOX - BLUE BOX,1508 WYOMING BLVD NE,ALBUQUERQUE,NM,,US,,,,United States Postal Service,Q668687
8711200009,usps_collection_boxes,USPS COLLECTION BOX - BLUE BOX,8500 MENAUL BLVD NE,ALBUQUERQUE,NM,,US,,,,United States Postal Service,Q668687
8711200001,usps_collection_boxes,USPS COLLECTION BOX - BLUE BOX,2910 JUAN TABO BLVD NE,ALBUQUERQUE,NM,,US,,,,United States Postal Service,Q668687
8711200017,usps_collection_boxes,USPS COLLECTION BOX - BLUE BOX,1520 TRAMWAY BLVD NE,ALBUQUERQUE,NM,,US,,,,United States Postal Service,Q668687
8711200066,usps_collection_boxes,USPS COLLECTION BOX - PO LOBBY,11600 HAINES AVE NE,ALBUQUERQUE,NM,,US,,,,United States Postal Service,Q668687
8711200049,usps_collection_boxes,USPS COLLECTION BOX - PO LOBBY,11600 HAINES AVE NE,ALBUQUERQUE,NM,,US,,,,United States Postal Service,Q668687
8711200050,usps_collection_boxes,USPS COLLECTION BOX - PO LOBBY,11600 HAINES AVE NE,ALBUQUERQUE,NM,,US,,,,United States Postal Service,Q668687
8711200060,usps_collection_boxes,USPS COLLECTION BOX - BLUE BOX,11600 HAINES AVE NE,ALBUQUERQUE,NM,,US,,,,United States Postal Service,Q668687
8711200059,usps_collection_boxes,USPS COLLECTION BOX - BLUE BOX,11600 HAINES AVE NE,ALBUQUERQUE,NM,,US,,,,United States Postal Service,Q668687
8711200011,usps_collection_boxes,USPS COLLECTION BOX - BLUE BOX,8911 NORTHEASTERN BLVD NE,ALBUQUERQUE,NM,,US,,,,United States Postal Service,Q668687
8711200024,usps_collection_boxes,USPS COLLECTION BOX - BLUE BOX,2200 JUAN TABO BLVD NE,ALBUQUERQUE,NM,,US,,,,United States Postal Service,Q668687
8711200021,usps_collection_boxes,USPS COLLECTION BOX - BLUE BOX,1025 CHELWOOD PARK BLVD NE,ALBUQUERQUE,NM,,US,,,,United States Postal Service,Q668687
8711200005,usps_collection_boxes,USPS COLLECTION BOX - BLUE BOX,1412 EUBANK BLVD NE,ALBUQUERQUE,NM,,US,,,,United States Postal Service,Q668687
8711200008,usps_collection_boxes,USPS COLLECTION BOX - BLUE BOX,11825 LOMAS BLVD NE,ALBUQUERQUE,NM,,US,,,,United States Postal Service,Q668687
8711200007,usps_collection_boxes,USPS COLLECTION BOX - BLUE BOX,10701 LOMAS BLVD NE,ALBUQUERQUE,NM,,US,,,,United States Postal Service,Q668687
0000032166,valero,TRADE MART,,Gallup,NM,,US,+1 505-863-8956,https://locations.valero.com/en-us/LocationDetails/Index/1500-S-2ND-ST/0000032166,,Valero,Q1283291
albuquerque_oil-change-aa0011,valvoline_instant_oil_change,Valvoline,1101 JUAN TABO BLVD. NE ,Albuquerque,NM,,US,+1 505-275-2020,https://store.vioc.com/nm/albuquerque/oil-change-aa0011.html,,Valvoline Instant Oil Change,Q7912852
A00000016087,verizon_us,Victra Albuquerque Eubank Blvd,,ALBUQUERQUE,NM,,US,+1 505-332-9009,https://www.verizon.com/stores/details/new-mexico/albuquerque/gowireless-albuquerque-eubank-blvd-1584222/,Mo-Fr 09:00-19:00; Sa 10:00-19:00,Verizon,Q919641
,visa,,,ALBUQUERQUE,NM,,US,,,,,
,visa,,,ALBUQUERQUE,NM,,US,,,,,
,visa,,,ALBUQUERQUE,NM,,US,,,,,
,visa,,,ALBUQUERQUE,NM,,US,,,,,
,visa,,,ALBUQUERQUE,NM,,US,,,,,
,visa,,,ALBUQUERQUE,NM,,US,,,,,
,visa,,,ALBUQUERQUE,NM,,US,,,,,
,visa,,,ALBUQUERQUE,NM,,US,,,,,
,visa,,,ALBUQUERQUE,NM,,US,,,,,
,visa,,,ALBUQUERQUE,NM,,US,,,,,
,visa,,,ALBUQUERQUE,NM,,US,,,,,
,visa,,,ALBUQUERQUE,NM,,US,,,,,
,visa,,,ALBUQUERQUE,NM,,US,,,,,
,visa,,,ALBUQUERQUE,NM,,US,,,,,
,visa,,,ALBUQUERQUE,NM,,US,,,,,
,visa,,,ALBUQUERQUE,NM,,US,,,,,
,visa,,,ALBUQUERQUE,NM,,US,,,,,
,visa,,,ALBURQUERQUE,NM,,US,,,,,
,visa,,,ALBUQUERQUE,NM,,US,,,,,
,visa,,,ALBUQUERQUE,NM,,US,,,,,
,visa,,,ALBUQUERQUE,NM,,US,,,,,
,visa,,,ALBUQUERQUE,NM,,US,,,,,
,visa,,,ALBUQUERQUE,NM,,US,,,,,
,visa,,,ALBUQUERQUE,NM,,US,,,,,
,visa,,,ALBUQUERQUE,NM,,US,,,,,
,visa,,,ALBUQUERQUE,NM,,US,,,,,
,visa,,,ALBUQUERQUE,NM,,US,,,,,
,visa,,,ALBUQUERQUE,NM,,US,,,,,
,visa,,,ALBUQUERQUE,NM,,US,,,,,
,visa,,,ALBUQUERQUE,NM,,US,,,,,
,visa,,,ALBUQUERQUE,NM,,US,,,,,
,visa,,,ALBUQUERQUE,NM,,US,,,,,
,visa,,,ALBUQUERQUE,NM,,US,,,,,
,visa,,,ALBUQUERQUE,NM,,US,,,,,
,visa,,,ALBUQUERQUE,NM,,US,,,,,
,visa,,,ALBUQUERQUE,NM,,US,,,,,
,visa,,,ALBUQUERQUE,NM,,US,,,,,
,visa,,,ALBUQUERQUE,NM,,US,,,,,
,visa,,,ALBUQUERQUE,NM,,US,,,,,
,visa,,,ALBUQUERQUE,NM,,US,,,,,
,visa,,,ALBUQUERQUE,NM,,US,,,,,
,visa,,,ALBUQUERQUE,NM,,US,,,,,
,visa,,,ALBUQUERQUE,NM,,US,,,,,
,visa,,,ALBUQUERQUE,NM,,US,,,,,
,visa,,,ALBUQUERQUE,NM,,US,,,,,
,visa,,,ALBUQUERQUE,NM,,US,,,,,
,visa,,,ALBUQUERQUE,NM,,US,,,,,
,visa,,,ALBUQUERQUE,NM,,US,,,,,
,visa,,,ALBUQUERQUE,NM,,US,,,,,
,visa,,,ALBUQUERQUE,NM,,US,,,,,
,visa,,,ALBUQUERQUE,NM,,US,,,,,
,visa,,,ALBUQUERQUE,NM,,US,,,,,
,visa,,,ALBUQUERQUE,NM,,US,,,,,
,visa,,,ALBUQUERQUE,NM,,US,,,,,
,visa,,,ALBUQUERQUE,NM,,US,,,,,
,visa,,,ALBUQUERQUE,NM,,US,,,,,
,visa,,,ALBUQUERQUE,NM,,US,,,,,
,visa,,,ALBUQUERQUE,NM,,US,,,,,
,visa,,,ALBUQUERQUE,NM,,US,,,,,
,visa,,,ALBUQUERQUE,NM,,US,,,,,
,visa,,,ALBUQUERQUE,NM,,US,,,,,
https://www.walgreens.com/locator/walgreens-13000+indian+school+rd+ne-albuquerque-nm-87112/id=5923,walgreens,Walgreens,,Albuquerque,NM,,US,+1 505-298-0413,https://www.walgreens.com/locator/walgreens-13000+indian+school+rd+ne-albuquerque-nm-87112/id=5923,Mo-Sa 07:00-23:00; Su 07:00-22:00,Walgreens,Q1591889
https://www.walgreens.com/locator/walgreens-1900+wyoming+blvd+ne-albuquerque-nm-87112/id=9213,walgreens,Walgreens,,Albuquerque,NM,,US,+1 505-217-1241,https://www.walgreens.com/locator/walgreens-1900+wyoming+blvd+ne-albuquerque-nm-87112/id=9213,Mo-Sa 08:00-22:00; Su 08:00-21:00,Walgreens,Q1591889
https://www.walgreens.com/locator/walgreens-9700+menaul+blvd+ne-albuquerque-nm-87112/id=6587,walgreens,Walgreens,,Albuquerque,NM,,US,+1 505-299-9541,https://www.walgreens.com/locator/walgreens-9700+menaul+blvd+ne-albuquerque-nm-87112/id=6587,24/7,Walgreens,Q1591889
1800__EUBANK__BLVD__NE_ALBUQUERQUE_NM_87112,wellsfargo,Wells Fargo,1800 EUBANK BLVD NE,ALBUQUERQUE,NM,,US,+1 505-298-1819,https://www.wellsfargo.com/locator/bank/1800__EUBANK__BLVD__NE_ALBUQUERQUE_NM_87112/,Mo-Fr 09:00-17:00,Wells Fargo,Q744149
1201__JUAN__TABO__BLVD__NE_ALBUQUERQUE_NM_87112,wellsfargo,,1201 JUAN TABO BLVD NE,ALBUQUERQUE,NM,,US,+1 800-869-3557,https://www.wellsfargo.com/locator/bank/1201__JUAN__TABO__BLVD__NE_ALBUQUERQUE_NM_87112/,,Wells Fargo,Q744149
11110__LOMAS__BLVD__NE_ALBUQUERQUE_NM_87112,wellsfargo,,11110 LOMAS BLVD NE,ALBUQUERQUE,NM,,US,+1 800-869-3557,https://www.wellsfargo.com/locator/bank/11110__LOMAS__BLVD__NE_ALBUQUERQUE_NM_87112/,,Wells Fargo,Q744149
https://locations.wendys.com/#9250519,wendys,"Wendy's Wyoming in Albuquerque, NM",,Albuquerque,NM,,US,+1 505-292-1481,https://locations.wendys.com/united-states/nm/albuquerque/2203-wyoming-ne,"Mo-Su 06:30-10:30,07:30-22:00",Wendy's,Q550258
https://locations.wendys.com/#9250515,wendys,"Wendy's Juan Tabo in Albuquerque, NM",,Albuquerque,NM,,US,+1 505-294-6143,https://locations.wendys.com/united-states/nm/albuquerque/1012-juan-tabo-ne,"Mo-Su 06:30-10:30,09:00-22:00",Wendy's,Q550258
b56f0b0512986400758d393616a907ef,western_union,GPM #4618,,Albuquerque,NM,,US,+1 505-237-1812,https://location.westernunion.com/us/nm/albuquerque/b56f0b0512986400758d393616a907ef,Mo-Su 06:00-22:00,Western Union,Q861042
40d6edb0884be5f46080ad35a8cb118a,western_union,WALMART #005491,,Albuquerque,NM,,US,+1 505-323-4131,https://location.westernunion.com/us/nm/albuquerque/40d6edb0884be5f46080ad35a8cb118a,Mo-Sa 08:00-20:00; Su 10:00-18:00,Western Union,Q861042
0df039e2a73bb7ed5472ff608ffa89a8,western_union,WALMART #005675,,Albuquerque,NM,,US,+1 505-200-3435,https://location.westernunion.com/us/nm/albuquerque/0df039e2a73bb7ed5472ff608ffa89a8,Mo-Su 07:00-21:00,Western Union,Q861042
https://locations.whataburger.com/nm/albuquerque/9500-candelaria-rd-ne.html,whataburger,Candelaria & Eubank,9500 CANDELARIA RD NE,ALBUQUERQUE,NM,,US,,https://locations.whataburger.com/nm/albuquerque/9500-candelaria-rd-ne.html,,Whataburger,Q376627
1225,world_finance_us,,"1447 Eubank Blvd NE, Albuquerque, NM, 87112",Albuquerque,NM,,US,+1 505-292-0081,https://www.loansbyworld.com/branches/branch-1225,Mo-Fr 09:00-17:30; Sa 09:00-12:00,World Finance,Q3569971
