Ref,Spider,Name,Address,City,State,Zipcode,Country,Phone,Website,Hours,Brand,WikiData
186787,bluerhino,"Melbourne Beach Enterprises, Inc",,Melbourne Beach,FL,,US,+1 321-727-1090,,,Blue Rhino,Q65681213
166786,bluerhino,Melbourne Beach Supermarket,,Melbourne Beach,FL,,US,+1 321-676-5225,,,Blue Rhino,Q65681213
28679,citi,ATM 7ELEVEN-FCTI,,Melbourne,FL,,US,,,,Citibank,Q857063
https://www.edwardjones.com/us-en/financial-advisor/donna-polizziquinones,edwardjones,Donna J Polizzi Quinones,,Melbourne Beach,FL,,US,+1 321-956-0777,https://www.edwardjones.com/us-en/financial-advisor/donna-polizziquinones,Mo-Fr 08:30-16:00,Edward Jones,Q5343830
200316657,exxonmobil,SUNSHINE #234,,MELBOURNE BEACH,FL,,US,+1 321-914-0027,https://www.exxon.com/en/find-station/mobil-melbournebeach-fl-sunshine234-200316657,Mo-Fr 06:00-22:00; Sa-Su 07:00-22:00,Mobil,Q109676002
200314112,exxonmobil,MELBOURNE BEACH EXXON,,MELBOURNE BEACH,FL,,US,+1 321-727-1090,https://www.exxon.com/en/find-station/exxon-melbournebeach-fl-melbournebeachexxon-200314112,Mo-Su 06:00-23:00,Exxon,Q109675651
https://local.fedex.com/#27746731,fedex,FedEx Authorized ShipCenter,,Melbourne Beach,FL,,US,+1 321-726-1667,https://local.fedex.com/en-us/fl/melbourne-beach/93586,,FedEx,Q459477
160250,marathon_petroleum_us,TOWN STAR 492,,FLORIDANA BEACH,FL,,US,+1 321-729-9804,,,Marathon,Q458363
https://restaurants.subway.com/#14909143,subway,Subway Time Saver,,Melbourne Beach Brevard,FL,,US,+1 321-729-9804,https://restaurants.subway.com/united-states/fl/melbourne-beach/6690-s-a1a,Mo-Su 07:00-21:00,Subway,Q244457
1438746,usps,MELBOURNE BEACH,,MELBOURNE BEACH,FL,,US,+1 321-723-6738,,"Mo-Fr 09:00-11:00,12:00-16:00",United States Postal Service,Q668687
3295100012,usps_collection_boxes,USPS COLLECTION BOX - BLUE BOX,3830 S HIGHWAY A1A,MELBOURNE BEACH,FL,,US,,,,United States Postal Service,Q668687
3295100001,usps_collection_boxes,USPS COLLECTION BOX - BLUE BOX,504 OCEAN AVE,MELBOURNE BEACH,FL,,US,,,,United States Postal Service,Q668687
3295100004,usps_collection_boxes,USPS COLLECTION BOX - PO LOBBY,504 OCEAN AVE,MELBOURNE BEACH,FL,,US,,,,United States Postal Service,Q668687
3295100013,usps_collection_boxes,USPS COLLECTION BOX - PO LOBBY,504 OCEAN AVE,MELBOURNE BEACH,FL,,US,,,,United States Postal Service,Q668687
3295100014,usps_collection_boxes,USPS COLLECTION BOX - PO LOBBY,504 OCEAN AVE,MELBOURNE BEACH,FL,,US,,,,United States Postal Service,Q668687
,visa,,,FLORIDANA BEACH,FL,,US,,,,,
,visa,,,MELBOURNE BEACH,FL,,US,,,,,
,visa,,,MELBOURNE BEACH,FL,,US,,,,,
,visa,,,MELBOURNE BEACH,FL,,US,,,,,
,visa,,,MELBOURNE BEACH,FL,,US,,,,,
,visa,,,MELBOURNE BEACH,FL,,US,,,,,
,visa,,,MELBOURNE BEACH,FL,,US,,,,,
,visa,,,MELBOURNE BEACH,FL,,US,,,,,
,visa,,,MELBOURNE BEACH,FL,,US,,,,,
4edcdd2c1761a855e48d176e7b2b497a,western_union,TOWN STAR #492,,Floridiana Beach,FL,,US,+1 321-350-0482,https://location.westernunion.com/us/fl/floridiana-beach/4edcdd2c1761a855e48d176e7b2b497a,Mo-Su 06:00-22:00,Western Union,Q861042
