Ref,Spider,Name,Address,City,State,Zipcode,Country,Phone,Website,Hours,Brand,WikiData
https://stores.advanceautoparts.com/nj/hammonton/80-s-white-horse-pike,advance_auto_parts_us,Advance Auto Parts,,Hammonton,NJ,,US,+1 609-567-9595,https://stores.advanceautoparts.com/nj/hammonton/80-s-white-horse-pike,Mo-Sa 07:30-21:00; Su 09:00-20:00,Advance Auto Parts,Q4686051
https://restaurants.applebees.com/en-us/nj/hammonton/47-s.-white-horse-pike-96080,applebees,Connect with this Applebee's,,Hammonton,NJ,,US,+1 609-704-8001,https://restaurants.applebees.com/en-us/nj/hammonton/47-s.-white-horse-pike-96080,Mo-Th 11:00-23:00; Fr-Sa 11:00-24:00; Su 11:00-23:00,Applebees,Q621532
6535,autozone_us,AutoZone Auto Parts Hammonton,,Hammonton,NJ,,US,+1 609-878-6253,https://www.autozone.com/locations/nj/hammonton/40-n-white-horse-pike.html,Mo-Sa 08:00-21:00; Su 08:00-20:00,AutoZone,Q4826087
https://locators.bankofamerica.com/nj/hammonton/financial-centers-hammonton-14835.html,bankofamerica,Bank of America Financial Center & Drive-Thru ATM | Broadway,,Hammonton,NJ,,US,+1 609-704-1275,https://locators.bankofamerica.com/nj/hammonton/financial-centers-hammonton-14835.html,Mo-Fr 09:00-16:00,Bank of America,Q487907
127810,bluerhino,Town Food & Liquor,,Hammonton,NJ,,US,+1 609-704-0995,,,Blue Rhino,Q65681213
112792,bluerhino,ShopRite #642,,Hammonton,NJ,,US,+1 609-704-7609,,,Blue Rhino,Q65681213
189864,bluerhino,Walgreens #19745,,Hammonton,NJ,,US,+1 609-567-0177,,,Blue Rhino,Q65681213
3652,bluerhino,Walmart #2254,,Hammonton,NJ,,US,+1 609-567-2700,,,Blue Rhino,Q65681213
33811,citi,ATM 7ELEVEN-FCTI,,Hammonton,NJ,,US,,,,Citibank,Q857063
68906,citi,ATM PNC AT WAWA,,Hammonton,NJ,,US,,,,Citibank,Q857063
68905,citi,ATM PNC AT WAWA,,Hammonton,NJ,,US,,,,Citibank,Q857063
29633,citi,ATM 7ELEVEN-FCTI,,Hammonton,NJ,,US,,,,Citibank,Q857063
69380,citi,ATM PNC AT WAWA,,Hammonton,NJ,,US,,,,Citibank,Q857063
69381,citi,ATM PNC AT WAWA,,Hammonton,NJ,,US,,,,Citibank,Q857063
,credit_union_us,Jersey Shore FCU,,Hammonton,NJ,,US,+1 609-646-3339,,Mo-Fr 09:00-05:00; Sa 09:00-01:00,,
17295,dollar_general,Dollar General,,Folsom,NJ,,US,+1 609-878-0220,https://www.dollargeneral.com/store-directory/nj/folsom/17295,Mo-Su 08:00-22:00,Dollar General,Q145168
4506,dominos_pizza_us,Domino's Pizza,,Hammonton,NJ,,US,+1 609-567-5111,https://pizza.dominos.com/new-jersey/hammonton/109-bellevue-ave,Mo-Th 10:00-24:00; Fr-Sa 10:00-01:00; Su 10:00-24:00,Domino's,Q839466
355134,dunkin_us,Dunkin',,Hammonton,NJ,,US,+1 609-481-2084,https://locations.dunkindonuts.com/en/nj/hammonton/1402b-mays-landing-rd/355134,Mo-Su 05:00-20:00,Dunkin',Q847743
310016,dunkin_us,Dunkin',,Hammonton,NJ,,US,+1 609-561-2773,https://locations.dunkindonuts.com/en/nj/hammonton/110-s-white-horse-park/310016,Mo-Su 05:00-21:00,Dunkin',Q847743
https://www.edwardjones.com/us-en/financial-advisor/jim-siwek,edwardjones,Jim Siwek,,Hammonton,NJ,,US,+1 609-561-1866,https://www.edwardjones.com/us-en/financial-advisor/jim-siwek,Mo-Fr 09:00-16:00,Edward Jones,Q5343830
E11764,enterprise,Hammonton,,Hammonton,NJ,,US,+1 609-561-6464,,,Enterprise Rent-A-Car,Q17085454
900327,extra_space_storage,Hammonton Self Storage at 900 S Egg Harbor Rd,,Hammonton,NJ,,US,+1 609-447-3456,https://www.extraspace.com/storage/facilities/us/new_jersey/hammonton/900327/,Mo-Fr 09:30-18:00; Sa 09:00-17:30,Extra Space Storage,Q5422162
200323313,exxonmobil,FAR PETROLEUM - AL & RICH,,HAMMONTON,NJ,,US,+1 609-561-4440,https://www.exxon.com/en/find-station/exxon-hammonton-nj-farpetroleumalrich-200323313,Mo-Su 05:30-22:00,Exxon,Q109675651
200323310,exxonmobil,AL & RICH'S RT 30,,HAMMONTON,NJ,,US,+1 609-561-4440,https://www.exxon.com/en/find-station/exxon-hammonton-nj-alrichsrt30-200323310,Mo-Su 05:30-22:00,Exxon,Q109675651
7355,fresenius_kidney_care_us,Fresenius Kidney Care Hammonton,,Hammonton,NJ,,US,+1 800-881-5101,https://www.freseniuskidneycare.com/dialysis-centers/new-jersey/7355,Mo 05:00-19:30; Tu 07:30-16:00; We 05:00-19:30; Th 07:30-16:00; Fr 05:00-19:30,,
d8dfb599-458a-e111-8dde-005056934050,goodwill,200 N White Horse Pike Store,,Hammonton,NJ,,US,+1 609-704-1744,https://www.goodwill.org/locator/location/?store=ZDhkZmI1OTktNDU4YS1lMTExLThkZGUtMDA1MDU2OTM0MDUw&lat=MzkuNjUxNzU=&lng=LTc0Ljc5NjA0,,Goodwill,Q5583655
https://www.harborfreight.com/storelocator/tbd-hammonton-08037?number=3474,harborfreight,"Harbor Freight Tools Hammonton, NJ",,Hammonton,NJ,,US,+1 609-956-0353,https://www.harborfreight.com/storelocator/tbd-hammonton-08037?number=3474,Mo-Sa 08:00-20:00; Su 09:00-18:00,Harbor Freight Tools,Q5654601
17959,h_r_block,H&R Block,,Hammonton,NJ,,US,+1 609-561-1006,https://www.hrblock.com/local-tax-offices/new-jersey/hammonton/301-bellevue-ave/17959/,,H&R Block,Q5627799
846330,penske,Gardiners Express Corp,,HAMMONTON,NJ,,US,+1 609-436-7103,https://www.pensketruckrental.com/locations/us/new_jersey/hammonton/846330/,,Penske,Q81234570
0000891907,phillips_66_conoco_76,WINSLOW GAS STATION,,BRADDOCK,NJ,,US,+1 609-567-9772,,,Conoco,Q109341187
81181,ritasitalianice,Ritaâ€™s of Hammonton NJ,,Hammonton,NJ,,US,+1 609-567-8464,https://www.ritasice.com/location/ritas-of-hammonton-nj/,,Rita's Italian Ice,Q7336456
40112,seven_eleven_ca_us,7-Eleven,,Hammonton,NJ,,US,+1 609-965-0867,https://www.7-eleven.com/locations/nj/hammonton/a.c.-expressway-milepost-21.4-40112,,7-Eleven,Q259340
642,shoprite,ShopRite of Hammonton,,Hammonton,NJ,,US,+1 609-704-7609,https://www.shoprite.com/sm/planning/rsid/642,Mo-Sa 07:00-23:00,ShopRite,Q7501097
8002145601,sunoco_us,Sunoco,,HAMMONTON,NJ,,US,+1 646-372-2584,,Mo-Su 06:00-00:00,Sunoco,Q1423218
0547584300,sunoco_us,Sunoco,,HAMMONTON,NJ,,US,+1 609-965-0867,,,Sunoco,Q1423218
https://locations.tacobell.com/#6146874,taco_bell,Taco Bell,,Hammonton,NJ,,US,+1 609-878-3482,https://locations.tacobell.com/nj/hammonton/117-s--white-horse-pike.html,Mo-Su 08:00-24:00,Taco Bell,Q752941
https://locations.tccrocks.com/nj/hammonton/80-south-white-horse-pike.html,tcc_us,TCC Hammonton,,Hammonton,NJ,,US,+1 609-241-6100,https://locations.tccrocks.com/nj/hammonton/80-south-white-horse-pike.html,Mo-Sa 10:00-20:00; Su 11:00-18:00,Verizon,Q919641
393E,tmobile_us,S White Horse Pike & Broadway,,Hammonton,NJ,,US,+1 609-704-5067,https://www.t-mobile.com/store-locator/nj/hammonton/s-white-horse-pike-broadway,,T-Mobile,Q3511885
1366080,usps,HAMMONTON,,HAMMONTON,NJ,,US,+1 609-561-0474,,Mo-Fr 08:30-17:00; Sa 08:30-12:30,United States Postal Service,Q668687
0803700006,usps_collection_boxes,USPS COLLECTION BOX - BLUE BOX,240 WHITE HORSE PIKE,HAMMONTON,NJ,,US,,,,United States Postal Service,Q668687
0803700020,usps_collection_boxes,USPS COLLECTION BOX - BLUE BOX,80 S WHITE HORSE PIKE,HAMMONTON,NJ,,US,,,,United States Postal Service,Q668687
0803700019,usps_collection_boxes,USPS COLLECTION BOX - BLUE BOX,44 WHITE HORSE PIKE,HAMMONTON,NJ,,US,,,,United States Postal Service,Q668687
0803700016,usps_collection_boxes,USPS COLLECTION BOX - BLUE BOX,10 N WHITE HORSE PIKE,HAMMONTON,NJ,,US,,,,United States Postal Service,Q668687
0803700005,usps_collection_boxes,USPS COLLECTION BOX - BLUE BOX,748 BELLEVUE AVE,HAMMONTON,NJ,,US,,,,United States Postal Service,Q668687
0803700004,usps_collection_boxes,USPS COLLECTION BOX - BLUE BOX,572 GRAPE ST,HAMMONTON,NJ,,US,,,,United States Postal Service,Q668687
0803700008,usps_collection_boxes,USPS COLLECTION BOX - BLUE BOX,553 BELLEVUE AVE,HAMMONTON,NJ,,US,,,,United States Postal Service,Q668687
0803700009,usps_collection_boxes,USPS COLLECTION BOX - BLUE BOX,44 N PACKARD ST,HAMMONTON,NJ,,US,,,,United States Postal Service,Q668687
0803700014,usps_collection_boxes,USPS COLLECTION BOX - BLUE BOX,136 N 3RD ST,HAMMONTON,NJ,,US,,,,United States Postal Service,Q668687
0803700010,usps_collection_boxes,USPS COLLECTION BOX - BLUE BOX,225 BELLEVUE AVE,HAMMONTON,NJ,,US,,,,United States Postal Service,Q668687
0803700011,usps_collection_boxes,USPS COLLECTION BOX - BLUE BOX,135 BELLEVUE AVE,HAMMONTON,NJ,,US,,,,United States Postal Service,Q668687
0803700026,usps_collection_boxes,USPS COLLECTION BOX - BLUE BOX,231 PEACH ST,HAMMONTON,NJ,,US,,,,United States Postal Service,Q668687
0803700012,usps_collection_boxes,USPS COLLECTION BOX - BLUE BOX,201 12TH ST,HAMMONTON,NJ,,US,,,,United States Postal Service,Q668687
0803700028,usps_collection_boxes,USPS COLLECTION BOX - PO LOBBY,114 S 3RD ST,HAMMONTON,NJ,,US,,,,United States Postal Service,Q668687
0803700023,usps_collection_boxes,USPS COLLECTION BOX - PO LOBBY,114 S 3RD ST,HAMMONTON,NJ,,US,,,,United States Postal Service,Q668687
0803700024,usps_collection_boxes,USPS COLLECTION BOX - BLUE BOX,231 PEACH ST,HAMMONTON,NJ,,US,,,,United States Postal Service,Q668687
0803700013,usps_collection_boxes,USPS COLLECTION BOX - BLUE BOX,425 12TH ST,HAMMONTON,NJ,,US,,,,United States Postal Service,Q668687
A00000253783,verizon_us,TCC Hammonton,,HAMMONTON,NJ,,US,+1 609-481-2212,https://www.verizon.com/stores/details/new-jersey/hammonton/tcc-hammonton-1705822/,Mo-Sa 10:00-20:00; Su 11:00-18:00,Verizon,Q919641
,visa,,,HAMMONTON,NJ,,US,,,,,
,visa,,,HAMMONTON,NJ,,US,,,,,
,visa,,,HAMMONTON,NJ,,US,,,,,
,visa,,,HAMMONTON,NJ,,US,,,,,
,visa,,,HAMMONTON,NJ,,US,,,,,
,visa,,,HAMMONTON,NJ,,US,,,,,
,visa,,,HAMMONTON,NJ,,US,,,,,
,visa,,,HAMMONTON,NJ,,US,,,,,
,visa,,,HAMMONTON,NJ,,US,,,,,
,visa,,,HAMMONTON,NJ,,US,,,,,
,visa,,,HAMMONTON,NJ,,US,,,,,
,visa,,,HAMMONTON,NJ,,US,,,,,
,visa,,,HAMMONTON,NJ,,US,,,,,
,visa,,,HAMMONTON,NJ,,US,,,,,
,visa,,,FOLSOM,NJ,,US,,,,,
,visa,,,WINSLOW,NJ,,US,,,,,
,visa,,,BRADDOCK,NJ,,US,,,,,
,visa,,,BELLMAR,NJ,,US,,,,,
https://www.walgreens.com/locator/walgreens-11+s+white+horse+pike-hammonton-nj-08037/id=19745,walgreens,Walgreens,,Hammonton,NJ,,US,+1 609-567-0177,https://www.walgreens.com/locator/walgreens-11+s+white+horse+pike-hammonton-nj-08037/id=19745,Mo-Sa 08:00-22:00; Su 08:00-20:00,Walgreens,Q1591889
cb983b950d15316435cc92518ca2c80a,western_union,7-ELEVEN #19990,,Hammonton,NJ,,US,+1 609-567-4926,https://location.westernunion.com/us/nj/hammonton/cb983b950d15316435cc92518ca2c80a,,Western Union,Q861042
8cb702a472484a9e715237debf9ffefa,western_union,WALMART #002254,,Hammonton,NJ,,US,+1 609-567-2700,https://location.westernunion.com/us/nj/hammonton/8cb702a472484a9e715237debf9ffefa,Mo-Su 07:00-21:00,Western Union,Q861042
33b2ed717638efc0e1e5d7e1bbce3c7d,western_union,WALGREENS #19745,,Hammonton,NJ,,US,+1 609-567-0177,https://location.westernunion.com/us/nj/hammonton/33b2ed717638efc0e1e5d7e1bbce3c7d,Mo-Sa 08:00-21:00; Su 08:00-17:30,Western Union,Q861042
5476ce8f083178c930470db1d9be56c3,western_union,7 ELEVEN/SUNOCO #40112,,Hammonton,NJ,,US,+1 609-965-0867,https://location.westernunion.com/us/nj/hammonton/5476ce8f083178c930470db1d9be56c3,,Western Union,Q861042
