Ref,Spider,Name,Address,City,State,Zipcode,Country,Phone,Website,Hours,Brand,WikiData
https://bc.pizza/locations/howard-city/,bcpizza,Howard City B.C. Pizza,,Howard City,MI,,US,+1 231-937-9000,https://bc.pizza/locations/howard-city/,Mo-Th 11:00-20:00; Fr-Sa 11:00-21:00; Su 11:00-20:00,BC Pizza,Q117600284
1081,biggby_coffee_us,Biggby Coffee,20055 W Edgar Rd Howard City MI 49329,Howard City,MI,,US,+1 231-937-1075,,Mo-Sa 06:00-20:00; Su 07:00-20:00,Biggby Coffee,Q4906876
198778,bluerhino,M-46 Mobil #102,,Howard City,MI,,US,+1 231-937-4090,,,Blue Rhino,Q65681213
164544,bluerhino,Family Dollar #07532,,Howard City,MI,,US,+1 231-937-6167,,,Blue Rhino,Q65681213
89258,bluerhino,Leppink's Food Center #508,,Howard City,MI,,US,+1 231-937-4334,,,Blue Rhino,Q65681213
198770,bluerhino,Howard City Mobil #117,,Howard City,MI,,US,+1 231-937-5189,,,Blue Rhino,Q65681213
106726,bluerhino,TruServ - Mattson's True Value #02550-2,,Howard City,MI,,US,+1 231-937-4381,,,Blue Rhino,Q65681213
60124,citi,ATM INDEPENDENT BANK,,Howard City,MI,,US,,,,Citibank,Q857063
,credit_union_us,Community First FCU,,Howard City,MI,,US,+1 989-352-6031,,Mo-Th 09:00-05:00; Fr 09:00-06:00; Sa 09:00-12:00,,
25207,dollar_general,Dollar General,,Howard City,MI,,US,+1 615-855-4000,https://www.dollargeneral.com/store-directory/mi/howard-city/25207,Mo-Su 08:00-22:00,Dollar General,Q145168
https://www.edwardjones.com/us-en/financial-advisor/bill-mccollum,edwardjones,Bill McCollum III,,Howard City,MI,,US,+1 231-937-6361,https://www.edwardjones.com/us-en/financial-advisor/bill-mccollum,Mo-Th 09:00-16:30; Fr 09:00-16:00,Edward Jones,Q5343830
200319927,exxonmobil,RUSTIC SPORT SHOP,,HOWARD CITY,MI,,US,+1 231-937-4372,https://www.exxon.com/en/find-station/exxon-howardcity-mi-rusticsportshop-200319927,Mo-Fr 05:00-22:00; Sa-Su 06:00-22:00,Exxon,Q109675651
200313873,exxonmobil,M-46 MOBIL TRUCK STOP,,HOWARD CITY,MI,,US,+1 231-937-4090,https://www.exxon.com/en/find-station/mobil-howardcity-mi-m46mobiltruckstop-200313873,24/7,Mobil,Q109676002
27532,family_dollar_us,FAMILY DOLLAR #7532,,Howard City,MI,,US,+1 231-636-1066,https://www.familydollar.com/locations/mi/howard-city/27532/,Mo-Su 09:00-21:00,Family Dollar,Q5433101
158865,marathon_petroleum_us,Viking Grocery Mart,,Howard City,MI,,US,+1 559-696-9537,,,Marathon,Q458363
254,roadys_us,M-46 Auto / Truck Plaza,,Howard City,MI,,US,+1 231-937-4090,,24/7,Roadyâ€™s Truck Stops,Q7339701
https://restaurants.subway.com/#14915282,subway,Subway This Is The Location,,Howard City Montcalm,MI,,US,+1 231-937-4077,https://restaurants.subway.com/united-states/mi/howard-city/19504-edgar-rd,Mo-Fr 07:00-21:30; Sa 08:00-21:30; Su 09:00-21:00,Subway,Q244457
https://restaurants.subway.com/#14900085,subway,Subway Mobil Gas C-Store,,Howard City Montcalm,MI,,US,+1 231-937-6539,https://restaurants.subway.com/united-states/mi/howard-city/580-west-shaw,Mo-Fr 07:00-21:30; Sa 08:00-21:30; Su 09:00-21:00,Subway,Q244457
1367494,usps,HOWARD CITY,,HOWARD CITY,MI,,US,+1 231-937-4344,,"Mo-Fr 09:00-13:00,14:00-16:30; Sa 10:00-12:00",United States Postal Service,Q668687
4932900002,usps_collection_boxes,USPS COLLECTION BOX - BLUE BOX,730 W SHAW ST,HOWARD CITY,MI,,US,,,,United States Postal Service,Q668687
4932900001,usps_collection_boxes,USPS COLLECTION BOX - BLUE BOX,107 E EDGERTON ST,HOWARD CITY,MI,,US,,,,United States Postal Service,Q668687
4932900007,usps_collection_boxes,USPS COLLECTION BOX - PO LOBBY,107 E EDGERTON ST,HOWARD CITY,MI,,US,,,,United States Postal Service,Q668687
4932900008,usps_collection_boxes,USPS COLLECTION BOX - PO LOBBY,107 E EDGERTON ST,HOWARD CITY,MI,,US,,,,United States Postal Service,Q668687
,visa,,,HOWARD,MI,,US,,,,,
,visa,,,HOWARD CITY,MI,,US,,,,,
,visa,,,HOWARD CITY,MI,,US,,,,,
,visa,,,HOWARD CITY,MI,,US,,,,,
,visa,,,HOWARD CITY,MI,,US,,,,,
,visa,,,HOWARD CITY,MI,,US,,,,,
,visa,,,HOWARD CITY,MI,,US,,,,,
,visa,,,HOWARD CITY,MI,,US,,,,,
,visa,,,HOWARD CITY,MI,,US,,,,,
,visa,,,HOWARD CITY,MI,,US,,,,,
,visa,,,HOWARD CITY,MI,,US,,,,,
,visa,,,HOWARD CITY,MI,,US,,,,,
,visa,,,HOWARD CITY,MI,,US,,,,,
