Ref,Spider,Name,Address,City,State,Zipcode,Country,Phone,Website,Hours,Brand,WikiData
https://locators.bankofamerica.com/ca/sanbernardino/financial-centers-san-bernardino-9368.html,bankofamerica,Bank of America Financial Center & Walk-Up ATM | San Bernardino Main,,San Bernardino,CA,,US,+1 909-381-8400,https://locators.bankofamerica.com/ca/sanbernardino/financial-centers-san-bernardino-9368.html,Mo-Fr 09:00-17:00; Sa 09:00-16:00,Bank of America,Q487907
2042972,chase_us,Plaza D St - New branch,,San Bernardino,CA,,US,+1 909-889-0866,https://locator.chase.com/ca/san-bernardino/330-n-d-st,Mo-Fr 09:00-17:00; Sa 09:00-14:00,Chase,Q524629
24054,citi,ATM 1st Valley Credit Union,,San Bernardino,CA,,US,,,,Citibank,Q857063
24055,citi,ATM 1st Valley Credit Union,,San Bernardino,CA,,US,,,,Citibank,Q857063
57138,citi,ATM Food 4 Less,,San Bernardino,CA,,US,,,,Citibank,Q857063
,credit_union_us,1st Valley CU,,San Bernardino,CA,,US,+1 909-889-0838,,Mo-Th 09:00-03:00; Fr 09:00-05:00,,
,credit_union_us,Thinkwise FCU,,San Bernardino,CA,,US,+1 909-882-2911,,Mo-Fr 09:00-05:00; Sa 09:00-01:00,,
E13262,enterprise,San Bernardino,,San Bernardino,CA,,US,+1 909-888-3241,,,Enterprise Rent-A-Car,Q17085454
https://locations.jackinthebox.com/us/ca/san-bernardino/495-n-d-st,jackinthebox,Jack in the Box,,San Bernardino,CA,,US,+1 909-889-4984,https://locations.jackinthebox.com/us/ca/san-bernardino/495-n-d-st,Mo-Su 04:30-04:00,Jack in the Box,Q1538507
https://locations.jackinthebox.com/us/ca/san-bernardino/497-s-e-st,jackinthebox,Jack in the Box,,San Bernardino,CA,,US,+1 909-440-9591,https://locations.jackinthebox.com/us/ca/san-bernardino/497-s-e-st,Mo-Su 05:00-02:00,Jack in the Box,Q1538507
https://healthy.kaiserpermanente.org/southern-california/facilities/walden-famiy-services-enhanced-care-management-ecm-172809,kaiser_permanente_us,Walden Famiy Services - Enhanced Care Management (ECM),,San Bernardino,CA,,US,+1 951-204-8299,https://healthy.kaiserpermanente.org/southern-california/facilities/walden-famiy-services-enhanced-care-management-ecm-172809,,Kaiser Permanente,Q1721601
92723,little_free_library,Viva La Boba Little Library #92723 San Bernardino CA,,San Bernardino,CA,,US,,,,Little Free Library,Q6650101
https://restaurants.subway.com/#14912615,subway,Subway,,San Bernardino San Bernardino,CA,,US,+1 909-889-1000,https://restaurants.subway.com/united-states/ca/san-bernardino/466-w-5th-st,Mo-Fr 08:00-18:00; Sa-Su 10:00-18:00,Subway,Q244457
023457,uhaul,Essential Registration & Multi Svcs,444 N Arrowhead Av SE 203,San Bernardino,CA,,US,+1 909-383-9483,,Mo-Fr 00:00-17:00; Sa 00:00-17:00,U-Haul,Q7862902
716058,uhaul,U-Haul Moving & Storage of Downtown San Bernardino,110 S D St,San Bernardino,CA,,US,+1 909-884-6805,,Mo-Th 00:00-19:00; Fr 00:00-20:00; Sa 00:00-19:00; Su 00:00-17:00,U-Haul,Q7862902
1440668,usps,SAN BERNARDINO,,SAN BERNARDINO,CA,,US,+1 909-889-4247,,Mo-Fr 09:00-17:00,United States Postal Service,Q668687
9240100060,usps_collection_boxes,USPS COLLECTION BOX - BLUE BOX,710 N D ST,SAN BERNARDINO,CA,,US,,,,United States Postal Service,Q668687
9240100080,usps_collection_boxes,USPS COLLECTION BOX - PO LOBBY,390 W 5TH ST,SAN BERNARDINO,CA,,US,,,,United States Postal Service,Q668687
,visa,,,SAN BERNARDINO,CA,,US,,,,,
,visa,,,SAN BERNARDINO,CA,,US,,,,,
,visa,,,SAN BERNARDIN,CA,,US,,,,,
,visa,,,SAN BERNARDINO,CA,,US,,,,,
,visa,,,SAN BERNARDINO,CA,,US,,,,,
,visa,,,SAN BERNARDINO,CA,,US,,,,,
,visa,,,SAN BERNARDINO,CA,,US,,,,,
,visa,,,SAN BERNARDINO,CA,,US,,,,,
,visa,,,SAN BERNARDINO,CA,,US,,,,,
,visa,,,SAN BERNARDINO,CA,,US,,,,,
,visa,,,SAN BERNARDINO,CA,,US,,,,,
,visa,,,SAN BERNARDINO,CA,,US,,,,,
,visa,,,SAN BERNARDINO,CA,,US,,,,,
,visa,,,SAN BERNRDINO,CA,,US,,,,,
,visa,,,SAN BERNARDINO,CA,,US,,,,,
,visa,,,SAN BERNARDINO,CA,,US,,,,,
,visa,,,SAN BERNARDINO,CA,,US,,,,,
,visa,,,SAN BERNARDINO,CA,,US,,,,,
,visa,,,SAN BERNARDINO,CA,,US,,,,,
,visa,,,SAN BERNARDINO,CA,,US,,,,,
,visa,,,SAN BERNARDINO,CA,,US,,,,,
,visa,,,SAN BERNARDINO,CA,,US,,,,,
334__W__3RD__ST_SAN__BERNARDINO_CA_92401,wellsfargo,Wells Fargo,334 W 3RD ST,SAN BERNARDINO,CA,,US,+1 909-384-4805,https://www.wellsfargo.com/locator/bank/334__W__3RD__ST_SAN__BERNARDINO_CA_92401/,Mo-Fr 09:00-17:00,Wells Fargo,Q744149
eeadde1889f441310098fd6588bfa728,western_union,AA NUTRITION CENTER,,San Bernardino,CA,,US,+1 909-383-0578,https://location.westernunion.com/us/ca/san-bernardino/eeadde1889f441310098fd6588bfa728,Mo-Sa 08:00-18:00,Western Union,Q861042
