Ref,Spider,Name,Address,City,State,Zipcode,Country,Phone,Website,Hours,Brand,WikiData
RED0016142,australia_post_au,,,ALBERTON,SA,,AU,,,,Australia Post,Q1142936
RED0016141,australia_post_au,,,QUEENSTOWN,SA,,AU,,,,Australia Post,Q1142936
RED0016145,australia_post_au,,,ROYAL PARK,SA,,AU,,,,Australia Post,Q1142936
508242_PO,australia_post_au,ALBERTON LPO,,ALBERTON,SA,,AU,+61 8 8240 0706,,,Australia Post,Q1142936
RED0016147,australia_post_au,,,ALBERTON,SA,,AU,,,,Australia Post,Q1142936
RED0016143,australia_post_au,,,QUEENSTOWN,SA,,AU,,,,Australia Post,Q1142936
RED0017758,australia_post_au,,,ROYAL PARK,SA,,AU,,,,Australia Post,Q1142936
541720_PO,australia_post_au,ROYAL PARK LPO,,ROYAL PARK,SA,,AU,+61 131318,,,Australia Post,Q1142936
RED0016146,australia_post_au,,,CHELTENHAM,SA,,AU,,,,Australia Post,Q1142936
RED0017759,australia_post_au,,,ALBERT PARK,SA,,AU,,,,Australia Post,Q1142936
RED0016144,australia_post_au,,,ROYAL PARK,SA,,AU,,,,Australia Post,Q1142936
RED0016140,australia_post_au,,,CHELTENHAM,SA,,AU,,,,Australia Post,Q1142936
RED0016139,australia_post_au,,,HENDON,SA,,AU,,,,Australia Post,Q1142936
RED0014303,australia_post_au,,,ALBERT PARK,SA,,AU,,,,Australia Post,Q1142936
137,battery_world_au,Battery World Port Adelaide,,Hendon,SA,,AU,+61 131760;+61 8 8241 0166,https://www.batteryworld.com.au/stores/battery-world-port-adelaide,Mo-Fr 08:30-17:30; Sa 09:00-14:00,Battery World,Q124003678
21949472,bottlemart_au,Alberton Hotel,,,SA,,AU,+61 8 8447 1069,,,Bottlemart,Q102863175
5532,bp,BP OTR ALBERTON,,ALBERTON,SA,,AU,+61 8 8447 4777,,24/7,BP,Q152057
71120,caltex,Caltex Queenstown,,Queenstown,SA,,AU,+61 408 526 990,,,Caltex,Q277470
3864,coles_au,St Clair,,Cheltenham,SA,,AU,+61 8 8413 5280,,,Liquorland,Q2283837
691,drakes_au,Drakes Royal Park,,Royal Park,SA,,AU,+61 8 8249 3000,,,Drakes,Q48988077
port-adelaide-floorworld,floorworld_au,Port Adelaide Floorworld,,Port Adelaide,SA,,AU,+61 8 8240 3755,https://www.floorworld.com.au/store-details/port-adelaide-floorworld,Mo-Fr 09:00-16:30; Sa 09:30-12:00,Floorworld,Q117156913
2091d416-f3d4-494a-bb26-1546e4e5f880,goodstart,Goodstart Port Road Cheltenham,"969 Port Road, Cheltenham, 5014, SA",Cheltenham,SA,,AU,+61 8 8268 5819,https://www.goodstart.org.au/find-a-centre/all-centres/sa/port-road-cheltenham,Mo-Fr 06:30-18:30,GoodStart Early Learning,Q24185325
291,greencross_au,Hendon,,Hendon,SA,,AU,+61 8 7087 2216,https://www.petbarn.com.au/store-finder/hendon,Mo-We 08:30-18:30; Th 08:30-20:00; Fr 08:30-18:30; Sa 08:30-17:00; Su 10:00-17:00,Petbarn,Q104746468
10991,pharmasave_au,PharmaSave Alberton Late Night Pharmacy,33 Fussell Place,Alberton,SA,,AU,+61 8 8240 0706,https://www.pharmasave.com.au/stores/pharmasave-alberton/,,PharmaSave,Q63367906
5504,tradelink_au,Albert Park,"966 Port Road, Albert Park SA 5014",Albert Park,SA,,AU,+61 8 8193 7940,,Mo-Fr 07:00-17:00; Sa 08:00-12:00,Tradelink,Q120648432
,tyrepower_au,Tyrepower Cheltenham,,Cheltenham,SA,,AU,+61 8 8244 7277,https://tyrepowercheltenham.com.au/,,Tyrepower,Q108855867
,visa,,,QUEENSTOWN,SA,,AU,,,,,
,visa,,,ALBERTON,SA,,AU,,,,,
,visa,,,ALBERTON,SA,,AU,,,,,
,visa,,,ALBERTON,SA,,AU,,,,,
3052fd6dbc94b21c0ab899d09e715f3f,western_union,AUSTRALIA POST,,Alberton,SA,,AU,+61 1800 501 500,https://location.westernunion.com/au/sa/alberton/3052fd6dbc94b21c0ab899d09e715f3f,Mo-Fr 09:00-17:00; Sa 09:00-12:00,Western Union,Q861042
