Ref,Spider,Name,Address,City,State,Zipcode,Country,Phone,Website,Hours,Brand,WikiData
https://local.biglots.com/#13190474,biglots,Big Lots - Frackville,,Frackville,PA,,US,+1 570-874-5910,https://local.biglots.com/pa/frackville/940-mall-rd,Mo-Sa 09:00-21:00; Su 09:00-19:00,Big Lots,Q4905973
58534,bluerhino,Boyer's dba Great Valu  #3558,,Frackville,PA,,US,+1 570-874-2150,,,Blue Rhino,Q65681213
181238,bluerhino,Family Dollar #12166,,Frackville,PA,,US,+1 570-794-4429,,,Blue Rhino,Q65681213
177654,bluerhino,Turkey Hill #213,,Frackville,PA,,US,+1 570-874-4346,,,Blue Rhino,Q65681213
147791,bluerhino,Speedway #6755,,Frackville,PA,,US,+1 570-874-4460,,,Blue Rhino,Q65681213
70495,citi,ATM PNC BANK,,Frackville,PA,,US,,,,Citibank,Q857063
65337,citi,ATM MID PENN BANK,,Frackville,PA,,US,,,,Citibank,Q857063
78542,citi,ATM Speedway,,Frackville,PA,,US,,,,Citibank,Q857063
521350,eg_america_us,Turkey Hill,,Frackville,PA,,US,+1 570-874-4346,https://www.turkeyhillcstores.com/find-us/generic-store-page/?id=950213,,Turkey Hill,Q42376970
200317390,exxonmobil,FRACKVILLE EXXON,,FRACKVILLE,PA,,US,+1 570-874-1457,https://www.exxon.com/en/find-station/exxon-frackville-pa-frackvilleexxon-200317390,Mo-Fr 05:00-22:00; Sa-Su 06:00-22:00,Exxon,Q109675651
32166,family_dollar_us,FAMILY DOLLAR #12166,,Frackville,PA,,US,+1 272-359-0830,https://www.familydollar.com/locations/pa/frackville/32166/,Mo-Sa 09:00-22:00; Su 09:00-21:00,Family Dollar,Q5433101
1968,gulf_pr_us,CENTRAL HIGHWAY,,Frackville,PA,,US,+1 570-874-1661,https://www.gulfoil.com/central-highway,,Gulf Oil,Q5617505
37909,h_r_block,H&R Block,,Frackville,PA,,US,+1 570-874-1040,https://www.hrblock.com/local-tax-offices/pennsylvania/frackville/544-altamont-blvd/37909/,,H&R Block,Q5627799
00223,rite_aid_us,Rite Aid #00223 Frackville,,Frackville,PA,,US,+1 570-874-1587,https://locations2.riteaid.com.yext-cdn.com/pa/frackville/452-south-lehigh-avenue.html,Mo-Sa 08:00-21:00; Su 09:00-20:00,Rite Aid,Q3433273
https://restaurants.subway.com/#14905533,subway,Subway,,Frackville Schuylkill,PA,,US,+1 570-874-0704,https://restaurants.subway.com/united-states/pa/frackville/466-s-lehigh-ave,Mo-Fr 08:00-21:00; Sa 16:00-21:00; Su 08:00-21:00,Subway,Q244457
1363955,usps,FRACKVILLE,,FRACKVILLE,PA,,US,+1 570-874-3770,,Mo-Fr 08:30-16:30; Sa 08:30-11:30,United States Postal Service,Q668687
1793100009,usps_collection_boxes,USPS COLLECTION BOX - BLUE BOX,1 N NICE ST,FRACKVILLE,PA,,US,,,,United States Postal Service,Q668687
1793100019,usps_collection_boxes,USPS COLLECTION BOX - BLUE BOX,2 S LEHIGH AVE,FRACKVILLE,PA,,US,,,,United States Postal Service,Q668687
1793100018,usps_collection_boxes,USPS COLLECTION BOX - BLUE BOX,109 S LEHIGH AVE,FRACKVILLE,PA,,US,,,,United States Postal Service,Q668687
1793100022,usps_collection_boxes,USPS COLLECTION BOX - PO LOBBY,109 S LEHIGH AVE,FRACKVILLE,PA,,US,,,,United States Postal Service,Q668687
1793100024,usps_collection_boxes,USPS COLLECTION BOX - PO LOBBY,109 S LEHIGH AVE,FRACKVILLE,PA,,US,,,,United States Postal Service,Q668687
1793100016,usps_collection_boxes,USPS COLLECTION BOX - BLUE BOX,255 S LEHIGH AVE,FRACKVILLE,PA,,US,,,,United States Postal Service,Q668687
1793100000,usps_collection_boxes,USPS COLLECTION BOX - BLUE BOX,301 S 3RD ST,FRACKVILLE,PA,,US,,,,United States Postal Service,Q668687
,visa,,,FRACKVILLE,PA,,US,,,,,
,visa,,,FRACKVILLE,PA,,US,,,,,
,visa,,,FRACKVILLE,PA,,US,,,,,
,visa,,,FRACKVILLE,PA,,US,,,,,
,visa,,,FRACKVILLE,PA,,US,,,,,
,visa,,,FRACKVILLE,PA,,US,,,,,
,visa,,,FRACKVILLE,PA,,US,,,,,
,visa,,,FRACKVILLE,PA,,US,,,,,
,visa,,,FRACKVILLE,PA,,US,,,,,
,visa,,,FRACKVILLE,PA,,US,,,,,
,visa,,,FRACKVILLE,PA,,US,,,,,
,visa,,,FRACKVILLE,PA,,US,,,,,
,visa,,,FRACKVILLE,PA,,US,,,,,
,visa,,,FRACKVILLE,PA,,US,,,,,
,visa,,,FRACKVILLE,PA,,US,,,,,
,visa,,,FRACKVILLE,PA,,US,,,,,
,visa,,,FRACKVILLE,PA,,US,,,,,
2__S__LEHIGH__AVE_FRACKVILLE_PA_17931,wellsfargo,Wells Fargo,2 S LEHIGH AVE,FRACKVILLE,PA,,US,+1 570-874-1177,https://www.wellsfargo.com/locator/bank/2__S__LEHIGH__AVE_FRACKVILLE_PA_17931/,Mo-Fr 09:00-17:00,Wells Fargo,Q744149
