Ref,Spider,Name,Address,City,State,Zipcode,Country,Phone,Website,Hours,Brand,WikiData
bike_sampa:3,gbfs,3 - CPTM Pinheiros,,,,,BR,,https://bikeitau.com.br/bikesampa,,Bike Itaú - Sampa,
bike_sampa:4,gbfs,4 - Rua Diogo Moreira,,,,,BR,,https://bikeitau.com.br/bikesampa,,Bike Itaú - Sampa,
bike_sampa:6,gbfs,6 - Rua Manduri,,,,,BR,,https://bikeitau.com.br/bikesampa,,Bike Itaú - Sampa,
bike_sampa:7,gbfs,7 - Praça Joaquim Roberto,,,,,BR,,https://bikeitau.com.br/bikesampa,,Bike Itaú - Sampa,
bike_sampa:9,gbfs,9 - Rua Grécia,,,,,BR,,https://bikeitau.com.br/bikesampa,,Bike Itaú - Sampa,
bike_sampa:10,gbfs,10 - Rua Campo Verde,,,,,BR,,https://bikeitau.com.br/bikesampa,,Bike Itaú - Sampa,
bike_sampa:12,gbfs,12 - Largo da Batata II,,,,,BR,,https://bikeitau.com.br/bikesampa,,Bike Itaú - Sampa,
bike_sampa:13,gbfs,13 - Esporte Clube Pinheiros Funcionários,,,,,BR,,https://bikeitau.com.br/bikesampa,,Bike Itaú - Sampa,
bike_sampa:14,gbfs,14 - Museu da Casa Brasileira,,,,,BR,,https://bikeitau.com.br/bikesampa,,Bike Itaú - Sampa,
bike_sampa:15,gbfs,15 - Rua Prof. Artur Ramos,,,,,BR,,https://bikeitau.com.br/bikesampa,,Bike Itaú - Sampa,
bike_sampa:16,gbfs,16 - Esporte Clube Pinheiros ,,,,,BR,,https://bikeitau.com.br/bikesampa,,Bike Itaú - Sampa,
bike_sampa:17,gbfs,17 - Rua José Gonçalves de Oliveira,,,,,BR,,https://bikeitau.com.br/bikesampa,,Bike Itaú - Sampa,
bike_sampa:18,gbfs,18 - Itaú Faria Lima,,,,,BR,,https://bikeitau.com.br/bikesampa,,Bike Itaú - Sampa,
bike_sampa:19,gbfs,19 - Av. Dr. Cardoso de Melo,,,,,BR,,https://bikeitau.com.br/bikesampa,,Bike Itaú - Sampa,
bike_sampa:20,gbfs,20 - CPTM Cidade Jardim,,,,,BR,,https://bikeitau.com.br/bikesampa,,Bike Itaú - Sampa,
bike_sampa:21,gbfs,21 - Parque do Povo Portão 1,,,,,BR,,https://bikeitau.com.br/bikesampa,,Bike Itaú - Sampa,
bike_sampa:22,gbfs,22 - Rua Leopoldo Couto,,,,,BR,,https://bikeitau.com.br/bikesampa,,Bike Itaú - Sampa,
bike_sampa:23,gbfs,23 - CPTM Vila Olímpia,,,,,BR,,https://bikeitau.com.br/bikesampa,,Bike Itaú - Sampa,
bike_sampa:24,gbfs,24 - Rua Funchal,,,,,BR,,https://bikeitau.com.br/bikesampa,,Bike Itaú - Sampa,
bike_sampa:26,gbfs,26 - Praça Pierre Germayel,,,,,BR,,https://bikeitau.com.br/bikesampa,,Bike Itaú - Sampa,
bike_sampa:27,gbfs,27 - Rua Min. Jesuíno Cardoso,,,,,BR,,https://bikeitau.com.br/bikesampa,,Bike Itaú - Sampa,
bike_sampa:28,gbfs,28 - Rua Comendador Miguel Calfat,,,,,BR,,https://bikeitau.com.br/bikesampa,,Bike Itaú - Sampa,
bike_sampa:30,gbfs,30 - Bandeira Paulista,,,,,BR,,https://bikeitau.com.br/bikesampa,,Bike Itaú - Sampa,
bike_sampa:32,gbfs,32 - Ibirapuera Portão 07,,,,,BR,,https://bikeitau.com.br/bikesampa,,Bike Itaú - Sampa,
bike_sampa:33,gbfs,33 - Ibirapuera Portão 08,,,,,BR,,https://bikeitau.com.br/bikesampa,,Bike Itaú - Sampa,
bike_sampa:35,gbfs,35 - Rua Benedito Lapin,,,,,BR,,https://bikeitau.com.br/bikesampa,,Bike Itaú - Sampa,
bike_sampa:37,gbfs,37 - Edifício Infinity,,,,,BR,,https://bikeitau.com.br/bikesampa,,Bike Itaú - Sampa,
bike_sampa:40,gbfs,40 - Brasília,,,,,BR,,https://bikeitau.com.br/bikesampa,,Bike Itaú - Sampa,
bike_sampa:44,gbfs,44 - Ibirapuera Portão 09,,,,,BR,,https://bikeitau.com.br/bikesampa,,Bike Itaú - Sampa,
bike_sampa:48,gbfs,48 - Itacema,,,,,BR,,https://bikeitau.com.br/bikesampa,,Bike Itaú - Sampa,
bike_sampa:53,gbfs,53 - Google São Paulo,,,,,BR,,https://bikeitau.com.br/bikesampa,,Bike Itaú - Sampa,
bike_sampa:59,gbfs,59 - EBAC,,,,,BR,,https://bikeitau.com.br/bikesampa,,Bike Itaú - Sampa,
bike_sampa:71,gbfs,71 - Pamplona,,,,,BR,,https://bikeitau.com.br/bikesampa,,Bike Itaú - Sampa,
bike_sampa:73,gbfs,73 - Ginásio Ibirapuera,,,,,BR,,https://bikeitau.com.br/bikesampa,,Bike Itaú - Sampa,
bike_sampa:75,gbfs,75 - Viaduto Tutóia,,,,,BR,,https://bikeitau.com.br/bikesampa,,Bike Itaú - Sampa,
bike_sampa:76,gbfs,76 - 8° Batalhão,,,,,BR,,https://bikeitau.com.br/bikesampa,,Bike Itaú - Sampa,
bike_sampa:77,gbfs,77 - Alameda J. Eugênio de Lima,,,,,BR,,https://bikeitau.com.br/bikesampa,,Bike Itaú - Sampa,
bike_sampa:83,gbfs,83 - Augusta,,,,,BR,,https://bikeitau.com.br/bikesampa,,Bike Itaú - Sampa,
bike_sampa:85,gbfs,85 - Praça do Ciclista,,,,,BR,,https://bikeitau.com.br/bikesampa,,Bike Itaú - Sampa,
bike_sampa:86,gbfs,86 - Shopping Center 3,,,,,BR,,https://bikeitau.com.br/bikesampa,,Bike Itaú - Sampa,
bike_sampa:87,gbfs,87 - Parque Prefeito Mário Covas,,,,,BR,,https://bikeitau.com.br/bikesampa,,Bike Itaú - Sampa,
bike_sampa:90,gbfs,90 - Alameda Campinas,,,,,BR,,https://bikeitau.com.br/bikesampa,,Bike Itaú - Sampa,
bike_sampa:91,gbfs,91 - Paulista 778,,,,,BR,,https://bikeitau.com.br/bikesampa,,Bike Itaú - Sampa,
bike_sampa:92,gbfs,92 - Metrô Brigadeiro,,,,,BR,,https://bikeitau.com.br/bikesampa,,Bike Itaú - Sampa,
bike_sampa:101,gbfs,101 - Praça Gen. Gentil Falcão,,,,,BR,,https://bikeitau.com.br/bikesampa,,Bike Itaú - Sampa,
bike_sampa:102,gbfs,102 - Rua James Watt,,,,,BR,,https://bikeitau.com.br/bikesampa,,Bike Itaú - Sampa,
bike_sampa:103,gbfs,103 - Rua Hans Oersted,,,,,BR,,https://bikeitau.com.br/bikesampa,,Bike Itaú - Sampa,
bike_sampa:105,gbfs,105 - Praça João Duran Alonso,,,,,BR,,https://bikeitau.com.br/bikesampa,,Bike Itaú - Sampa,
bike_sampa:120,gbfs,120 - Rua Gomes de Carvalho,,,,,BR,,https://bikeitau.com.br/bikesampa,,Bike Itaú - Sampa,
bike_sampa:121,gbfs,121 - Insper,,,,,BR,,https://bikeitau.com.br/bikesampa,,Bike Itaú - Sampa,
bike_sampa:124,gbfs,124 - Praça Pereira Coutinho,,,,,BR,,https://bikeitau.com.br/bikesampa,,Bike Itaú - Sampa,
bike_sampa:125,gbfs,125 - Natividade,,,,,BR,,https://bikeitau.com.br/bikesampa,,Bike Itaú - Sampa,
bike_sampa:126,gbfs,126 - Graúna,,,,,BR,,https://bikeitau.com.br/bikesampa,,Bike Itaú - Sampa,
bike_sampa:127,gbfs,127 - Jacutinga,,,,,BR,,https://bikeitau.com.br/bikesampa,,Bike Itaú - Sampa,
bike_sampa:129,gbfs,129 - Praça do Pombo,,,,,BR,,https://bikeitau.com.br/bikesampa,,Bike Itaú - Sampa,
bike_sampa:131,gbfs,131 - Ibirapuera Portão 06,,,,,BR,,https://bikeitau.com.br/bikesampa,,Bike Itaú - Sampa,
bike_sampa:132,gbfs,132 - Ibirapuera Portão 05,,,,,BR,,https://bikeitau.com.br/bikesampa,,Bike Itaú - Sampa,
bike_sampa:143,gbfs,143 - Rua João Cachoeira,,,,,BR,,https://bikeitau.com.br/bikesampa,,Bike Itaú - Sampa,
bike_sampa:144,gbfs,144 - Rua Iguatemi,,,,,BR,,https://bikeitau.com.br/bikesampa,,Bike Itaú - Sampa,
bike_sampa:151,gbfs,151 - Centro Cultural SP,,,,,BR,,https://bikeitau.com.br/bikesampa,,Bike Itaú - Sampa,
bike_sampa:163,gbfs,163 - Paim,,,,,BR,,https://bikeitau.com.br/bikesampa,,Bike Itaú - Sampa,
bike_sampa:175,gbfs,175 - R. Luis Coelho,,,,,BR,,https://bikeitau.com.br/bikesampa,,Bike Itaú - Sampa,
bike_sampa:193,gbfs,193 - Praça Monte Castelo,,,,,BR,,https://bikeitau.com.br/bikesampa,,Bike Itaú - Sampa,
bike_sampa:198,gbfs,198 - Marechal Deodoro,,,,,BR,,https://bikeitau.com.br/bikesampa,,Bike Itaú - Sampa,
bike_sampa:204,gbfs,204 - Consolação,,,,,BR,,https://bikeitau.com.br/bikesampa,,Bike Itaú - Sampa,
bike_sampa:211,gbfs,211 - Capote Valente,,,,,BR,,https://bikeitau.com.br/bikesampa,,Bike Itaú - Sampa,
bike_sampa:216,gbfs,216 - João Moura 328,,,,,BR,,https://bikeitau.com.br/bikesampa,,Bike Itaú - Sampa,
bike_sampa:223,gbfs,223 - Fradique Coutinho 558,,,,,BR,,https://bikeitau.com.br/bikesampa,,Bike Itaú - Sampa,
bike_sampa:242,gbfs,242 - Letras,,,,,BR,,https://bikeitau.com.br/bikesampa,,Bike Itaú - Sampa,
bike_sampa:243,gbfs,243 - Bancos/Reitoria,,,,,BR,,https://bikeitau.com.br/bikesampa,,Bike Itaú - Sampa,
bike_sampa:245,gbfs,245 - P1,,,,,BR,,https://bikeitau.com.br/bikesampa,,Bike Itaú - Sampa,
bike_sampa:254,gbfs,254 - Terminal de Ônibus USP,,,,,BR,,https://bikeitau.com.br/bikesampa,,Bike Itaú - Sampa,
bike_sampa:293,gbfs,293 - Metrô Ana Rosa,,,,,BR,,https://bikeitau.com.br/bikesampa,,Bike Itaú - Sampa,
bike_sampa:295,gbfs,295 - Vergueiro,,,,,BR,,https://bikeitau.com.br/bikesampa,,Bike Itaú - Sampa,
bike_sampa:296,gbfs,296 - Largo Ana Rosa,,,,,BR,,https://bikeitau.com.br/bikesampa,,Bike Itaú - Sampa,
bike_sampa:303,gbfs,303 - Rio Grande,,,,,BR,,https://bikeitau.com.br/bikesampa,,Bike Itaú - Sampa,
bike_sampa:304,gbfs,304 - Gandavo,,,,,BR,,https://bikeitau.com.br/bikesampa,,Bike Itaú - Sampa,
bike_sampa:307,gbfs,307 - Metrô Vila Mariana,,,,,BR,,https://bikeitau.com.br/bikesampa,,Bike Itaú - Sampa,
bike_sampa:308,gbfs,308 - Rua Cunha,,,,,BR,,https://bikeitau.com.br/bikesampa,,Bike Itaú - Sampa,
bike_sampa:313,gbfs,313 - Metrô AACD Servidor,,,,,BR,,https://bikeitau.com.br/bikesampa,,Bike Itaú - Sampa,
bike_sampa:315,gbfs,315 - Metrô Hospital São Paulo,,,,,BR,,https://bikeitau.com.br/bikesampa,,Bike Itaú - Sampa,
bike_sampa:317,gbfs,317 - R. Leonardo Nunes,,,,,BR,,https://bikeitau.com.br/bikesampa,,Bike Itaú - Sampa,
bike_sampa:325,gbfs,325 - Pintassilgo,,,,,BR,,https://bikeitau.com.br/bikesampa,,Bike Itaú - Sampa,
bike_sampa:333,gbfs,333 - Rua Flórida 53,,,,,BR,,https://bikeitau.com.br/bikesampa,,Bike Itaú - Sampa,
bike_sampa:352,gbfs,260 - P3,,,,,BR,,https://bikeitau.com.br/bikesampa,,Bike Itaú - Sampa,
bike_sampa:356,gbfs,257 - Hospital Universitário,,,,,BR,,https://bikeitau.com.br/bikesampa,,Bike Itaú - Sampa,
bike_sampa:370,gbfs,259 - Vila Indiana,,,,,BR,,https://bikeitau.com.br/bikesampa,,Bike Itaú - Sampa,
bike_sampa:374,gbfs,264 - Parque Villa Lobos Portão 2,,,,,BR,,https://bikeitau.com.br/bikesampa,,Bike Itaú - Sampa,
bike_sampa:399,gbfs,255 - Bandejão Física,,,,,BR,,https://bikeitau.com.br/bikesampa,,Bike Itaú - Sampa,
