Ref,Spider,Name,Address,City,State,Zipcode,Country,Phone,Website,Hours,Brand,WikiData
217208,bluerhino,Sunshine Deli Mart,,Hoquaim,WA,,US,+1 360-289-1800,,,Blue Rhino,Q65681213
237383,bluerhino,Circle K #2709660,,Hoquiam,WA,,US,+1 360-533-9051,,,Blue Rhino,Q65681213
75180,bluerhino,Swanson's #2 - #75-3744,,Hoquiam,WA,,US,+1 360-532-6120,,,Blue Rhino,Q65681213
379716,chevron,Chevron Station #379716,2298 STATE ROUTE 109,HOQUIAM,WA,,US,+1 360-289-1800,,,Chevron,Q319642
27226,citi,ATM 7ELEVEN-FCTI,,Hoquiam,WA,,US,,,,Citibank,Q857063
41559,citi,ATM Circle K,,Hoquiam,WA,,US,,,,Citibank,Q857063
85254,citi,ATM TwinStar Credit Union,,Hoquiam,WA,,US,,,,Citibank,Q857063
73216,citi,ATM Rite Aid,,Hoquiam,WA,,US,,,,Citibank,Q857063
7040,dominos_pizza_us,Domino's Pizza,,Hoquiam,WA,,US,+1 360-533-3500,https://pizza.dominos.com/washington/hoquiam/2605-simpson-ave,Mo-Th 10:30-24:00; Fr-Sa 10:30-01:00; Su 10:30-24:00,Domino's,Q839466
https://www.edwardjones.com/us-en/financial-advisor/josh-steele,edwardjones,Josh Steele,,Hoquiam,WA,,US,+1 360-533-8368,https://www.edwardjones.com/us-en/financial-advisor/josh-steele,Mo-Th 08:00-16:30; Fr 08:00-13:00,Edward Jones,Q5343830
200321863,exxonmobil,SIMPSON MART,,HOQUIAM,WA,,US,+1 360-612-3438,https://www.exxon.com/en/find-station/mobil-hoquiam-wa-simpsonmart-200321863,Mo-Su 06:00-21:00,Mobil,Q109676002
200321862,exxonmobil,BETHEL MART,,HOQUIAM,WA,,US,+1 360-612-3301,https://www.exxon.com/en/find-station/mobil-hoquiam-wa-bethelmart-200321862,Mo-Su 09:00-19:00,Mobil,Q109676002
0000894646,phillips_66_conoco_76,HOQUIAM 76,,HOQUIAM,WA,,US,+1 360-289-4214,,,U76,Q1658320
05283,rite_aid_us,Rite Aid #05283 Hoquiam,,Hoquiam,WA,,US,+1 360-533-5531,https://locations2.riteaid.com.yext-cdn.com/wa/hoquiam/3130-simpson-avenue.html,Mo-Fr 08:00-21:00; Sa 09:00-21:00; Su 09:00-19:00,Rite Aid,Q3433273
https://restaurants.subway.com/#14910028,subway,Subway,,Hoquiam Grays Harbor,WA,,US,+1 360-537-1271,https://restaurants.subway.com/united-states/wa/hoquiam/2700-simpson-ave,Mo-Tu 08:00-21:00; We 09:00-21:00; Th 09:30-21:00; Fr-Su 08:00-21:00,Subway,Q244457
006571,uhaul,LG Auto Repair Inc,2630 Bay Ave,Hoquiam,WA,,US,+1 360-533-2134,,Mo-Sa 00:00-14:00,U-Haul,Q7862902
029150,uhaul,Grays Harbor FC,2305 Bay Ave,Hoquiam,WA,,US,+1 360-940-7045,,Mo-Sa 00:00-16:00,U-Haul,Q7862902
056181,uhaul,LG Auto Sales Inc,508 Simpson Ave,Hoquiam,WA,,US,+1 360-532-9652,,Mo-Fr 00:00-17:00; Sa 00:00-14:00,U-Haul,Q7862902
1367405,usps,HOQUIAM,,HOQUIAM,WA,,US,+1 360-537-7204,,Mo-Fr 08:30-17:00,United States Postal Service,Q668687
9855000007,usps_collection_boxes,USPS COLLECTION BOX - BLUE BOX,719 8TH ST,HOQUIAM,WA,,US,,,,United States Postal Service,Q668687
9855000006,usps_collection_boxes,USPS COLLECTION BOX - BLUE BOX,620 8TH ST,HOQUIAM,WA,,US,,,,United States Postal Service,Q668687
9855000021,usps_collection_boxes,USPS COLLECTION BOX - PO LOBBY,620 8TH ST,HOQUIAM,WA,,US,,,,United States Postal Service,Q668687
9855000022,usps_collection_boxes,USPS COLLECTION BOX - PO LOBBY,620 8TH ST,HOQUIAM,WA,,US,,,,United States Postal Service,Q668687
9855000024,usps_collection_boxes,USPS COLLECTION BOX - PO LOBBY,620 8TH ST,HOQUIAM,WA,,US,,,,United States Postal Service,Q668687
9855000002,usps_collection_boxes,USPS COLLECTION BOX - BLUE BOX,400 8TH ST,HOQUIAM,WA,,US,,,,United States Postal Service,Q668687
9855000003,usps_collection_boxes,USPS COLLECTION BOX - BLUE BOX,727 SIMPSON AVE,HOQUIAM,WA,,US,,,,United States Postal Service,Q668687
9855000013,usps_collection_boxes,USPS COLLECTION BOX - BLUE BOX,219 L ST,HOQUIAM,WA,,US,,,,United States Postal Service,Q668687
9855000017,usps_collection_boxes,USPS COLLECTION BOX - BLUE BOX,356 EMERSON AVE,HOQUIAM,WA,,US,,,,United States Postal Service,Q668687
9855000000,usps_collection_boxes,USPS COLLECTION BOX - BLUE BOX,2544 SIMPSON AVE,HOQUIAM,WA,,US,,,,United States Postal Service,Q668687
9855000001,usps_collection_boxes,USPS COLLECTION BOX - BLUE BOX,305 SIMPSON AVE,HOQUIAM,WA,,US,,,,United States Postal Service,Q668687
9855000019,usps_collection_boxes,USPS COLLECTION BOX - BLUE BOX,413 LINCOLN ST,HOQUIAM,WA,,US,,,,United States Postal Service,Q668687
,visa,,,HOQUIAM,WA,,US,,,,,
,visa,,,ABERDEEN,WA,,US,,,,,
,visa,,,HOQUIAM,WA,,US,,,,,
,visa,,,HOQUIAM,WA,,US,,,,,
,visa,,,HOQUIAM,WA,,US,,,,,
,visa,,,HOQUIAM,WA,,US,,,,,
,visa,,,HOQUIAM,WA,,US,,,,,
,visa,,,HOQUIAM,WA,,US,,,,,
,visa,,,HOQUIAM,WA,,US,,,,,
,visa,,,HOQUIAM,WA,,US,,,,,
,visa,,,HOQUIAM,WA,,US,,,,,
,visa,,,HOQUIAM,WA,,US,,,,,
,visa,,,HOQUIAM,WA,,US,,,,,
,visa,,,HOQUIAM,WA,,US,,,,,
,visa,,,HOQUIAM,WA,,US,,,,,
,visa,,,HOQUIAM,WA,,US,,,,,
,visa,,,HOQUIAM,WA,,US,,,,,
,visa,,,HOQUIAM,WA,,US,,,,,
,visa,,,HOQUIAM,WA,,US,,,,,
,visa,,,HOQUIAM,WA,,US,,,,,
,visa,,,HOQUIAM,WA,,US,,,,,
,visa,,,HOQUEAM,WA,,US,,,,,
,visa,,,HOQUIAM,WA,,US,,,,,
,visa,,,HOQUIAM,WA,,US,,,,,
,visa,,,HOQUIAM,WA,,US,,,,,
,visa,,,HOQUIAM,WA,,US,,,,,
,visa,,,HOQUIAM,WA,,US,,,,,
,visa,,,HOQUIAM,WA,,US,,,,,
