Ref,Spider,Name,Address,City,State,Zipcode,Country,Phone,Website,Hours,Brand,WikiData
6020400153,usps_collection_boxes,USPS COLLECTION BOX - BLUE BOX,2400 SHERIDAN RD,EVANSTON,IL,,US,,,,United States Postal Service,Q668687
6020400118,usps_collection_boxes,USPS COLLECTION BOX - BLUE BOX,2000 SHERIDAN RD,EVANSTON,IL,,US,,,,United States Postal Service,Q668687
6020400154,usps_collection_boxes,USPS COLLECTION BOX - BLUE BOX,1835 HINMAN AVE,EVANSTON,IL,,US,,,,United States Postal Service,Q668687
6020400126,usps_collection_boxes,USPS COLLECTION BOX - BLUE BOX,928 NOYES ST,EVANSTON,IL,,US,,,,United States Postal Service,Q668687
6020400038,usps_collection_boxes,USPS COLLECTION BOX - BLUE BOX,1856 SHERMAN AVE,EVANSTON,IL,,US,,,,United States Postal Service,Q668687
6020400144,usps_collection_boxes,USPS COLLECTION BOX - BLUE BOX,618 CHURCH ST,EVANSTON,IL,,US,,,,United States Postal Service,Q668687
6020400104,usps_collection_boxes,USPS COLLECTION BOX - BLUE BOX,501 DAVIS ST,EVANSTON,IL,,US,,,,United States Postal Service,Q668687
6020400130,usps_collection_boxes,USPS COLLECTION BOX - BLUE BOX,1600 CHICAGO AVE,EVANSTON,IL,,US,,,,United States Postal Service,Q668687
6020400051,usps_collection_boxes,USPS COLLECTION BOX - BLUE BOX,2100 RIDGE AVE,EVANSTON,IL,,US,,,,United States Postal Service,Q668687
6020400030,usps_collection_boxes,USPS COLLECTION BOX - BLUE BOX,1618 ORRINGTON AVE,EVANSTON,IL,,US,,,,United States Postal Service,Q668687
6020400074,usps_collection_boxes,USPS COLLECTION BOX - BLUE BOX,800 DAVIS ST,EVANSTON,IL,,US,,,,United States Postal Service,Q668687
6020400023,usps_collection_boxes,USPS COLLECTION BOX - BLUE BOX,1560 SHERMAN AVE,EVANSTON,IL,,US,,,,United States Postal Service,Q668687
6020400007,usps_collection_boxes,USPS COLLECTION BOX - BLUE BOX,1033 UNIVERSITY PL,EVANSTON,IL,,US,,,,United States Postal Service,Q668687
6020400004,usps_collection_boxes,USPS COLLECTION BOX - BLUE BOX,1007 CHURCH ST,EVANSTON,IL,,US,,,,United States Postal Service,Q668687
6020400090,usps_collection_boxes,USPS COLLECTION BOX - BLUE BOX,528 DEMPSTER ST,EVANSTON,IL,,US,,,,United States Postal Service,Q668687
6020400166,usps_collection_boxes,USPS COLLECTION BOX - PO LOBBY,1101 DAVIS ST,EVANSTON,IL,,US,,,,United States Postal Service,Q668687
6020400140,usps_collection_boxes,USPS COLLECTION BOX - BLUE BOX,1101 DAVIS ST,EVANSTON,IL,,US,,,,United States Postal Service,Q668687
6020400141,usps_collection_boxes,USPS COLLECTION BOX - BLUE BOX,1101 DAVIS ST,EVANSTON,IL,,US,,,,United States Postal Service,Q668687
6020400050,usps_collection_boxes,USPS COLLECTION BOX - BLUE BOX,2100 GREEN BAY RD,EVANSTON,IL,,US,,,,United States Postal Service,Q668687
6020400149,usps_collection_boxes,USPS COLLECTION BOX - PO LOBBY,1101 DAVIS ST,EVANSTON,IL,,US,,,,United States Postal Service,Q668687
6020400148,usps_collection_boxes,USPS COLLECTION BOX - PO LOBBY,1101 DAVIS ST,EVANSTON,IL,,US,,,,United States Postal Service,Q668687
6020400158,usps_collection_boxes,USPS COLLECTION BOX - APC,1101 DAVIS ST,EVANSTON,IL,,US,,,,United States Postal Service,Q668687
6020400160,usps_collection_boxes,USPS COLLECTION BOX - PO LOBBY,1101 DAVIS ST,EVANSTON,IL,,US,,,,United States Postal Service,Q668687
6020400015,usps_collection_boxes,USPS COLLECTION BOX - BLUE BOX,1118 DAVIS ST,EVANSTON,IL,,US,,,,United States Postal Service,Q668687
6020400018,usps_collection_boxes,USPS COLLECTION BOX - BLUE BOX,1128 CHICAGO AVE,EVANSTON,IL,,US,,,,United States Postal Service,Q668687
6020400017,usps_collection_boxes,USPS COLLECTION BOX - BLUE BOX,1118 DAVIS ST,EVANSTON,IL,,US,,,,United States Postal Service,Q668687
6020400013,usps_collection_boxes,USPS COLLECTION BOX - BLUE BOX,1101 DAVIS ST,EVANSTON,IL,,US,,,,United States Postal Service,Q668687
6020400011,usps_collection_boxes,USPS COLLECTION BOX - BLUE BOX,1101 DAVIS ST,EVANSTON,IL,,US,,,,United States Postal Service,Q668687
6020400123,usps_collection_boxes,USPS COLLECTION BOX - BLUE BOX,623 SHERIDAN RD,EVANSTON,IL,,US,,,,United States Postal Service,Q668687
6020400156,usps_collection_boxes,USPS COLLECTION BOX - PO LOBBY,701 MAIN ST,EVANSTON,IL,,US,,,,United States Postal Service,Q668687
6020400157,usps_collection_boxes,USPS COLLECTION BOX - PO LOBBY,701 MAIN ST,EVANSTON,IL,,US,,,,United States Postal Service,Q668687
6020400138,usps_collection_boxes,USPS COLLECTION BOX - BLUE BOX,1929 CENTRAL ST,EVANSTON,IL,,US,,,,United States Postal Service,Q668687
6020400042,usps_collection_boxes,USPS COLLECTION BOX - BLUE BOX,1929 CENTRAL ST,EVANSTON,IL,,US,,,,United States Postal Service,Q668687
6020400068,usps_collection_boxes,USPS COLLECTION BOX - BLUE BOX,701 MAIN ST,EVANSTON,IL,,US,,,,United States Postal Service,Q668687
6020400069,usps_collection_boxes,USPS COLLECTION BOX - BLUE BOX,701 MAIN ST,EVANSTON,IL,,US,,,,United States Postal Service,Q668687
6020400056,usps_collection_boxes,USPS COLLECTION BOX - BLUE BOX,2748 GREEN BAY RD,EVANSTON,IL,,US,,,,United States Postal Service,Q668687
6020400084,usps_collection_boxes,USPS COLLECTION BOX - BLUE BOX,2126 CENTRAL ST,EVANSTON,IL,,US,,,,United States Postal Service,Q668687
6020400092,usps_collection_boxes,USPS COLLECTION BOX - BLUE BOX,527 SOUTH BLVD,EVANSTON,IL,,US,,,,United States Postal Service,Q668687
6020400103,usps_collection_boxes,USPS COLLECTION BOX - BLUE BOX,625 OAKTON ST,EVANSTON,IL,,US,,,,United States Postal Service,Q668687
6020400080,usps_collection_boxes,USPS COLLECTION BOX - BLUE BOX,1300 MAIN ST,EVANSTON,IL,,US,,,,United States Postal Service,Q668687
6020400072,usps_collection_boxes,USPS COLLECTION BOX - BLUE BOX,800 AUSTIN ST,EVANSTON,IL,,US,,,,United States Postal Service,Q668687
6020400083,usps_collection_boxes,USPS COLLECTION BOX - BLUE BOX,2746 CENTRAL ST,EVANSTON,IL,,US,,,,United States Postal Service,Q668687
6020400061,usps_collection_boxes,USPS COLLECTION BOX - BLUE BOX,3315 GOLF RD,EVANSTON,IL,,US,,,,United States Postal Service,Q668687
6020400057,usps_collection_boxes,USPS COLLECTION BOX - BLUE BOX,2829 CENTRAL ST,EVANSTON,IL,,US,,,,United States Postal Service,Q668687
6020400112,usps_collection_boxes,USPS COLLECTION BOX - BLUE BOX,847 DODGE AVE,EVANSTON,IL,,US,,,,United States Postal Service,Q668687
6020400086,usps_collection_boxes,USPS COLLECTION BOX - BLUE BOX,2916 CENTRAL ST,EVANSTON,IL,,US,,,,United States Postal Service,Q668687
6020400059,usps_collection_boxes,USPS COLLECTION BOX - BLUE BOX,2949 CENTRAL ST,EVANSTON,IL,,US,,,,United States Postal Service,Q668687
6020400071,usps_collection_boxes,USPS COLLECTION BOX - BLUE BOX,723 DODGE AVE,EVANSTON,IL,,US,,,,United States Postal Service,Q668687
6020400019,usps_collection_boxes,USPS COLLECTION BOX - BLUE BOX,1325 HOWARD ST,EVANSTON,IL,,US,,,,United States Postal Service,Q668687
6020400085,usps_collection_boxes,USPS COLLECTION BOX - BLUE BOX,3200 CENTRAL ST,EVANSTON,IL,,US,,,,United States Postal Service,Q668687
6020400117,usps_collection_boxes,USPS COLLECTION BOX - BLUE BOX,3720 FOSTER ST,EVANSTON,IL,,US,,,,United States Postal Service,Q668687
6020400096,usps_collection_boxes,USPS COLLECTION BOX - BLUE BOX,9200 LAWNDALE AVE,EVANSTON,IL,,US,,,,United States Postal Service,Q668687
6020400054,usps_collection_boxes,USPS COLLECTION BOX - BLUE BOX,2530 CRAWFORD AVE,EVANSTON,IL,,US,,,,United States Postal Service,Q668687
6020400135,usps_collection_boxes,USPS COLLECTION BOX - BLUE BOX,2485 HOWARD ST,EVANSTON,IL,,US,,,,United States Postal Service,Q668687
