Ref,Spider,Name,Address,City,State,Zipcode,Country,Phone,Website,Hours,Brand,WikiData
163763,bluerhino,Riesbeck's #19 - #5619,,Toronto,OH,,US,+1 740-537-4300,,,Blue Rhino,Q65681213
193855,bluerhino,Family Dollar #04345,,TORONTO,OH,,US,+1 304-975-5382,,,Blue Rhino,Q65681213
194665,bluerhino,Walgreens #19910,,Toronto,OH,,US,+1 740-537-9425,,,Blue Rhino,Q65681213
147500,bluerhino,Toronto Gas N Go,,Toronto,OH,,US,+1 740-537-2102,,,Blue Rhino,Q65681213
88406153498604396400100000000000,bp,Amoco,,Toronto,OH,,US,+1 740-537-9591,,Mo-Su 05:00-23:00,BP,Q152057
88348,citi,ATM Walgreens,,Toronto,OH,,US,,,,Citibank,Q857063
2276,dominos_pizza_us,Domino's Pizza,,Toronto,OH,,US,+1 740-537-3537,https://pizza.dominos.com/ohio/toronto/1377-franklin-st,Mo-Th 10:30-23:00; Fr-Sa 10:30-24:00; Su 10:30-23:00,Domino's,Q839466
10228,huntingtonbank,Toronto Richmond Remote Drive Thru,,Toronto,OH,,US,+1 740-537-1808,https://www.huntington.com/Community/branch-info?locationId=10228,,Huntington Bank,Q798819
34748,h_r_block,H&R Block,,Toronto,OH,,US,+1 740-537-4757,https://www.hrblock.com/local-tax-offices/ohio/toronto/811-franklin-st/34748/,,H&R Block,Q5627799
159240,marathon_petroleum_us,Toronto Marathon,,Toronto,OH,,US,+1 740-537-3837,,,Marathon,Q458363
19,riesbeck_food_markets_us,Toronto,,Toronto,OH,,US,+1 740-537-4300,https://www.riesbeckfoods.com/stores/toronto,Mo-Su 06:00-22:00,Riesbeck's,Q28226114
https://restaurants.subway.com/#14894495,subway,Subway,,Toronto Jefferson,OH,,US,+1 740-537-1320,https://restaurants.subway.com/united-states/oh/toronto/1830-franklin-ave,Mo-Fr 08:00-22:00; Sa 09:00-22:00; Su 09:00-21:00,Subway,Q244457
0664810901,sunoco_us,Sunoco,,TORONTO,OH,,US,+1 740-537-2101,,24/7,Sunoco,Q1423218
1384846,usps,TORONTO,,TORONTO,OH,,US,+1 740-537-3222,,Mo-Fr 08:30-17:00; Sa 08:30-12:00,United States Postal Service,Q668687
4396400017,usps_collection_boxes,USPS COLLECTION BOX - BLUE BOX,1840 FRANKLIN ST,TORONTO,OH,,US,,,,United States Postal Service,Q668687
4396400013,usps_collection_boxes,USPS COLLECTION BOX - BLUE BOX,934 BANFIELD AVE,TORONTO,OH,,US,,,,United States Postal Service,Q668687
4396400001,usps_collection_boxes,USPS COLLECTION BOX - BLUE BOX,105 S 4TH ST,TORONTO,OH,,US,,,,United States Postal Service,Q668687
4396400019,usps_collection_boxes,USPS COLLECTION BOX - PO LOBBY,106 S 4TH ST,TORONTO,OH,,US,,,,United States Postal Service,Q668687
4396400002,usps_collection_boxes,USPS COLLECTION BOX - BLUE BOX,105 S 4TH ST,TORONTO,OH,,US,,,,United States Postal Service,Q668687
4396400008,usps_collection_boxes,USPS COLLECTION BOX - BLUE BOX,524 N 5TH ST,TORONTO,OH,,US,,,,United States Postal Service,Q668687
,visa,,,TORONTO,OH,,US,,,,,
,visa,,,TORONTO,OH,,US,,,,,
,visa,,,TORONTO,OH,,US,,,,,
,visa,,,TORONTO,OH,,US,,,,,
,visa,,,TORONTO,OH,,US,,,,,
,visa,,,TORONTO,OH,,US,,,,,
,visa,,,TORONTO,OH,,US,,,,,
,visa,,,TORONTO,OH,,US,,,,,
,visa,,,TORONTO,OH,,US,,,,,
,visa,,,TORONTO,OH,,US,,,,,
,visa,,,TORONTO,OH,,US,,,,,
,visa,,,TORONTO,OH,,US,,,,,
,visa,,,TORONTO,OH,,US,,,,,
,visa,,,TORONTO,OH,,US,,,,,
,visa,,,TORONTO,OH,,US,,,,,
,visa,,,TORONTO,OH,,US,,,,,
,visa,,,TORONTO,OH,,US,,,,,
,visa,,,TORONTO,OH,,US,,,,,
,visa,,,TORONTO,OH,,US,,,,,
,visa,,,TORONTO,OH,,US,,,,,
,visa,,,TORONTO,OH,,US,,,,,
,visa,,,TORONTO,OH,,US,,,,,
https://www.walgreens.com/locator/walgreens-1820+franklin+st-toronto-oh-43964/id=19910,walgreens,Walgreens,,Toronto,OH,,US,+1 740-537-9425,https://www.walgreens.com/locator/walgreens-1820+franklin+st-toronto-oh-43964/id=19910,Mo-Sa 09:00-21:00; Su 09:00-18:00,Walgreens,Q1591889
fa0db926b95f517bc608c0d2709fa245,western_union,WALGREENS #19910,,Toronto,OH,,US,+1 740-537-9425,https://location.westernunion.com/us/oh/toronto/fa0db926b95f517bc608c0d2709fa245,Mo-Fr 08:00-21:00; Sa 08:00-20:00; Su 08:00-19:00,Western Union,Q861042
