Ref,Spider,Name,Address,City,State,Zipcode,Country,Phone,Website,Hours,Brand,WikiData
70a61531be17e9231af9546ace2734f0,western_union,KIEN LONG BANK CAM RANH,,Khanh Hoa,KHANH HOA,,VN,+84 258 3956 767,https://location.westernunion.com/vn/khanh-hoa/khanh-hoa/70a61531be17e9231af9546ace2734f0,Mo-Sa 07:30-17:00,Western Union,Q861042
e7341aad8cd405e66e2a603e53e456a1,western_union,DNTN VB KIM HUE,,Khanh Hoa,KHANH HOA,,VN,+84 258 3971 060,https://location.westernunion.com/vn/khanh-hoa/khanh-hoa/e7341aad8cd405e66e2a603e53e456a1,Mo-Su 06:00-21:00,Western Union,Q861042
65f47a35ab16df587872c3531cec8113,western_union,NHNO AND PTNT KHANH HOA CNC3 MY CA,,Khanh Hoa,KHANH HOA,,VN,+84 258 3971 308,https://location.westernunion.com/vn/khanh-hoa/khanh-hoa/65f47a35ab16df587872c3531cec8113,Mo-Fr 07:00-17:00; Sa 08:00-11:30; Su 07:30-17:00,Western Union,Q861042
0860627fb25d79356a0c41e7bba333bc,western_union,ACB PGD CAM RANH,,Cam Ranh,KHANH HOA,,VN,+84 258 3956 868,https://location.westernunion.com/vn/khanh-hoa/cam-ranh/0860627fb25d79356a0c41e7bba333bc,Mo-Fr 07:30-19:00; Sa 07:30-17:00,Western Union,Q861042
1707056dd10d11b24762bcc0c229974f,western_union,AGRIBANK KHANH HOA CN VAN NINH PGD SO 1,,Khanh Hoa,KHANH HOA,,VN,(+84) 840235-3911214,https://location.westernunion.com/vn/khanh-hoa/khanh-hoa/1707056dd10d11b24762bcc0c229974f,Mo-Fr 07:00-17:00; Sa 08:00-11:30; Su 07:30-17:00,Western Union,Q861042
16d642105931287efd81388399b80338,western_union,NHNO AND PTNT KHANH HOA CN BA NGOI,,Khanh Hoa,KHANH HOA,,VN,+84 258 3856 383,https://location.westernunion.com/vn/khanh-hoa/khanh-hoa/16d642105931287efd81388399b80338,Mo-Fr 07:00-17:00; Sa 08:00-11:30; Su 07:30-17:00,Western Union,Q861042
5e8f3b6f6aed0edf6aff852a2f8df82d,western_union,NHNO AND PTNT KHANH HOA CN CAM DUC,,Khanh Hoa,KHANH HOA,,VN,+84 258 3980 263,https://location.westernunion.com/vn/khanh-hoa/khanh-hoa/5e8f3b6f6aed0edf6aff852a2f8df82d,Mo-Fr 07:00-17:00; Sa 08:00-11:30; Su 07:30-17:00,Western Union,Q861042
970ee115d83d8872d723a1da30438cba,western_union,DNTN HIEU VANG NGOC HUONG,,Khanh Hoa,KHANH HOA,,VN,+84 258 3500 717,https://location.westernunion.com/vn/khanh-hoa/khanh-hoa/970ee115d83d8872d723a1da30438cba,Mo-Su 06:00-21:00,Western Union,Q861042
99e959598856d64a2fe8af91ce4be21c,western_union,KIEN LONG BANK BINH TAN,,Khanh Hoa,KHANH HOA,,VN,+84 258 3883 777,https://location.westernunion.com/vn/khanh-hoa/khanh-hoa/99e959598856d64a2fe8af91ce4be21c,Mo-Sa 07:30-17:00,Western Union,Q861042
e5cdf47aab3c62040bb3a577f90edd1f,western_union,NHNO AND PTNT KHANH HOA CN NAM NHA TRA,,Khanh Hoa,KHANH HOA,,VN,(+84) 258-881108,https://location.westernunion.com/vn/khanh-hoa/khanh-hoa/e5cdf47aab3c62040bb3a577f90edd1f,Mo-Fr 07:00-17:00; Sa 08:00-11:30; Su 07:30-17:00,Western Union,Q861042
824053bb5fdfe4a2e730318c665e49ae,western_union,ACB PGD PHUOC LONG KHANH HOA,,Khanh Hoa,KHANH HOA,,VN,+84 258 3883 999,https://location.westernunion.com/vn/khanh-hoa/khanh-hoa/824053bb5fdfe4a2e730318c665e49ae,Mo-Fr 07:30-19:00; Sa 07:30-17:00,Western Union,Q861042
cfdbcf8d39193ebc5839e75d2642e601,western_union,NHNO AND PTNT KHANH HOA PGD BINH TAN,,Khanh Hoa,KHANH HOA,,VN,+84 258 3715 010,https://location.westernunion.com/vn/khanh-hoa/khanh-hoa/cfdbcf8d39193ebc5839e75d2642e601,Mo-Fr 07:00-17:00; Sa 08:00-11:30; Su 07:30-17:00,Western Union,Q861042
547abbf00d4ecd0ae60ca4409a51e971,western_union,NHNO AND PTNT KHANH HOA CN VINH THO,,Khanh Hoa,KHANH HOA,,VN,+84 258 3831 101,https://location.westernunion.com/vn/khanh-hoa/khanh-hoa/547abbf00d4ecd0ae60ca4409a51e971,Mo-Fr 07:00-17:00; Sa 08:00-11:30; Su 07:30-17:00,Western Union,Q861042
a23cfac703956495fd3fce521a699227,western_union,NHNO AND PTNT KHANH HOA HOI SO,,Khanh Hoa,KHANH HOA,,VN,+84 258 3521 932,https://location.westernunion.com/vn/khanh-hoa/khanh-hoa/a23cfac703956495fd3fce521a699227,Mo-Fr 08:00-17:00,Western Union,Q861042
1ecd0f795ca409aae878b120bd9ea5e4,western_union,ACB CN KHANH HOA,,Khanh Hoa,KHANH HOA,,VN,+84 258 3525 999,https://location.westernunion.com/vn/khanh-hoa/khanh-hoa/1ecd0f795ca409aae878b120bd9ea5e4,Mo-Fr 07:30-19:00; Sa 07:30-12:00,Western Union,Q861042
7d3ac70032962627bfd08516a47f2a4b,western_union,NHNO AND PTNT KHANH HOA CN TP NHA TRANG,,Khanh Hoa,KHANH HOA,,VN,+84 258 3822 591,https://location.westernunion.com/vn/khanh-hoa/khanh-hoa/7d3ac70032962627bfd08516a47f2a4b,Mo-Fr 08:00-17:00,Western Union,Q861042
b36d38f41eb17aa668a4228e2a8a4688,western_union,NHNO AND PTNT KHANH HOA CN VINH HIEP,,Khanh Hoa,KHANH HOA,,VN,+84 258 3891 068,https://location.westernunion.com/vn/khanh-hoa/khanh-hoa/b36d38f41eb17aa668a4228e2a8a4688,Mo-Fr 07:00-17:00; Sa 08:00-11:30; Su 07:30-17:00,Western Union,Q861042
42e1e601a8aa3b25cbb19ad8908cd361,western_union,DNTN MINH HAI 60 NGO GIA TU,,Nha Trang,KHANH HOA,,VN,+84 258 3512 522,https://location.westernunion.com/vn/khanh-hoa/nha-trang/42e1e601a8aa3b25cbb19ad8908cd361,Mo-Su 06:00-21:00,Western Union,Q861042
1e9515c581faee8dc63bc380cdfd64d4,western_union,ACB PGD PHUONG SON,,Nha Trang,KHANH HOA,,VN,+84 258 3562 999,https://location.westernunion.com/vn/khanh-hoa/nha-trang/1e9515c581faee8dc63bc380cdfd64d4,Mo-Fr 07:30-19:00; Sa 07:30-17:00,Western Union,Q861042
1eda2c9bf5e86b1e8a911c6c6a19fb7f,western_union,NHNO AND PTNT KHANH HOA CN H CAM RANH,,Khanh Hoa,KHANH HOA,,VN,+84 258 3861 019,https://location.westernunion.com/vn/khanh-hoa/khanh-hoa/1eda2c9bf5e86b1e8a911c6c6a19fb7f,Mo-Fr 07:00-17:00; Sa 08:00-11:30; Su 07:30-17:00,Western Union,Q861042
758ed65ab0578fb0d0e28a89e75fa992,western_union,NHNO AND PTNT KHANH HOA CN KHANH SON,,Khanh Hoa,KHANH HOA,,VN,+84 258 3869 078,https://location.westernunion.com/vn/khanh-hoa/khanh-hoa/758ed65ab0578fb0d0e28a89e75fa992,Mo-Fr 07:00-17:00; Sa 08:00-11:30; Su 07:30-17:00,Western Union,Q861042
238af1693ec3c70d4055673bf2b304f0,western_union,NHNO AND PTNT KHANH HOA CN DIEN PHUOC,,Khanh Hoa,KHANH HOA,,VN,+84 258 3780 787,https://location.westernunion.com/vn/khanh-hoa/khanh-hoa/238af1693ec3c70d4055673bf2b304f0,Mo-Fr 07:00-17:00; Sa 08:00-11:30; Su 07:30-17:00,Western Union,Q861042
789ee503fa1275437440413c29955cd9,western_union,NHNO AND PTNT KHANH HOA CN DIEN KHANH,,Khanh Hoa,KHANH HOA,,VN,+84 258 3850 277,https://location.westernunion.com/vn/khanh-hoa/khanh-hoa/789ee503fa1275437440413c29955cd9,Mo-Fr 07:00-17:00; Sa 08:00-11:30; Su 07:30-17:00,Western Union,Q861042
bfed5bc815797ed2306e095bc5133483,western_union,NHNO AND PTNT KHANH HOA PGD CHO THANH,,Khanh Hoa,KHANH HOA,,VN,+84 258 3852 354,https://location.westernunion.com/vn/khanh-hoa/khanh-hoa/bfed5bc815797ed2306e095bc5133483,Mo-Fr 07:00-17:00; Sa 08:00-11:30; Su 07:30-17:00,Western Union,Q861042
5bbd269968a04167e47809e48fbca6ca,western_union,NHNO AND PTNT KHANH HOA CN TU BONG,,Khanh Hoa,KHANH HOA,,VN,+84 258 3843 229,https://location.westernunion.com/vn/khanh-hoa/khanh-hoa/5bbd269968a04167e47809e48fbca6ca,Mo-Fr 07:00-17:00; Sa 08:00-11:30; Su 07:30-17:00,Western Union,Q861042
8c47efe351ea812147e9e3e50994c738,western_union,NHNO AND PTNT KHANH HOA CN SUOI DAU,,Khanh Hoa,KHANH HOA,,VN,+84 258 3743 049,https://location.westernunion.com/vn/khanh-hoa/khanh-hoa/8c47efe351ea812147e9e3e50994c738,Mo-Fr 07:00-17:00; Sa 08:00-11:30; Su 07:30-17:00,Western Union,Q861042
8db4a1a12a60d3e564a1cc0ef66e5cfb,western_union,DNTN HIEU VANG QUOC KHANG,,Khanh Hoa,KHANH HOA,,VN,+84 258 3911 222,https://location.westernunion.com/vn/khanh-hoa/khanh-hoa/8db4a1a12a60d3e564a1cc0ef66e5cfb,Mo-Su 06:00-21:00,Western Union,Q861042
d9210ef6e2ca0f73c19f230dd11cc15c,western_union,DNTN KIM TUNG CHI,,Khanh Hoa,KHANH HOA,,VN,+84 258 3840 034,https://location.westernunion.com/vn/khanh-hoa/khanh-hoa/d9210ef6e2ca0f73c19f230dd11cc15c,Mo-Su 06:00-21:00,Western Union,Q861042
1b81017aa518dcbe5926a35558192992,western_union,NHNO AND PTNT KHANH HOA CN VAN NINH,,Khanh Hoa,KHANH HOA,,VN,+84 258 3840 235,https://location.westernunion.com/vn/khanh-hoa/khanh-hoa/1b81017aa518dcbe5926a35558192992,Mo-Fr 07:00-17:00; Sa 08:00-11:30; Su 07:30-17:00,Western Union,Q861042
759a27d2e8c2d5fcf7115c19e67ed501,western_union,NHNO AND PTNT KHANH HOA PGD VAN HUNG,,Khanh Hoa,KHANH HOA,,VN,+84 258 3940 955,https://location.westernunion.com/vn/khanh-hoa/khanh-hoa/759a27d2e8c2d5fcf7115c19e67ed501,Mo-Fr 07:00-17:00; Sa 08:00-11:30; Su 07:30-17:00,Western Union,Q861042
3fb0d503d1fe8c20e2071b03b42ad459,western_union,ACB PGD NINH HOA,,Khanh Hoa,KHANH HOA,,VN,+84 258 3846 888,https://location.westernunion.com/vn/khanh-hoa/khanh-hoa/3fb0d503d1fe8c20e2071b03b42ad459,Mo-Fr 07:30-19:00; Sa 07:30-17:00,Western Union,Q861042
12d6fc98cce53325333a069d5cf6bc07,western_union,NHNO AND PTNT KHANH HOA CN NINH DIEM,,Khanh Hoa,KHANH HOA,,VN,+84 258 3849 140,https://location.westernunion.com/vn/khanh-hoa/khanh-hoa/12d6fc98cce53325333a069d5cf6bc07,Mo-Fr 07:00-17:00; Sa 08:00-11:30; Su 07:30-17:00,Western Union,Q861042
5f2e9444a2b30f578f30b12ecc7a5633,western_union,KIEN LONG BANK NINH HOA,,Khanh Hoa,KHANH HOA,,VN,+84 258 3635 863,https://location.westernunion.com/vn/khanh-hoa/khanh-hoa/5f2e9444a2b30f578f30b12ecc7a5633,Mo-Sa 07:30-17:00,Western Union,Q861042
4648515fda64a9ca1900c20089e296b2,western_union,CTY TNHH TM & DV THIEN SON,,Khanh Hoa,KHANH HOA,,VN,+84 258 3844 224,https://location.westernunion.com/vn/khanh-hoa/khanh-hoa/4648515fda64a9ca1900c20089e296b2,Mo-Su 06:00-21:00,Western Union,Q861042
c5883d3b999ccbd380ba6f7baf371d55,western_union,NHNO AND PTNT KHANH HOA CN H NINH HOA,,Khanh Hoa,KHANH HOA,,VN,+84 258 3844 250,https://location.westernunion.com/vn/khanh-hoa/khanh-hoa/c5883d3b999ccbd380ba6f7baf371d55,Mo-Fr 07:00-17:00; Sa 08:00-11:30; Su 07:30-17:00,Western Union,Q861042
bc94da060dc4392011051bdb9a3632f7,western_union,KIEN LONG BANK VAN NINH,,Khanh Hoa,KHANH HOA,,VN,+84 258 3913 891,https://location.westernunion.com/vn/khanh-hoa/khanh-hoa/bc94da060dc4392011051bdb9a3632f7,Mo-Sa 07:30-17:00,Western Union,Q861042
2012b73652147400a2a8c3f00297664a,western_union,NHNO AND PTNT KHANH HOA CN KHANH VINH,,Khanh Hoa,KHANH HOA,,VN,+84 258 3790 354,https://location.westernunion.com/vn/khanh-hoa/khanh-hoa/2012b73652147400a2a8c3f00297664a,Mo-Fr 07:00-17:00; Sa 08:00-11:30; Su 07:30-17:00,Western Union,Q861042
11c63f2350e17a6a0ea7f58d422ecfc9,western_union,NHNO AND PTNT KHANH HOA CN CHO XOM MOI,,Khanh Hoa,KHANH HOA,,VN,+84 258 3881 108,https://location.westernunion.com/vn/khanh-hoa/khanh-hoa/11c63f2350e17a6a0ea7f58d422ecfc9,Mo-Fr 07:00-17:00; Sa 08:00-11:30; Su 07:30-17:00,Western Union,Q861042
989fead9a6b5dfa9e1dad6f57ef6461b,western_union,NHNO AND PTNT KHANH HOA CN DUC MY,,Khanh Hoa,KHANH HOA,,VN,+84 258 3848 010,https://location.westernunion.com/vn/khanh-hoa/khanh-hoa/989fead9a6b5dfa9e1dad6f57ef6461b,Mo-Fr 07:00-17:00; Sa 08:00-11:30; Su 07:30-17:00,Western Union,Q861042
