Ref,Spider,Name,Address,City,State,Zipcode,Country,Phone,Website,Hours,Brand,WikiData
https://www.ameripriseadvisors.com/team/taraz-financial-advisory-group/contact/,ameriprise_us,Taraz Financial Advisory Group,,Rancho Santa Fe,CA,,US,+1 760-632-6361,https://www.ameripriseadvisors.com/team/taraz-financial-advisory-group/,Mo-We 09:00-05:00; Th 09:00-04:00; Fr 09:00-03:00,Ameriprise Financial,Q2843129
https://www.ameripriseadvisors.com/ray.h.taraz/contact/,ameriprise_us,Ray H Taraz,,Rancho Santa Fe,CA,,US,+1 760-632-6361,https://www.ameripriseadvisors.com/ray.h.taraz/,Mo-Fr 08:00-05:00,Ameriprise Financial,Q2843129
11989226,anatomie,Shaneh Boutique,,Rancho Santa Fe,CA,,US,+1 858-531-6863,http://www.shanehboutique.com,,Anatomie,Q115608133
https://locators.bankofamerica.com/ca/ranchosantafe/financial-centers-rancho-santa-fe-11376.html,bankofamerica,Bank of America Financial Center & Drive-Thru ATM | Rancho Santa Fe,,Rancho Santa Fe,CA,,US,+1 858-759-7280,https://locators.bankofamerica.com/ca/ranchosantafe/financial-centers-rancho-santa-fe-11376.html,Mo-Fr 10:00-16:00,Bank of America,Q487907
2042843,chase_us,Rancho Santa Fe - New branch,,Rancho Santa Fe,CA,,US,+1 858-756-3777,https://locator.chase.com/ca/rancho-santa-fe/6041-la-flecha,Mo-Fr 09:00-17:00,Chase,Q524629
67180,citi,ATM PACIFIC WESTERN BANK,,Rancho Santa Fe,CA,,US,,,,Citibank,Q857063
200309667,exxonmobil,ATR MANAGEMENT INC.,,RANCHO SANTA FE,CA,,US,+1 858-759-9184,https://www.exxon.com/en/find-station/mobil-ranchosantafe-ca-atrmanagementinc-200309667,Mo-Su 07:00-22:00,Mobil,Q109676002
9206700001,usps_collection_boxes,USPS COLLECTION BOX - BLUE BOX,6029 LA FLECHA,RANCHO SANTA FE,CA,,US,,,,United States Postal Service,Q668687
9206700002,usps_collection_boxes,USPS COLLECTION BOX - BLUE BOX,6024 PASEO DELICIAS,RANCHO SANTA FE,CA,,US,,,,United States Postal Service,Q668687
9206700008,usps_collection_boxes,USPS COLLECTION BOX - BLUE BOX,16091 SAN DIEGUITO RD,RANCHO SANTA FE,CA,,US,,,,United States Postal Service,Q668687
9206700003,usps_collection_boxes,USPS COLLECTION BOX - BLUE BOX,16236 SAN DIEGUITO RD,RANCHO SANTA FE,CA,,US,,,,United States Postal Service,Q668687
9206700011,usps_collection_boxes,USPS COLLECTION BOX - BLUE BOX,16236 SAN DIEGUITO RD,RANCHO SANTA FE,CA,,US,,,,United States Postal Service,Q668687
9206700006,usps_collection_boxes,USPS COLLECTION BOX - BLUE BOX,3900 VILLA VALLE VERDE,RANCHO SANTA FE,CA,,US,,,,United States Postal Service,Q668687
,visa,,,RANCHO SANTA FE,CA,,US,,,,,
,visa,,,RANCHO SANTA FE,CA,,US,,,,,
,visa,,,RANCHO SANTA FE,CA,,US,,,,,
,visa,,,RANCHO SANTA FE,CA,,US,,,,,
,visa,,,RANCHO SANTA FE,CA,,US,,,,,
,visa,,,RANCHO SANTA FE,CA,,US,,,,,
,visa,,,RANCHO SANTA,CA,,US,,,,,
,visa,,,RANCHO SANTA FE,CA,,US,,,,,
,visa,,,RANCHO SANTA FE,CA,,US,,,,,
,visa,,,RANCHO SANTA FE,CA,,US,,,,,
,visa,,,RANCHO SANTA FE,CA,,US,,,,,
,visa,,,RANCHO SANTA FE,CA,,US,,,,,
,visa,,,RANCHO SANA FE,CA,,US,,,,,
,visa,,,LOS ANGELES,CA,,US,,,,,
,visa,,,LOS ANGELES,CA,,US,,,,,
,visa,,,LOS ANGELES,CA,,US,,,,,
6008__PASEO__DELICIAS_RANCHO__SANTA__FE_CA_92067,wellsfargo,Wells Fargo,6008 PASEO DELICIAS,RANCHO SANTA FE,CA,,US,+1 858-756-4480,https://www.wellsfargo.com/locator/bank/6008__PASEO__DELICIAS_RANCHO__SANTA__FE_CA_92067/,Mo-Fr 09:00-17:00,Wells Fargo,Q744149
