Ref,Spider,Name,Address,City,State,Zipcode,Country,Phone,Website,Hours,Brand,WikiData
https://stores.advanceautoparts.com/sc/greenville/3713-pelham-rd,advance_auto_parts_us,Advance Auto Parts,,Greenville,SC,,US,+1 864-329-1486,https://stores.advanceautoparts.com/sc/greenville/3713-pelham-rd,Mo-Sa 07:30-21:00; Su 09:00-20:00,Advance Auto Parts,Q4686051
498620,afcurgentcare,American Family Care Wade Hampton,,Greenville,SC,,US,+1 864-292-5915,https://www.afcurgentcare.com/wade-hampton/,Mo-Fr 08:00-20:00; Sa-Su 08:00-17:00,AFC Urgent Care,Q110552174
498579,afcurgentcare,American Family Care Pelham Road,,Greenville,SC,,US,+1 864-537-0050,https://www.afcurgentcare.com/pelham-road/,Mo-Fr 08:00-20:00; Sa-Su 08:00-17:00,AFC Urgent Care,Q110552174
One Independence Pointe,allied_universal,Allied Universal,,Greenville,SC,,US,+1 864-244-0442,https://www.aus.com/greenville-security-systems-services,,Allied Universal,Q4732537
https://locations.atipt.com/greenville-patewood2-sc,ati_physical_therapy,ATI Physical Therapy Greenville 5133,,Greenville,SC,,US,+1 864-780-4793,https://locations.atipt.com/greenville-patewood2-sc,,ATI Physical Therapy,Q50039703
https://locations.atipt.com/greenville-patewood-sc,ati_physical_therapy,ATI Physical Therapy Greenville 5132,,Greenville,SC,,US,+1 864-780-4767,https://locations.atipt.com/greenville-patewood-sc,,ATI Physical Therapy,Q50039703
b5e51b10db6b425e9074d735ee92f4d6,atrium_health,Atrium Health Liver Care & Transplant Greenville,,Greenville,SC,,US,+1 864-675-5950,https://atriumhealth.org/locations/detail/atrium-health-liver-care-and-transplant-greenville,,Atrium Health,Q5044932
https://locators.bankofamerica.com/sc/greenville/financial-centers-greenville-11061.html,bankofamerica,Bank of America Financial Center & Drive-Thru ATM | Pine Knoll,,Greenville,SC,,US,+1 864-271-5707,https://locators.bankofamerica.com/sc/greenville/financial-centers-greenville-11061.html,Mo-Fr 10:00-16:00,Bank of America,Q487907
https://locators.bankofamerica.com/sc/greenville/financial-centers-greenville-9443.html,bankofamerica,Bank of America Financial Center with Drive-Thru ATM & Teller Services | Haywood Road,,Greenville,SC,,US,+1 864-240-6243,https://locators.bankofamerica.com/sc/greenville/financial-centers-greenville-9443.html,Mo-Fr 09:00-17:00; Sa 09:00-14:00,Bank of America,Q487907
https://locators.bankofamerica.com/sc/greenville/financial-centers-greenville-8871.html,bankofamerica,Bank of America Financial Center & Drive-Thru ATM | Pelham Road,,Greenville,SC,,US,+1 864-271-5808,https://locators.bankofamerica.com/sc/greenville/financial-centers-greenville-8871.html,Mo-Fr 10:00-16:00,Bank of America,Q487907
236252,bluerhino,Circle K #2723277,,Greenville,SC,,US,+1 864-244-5897,,,Blue Rhino,Q65681213
152740,bluerhino,Walgreens #10389,,Greenville,SC,,US,+1 864-234-6462,,,Blue Rhino,Q65681213
229804,bluerhino,Walmart #4583 - Vending,,Greenville,SC,,US,+1 864-288-8081,,,Blue Rhino,Q65681213
236254,bluerhino,Circle K #2723285,,Greenville,SC,,US,+1 864-288-1735,,,Blue Rhino,Q65681213
201279,bluerhino,Lowes Food #275,,Greenville,SC,,US,+1 864-288-4162,,,Blue Rhino,Q65681213
76979447390092961500100000000000,bp,BP,,Greenville,SC,,US,+1 864-236-7050,,,BP,Q152057
0931,carpet_one_floor_and_home_us,Greenville Carpet One Floor & Home,,Greenville,SC,,US,+1 864-281-0006,https://www.carpetonegreenville.com/,,Carpet One Floor & Home,Q121335910
23031348,chase_us,Pelham Road - New branch,,Greenville,SC,,US,+1 864-900-8530,https://locator.chase.com/sc/greenville/3845-pelham-rd,Mo-Fr 09:00-17:00; Sa 09:00-13:00,Chase,Q524629
sc_greenville_3645-pelham-rd,chipotle, ,,Greenville,SC,,US,+1 864-412-1030,https://locations.chipotle.com/sc/greenville/3645-pelham-rd,,Chipotle,Q465751
28242,citi,ATM 7ELEVEN-FCTI,,Greenville,SC,,US,,,,Citibank,Q857063
89594,citi,ATM Walgreens,,Greenville,SC,,US,,,,Citibank,Q857063
49417,citi,ATM CVS,,Greenville,SC,,US,,,,Citibank,Q857063
42551,citi,ATM Circle K,,Greenville,SC,,US,,,,Citibank,Q857063
44304,citi,ATM Circle K,,Greenville,SC,,US,,,,Citibank,Q857063
93369,citi,ATM Walgreens,,Greenville,SC,,US,,,,Citibank,Q857063
50724,citi,ATM CVS,,Greenville,SC,,US,,,,Citibank,Q857063
86154,citi,ATM Walgreens,,Greenville,SC,,US,,,,Citibank,Q857063
48062,citi,ATM CVS,,Greenville,SC,,US,,,,Citibank,Q857063
om_sc_greenville_2110-wade-hampton-blvd,cititrends,Citi Trends,,Greenville,SC,,US,+1 864-584-7853,https://locations.cititrends.com/sc/greenville/2110-wade-hampton-blvd.html,Mo 11:00-20:00; Tu 11:00-20:00; We 11:00-20:00; Th 11:00-20:00; Fr 10:00-21:00; Sa 10:00-21:00; Su 12:00-18:00,Citi Trends,Q5122438
35,clean_eatz_us,,,Greenville,SC,,US,+1 864-605-7999,https://locations.cleaneatz.com/sc/greenville/meal-prep-35.html,Mo-Fr 11:00-19:00; Sa-Su 12:00-16:00,Clean Eatz,Q124412638
,credit_union_us,Truliant FCU,,Greenville,SC,,US,+1 800-822-0382,,Mo-Th 09:00-05:00; Fr 09:00-06:00,,
7397,cvs_us,CVS Pharmacy,,Greenville,SC,,US,+1 864-288-3672,https://www.cvs.com/store-locator/greenville-sc-pharmacies/3901-pelham-rd-greenville-sc-29615/storeid=7397,Mo-Su 08:00-22:00,CVS Pharmacy,Q2078880
2240,cvs_us,CVS Pharmacy,,Greenville,SC,,US,+1 864-213-1082,https://www.cvs.com/store-locator/greenville-sc-pharmacies/1509-roper-mountain-road-greenville-sc-29615/storeid=2240,Mo-Su 08:00-22:00,CVS Pharmacy,Q2078880
4205,cvs_us,CVS Pharmacy,,Greenville,SC,,US,+1 864-244-1851,https://www.cvs.com/store-locator/greenville-sc-pharmacies/2401-e-north-st-greenville-sc-29615/storeid=4205,Mo-Su 07:00-23:00,CVS Pharmacy,Q2078880
202054,dennys,Denny's,,Greenville,SC,,US,+1 864-292-9105,https://locations.dennys.com/SC/GREENVILLE/202054,24/7,Denny's,Q1189695
vc_0316V,department_veterans_affairs,"Greenville, SC Vet Center",,Greenville,SC,,US,+1 864-271-2711,https://www.va.gov/greenville-sc-vet-center/,,Department Veterans Affairs,Q592576
302065,dunkin_us,Dunkin',,Greenville,SC,,US,+1 864-244-1002,https://locations.dunkindonuts.com/en/sc/greenville/2423-wade-hampton-blvd/302065,Mo-Fr 05:00-20:00; Sa-Su 06:00-20:00,Dunkin',Q847743
345207,dunkin_us,Dunkin',,Greenville,SC,,US,+1 864-254-6060,https://locations.dunkindonuts.com/en/sc/greenville/101-the-parkway/345207,Mo-Fr 05:00-20:00; Sa-Su 06:00-20:00,Dunkin',Q847743
https://www.edwardjones.com/us-en/financial-advisor/dustin-shirah,edwardjones,Dustin Shirah,,Greenville,SC,,US,+1 864-234-7840,https://www.edwardjones.com/us-en/financial-advisor/dustin-shirah,Mo-Fr 08:00-16:30,Edward Jones,Q5343830
0875,european_wax_center_us,European Wax Center,,Greenville,SC,,US,+1 864-477-2522,https://locations.waxcenter.com/sc/greenville/greenville-0875.html,Mo-Fr 08:30-20:30; Sa 08:00-18:00; Su 10:00-18:00,European Wax Center,Q5413426
https://local.fedex.com/#25201407,fedex,,,Greenville,SC,,US,+1 800-463-3339,https://local.fedex.com/en-us/sc/greenville/puu7d,,FedEx,Q459477
https://local.fedex.com/#25205190,fedex,,,Greenville,SC,,US,+1 800-463-3339,https://local.fedex.com/en-us/sc/greenville/pp5sv,,FedEx,Q459477
https://local.fedex.com/#25203650,fedex,,,Greenville,SC,,US,+1 800-463-3339,https://local.fedex.com/en-us/sc/greenville/ajmna,,FedEx,Q459477
https://local.fedex.com/#25145901,fedex,FedEx Authorized ShipCenter,,Greenville,SC,,US,+1 864-288-2669,https://local.fedex.com/en-us/sc/greenville/73361,,FedEx,Q459477
654930,firestone_auto_care,Firestone Complete Auto Care,,Greenville,SC,,US,+1 864-558-2914,https://local.firestonecompleteautocare.com/south-carolina/greenville/923-haywood-rd/,,Firestone,Q420837
2685,first_cash,Cash America Pawn,,Greenville,SC,,US,+1 864-268-8877,,,Cash America,Q5048636
https://restaurants.fiveguys.com/#15553370,five_guys_us,Five Guys Plaza on Pelham (near I-85/Pelham Rd. intersection),,Greenville,SC,,US,+1 864-438-2198,https://restaurants.fiveguys.com/3935-pelham-rd,"Mo 10:00-21:30,10:00-22:00; Tu 11:00-21:30,11:00-22:00; We-Su 10:00-21:30,10:00-22:00",Five Guys,Q1131810
0f39b59f-458a-e111-8dde-005056934050,goodwill,ADC-Vaughns Plaza,,Greenville,SC,,US,,https://www.goodwill.org/locator/location/?store=MGYzOWI1OWYtNDU4YS1lMTExLThkZGUtMDA1MDU2OTM0MDUw&lat=MzQuODYwNjY=&lng=LTgyLjMxMjg4,,Goodwill,Q5583655
https://www.goodyearautoservice.com/en_US/location/Greenville-SC-29615-US-000902345,goodyear_us,"Goodyear Auto Service - Milestone, Greenville, SC | Oil, Brakes & Repairs | #000902345",,Greenville,SC,,US,+1 864-288-9904,https://www.goodyearautoservice.com/en_US/location/Greenville-SC-29615-US-000902345,Mo-Sa 07:30-18:30; Su 08:00-17:00,Goodyear,Q620875
https://www.goodyearautoservice.com/en_US/location/Greenville-SC-29615-US-000902344,goodyear_us,"Goodyear Auto Service - Wade Hampton, Greenville, SC | Oil, Brakes & Repairs | #000902344",,Greenville,SC,,US,+1 864-292-0471,https://www.goodyearautoservice.com/en_US/location/Greenville-SC-29615-US-000902344,Mo-Sa 08:00-18:00,Goodyear,Q620875
https://salons.greatclips.com/us/sc/greenville/3612-pelham-rd,greatclips,Great Clips,,Greenville,SC,,US,+1 864-987-0820,https://salons.greatclips.com/us/sc/greenville/3612-pelham-rd,Mo-Fr 10:00-18:00; Sa 09:00-18:00; Su 13:00-18:00,Great Clips,Q5598967
1506161,hardees_us,Hardee's,,Greenville,SC,,US,+1 864-242-2486,https://locations.hardees.com/sc/greenville/3-pelham-rd,,Hardee's,Q1585088
gspprht-home2-suites-greenville-airport,hilton,Home2 Suites by Hilton Greenville Airport,,,SC,,US,+1 864-288-0000,https://www.hilton.com/ar/hotels/gspprht-home2-suites-greenville-airport/,,Home2 Suites by Hilton,Q5887912
39241,h_r_block,H&R Block,,Greenville,SC,,US,+1 864-271-0345,https://www.hrblock.com/local-tax-offices/south-carolina/greenville/pelham-commons/39241/,,H&R Block,Q5627799
https://locations.ironmountain.com/sc/greenville/1124/,iron_mountain,"Iron Mountain in 201 Brozzini Court, Suite G, Greenville, South Carolina | Secure Shredding, Scanning, IT Asset Disposition, & Records Management",,Greenville,SC,,US,+1 800-899-4766,https://locations.ironmountain.com/sc/greenville/1124/,,Iron Mountain Incorporated,Q1673079
https://office.jacksonhewitt.com/#1013655423,jackson_hewitt,Jackson Hewitt,,Greenville,SC,,US,+1 864-486-1099,https://office.jacksonhewitt.com/tax-preparation-services-locations/en/sc/greenville/3925-pelham-rd/54583,Mo-Fr 11:00-19:00; Sa 10:00-18:00; Su 13:00-17:00,Jackson Hewitt,Q6117132
https://locations.jimmyjohns.com/sc/greenville/sandwiches-2046.html,jimmy_johns,Jimmy John's,,Greenville,SC,,US,+1 864-234-0835,https://locations.jimmyjohns.com/sc/greenville/sandwiches-2046.html,,Jimmy John's,Q1689380
1064,lidl_us,Greenville SC - Wade Hampton Blvd Lidl,,Greenville,SC,,US,+1 844-747-5435,,,Lidl,Q151954
store-275,lowes_foods,Lowes Foods of Pelham Road,,Greenville,SC,,US,+1 864-288-4162,https://www.lowesfoods.com/store-locator/store-275,Mo-Su 06:00-22:00,Lowes Foods,Q6693991
https://www.mainevent.com/locations/south-carolina/greenville,main_event,MAIN EVENT GREENVILLE,,Greenville,SC,,US,+1 864-768-3070,https://www.mainevent.com/locations/south-carolina/greenville,Mo 11:00-01:00; Tu-Th 11:00-24:00; Fr 11:00-02:00; Sa 09:00-02:00; Su 11:00-24:00,Main Event Entertainment,Q56062981
GSPPH,marriott,Courtyard Greenville-Spartanburg Airport,,Greenville,SC,,US,+1 864-213-9009,https://www.marriott.com/GSPPH,,Courtyard by Marriott,Q1053170
GSPCH,marriott,Courtyard Greenville Haywood Mall,,Greenville,SC,,US,+1 864-234-0300,https://www.marriott.com/GSPCH,,Courtyard by Marriott,Q1053170
GSPPR,marriott,Fairfield Inn Greenville-Spartanburg Airport,,Greenville,SC,,US,+1 864-234-9916,https://www.marriott.com/GSPPR,,Fairfield by Marriott,Q5430314
GSPAP,marriott,Greenville Marriott,,Greenville,SC,,US,+1 864-297-0300,https://www.marriott.com/GSPAP,,Marriott Hotels & Resorts,Q3918608
GSPRI,marriott,Residence Inn Greenville-Spartanburg Airport,,Greenville,SC,,US,+1 864-627-0001,https://www.marriott.com/GSPRI,,Residence Inn by Marriott,Q7315394
https://locations.massageenvy.com/#1773881,massage_envy,Massage Envy Pelham Hills,,Greenville,SC,,US,+1 864-288-1150,https://locations.massageenvy.com/south-carolina/greenville/3714-pelham-road.html,Mo-Fr 08:00-22:00; Sa 08:00-20:00; Su 13:00-20:00,Massage Envy,Q10327170
https://locations.moes.com/#723,moes,Moe's Southwest Grill,,Greenville,SC,,US,+1 864-297-5210,https://locations.moes.com/sc/greenville/3700-pelham-road,Mo-Su 10:30-21:00,Moe's Southwest Grill,Q6889938
161,ollies_bargain_outlet,Ollie's Bargain Outlet,,Greenville,SC,,US,+1 864-609-1998,https://www.ollies.us/locations/2100-wade-hampton-boulevard-greenville-sc/,Mo-Sa 09:00-21:00; Su 10:00-19:00,Ollie's Bargain Outlet,Q7088304
https://locations.oreillyauto.com/sc/greenville/check-engine-light-testing-4569.html,oreilly,Your Greenville O'Reilly Auto Parts Store,,Greenville,SC,,US,+1 864-292-7566,https://locations.oreillyauto.com/sc/greenville/check-engine-light-testing-4569.html,Mo-Sa 07:30-21:00; Su 09:00-20:00,O'Reilly Auto Parts,Q7071951
https://locations.oreillyauto.com/sc/greenville/battery-testing-4569.html,oreilly,Your Greenville O'Reilly Auto Parts Store,,Greenville,SC,,US,+1 864-292-7566,https://locations.oreillyauto.com/sc/greenville/battery-testing-4569.html,Mo-Sa 07:30-21:00; Su 09:00-20:00,O'Reilly Auto Parts,Q7071951
https://locations.oreillyauto.com/sc/greenville/wiper-installation-4569.html,oreilly,Your Greenville O'Reilly Auto Parts Store,,Greenville,SC,,US,+1 864-292-7566,https://locations.oreillyauto.com/sc/greenville/wiper-installation-4569.html,Mo-Sa 07:30-21:00; Su 09:00-20:00,O'Reilly Auto Parts,Q7071951
https://locations.oreillyauto.com/sc/greenville/autopartes-4569.html,oreilly,Tu tienda O'Reilly Auto Parts en Greenville,,Greenville,SC,,US,+1 864-292-7566,https://locations.oreillyauto.com/sc/greenville/autopartes-4569.html,Mo-Sa 07:30-21:00; Su 09:00-20:00,O'Reilly Auto Parts,Q7071951
https://locations.outback.com/#15502288,outbacksteakhouse,Outback Steakhouse,,Greenville,SC,,US,+1 864-676-0360,https://locations.outback.com/south-carolina/greenville/21-orchard-park-drive,Mo-Th 11:00-22:00; Fr-Sa 11:00-23:00; Su 11:00-22:00,Outback Steakhouse,Q1064893
https://locations.papajohns.com/#10693294,papa_johns,Papa John's,,Greenville,SC,,US,+1 864-244-4200,https://locations.papajohns.com/united-states/sc/29615/greenville/624-howell-rd,Mo-Th 10:30-23:00; Fr-Sa 10:30-24:00; Su 10:30-23:00,Papa John's Pizza,Q2759586
0873,pet_suites_us,PetSuites Greenville,,Greenville,SC,,US,+1 864-881-4671,https://greenville.petsuitesofamerica.com/,Mo-Su 06:30-20:00,PetSuites,Q112037454
523,primrose_schools,Primrose School at Pelham,,Greenville,SC,,US,+1 864-363-6711,https://www.primroseschools.com/schools/pelham/,,Primrose Schools,Q7243677
438,primrose_schools,Primrose School of Midtown Greenville,,Greenville,SC,,US,+1 864-232-6101,https://www.primroseschools.com/schools/midtown-greenville/,,Primrose Schools,Q7243677
https://www.publicstorage.com/self-storage-sc-greenville/2108.html,public_storage_us,Public Storage,,Greenville,SC,,US,+1 864-558-7053,https://www.publicstorage.com/self-storage-sc-greenville/2108.html,,Public Storage,Q1156045
https://locations.quiktrip.com/#16003935,quiktrip_us,QuikTrip Store #1119 2701 Pelham Rd,,Greenville,SC,,US,+1 864-288-2466,https://locations.quiktrip.com/sc/greenville/2701-pelham-rd,24/7,QuikTrip,Q7271953
https://locations.quiktrip.com/#16004035,quiktrip_us,QuikTrip Store #1104 2048 Wade Hampton Blvd,,Greenville,SC,,US,+1 864-292-0570,https://locations.quiktrip.com/sc/greenville/2048-wade-hampton-blvd,24/7,QuikTrip,Q7271953
1174,scooters_coffee_us,Wade Hampton Blvd & Mighty Generals Dr,,Greenville,SC,,US,,,Mo-Su 06:00-20:00,Scooter's Coffee,Q117280308
36844,seven_eleven_ca_us,7-Eleven Store,,Greenville,SC,,US,+1 864-244-0928,https://www.7-eleven.com/locations/sc/greenville/2617-wade-hampton-blvd-36844,,7-Eleven,Q259340
404,sola_salon_studios,Pelham@85,,Greenville,SC,,US,+1 704-237-6646,https://www.solasalonstudios.com/locations/pelham-at-85,,Sola Salon Studios,Q64337426
436,south_carolina,Pelham Road,"1508 Pelham Road Greenville, SC ",,SC,,US,+1 864-288-6688,,,,Q1456
https://restaurants.subway.com/#14909793,subway,Subway,,Greenville Greenville,SC,,US,+1 864-214-1569,https://restaurants.subway.com/united-states/sc/greenville/7-brendan-way,Mo-Sa 09:00-20:00; Su 10:00-16:00,Subway,Q244457
https://restaurants.subway.com/#14916710,subway,Subway,,Greenville Greenville,SC,,US,+1 864-297-9229,https://restaurants.subway.com/united-states/sc/greenville/700-garlington-road,Mo-Fr 09:00-20:00; Sa-Su 10:00-18:00,Subway,Q244457
https://restaurants.subway.com/#14913552,subway,Subway,,Greenville Greenville,SC,,US,+1 864-920-0196,https://restaurants.subway.com/united-states/sc/greenville/5151-pelham-road,Mo-Fr 07:00-21:00; Sa-Su 09:30-20:00,Subway,Q244457
80190,supercuts,Pelham Commons,215 Pelham Rd Ste A-102,Greenville,SC,,US,+1 864-242-1490,https://www.supercuts.com/checkin/80190,Mo-Fr 09:00-19:00; Sa 09:00-18:00; Su 11:00-16:00,Supercuts,Q7643239
https://locations.tacobell.com/#6143924,taco_bell,Taco Bell,,Greenville,SC,,US,+1 864-987-9114,https://locations.tacobell.com/sc/greenville/3709-pelham-road.html,Mo-We 09:00-02:00; Th-Sa 09:00-03:00; Su 09:00-02:00,Taco Bell,Q752941
https://locations.tacobell.com/#6145346,taco_bell,Taco Bell,,Greenville,SC,,US,+1 864-244-0117,https://locations.tacobell.com/sc/greenville/2031-wade-hampton-blvd.html,Mo-We 09:00-02:00; Th-Sa 09:00-03:00; Su 09:00-02:00,Taco Bell,Q752941
https://locations.tccrocks.com/sc/greenville/3935-pelham-road.html,tcc_us,TCC Greenville,,Greenville,SC,,US,+1 864-631-1240,https://locations.tccrocks.com/sc/greenville/3935-pelham-road.html,Mo-Sa 10:00-19:00; Su 12:00-17:00,Verizon,Q919641
9400,tmobile_us,Shoppes at Woodruff,,Greenville,SC,,US,+1 864-284-6847,https://www.t-mobile.com/store-locator/sc/greenville/shoppes-at-woodruff,,T-Mobile,Q3511885
988C,tmobile_us,Pelham Rd & Interstate Ct,,Greenville,SC,,US,+1 864-478-8138,https://www.t-mobile.com/store-locator/sc/greenville/pelham-rd-interstate-ct,,T-Mobile,Q3511885
2961500078,usps_collection_boxes,USPS COLLECTION BOX - BLUE BOX,2435 E NORTH ST,GREENVILLE,SC,,US,,,,United States Postal Service,Q668687
2961500024,usps_collection_boxes,USPS COLLECTION BOX - BLUE BOX,33 VILLA RD,GREENVILLE,SC,,US,,,,United States Postal Service,Q668687
2961500002,usps_collection_boxes,USPS COLLECTION BOX - BLUE BOX,2100 WADE HAMPTON BLVD,GREENVILLE,SC,,US,,,,United States Postal Service,Q668687
2961500021,usps_collection_boxes,USPS COLLECTION BOX - BLUE BOX,330A PELHAM RD,GREENVILLE,SC,,US,,,,United States Postal Service,Q668687
2961500034,usps_collection_boxes,USPS COLLECTION BOX - BLUE BOX,150 EXECUTIVE CENTER DR,GREENVILLE,SC,,US,,,,United States Postal Service,Q668687
2961500044,usps_collection_boxes,USPS COLLECTION BOX - BLUE BOX,1 MARCUS DR,GREENVILLE,SC,,US,,,,United States Postal Service,Q668687
2961500088,usps_collection_boxes,USPS COLLECTION BOX - BLUE BOX,440 ROPER MOUNTAIN RD,GREENVILLE,SC,,US,,,,United States Postal Service,Q668687
2961500069,usps_collection_boxes,USPS COLLECTION BOX - BLUE BOX,50 INTERNATIONAL DR,GREENVILLE,SC,,US,,,,United States Postal Service,Q668687
2961500016,usps_collection_boxes,USPS COLLECTION BOX - BLUE BOX,100 ORCHARD PARK DR,GREENVILLE,SC,,US,,,,United States Postal Service,Q668687
2961500017,usps_collection_boxes,USPS COLLECTION BOX - BLUE BOX,100 ORCHARD PARK DR,GREENVILLE,SC,,US,,,,United States Postal Service,Q668687
2961500019,usps_collection_boxes,USPS COLLECTION BOX - PO LOBBY,100 ORCHARD PARK DR,GREENVILLE,SC,,US,,,,United States Postal Service,Q668687
2961500020,usps_collection_boxes,USPS COLLECTION BOX - PO LOBBY,100 ORCHARD PARK DR,GREENVILLE,SC,,US,,,,United States Postal Service,Q668687
2961500100,usps_collection_boxes,USPS COLLECTION BOX - PO LOBBY,100 ORCHARD PARK DR,GREENVILLE,SC,,US,,,,United States Postal Service,Q668687
2961500101,usps_collection_boxes,USPS COLLECTION BOX - APC,100 ORCHARD PARK DR,GREENVILLE,SC,,US,,,,United States Postal Service,Q668687
2961500083,usps_collection_boxes,USPS COLLECTION BOX - BLUE BOX,350 FEASTER RD,GREENVILLE,SC,,US,,,,United States Postal Service,Q668687
2961500087,usps_collection_boxes,USPS COLLECTION BOX - BLUE BOX,530 HOWELL RD,GREENVILLE,SC,,US,,,,United States Postal Service,Q668687
2961500089,usps_collection_boxes,USPS COLLECTION BOX - BLUE BOX,3535 PELHAM RD,GREENVILLE,SC,,US,,,,United States Postal Service,Q668687
2961500090,usps_collection_boxes,USPS COLLECTION BOX - BLUE BOX,3535 PELHAM RD,GREENVILLE,SC,,US,,,,United States Postal Service,Q668687
2961500046,usps_collection_boxes,USPS COLLECTION BOX - BLUE BOX,3620 PELHAM RD,GREENVILLE,SC,,US,,,,United States Postal Service,Q668687
greenville_oil-change-go0003,valvoline_instant_oil_change,Valvoline,2405 Wade Hampton Blvd ,Greenville,SC,,US,+1 864-292-6303,https://store.vioc.com/sc/greenville/oil-change-go0003.html,,Valvoline Instant Oil Change,Q7912852
greenville_oil-change-bd0012,valvoline_instant_oil_change,Valvoline,5123 Pelham Road ,Greenville,SC,,US,+1 864-288-0515,https://store.vioc.com/sc/greenville/oil-change-bd0012.html,,Valvoline Instant Oil Change,Q7912852
A00000253084,verizon_us,TCC Greenville Pelham Rd,,GREENVILLE,SC,,US,+1 864-284-1000,https://www.verizon.com/stores/details/south-carolina/greenville/tcc-greenville-pelham-rd-1543522/,Mo-Sa 10:00-19:00; Su 12:00-17:00,Verizon,Q919641
,visa,,,GREER,SC,,US,,,,,
,visa,,,GREER,SC,,US,,,,,
,visa,,,GREENVILLE,SC,,US,,,,,
,visa,,,GREENVILLE,SC,,US,,,,,
,visa,,,GREENVILLE,SC,,US,,,,,
,visa,,,GREENVILLE,SC,,US,,,,,
,visa,,,GREENVILLE,SC,,US,,,,,
,visa,,,GREENVILLE,SC,,US,,,,,
,visa,,,GREENVILLE,SC,,US,,,,,
,visa,,,GREENVILLE,SC,,US,,,,,
,visa,,,GREENVILLE,SC,,US,,,,,
,visa,,,GREENVILLE,SC,,US,,,,,
,visa,,,GREENVILLE,SC,,US,,,,,
,visa,,,GREENVILLE,SC,,US,,,,,
,visa,,,GREER,SC,,US,,,,,
,visa,,,GREENVILLE,SC,,US,,,,,
,visa,,,GREENVILLE,SC,,US,,,,,
,visa,,,GREENVILLE,SC,,US,,,,,
,visa,,,GREENVILLE,SC,,US,,,,,
,visa,,,GREENVILLE,SC,,US,,,,,
,visa,,,GREENVILLE,SC,,US,,,,,
,visa,,,GREENVILLE,SC,,US,,,,,
,visa,,,GREENVILLE,SC,,US,,,,,
,visa,,,GREENVILLE,SC,,US,,,,,
,visa,,,GREENVILLE,SC,,US,,,,,
,visa,,,GREENVILLE,SC,,US,,,,,
,visa,,,GREENVILLE,SC,,US,,,,,
,visa,,,GREENVILLE,SC,,US,,,,,
,visa,,,GREENVILLE,SC,,US,,,,,
,visa,,,GREENVILLE,SC,,US,,,,,
,visa,,,GREENVILLE,SC,,US,,,,,
,visa,,,GREENVILLE,SC,,US,,,,,
,visa,,,GREENVILLE,SC,,US,,,,,
,visa,,,GREENVILLE,SC,,US,,,,,
,visa,,,GREENVILLE,SC,,US,,,,,
,visa,,,GREENVILLE,SC,,US,,,,,
,visa,,,GREENVILLE,SC,,US,,,,,
,visa,,,GREENVILLE,SC,,US,,,,,
,visa,,,GREENVILLE,SC,,US,,,,,
,visa,,,GREENVILLE,SC,,US,,,,,
,visa,,,GREENVILLE,SC,,US,,,,,
,visa,,,GREENVILLE,SC,,US,,,,,
,visa,,,GREENVILLE,SC,,US,,,,,
,visa,,,GREENVILLE,SC,,US,,,,,
,visa,,,GREENVILLE,SC,,US,,,,,
,visa,,,GREENVILLE,SC,,US,,,,,
,visa,,,GREENVILLE,SC,,US,,,,,
,visa,,,GREENVILLE,SC,,US,,,,,
,visa,,,GREENVILLE,SC,,US,,,,,
,visa,,,GREENVILLE,SC,,US,,,,,
,visa,,,GREENVILLE,SC,,US,,,,,
,visa,,,GREENVILLE,SC,,US,,,,,
,visa,,,GREENVILLE,SC,,US,,,,,
,visa,,,GREENSVILLE,SC,,US,,,,,
,visa,,,GREENVILLE,SC,,US,,,,,
,visa,,,GREENVILLE,SC,,US,,,,,
,visa,,,GREENVILLE,SC,,US,,,,,
,visa,,,GREENVILLE,SC,,US,,,,,
,visa,,,GREENVILLE,SC,,US,,,,,
,visa,,,GREENVILLE,SC,,US,,,,,
,visa,,,GREENVILLE,SC,,US,,,,,
,visa,,,GREENVILLE,SC,,US,,,,,
,visa,,,GREENVILLE,SC,,US,,,,,
,visa,,,GREENVILLE,SC,,US,,,,,
,visa,,,GREENVILLE,SC,,US,,,,,
,visa,,,GREENVILLE,SC,,US,,,,,
,visa,,,GREENVILLE,SC,,US,,,,,
,visa,,,GREENVILLE,SC,,US,,,,,
,visa,,,GREENVILLE,SC,,US,,,,,
,visa,,,GREENVILLE,SC,,US,,,,,
,visa,,,GREENVILLE,SC,,US,,,,,
,visa,,,GREENVILLE,SC,,US,,,,,
,visa,,,GREENVILLE,SC,,US,,,,,
,visa,,,GREENVILLE,SC,,US,,,,,
,visa,,,GREENVILLE,SC,,US,,,,,
,visa,,,GREENVILLE,SC,,US,,,,,
,visa,,,GREENVILLE,SC,,US,,,,,
,visa,,,GREENVILLE,SC,,US,,,,,
,visa,,,GREENVILLE,SC,,US,,,,,
,visa,,,GREENVILLE,SC,,US,,,,,
,visa,,,GREENVILLE,SC,,US,,,,,
,visa,,,GREENVILLE,SC,,US,,,,,
,visa,,,GREENVILLE,SC,,US,,,,,
,visa,,,GREENVILLE,SC,,US,,,,,
527,waffle_house_us,Waffle House #527,,GREENVILLE,SC,,US,+1 864-329-0527,https://locations.wafflehouse.com/greenville-sc-527,24/7,Waffle House,Q1701206
https://www.walgreens.com/locator/walgreens-1+the+pkwy-greenville-sc-29615/id=9774,walgreens,Walgreens,,Greenville,SC,,US,+1 864-288-9334,https://www.walgreens.com/locator/walgreens-1+the+pkwy-greenville-sc-29615/id=9774,Mo-Su 08:00-21:00,Walgreens,Q1591889
https://www.walgreens.com/locator/walgreens-2700+wade+hampton+blvd-greenville-sc-29615/id=7447,walgreens,Walgreens,,Greenville,SC,,US,+1 864-268-7123,https://www.walgreens.com/locator/walgreens-2700+wade+hampton+blvd-greenville-sc-29615/id=7447,Mo-Su 08:00-21:00,Walgreens,Q1591889
https://www.walgreens.com/locator/walgreens-902+pelham+rd-greenville-sc-29615/id=10389,walgreens,Walgreens,,Greenville,SC,,US,+1 864-234-6462,https://www.walgreens.com/locator/walgreens-902+pelham+rd-greenville-sc-29615/id=10389,Mo-Su 07:00-22:00,Walgreens,Q1591889
3600__PELHAM__RD_GREENVILLE_SC_29615,wellsfargo,Wells Fargo,3600 PELHAM RD,GREENVILLE,SC,,US,+1 864-239-1962,https://www.wellsfargo.com/locator/bank/3600__PELHAM__RD_GREENVILLE_SC_29615/,Mo-Fr 09:00-17:00,Wells Fargo,Q744149
2701__PELHAM__RD_GREENVILLE_SC_29615,wellsfargo,,2701 PELHAM RD,GREENVILLE,SC,,US,+1 800-869-3557,https://www.wellsfargo.com/locator/bank/2701__PELHAM__RD_GREENVILLE_SC_29615/,,Wells Fargo,Q744149
2616__WADE__HAMPTON__BLVD_GREENVILLE_SC_29615,wellsfargo,Wells Fargo,2616 WADE HAMPTON BLVD,GREENVILLE,SC,,US,+1 864-609-1600,https://www.wellsfargo.com/locator/bank/2616__WADE__HAMPTON__BLVD_GREENVILLE_SC_29615/,Mo-Fr 09:00-17:00,Wells Fargo,Q744149
2401__E__NORTH__ST_GREENVILLE_SC_29615,wellsfargo,,2401 E NORTH ST,GREENVILLE,SC,,US,+1 800-869-3557,https://www.wellsfargo.com/locator/bank/2401__E__NORTH__ST_GREENVILLE_SC_29615/,,Wells Fargo,Q744149
2048__WADE__HAMPTON__BLVD_GREENVILLE_SC_29615,wellsfargo,,2048 WADE HAMPTON BLVD,GREENVILLE,SC,,US,+1 800-869-3557,https://www.wellsfargo.com/locator/bank/2048__WADE__HAMPTON__BLVD_GREENVILLE_SC_29615/,,Wells Fargo,Q744149
1509__ROPER__MOUNTAIN__RD_GREENVILLE_SC_29615,wellsfargo,,1509 ROPER MOUNTAIN RD,GREENVILLE,SC,,US,+1 800-869-3557,https://www.wellsfargo.com/locator/bank/1509__ROPER__MOUNTAIN__RD_GREENVILLE_SC_29615/,,Wells Fargo,Q744149
https://locations.wendys.com/#12370501,wendys,"Wendy's 4100 Pelham Rd in Greenville, SC",,Greenville,SC,,US,+1 864-552-1121,https://locations.wendys.com/united-states/sc/greenville/4100-pelham-rd,"Mo 06:30-10:30,09:00-22:00; Tu 06:30-10:30; Th-Su 06:30-10:30,09:00-22:00",Wendy's,Q550258
https://locations.wendys.com/#9252712,wendys,"Wendy's 51 Wade Hampton in Greenville, SC",,Greenville,SC,,US,+1 864-268-5390,https://locations.wendys.com/united-states/sc/greenville/2711-a-wade-hampton-blvd,"Mo-Th 06:30-10:30,09:00-22:00; Fr-Sa 06:30-10:30,09:00-23:00; Su 06:30-10:30,09:00-22:00",Wendy's,Q550258
e34113441c3eb993cfb543b17d69eb72,western_union,WALMART #004583,,Greenville,SC,,US,+1 864-288-8081,https://location.westernunion.com/us/sc/greenville/e34113441c3eb993cfb543b17d69eb72,Mo-Su 07:00-21:00,Western Union,Q861042
c0d106b8abbd2ae5eda6f7a6e483cffc,western_union,WALMART #002328,,Greenville,SC,,US,+1 864-214-8700,https://location.westernunion.com/us/sc/greenville/c0d106b8abbd2ae5eda6f7a6e483cffc,Mo-Su 07:00-21:00,Western Union,Q861042
0f45e79620e982a479b2155a7904406c,western_union,7-ELEVEN #36844,,Greenville,SC,,US,+1 864-244-0928,https://location.westernunion.com/us/sc/greenville/0f45e79620e982a479b2155a7904406c,,Western Union,Q861042
