Ref,Spider,Name,Address,City,State,Zipcode,Country,Phone,Website,Hours,Brand,WikiData
https://local.acmemarkets.com/#5603014,albertsons,ACME Markets,,Philadelphia,PA,,US,+1 215-413-9725,https://local.acmemarkets.com/pa/philadelphia/309-s-5th-st.html,Mo-Su 07:00-22:00,ACME Markets,Q341975
https://locations.atipt.com/market-st-philadelphia,ati_physical_therapy,ATI Physical Therapy Philadelphia 561,,Philadelphia,PA,,US,+1 267-703-6882,https://locations.atipt.com/market-st-philadelphia,,ATI Physical Therapy,Q50039703
https://locators.bankofamerica.com/pa/philadelphia/atm-philadelphia-108840.html,bankofamerica,Bank of America Walk-Up ATM | Chestnut Remote,,Philadelphia,PA,,US,+1 844-401-8500,https://locators.bankofamerica.com/pa/philadelphia/atm-philadelphia-108840.html,,Bank of America,Q487907
14848798,chase_us,2nd St and Chestnut St - New branch,,Philadelphia,PA,,US,+1 215-430-5731,https://locator.chase.com/pa/philadelphia/123-chestnut-st,Mo-Fr 09:00-17:00; Sa 09:00-13:00,Chase,Q524629
060591,citizens_us,Citizens 726 Market Street,,Philadelphia,PA,,US,+1 215-928-1360,,Mo-Fr 09:00-16:00; Sa 09:00-12:00,Citizens,Q5122694
060418,citizens_us,Citizens 248 Market Street,,Philadelphia,PA,,US,+1 215-446-3310,,Mo-Fr 09:00-16:00; Sa 09:00-12:00,Citizens,Q5122694
ATM-958,citizens_us,,,Philadelphia,PA,,US,,,,Citizens,Q5122694
ATM-974,citizens_us,,,Philadelphia,PA,,US,,,,Citizens,Q5122694
ATM-1102,citizens_us,,,Philadelphia,PA,,US,,,24/7,Citizens,Q5122694
ATM-1114,citizens_us,,,Philadelphia,PA,,US,,,24/7,Citizens,Q5122694
10526,cvs_us,CVS Pharmacy,,Philadelphia,PA,,US,+1 215-625-3740,https://www.cvs.com/store-locator/philadelphia-pa-pharmacies/259-market-st-philadelphia-pa-19106/storeid=10526,Mo-Su 07:00-20:00,CVS Pharmacy,Q2078880
306715,dunkin_us,Dunkin',,Philadelphia,PA,,US,+1 215-629-7000,https://locations.dunkindonuts.com/en/pa/philadelphia/701-market-street/306715,Mo-Fr 05:30-17:30; Sa 06:00-14:00; Su 00:00-24:00,Dunkin',Q847743
310408,dunkin_us,Dunkin',,Philadelphia,PA,,US,+1 215-922-6447,https://locations.dunkindonuts.com/en/pa/philadelphia/634-market-st/310408,Mo-Fr 05:30-19:00; Sa-Su 06:00-18:00,Dunkin',Q847743
https://www.edwardjones.com/us-en/financial-advisor/holly-revelas,edwardjones,Holly A Revelas,,Philadelphia,PA,,US,+1 215-922-2906,https://www.edwardjones.com/us-en/financial-advisor/holly-revelas,Mo-Fr 09:30-16:00,Edward Jones,Q5343830
https://locations.fivebelow.com/pa/philadelphia/701-market-street,five_below,Five Below Market East,,Philadelphia,PA,,US,,https://locations.fivebelow.com/pa/philadelphia/701-market-street,Mo-Sa 10:00-19:00; Su 11:00-18:00,Five Below,Q5455836
https://www.jeffersonhealth.org/locations/washington-square-urgent-care,jefferson_univ_hosp,Jefferson Washington Square Urgent Care,,Philadelphia,PA,,US,+1 215-503-7300,https://www.jeffersonhealth.org/locations/washington-square-urgent-care,,Jefferson University Hospital,Q59676202
301937,kindercare,Old City KinderCare,,Philadelphia,PA,,US,,https://www.kindercare.com/our-centers/philadelphia/pa/301937,,KinderCare Learning Centers,Q6410551
PHLPR,marriott,Renaissance Philadelphia Downtown Hotel,,Philadelphia,PA,,US,+1 215-925-0000,https://www.marriott.com/PHLPR,,Renaissance Hotels,Q2143252
PHLMO,marriott,Philadelphia Marriott Old City,,Philadelphia,PA,,US,+1 215-238-6000,https://www.marriott.com/PHLMO,,Marriott Hotels & Resorts,Q3918608
301,ross_dress_for_less_us,DT Philadelphia,,Philadelphia,PA,,US,+1 215-928-9140,,Mo-Th 09:30-20:00; Fr-Sa 09:00-20:30; Su 10:00-20:00,Ross Dress for Less,Q3442791
36875,seven_eleven_ca_us,7-11 Str   242-244 Market St,,Philadelphia,PA,,US,+1 215-574-3560,https://www.7-eleven.com/locations/pa/philadelphia/242-244-market-st-36875,,7-Eleven,Q259340
https://www.solidcore.co/pa/pennsylvania/center-city/,solidcore_us,[solidcore],,Philadelphia,PA,,US,+1 267-800-2720,https://www.solidcore.co/pa/pennsylvania/center-city/,,[solidcore],Q124429271
1436417,usps,CONTINENTAL,,PHILADELPHIA,PA,,US,+1 215-413-3516,,Mo-Fr 08:30-17:30,United States Postal Service,Q668687
1353829,usps,B FREE FRANKLIN,,PHILADELPHIA,PA,,US,+1 215-592-1292,,Mo-Sa 09:00-17:00,United States Postal Service,Q668687
1910600113,usps_collection_boxes,USPS COLLECTION BOX - BLUE BOX,348 S 2ND ST,PHILA,PA,,US,,,,United States Postal Service,Q668687
1910600164,usps_collection_boxes,USPS COLLECTION BOX - BLUE BOX,600 S WASHINGTON SQ,PHILA,PA,,US,,,,United States Postal Service,Q668687
1910600145,usps_collection_boxes,USPS COLLECTION BOX - BLUE BOX,436 WALNUT ST,PHILA,PA,,US,,,,United States Postal Service,Q668687
1910600146,usps_collection_boxes,USPS COLLECTION BOX - BLUE BOX,436 WALNUT ST,PHILA,PA,,US,,,,United States Postal Service,Q668687
1910600133,usps_collection_boxes,USPS COLLECTION BOX - BLUE BOX,400 WALNUT ST,PHILA,PA,,US,,,,United States Postal Service,Q668687
1910600150,usps_collection_boxes,USPS COLLECTION BOX - BLUE BOX,130 S INDEPENDENCE ST,PHILA,PA,,US,,,,United States Postal Service,Q668687
1910600119,usps_collection_boxes,USPS COLLECTION BOX - BLUE BOX,325 CHESTNUT ST,PHILA,PA,,US,,,,United States Postal Service,Q668687
1910600183,usps_collection_boxes,USPS COLLECTION BOX - BLUE BOX,325 CHESTNUT ST,PHILA,PA,,US,,,,United States Postal Service,Q668687
1910600234,usps_collection_boxes,USPS COLLECTION BOX - PO LOBBY,615 CHESTNUT ST LBBY,PHILA,PA,,US,,,,United States Postal Service,Q668687
1910600182,usps_collection_boxes,USPS COLLECTION BOX - PO LOBBY,615 CHESTNUT ST,PHILA,PA,,US,,,,United States Postal Service,Q668687
1910600186,usps_collection_boxes,USPS COLLECTION BOX - PO LOBBY,615 CHESTNUT ST,PHILA,PA,,US,,,,United States Postal Service,Q668687
1910600181,usps_collection_boxes,USPS COLLECTION BOX - BLUE BOX,615 CHESTNUT ST,PHILA,PA,,US,,,,United States Postal Service,Q668687
1910600117,usps_collection_boxes,USPS COLLECTION BOX - BLUE BOX,243 CHESTNUT ST,PHILA,PA,,US,,,,United States Postal Service,Q668687
1910600175,usps_collection_boxes,USPS COLLECTION BOX - EXPRESS,220 CHESTNUT ST,PHILA,PA,,US,,,,United States Postal Service,Q668687
1910600106,usps_collection_boxes,USPS COLLECTION BOX - BLUE BOX,123 CHESTNUT ST,PHILA,PA,,US,,,,United States Postal Service,Q668687
1910600104,usps_collection_boxes,USPS COLLECTION BOX - BLUE BOX,115 CHESTNUT ST,PHILA,PA,,US,,,,United States Postal Service,Q668687
1910600136,usps_collection_boxes,USPS COLLECTION BOX - BLUE BOX,401 LUDLOW ST,PHILA,PA,,US,,,,United States Postal Service,Q668687
1910600174,usps_collection_boxes,USPS COLLECTION BOX - BLUE BOX,99 CHESTNUT LN,PHILA,PA,,US,,,,United States Postal Service,Q668687
1910600122,usps_collection_boxes,USPS COLLECTION BOX - PO LOBBY,316 MARKET ST,PHILA,PA,,US,,,,United States Postal Service,Q668687
1910600233,usps_collection_boxes,USPS COLLECTION BOX - PO LOBBY,316 MARKET ST,PHILA,PA,,US,,,,United States Postal Service,Q668687
1910600168,usps_collection_boxes,USPS COLLECTION BOX - BLUE BOX,638 MARKET ST,PHILA,PA,,US,,,,United States Postal Service,Q668687
1910600112,usps_collection_boxes,USPS COLLECTION BOX - BLUE BOX,201 MARKET ST,PHILA,PA,,US,,,,United States Postal Service,Q668687
1910600148,usps_collection_boxes,USPS COLLECTION BOX - BLUE BOX,600 ARCH ST,PHILA,PA,,US,,,,United States Postal Service,Q668687
1910600235,usps_collection_boxes,USPS COLLECTION BOX - PO LOBBY,720 ARCH ST,PHILA,PA,,US,,,,United States Postal Service,Q668687
1910600105,usps_collection_boxes,USPS COLLECTION BOX - BLUE BOX,140 ARCH ST,PHILA,PA,,US,,,,United States Postal Service,Q668687
1910600166,usps_collection_boxes,USPS COLLECTION BOX - BLUE BOX,170 N INDEPENDENCE MALL W,PHILA,PA,,US,,,,United States Postal Service,Q668687
1910600144,usps_collection_boxes,USPS COLLECTION BOX - BLUE BOX,501 VINE ST,PHILA,PA,,US,,,,United States Postal Service,Q668687
1910600115,usps_collection_boxes,USPS COLLECTION BOX - BLUE BOX,200 N 3RD ST,PHILA,PA,,US,,,,United States Postal Service,Q668687
1910600114,usps_collection_boxes,USPS COLLECTION BOX - BLUE BOX,200 RACE ST,PHILA,PA,,US,,,,United States Postal Service,Q668687
,visa,,,PHILADELPHIA,PA,,US,,,,,
,visa,,,PHILADELPHIA,PA,,US,,,,,
,visa,,,PHILADELPHIA,PA,,US,,,,,
,visa,,,PHILADELPHIA,PA,,US,,,,,
,visa,,,PHILADELPHIA,PA,,US,,,,,
,visa,,,PHILADELPHIA,PA,,US,,,,,
,visa,,,PHILADELPHIA,PA,,US,,,,,
,visa,,,PHILA,PA,,US,,,,,
,visa,,,PHILA,PA,,US,,,,,
,visa,,,PHILADELPHIA,PA,,US,,,,,
,visa,,,PHILADELPHIA,PA,,US,,,,,
,visa,,,PHILADELPHIA,PA,,US,,,,,
,visa,,,PHILADELPHIA,PA,,US,,,,,
,visa,,,PHILADELPHIA,PA,,US,,,,,
,visa,,,PHILA.,PA,,US,,,,,
,visa,,,PHILADELPHIA,PA,,US,,,,,
,visa,,,PHILADELPHIA,PA,,US,,,,,
,visa,,,PHILADELPHIA,PA,,US,,,,,
,visa,,,PHILADELPHIA,PA,,US,,,,,
,visa,,,PHILADELPHIA,PA,,US,,,,,
,visa,,,PHILADELPHIA,PA,,US,,,,,
,visa,,,PHILADELPHIA,PA,,US,,,,,
,visa,,,PHILA,PA,,US,,,,,
,visa,,,PHILADELPHIA,PA,,US,,,,,
,visa,,,PHILADELPHIA,PA,,US,,,,,
,visa,,,PHILADELPHIA,PA,,US,,,,,
,visa,,,PHILA,PA,,US,,,,,
,visa,,,PHILA,PA,,US,,,,,
,visa,,,PHILADELPHIA,PA,,US,,,,,
,visa,,,PHILADELPHIA,PA,,US,,,,,
,visa,,,PHILADELPHIA,PA,,US,,,,,
,visa,,,PHILADELPHIA,PA,,US,,,,,
,visa,,,PHILADELPHIA,PA,,US,,,,,
,visa,,,PHILADELPHIA,PA,,US,,,,,
,visa,,,PHILADELPHIA,PA,,US,,,,,
,visa,,,PHILADELPHIA,PA,,US,,,,,
,visa,,,PHILADELPHIA,PA,,US,,,,,
,visa,,,PHILADELPHIA,PA,,US,,,,,
,visa,,,PHILADELPHIA,PA,,US,,,,,
,visa,,,PHILA.,PA,,US,,,,,
,visa,,,PHILADELPHIA,PA,,US,,,,,
,visa,,,PHILADELPHIA,PA,,US,,,,,
,visa,,,PHILADELPHIA,PA,,US,,,,,
,visa,,,PHILADELPHIA,PA,,US,,,,,
,visa,,,PHILADELPHIA,PA,,US,,,,,
,visa,,,PHILA.,PA,,US,,,,,
,visa,,,PHILADELPHIA,PA,,US,,,,,
,visa,,,PHILADELPHIA,PA,,US,,,,,
,visa,,,PHILADELPHIA,PA,,US,,,,,
,visa,,,PHILADELPHIA,PA,,US,,,,,
,visa,,,PHILADELPHIA,PA,,US,,,,,
,visa,,,PHILADELPHIA,PA,,US,,,,,
,visa,,,PHILADELPHIA,PA,,US,,,,,
,visa,,,PHIADELPHIA,PA,,US,,,,,
,visa,,,PHILADELPHIA,PA,,US,,,,,
,visa,,,PHILADELPHIA,PA,,US,,,,,
,visa,,,PHILADELPHIA,PA,,US,,,,,
,visa,,,PHILADELPHIA,PA,,US,,,,,
,visa,,,PHILADELPHIA,PA,,US,,,,,
,visa,,,PHILADELPHIA,PA,,US,,,,,
,visa,,,PHILADELPHIA,PA,,US,,,,,
,visa,,,PHILADELPHIA,PA,,US,,,,,
,visa,,,PHILADELPHIA,PA,,US,,,,,
,visa,,,PHILADELPHIA,PA,,US,,,,,
,visa,,,PHILADELPHIA,PA,,US,,,,,
,visa,,,PHILADELPHIA,PA,,US,,,,,
,visa,,,PHILADELPHIA,PA,,US,,,,,
,visa,,,PHILADELPHIA,PA,,US,,,,,
,visa,,,PHILADELPHIA,PA,,US,,,,,
,visa,,,PHILADELPHIA,PA,,US,,,,,
,visa,,,PHILADELPHIA,PA,,US,,,,,
,visa,,,PHILADELPHIA,PA,,US,,,,,
,visa,,,PHILADELPHIA,PA,,US,,,,,
,visa,,,PHILADELPHIA,PA,,US,,,,,
,visa,,,PHILADELPHIA,PA,,US,,,,,
,visa,,,PHILADELPHIA,PA,,US,,,,,
,visa,,,PHILADELPHIA,PA,,US,,,,,
,visa,,,PHILADELPHIA,PA,,US,,,,,
,visa,,,PHILADELPHIA,PA,,US,,,,,
,visa,,,PHILADELPHIA,PA,,US,,,,,
,visa,,,PHILADELPHIA,PA,,US,,,,,
,visa,,,PHILADELPHIA,PA,,US,,,,,
,visa,,,PHILADELPHIA,PA,,US,,,,,
,visa,,,PHILADELPHIA,PA,,US,,,,,
,visa,,,PHILADELPHIA,PA,,US,,,,,
,visa,,,PHILADELPHIA,PA,,US,,,,,
,visa,,,PHILADELPHIA,PA,,US,,,,,
,visa,,,PHILADELPHIA,PA,,US,,,,,
,visa,,,PHILADELPHIA,PA,,US,,,,,
,visa,,,PHILADELPHIA,PA,,US,,,,,
,visa,,,PHILADELPHIA,PA,,US,,,,,
,visa,,,PHILADELPHIA,PA,,US,,,,,
,visa,,,PHILADELPHIA,PA,,US,,,,,
,visa,,,PHILADELPHIA,PA,,US,,,,,
,visa,,,PHILADELPHIA,PA,,US,,,,,
,visa,,,PHILADELPHIA,PA,,US,,,,,
,visa,,,PHILADELPHIA,PA,,US,,,,,
,visa,,,PHILADELPHIA,PA,,US,,,,,
,visa,,,PHILADELPHIA,PA,,US,,,,,
,visa,,,PHILADELPHIA,PA,,US,,,,,
,visa,,,PHILADELPHIA,PA,,US,,,,,
,visa,,,PHILADELPHIA,PA,,US,,,,,
,visa,,,PHILADELPHIA,PA,,US,,,,,
,visa,,,PHILADELPHIA,PA,,US,,,,,
,visa,,,PHILADELPHIA,PA,,US,,,,,
,visa,,,PHILADELPHIA,PA,,US,,,,,
,visa,,,PHILADELPHIA,PA,,US,,,,,
,visa,,,PHILADELPHIA,PA,,US,,,,,
,visa,,,PHILADELPHIA,PA,,US,,,,,
,visa,,,PHILADELPHIA,PA,,US,,,,,
,visa,,,PHILADELPHIA,PA,,US,,,,,
,visa,,,PHILA,PA,,US,,,,,
,visa,,,PHILADELPHIA,PA,,US,,,,,
,visa,,,PHILADELPHIA,PA,,US,,,,,
,visa,,,PHILADELPHIA,PA,,US,,,,,
,visa,,,PHILADELPHIA,PA,,US,,,,,
,visa,,,PHILADELPHIA,PA,,US,,,,,
,visa,,,PHILADELPHIA,PA,,US,,,,,
,visa,,,PHILADELPHIA,PA,,US,,,,,
,visa,,,PHILA,PA,,US,,,,,
601__CHESTNUT__ST_PHILADELPHIA_PA_19106,wellsfargo,Wells Fargo,601 CHESTNUT ST,PHILADELPHIA,PA,,US,+1 215-786-4550,https://www.wellsfargo.com/locator/bank/601__CHESTNUT__ST_PHILADELPHIA_PA_19106/,Mo-Fr 09:00-17:00,Wells Fargo,Q744149
340__S__2ND__ST__STE__350_PHILADELPHIA_PA_19106,wellsfargo,Wells Fargo,340 S 2ND ST STE 350,PHILADELPHIA,PA,,US,+1 215-786-4300,https://www.wellsfargo.com/locator/bank/340__S__2ND__ST__STE__350_PHILADELPHIA_PA_19106/,Mo-Fr 09:00-17:00,Wells Fargo,Q744149
101__N__INDEPENDENCE__MALL__E_PHILADELPHIA_PA_19106,wellsfargo,,101 N INDEPENDENCE MALL E,PHILADELPHIA,PA,,US,+1 800-869-3557,https://www.wellsfargo.com/locator/bank/101__N__INDEPENDENCE__MALL__E_PHILADELPHIA_PA_19106/,,Wells Fargo,Q744149
