Ref,Spider,Name,Address,City,State,Zipcode,Country,Phone,Website,Hours,Brand,WikiData
https://vertretung.allianz.de/thomas.herrmann/,allianz_de,Allianz Versicherung Thomas Herrmann GENERALVERTRETUNG,,Pirna,,,DE,+49 3501 523761,https://vertretung.allianz.de/thomas.herrmann/,"Mo 09:00-12:00,14:00-17:00; Tu 09:00-12:00,14:00-18:00; Th 09:00-12:00,14:00-18:00; Fr 09:00-12:00",Allianz SE,Q487292
https://vertretung.allianz.de/ralf.heinz/,allianz_de,Allianz Versicherung Ralf Heinz GENERALVERTRETUNG,,Pirna,,,DE,+49 3501 710490,https://vertretung.allianz.de/ralf.heinz/,"Mo 10:00-14:30; Tu 09:00-13:00,14:00-18:00; We 10:00-14:30; Th 09:00-13:00,14:00-18:00",Allianz SE,Q487292
https://vertretung.allianz.de/jens.colditz/,allianz_de,Allianz Versicherung Jens Colditz GENERALVERTRETUNG,,Pirna,,,DE,+49 3501 523761,https://vertretung.allianz.de/jens.colditz/,"Mo 09:00-12:00,14:00-17:00; Tu 09:00-12:00,14:00-18:00; Th 09:00-12:00,14:00-18:00; Fr 09:00-12:00",Allianz SE,Q487292
https://vertretung.allianz.de/rolf.arnold/,allianz_de,Allianz Versicherung Rolf Arnold GENERALVERTRETUNG,,Pirna,,,DE,+49 3501 444415,https://vertretung.allianz.de/rolf.arnold/,"Mo 09:00-12:00,14:00-16:00; Tu 09:00-12:00,14:00-18:00; We 09:00-12:00,14:00-16:00; Th 09:00-12:00,14:00-18:00; Fr 09:00-12:00",Allianz SE,Q487292
https://vertretung.allianz.de/ulli.matuschak/,allianz_de,Allianz Versicherung Ulli Matuschak GENERALVERTRETUNG,,Pirna,,,DE,+49 3501 755957,https://vertretung.allianz.de/ulli.matuschak/,"Mo-Th 09:00-12:00,13:00-18:00; Fr 09:00-12:00",Allianz SE,Q487292
https://vertretung.allianz.de/ronald.starke/,allianz_de,Allianz Versicherung Ronald Starke HAUPTVERTRETUNG,,Pirna,,,DE,+49 3501 773446,https://vertretung.allianz.de/ronald.starke/,Mo 10:00-14:00; Tu 14:00-17:00; Th 14:00-17:00,Allianz SE,Q487292
https://vertretung.allianz.de/marco1.ruehle/,allianz_de,Allianz Versicherung Marco Rühle HAUPTVERTRETUNG,,Pirna,,,DE,+49 3501 582767,https://vertretung.allianz.de/marco1.ruehle/,"Mo 09:00-14:00; Tu 09:00-12:00,13:00-17:00; We 09:00-14:00; Th 09:00-12:00,13:00-17:00; Fr 09:00-12:00",Allianz SE,Q487292
https://vertretung.allianz.de/annett.hippe/,allianz_de,Allianz Versicherung Annett Hippe GENERALVERTRETUNG,,Pirna,,,DE,+49 3501 571529,https://vertretung.allianz.de/annett.hippe/,Mo 09:00-14:00; Tu 09:00-18:00; We 09:00-14:00; Th 09:00-19:00; Fr 09:00-13:00,Allianz SE,Q487292
35644_4,bmw_group,mobilforum GmbH,,Pirna,,,DE,+49 3501 79750,http://bmw-mobilforum.de/de/home,,BMW,Q26678
27002200,bp,Christa Gaebel,,Pirna,,,DE,+49 3501 769123,http://tankstelle.aral.de/tankstelle/27002200,Mo-Fr 06:00-20:00; Sa-Su 07:00-19:00,BP,Q152057
28734100,bp,Sebastian Ertelt,,Pirna,,,DE,+49 3501 761642,http://tankstelle.aral.de/tankstelle/28734100,24/7,BP,Q152057
de:545,dm,dm-drogerie markt,,Pirna,,,DE,+49 3501 467376,https://www.dm.de/store/d0mh/pirna/lohmener-strasse-13,Mo-Sa 08:30-20:00,dm,Q266572
34229,dominos_pizza_de,Domino's Pizza Pirna,,Pirna,,,DE,,https://www.dominos.de/filiale/de-pirna-34229,,Domino's,Q839466
50.97979213.945169,dpd_de,PostModern,,Pirna,,,DE,,,,DPD,Q541030
50.9687613.93457,dpd_de,Fahrrad-Bäßler,,Pirna,,,DE,,,,DPD,Q541030
50.96211613.9349416,dpd_de,Strumpfhaus Hempel,,Pirna,,,DE,,,,DPD,Q541030
50.961613.939308,dpd_de,Zauberhaftes Handgemacht,,Pirna,,,DE,,,,DPD,Q541030
50.96130313.9375165,dpd_de,MediaWelt,,Pirna,,,DE,,,,DPD,Q541030
50.9618813.94144,dpd_de,NKD Deutschland GmbH,,Pirna,,,DE,,,,DPD,Q541030
50.96086913.937021,dpd_de,E center,,Pirna,,,DE,,,,DPD,Q541030
50.969338513.9346012,dpd_de,Pirnaer Lokschuppen,,Pirna,,,DE,,,,DPD,Q541030
384041,endlich_ohne_de,FILIALE DRESDEN / Pirna – ENDLICH OHNE TATTOOENTFERNUNG,Dohnaische Str. 90,Pirna,,,DE,+49 3501 7904090,https://www.endlich-ohne.de/standorte/filiale-dresden-pirna/,,Endlich Ohne,Q119982663
FordGK2YQ91  DEU,ford,Autohaus Huth,,Pirna-Neundorf,,,DE,+49 3501 7100090,ford-huth-pirna-neundorf.de,,Ford,Q44294
https://www.fressnapf.de/stores/fressnapf-pirna/,fressnapf_de,Fressnapf Pirna,,Pirna,,,DE,,https://www.fressnapf.de/stores/fressnapf-pirna/,Mo-Fr 09:00-19:00; Sa 09:00-18:00,Fressnapf,Q875796
2760234097,gls_de,Einkaufsparadies,,Pirna-Birkwitz,,,DE,+49 3501 5710510,,"Mo-Fr 06:30-12:00,13:30-18:00; Sa 06:30-12:00",General Logistics Systems,Q46495823
2760900815,gls_de,Autohaus Siegfried Adler oHG,,Pirna,,,DE,+49 3501 443357,,Mo-Th 07:00-17:00; Fr 07:00-16:00,General Logistics Systems,Q46495823
2760912884,gls_de,Strumpfhaus Hempel,,Pirna,,,DE,+49 3501 528630,,Mo-Fr 10:00-18:00; Sa 10:00-12:00,General Logistics Systems,Q46495823
2760910893,gls_de,MediaWelt,,Pirna,,,DE,+49 3501 444474,,Mo-Fr 09:00-18:00; Sa 09:00-13:00,General Logistics Systems,Q46495823
1762,jysk,Pirna,,Pirna,,,DE,+49 3501 4619660,https://jysk.de/filialen?storeId=1762,Mo-Th 10:00-18:30; Sa 09:30-18:00,JYSK,Q138913
DE3320,kaufland,Kaufland Pirna-Zatzschke,,Pirna,,,DE,+49 3501 500920,https://filiale.kaufland.de/service/filiale/frankfurt-oder-spitzkrug-multi-center-pirna-zatzschke-3320.html,Mo-Sa 07:00-22:00,Kaufland,Q685967
DE2610,kaufland,Kaufland Pirna-Sonnenstein,,Pirna,,,DE,+49 3501 76870,https://filiale.kaufland.de/service/filiale/frankfurt-oder-spitzkrug-multi-center-pirna-sonnenstein-2610.html,Mo-Sa 07:00-22:00,Kaufland,Q685967
6223,kik,KiK,,Pirna Rottwerndorf,,,DE,+49 3501 710724,,Mo-Fr 09:00-19:00; Sa 09:00-16:00,KiK,Q883965
3347,lidl_de,Copitz,,Pirna,,,DE,,,Mo-Sa 07:00-21:00,Lidl,Q151954
1308,lidl_de,,,Pirna,,,DE,,,Mo-Sa 07:00-21:00,Lidl,Q151954
40146,man_truck_and_bus,Fahrzeug-Service Schade & Rittau GmbH,,Pirna,,,DE,+49 3501 53020,,,MAN Truck & Bus,Q708667
https://www.netto.de/geschaefte/pirna/koenigsteiner-strasse-25/8fe836b3149f4c4da3c293a84828932d/,netto_salling,Netto Pirna,,Pirna,,,DE,,https://www.netto.de/geschaefte/pirna/koenigsteiner-strasse-25/8fe836b3149f4c4da3c293a84828932d/,Mo-Sa 07:00-20:00,Netto,Q552652
27681188_001-dacia,renault,Autohaus Schulze GmbH,,Pirna,,,DE,+49 3501 470010,,,Dacia,Q27460
27611421_001-renault,renault,Autohaus Schulze GmbH,,Pirna,,,DE,+49 3501 470010,,,Renault,Q6686
27632421_001-renault,renault,AH Siegfried Adler oHG,,Pirna,,,DE,+49 3501 443357,,,Renault,Q6686
27632421_001-dacia,renault,AH Siegfried Adler oHG,,Pirna,,,DE,+49 3501 443357,,,Dacia,Q27460
https://www.rossmann.de/de/filialen/sachsen/pirna/hospitalstr--4.html,rossmann_de,Rossmann Drogerie-Markt Hospitalstr. 4,,Pirna,,,DE,+49 3501 6349904,https://www.rossmann.de/de/filialen/sachsen/pirna/hospitalstr--4.html,Mo-Sa 08:00-20:00,Rossmann,Q316004
172662,sparkasse_de,Ostsächsische Sparkasse Dresden Sparkassenmobil Pirna Südvorstadt,,Pirna,,,DE,+49 351 4550,https://www.sparkasse.de/standorte/filialen/ostsaechsische-sparkasse-dresden-sparkassenmobil-pirna-suedvorstadt-172662,Th 15:30-16:30,Sparkasse,Q13601825
115584,sparkasse_de,Ostsächsische Sparkasse Dresden Filiale Pirna Sonnenstein,,Pirna,,,DE,+49 351 45550550,https://www.sparkasse.de/standorte/filialen/ostsaechsische-sparkasse-dresden-filiale-pirna-sonnenstein-115584,"Mo 09:00-13:00; Tu 09:00-13:00,14:00-18:00; We 09:00-13:00; Th 09:00-13:00,14:00-18:00; Fr 09:00-13:00",Sparkasse,Q13601825
140124,sparkasse_de,Ostsächsische Sparkasse Dresden Geldautomat Pirna Sonnenstein,,Pirna,,,DE,+49 351 4550,https://www.sparkasse.de/standorte/geldautomaten/ostsaechsische-sparkasse-dresden-geldautomat-pirna-sonnenstein-140124,Mo-Su 06:00-23:00,Sparkasse,Q13601825
122040,sparkasse_de,Ostsächsische Sparkasse Dresden BaufinanzierungsCenter Pirna Gartenstraße,,Pirna,,,DE,+49 351 45577227,https://www.sparkasse.de/standorte/filialen/ostsaechsische-sparkasse-dresden-baufinanzierungs-center-pirna-gartenstrasse-122040,Mo-Fr 09:00-18:00,Sparkasse,Q13601825
140123,sparkasse_de,Ostsächsische Sparkasse Dresden Geldautomat Pirna Gartenstraße,,Pirna,,,DE,+49 351 4550,https://www.sparkasse.de/standorte/geldautomaten/ostsaechsische-sparkasse-dresden-geldautomat-pirna-gartenstrasse-140123,Mo-Su 06:00-23:00,Sparkasse,Q13601825
141185,sparkasse_de,Ostsächsische Sparkasse Dresden FirmenkundenCenter Pirna Gartenstraße,,Pirna,,,DE,+49 351 45545678,https://www.sparkasse.de/standorte/filialen/ostsaechsische-sparkasse-dresden-firmenkunden-center-pirna-gartenstrasse-141185,"Mo-Tu 09:00-13:00,14:00-18:00; We 09:00-13:00; Th 09:00-13:00,14:00-18:00; Fr 09:00-13:00",Sparkasse,Q13601825
140122,sparkasse_de,Ostsächsische Sparkasse Dresden Geldautomat Pirna Copitz Kaufland,,Pirna,,,DE,+49 351 4550,https://www.sparkasse.de/standorte/geldautomaten/ostsaechsische-sparkasse-dresden-geldautomat-pirna-copitz-kaufland-140122,Mo-Sa 07:00-22:00,Sparkasse,Q13601825
115585,sparkasse_de,Ostsächsische Sparkasse Dresden Filiale Pirna Gartenstraße,,Pirna,,,DE,+49 351 45550250,https://www.sparkasse.de/standorte/filialen/ostsaechsische-sparkasse-dresden-filiale-pirna-gartenstrasse-115585,"Mo-Tu 09:00-13:00,14:00-18:00; We 09:00-13:00; Th 09:00-13:00,14:00-18:00; Fr 09:00-13:00",Sparkasse,Q13601825
115667,sparkasse_de,Ostsächsische Sparkasse Dresden SB-Filiale Pirna Copitz Kaufland,,Pirna,,,DE,+49 351 4550,https://www.sparkasse.de/standorte/filialen/ostsaechsische-sparkasse-dresden-sb-filiale-pirna-copitz-kaufland-115667,Mo-Sa 07:00-22:00,Sparkasse,Q13601825
151357,sparkasse_de,Ostsächsische Sparkasse Dresden Geldautomat Pirna Copitz,,Pirna,,,DE,+49 351 4550,https://www.sparkasse.de/standorte/geldautomaten/ostsaechsische-sparkasse-dresden-geldautomat-pirna-copitz-151357,Mo-Su 06:00-23:00,Sparkasse,Q13601825
115586,sparkasse_de,Ostsächsische Sparkasse Dresden Filiale Pirna Copitz,,Pirna,,,DE,+49 351 45550350,https://www.sparkasse.de/standorte/filialen/ostsaechsische-sparkasse-dresden-filiale-pirna-copitz-115586,"Mo 09:00-13:00; Tu 09:00-13:00,14:00-18:00; We 09:00-13:00; Th 09:00-13:00,14:00-18:00; Fr 09:00-13:00",Sparkasse,Q13601825
140119,sparkasse_de,Ostsächsische Sparkasse Dresden Geldautomat Pirna Aldi,,Pirna,,,DE,+49 351 4550,https://www.sparkasse.de/standorte/geldautomaten/ostsaechsische-sparkasse-dresden-geldautomat-pirna-aldi-140119,24/7,Sparkasse,Q13601825
115665,sparkasse_de,Ostsächsische Sparkasse Dresden SB-Filiale Pirna Aldi,,Pirna,,,DE,+49 351 4550,https://www.sparkasse.de/standorte/filialen/ostsaechsische-sparkasse-dresden-sb-filiale-pirna-aldi-115665,24/7,Sparkasse,Q13601825
140139,sparkasse_de,Ostsächsische Sparkasse Dresden Geldautomat Struppen,,Struppen,,,DE,+49 351 4550,https://www.sparkasse.de/standorte/geldautomaten/ostsaechsische-sparkasse-dresden-geldautomat-struppen-140139,24/7,Sparkasse,Q13601825
176564,sparkasse_de,Ostsächsische Sparkasse Dresden Sparkassenmobil Struppen,,Struppen,,,DE,+49 351 4550,https://www.sparkasse.de/standorte/filialen/ostsaechsische-sparkasse-dresden-sparkassenmobil-struppen-176564,Fr 08:15-09:15,Sparkasse,Q13601825
115573,sparkasse_de,Ostsächsische Sparkasse Dresden Filiale Struppen,,Struppen,,,DE,+49 351 45550750,https://www.sparkasse.de/standorte/filialen/ostsaechsische-sparkasse-dresden-filiale-struppen-115573,Tu 09:00-13:00,Sparkasse,Q13601825
172141,sparkasse_de,Ostsächsische Sparkasse Dresden S-Mobil-Agentur Sabine Horvath,,Pirna,,,DE,+49 3501 555765,https://www.sparkasse.de/standorte/filialen/ostsaechsische-sparkasse-dresden-s-mobil-agentur-sabine-horvath-172141,Mo-Fr 09:00-18:00,Sparkasse,Q13601825
169276,sparkasse_de,Ostsächsische Sparkasse Dresden S-Mobil-Agentur Ronny Steglich,,Pirna,,,DE,+49 3501 4607120,https://www.sparkasse.de/standorte/filialen/ostsaechsische-sparkasse-dresden-s-mobil-agentur-ronny-steglich-169276,Mo-Fr 09:00-18:00,Sparkasse,Q13601825
176570,sparkasse_de,Ostsächsische Sparkasse Dresden Sparkassenmobil Cotta,,Dohma,,,DE,+49 351 4550,https://www.sparkasse.de/standorte/filialen/ostsaechsische-sparkasse-dresden-sparkassenmobil-cotta-176570,Mo 13:00-14:00,Sparkasse,Q13601825
176573,sparkasse_de,Ostsächsische Sparkasse Dresden Sparkassenmobil Dohma,,Dohma,,,DE,+49 351 4550,https://www.sparkasse.de/standorte/filialen/ostsaechsische-sparkasse-dresden-sparkassenmobil-dohma-176573,Mo 14:00-15:00,Sparkasse,Q13601825
172652,sparkasse_de,Ostsächsische Sparkasse Dresden Sparkassenmobil Graupa,,Pirna,,,DE,+49 351 4550,https://www.sparkasse.de/standorte/filialen/ostsaechsische-sparkasse-dresden-sparkassenmobil-graupa-172652,We 10:30-11:30; Th 13:45-14:45,Sparkasse,Q13601825
176576,sparkasse_de,Ostsächsische Sparkasse Dresden Sparkassenmobil Goes,,Dohma,,,DE,+49 351 4550,https://www.sparkasse.de/standorte/filialen/ostsaechsische-sparkasse-dresden-sparkassenmobil-goes-176576,We 12:30-13:30,Sparkasse,Q13601825
https://toom.de/m/pirna/,toom_baumarkt_de,toom Baumarkt in Pirna,,Pirna,,,DE,+49 3501 460110,https://toom.de/m/pirna/,Mo-Sa 07:00-20:00,Toom Baumarkt,Q2442970
DE_EXT_01925,totalenergies,"ARAL TANKSTELLE PIRNA, KRIETZS",,Pirna,,,DE,,https://store.totalenergies.fr/en_EN/DE_EXT_01925,,Aral,Q565734
DE_EXT_01928,totalenergies,"ARAL TANKSTELLE PIRNA, ZEHISTA",,Pirna,,,DE,,https://store.totalenergies.fr/en_EN/DE_EXT_01928,,Aral,Q565734
ND036079,totalenergies,PIRNA LOHMENER STR. 13,,PIRNA,,,DE,+49 3501 582356,https://store.totalenergies.fr/en_EN/ND036079,Mo-Sa 07:00-20:00,,
https://www.vlh.de/bst/9697/Oeffnungszeiten.html,vhl_de,VLH-Berater David Buß in Pirna,,Pirna,,,DE,+49 3501 7116838,https://www.vlh.de/bst/9697/,We 15:30-18:00,Vereinigte Lohnsteuerhilfe e.V.,Q15852617
https://www.vlh.de/bst/9608/Oeffnungszeiten.html,vhl_de,VLH-Beraterin Elke Morche in Pirna,,Pirna,,,DE,+49 3501 5009749,https://www.vlh.de/bst/9608/,Tu 15:00-18:00,Vereinigte Lohnsteuerhilfe e.V.,Q15852617
https://www.vlh.de/bst/9893/Oeffnungszeiten.html,vhl_de,VLH-Beraterin Karin Giesel in Pirna-Sonnenstein Süd,,Pirna-Sonnenstein Süd,,,DE,+49 3501 755552,https://www.vlh.de/bst/9893/,"Mo 09:30-12:00,13:00-16:00",Vereinigte Lohnsteuerhilfe e.V.,Q15852617
https://www.vlh.de/bst/13822/Oeffnungszeiten.html,vhl_de,VLH-Beraterin Katrin Käseberg in Pirna,,Pirna,,,DE,+49 35020 75649,https://www.vlh.de/bst/13822/,,Vereinigte Lohnsteuerhilfe e.V.,Q15852617
,visa,,,PIRNA,,,DE,,,,,
,visa,,,PIRNA,,,DE,,,,,
,visa,,,PIRNA,,,DE,,,,,
,visa,,,PIRNA,,,DE,,,,,
,visa,,,PIRNA,,,DE,,,,,
,visa,,,PIRNA,,,DE,,,,,
,visa,,,PIRNA,,,DE,,,,,
,visa,,,PIRNA,,,DE,,,,,
,visa,,,PIRNA,,,DE,,,,,
,visa,,,PIRNA,,,DE,,,,,
https://shops.vodafone.de/pirna/grohmannstr.-3,vodafone_de,Vodafone-Shop,,Pirna,,,DE,+49 3501 442290,https://shops.vodafone.de/pirna/grohmannstr.-3,Mo-Fr 09:00-18:00; Sa 09:00-12:00,Vodafone,Q122141
6DE01610,volvo,Autohaus Welde GmbH,,Pirna,,,DE,,http://www.volvocars-werkstatt.de/welde,,Volvo,Q215293
https://www.vr.de/standorte/P/volksbank-pirna-eg-19163.html,vr_bank,Volksbank Pirna eG,,Pirna,,,DE,+49 3501 5322222,https://www.volksbank-pirna.de,Mo-Th 08:30-18:00; Fr 08:30-14:00,,
https://www.vr.de/standorte/P/volksbank-pirna-eg-15421.html,vr_bank,Volksbank Pirna eG,,Pirna-Copitz,,,DE,+49 3501 5322700,https://www.volksbank-pirna.de,"Mo-Tu 08:30-13:00,14:00-18:00; We 08:30-13:00; Th 08:30-13:00,14:00-18:00; Fr 08:30-13:00",,
https://www.vr.de/standorte/P/volksbank-pirna-eg-6917.html,vr_bank,Volksbank Pirna eG,,Pirna,,,DE,+49 3501 53220,https://www.volksbank-pirna.de,Mo-Th 08:30-18:00; Fr 08:30-13:00,,
