Ref,Spider,Name,Address,City,State,Zipcode,Country,Phone,Website,Hours,Brand,WikiData
15231,ace_hardware,Elder's Ace Hardware-Chickamauga,,Chickamauga,GA,,US,+1 706-375-2111,,Mo-Sa 08:00-20:00; Su 12:00-18:00,Ace Hardware,Q4672981
https://stores.advanceautoparts.com/ga/chickamauga/13147-n-highway-27,advance_auto_parts_us,Advance Auto Parts,,Chickamauga,GA,,US,+1 706-375-6140,https://stores.advanceautoparts.com/ga/chickamauga/13147-n-highway-27,Mo-Sa 07:00-21:00; Su 09:00-20:00,Advance Auto Parts,Q4686051
236458,bluerhino,Circle K #2723511,,Chickamauga,GA,,US,+1 706-375-2095,,,Blue Rhino,Q65681213
40884,bluerhino,Food Lion #1563,,Chickamauga,GA,,US,+1 706-375-7124,,,Blue Rhino,Q65681213
41458,citi,ATM Circle K,,Chickamauga,GA,,US,,,,Citibank,Q857063
25364,citi,ATM 7ELEVEN-FCTI,,Chickamauga,GA,,US,,,,Citibank,Q857063
17459,dollar_general,Dollar General,,Chickamauga,GA,,US,+1 706-383-9590,https://www.dollargeneral.com/store-directory/ga/chickamauga/17459,Mo-Su 08:00-22:00,Dollar General,Q145168
8868,dominos_pizza_us,Domino's Pizza,,Chickamauga,GA,,US,+1 706-375-3000,https://pizza.dominos.com/georgia/chickamauga/110-cove-rd,Mo-Th 10:00-24:00; Fr-Sa 10:00-01:00; Su 10:00-24:00,Domino's,Q839466
https://www.edwardjones.com/us-en/financial-advisor/rob-looney,edwardjones,Rob Looney,,Chickamauga,GA,,US,+1 706-375-4727,https://www.edwardjones.com/us-en/financial-advisor/rob-looney,Mo-Th 09:00-17:00; Fr 09:00-14:00,Edward Jones,Q5343830
200310874,exxonmobil,7-ELEVEN 41050,,CHICKAMAUGA,GA,,US,+1 706-375-2626,https://www.exxon.com/en/find-station/exxon-chickamauga-ga-7eleven41050-200310874,24/7,Exxon,Q109675651
https://local.fedex.com/#25230271,fedex,,,Chickamauga,GA,,US,+1 800-463-3339,https://local.fedex.com/en-us/ga/chickamauga/chabi,,FedEx,Q459477
https://local.fedex.com/#25233135,fedex,,,Chickamauga,GA,,US,+1 800-463-3339,https://local.fedex.com/en-us/ga/chickamauga/chabh,,FedEx,Q459477
https://local.fedex.com/#25229364,fedex,,,Chickamauga,GA,,US,+1 800-463-3339,https://local.fedex.com/en-us/ga/chickamauga/chaab,,FedEx,Q459477
1506348,hardees_us,Hardee's,,Chickamauga,GA,,US,+1 706-375-8374,https://locations.hardees.com/ga/chickamauga/12876-n.-highway-27,,Hardee's,Q1585088
643,huddle_house_us,GA - Chickamauga,,Chickamauga,GA,,US,+1 706-375-1560,https://www.huddlehouse.com/locations/ga/chickamauga/14-bushrod-johnson-ave,Mo-Th 06:00-21:00; Fr-Sa 06:00-22:00; Su 06:00-21:00,Huddle House,Q5928324
11224,h_r_block,H&R Block,,Chickamauga,GA,,US,+1 706-375-5450,https://www.hrblock.com/local-tax-offices/georgia/chickamauga/13311-hwy-27-ste-4/11224/,,H&R Block,Q5627799
https://locations.oreillyauto.com/ga/chickamauga/check-engine-light-testing-5264.html,oreilly,Your Chickamauga O'Reilly Auto Parts Store,,Chickamauga,GA,,US,+1 706-375-5264,https://locations.oreillyauto.com/ga/chickamauga/check-engine-light-testing-5264.html,Mo-Sa 07:00-21:00; Su 08:00-20:00,O'Reilly Auto Parts,Q7071951
https://locations.oreillyauto.com/ga/chickamauga/wiper-installation-5264.html,oreilly,Your Chickamauga O'Reilly Auto Parts Store,,Chickamauga,GA,,US,+1 706-375-5264,https://locations.oreillyauto.com/ga/chickamauga/wiper-installation-5264.html,Mo-Sa 07:00-21:00; Su 08:00-20:00,O'Reilly Auto Parts,Q7071951
https://locations.oreillyauto.com/ga/chickamauga/battery-testing-5264.html,oreilly,Your Chickamauga O'Reilly Auto Parts Store,,Chickamauga,GA,,US,+1 706-375-5264,https://locations.oreillyauto.com/ga/chickamauga/battery-testing-5264.html,Mo-Sa 07:00-21:00; Su 08:00-20:00,O'Reilly Auto Parts,Q7071951
https://locations.oreillyauto.com/ga/chickamauga/autopartes-5264.html,oreilly,Tu tienda O'Reilly Auto Parts en Chickamauga,,Chickamauga,GA,,US,+1 706-375-5264,https://locations.oreillyauto.com/ga/chickamauga/autopartes-5264.html,Mo-Sa 07:00-21:00; Su 08:00-20:00,O'Reilly Auto Parts,Q7071951
ga_chickamauga_55-hwy-813,pizza_hut_us,55 Hwy 813,,Chickamauga,GA,,US,+1 706-375-9120,https://locations.pizzahut.com/ga/chickamauga/55-hwy-813,,Pizza Hut,Q191615
41050,seven_eleven_ca_us,7-Eleven,,CHICKAMAUGA,GA,,US,+1 706-375-2626,https://www.7-eleven.com/locations/ga/chickamauga/12797-n-highway-27-41050,,7-Eleven,Q259340
https://restaurants.subway.com/#14914389,subway,Subway,,Chickamauga Walker,GA,,US,+1 706-375-8881,https://restaurants.subway.com/united-states/ga/chickamauga/13311-north-hwy-27,Mo-Su 08:00-21:00,Subway,Q244457
https://locations.tacobell.com/#3916760,taco_bell,Taco Bell,,Chickamauga,GA,,US,+1 423-454-8090,https://locations.tacobell.com/ga/chickamauga/15-major-james-clark-gordon-dr.html,Mo-Su 09:00-01:00,Taco Bell,Q752941
1357909,usps,CHICKAMAUGA,,CHICKAMAUGA,GA,,US,+1 706-375-7793,,Mo-Fr 08:30-16:30; Sa 09:00-12:00,United States Postal Service,Q668687
3070700004,usps_collection_boxes,USPS COLLECTION BOX - PO LOBBY,207 W 10TH ST,CHICKAMAUGA,GA,,US,,,,United States Postal Service,Q668687
3070700012,usps_collection_boxes,USPS COLLECTION BOX - PO LOBBY,207 W 10TH ST,CHICKAMAUGA,GA,,US,,,,United States Postal Service,Q668687
3070700007,usps_collection_boxes,USPS COLLECTION BOX - BLUE BOX,207 W 10TH ST,CHICKAMAUGA,GA,,US,,,,United States Postal Service,Q668687
,visa,,,CHICKAMAUGA,GA,,US,,,,,
,visa,,,CHICKAMAUGA,GA,,US,,,,,
,visa,,,CHICKAMAUGA,GA,,US,,,,,
,visa,,,CHICKAMAUGA,GA,,US,,,,,
,visa,,,CHICKAMAUGA,GA,,US,,,,,
,visa,,,CHICKAMAUGA,GA,,US,,,,,
,visa,,,CHICKAMAUGA,GA,,US,,,,,
,visa,,,CHICKAMAUGA,GA,,US,,,,,
,visa,,,CHICKAMAUGA,GA,,US,,,,,
,visa,,,CHICKAMAUGA,GA,,US,,,,,
https://locations.wendys.com/#19803949,wendys,"Wendy's Chickamauga in Chickamauga, GA",,Chickamauga,GA,,US,+1 706-375-5088,https://locations.wendys.com/united-states/ga/chickamauga/12706-us-27,"Mo-Sa 06:00-10:30,09:00-21:00; Su 07:00-10:30,09:00-21:00",Wendy's,Q550258
278fb9372d2dc4ea1e5d0cd729ac86f8,western_union,FOOD LION #1563,,Chickamauga,GA,,US,+1 706-375-7124,https://location.westernunion.com/us/ga/chickamauga/278fb9372d2dc4ea1e5d0cd729ac86f8,Mo-Su 06:00-22:00,Western Union,Q861042
