Ref,Spider,Name,Address,City,State,Zipcode,Country,Phone,Website,Hours,Brand,WikiData
28676_1,bmw_group,Bergmann & Söhne GmbH,,Pinneberg,,,DE,+49 4101 585610,https://www.bmw-motorrad.de/bergmann-pinneberg,,BMW Motorrad,Q249173
https://www.biomarkt.de/pinneberg-elmshorner-str-68-72,denns_de,Denns BioMarkt Pinneberg,,Pinneberg,,,DE,+49 4101 3709752,https://www.biomarkt.de/pinneberg-elmshorner-str-68-72/marktseite,,Denns BioMarkt,Q48883773
de:2503,dm,dm-drogerie markt,,Pinneberg,,,DE,+49 4101 3693930,https://www.dm.de/store/d487/pinneberg/bismarckstrasse-13,Mo-Sa 08:00-20:00,dm,Q266572
33766,dominos_pizza_de,Domino's Pizza Pinneberg,,Pinneberg,,,DE,,https://www.dominos.de/filiale/de-pinneberg-33766,,Domino's,Q839466
2760208515,gls_de,Ernst Glindmeyer KG,,Pinneberg,,,DE,+49 4101 8424470,,Mo-Fr 09:30-18:30; Sa 10:00-16:00,General Logistics Systems,Q46495823
277,junge_de,Junge,,Pinneberg,,,DE,+49 4101 8561121,,Mo-Fr 07:00-18:00; Sa 07:00-17:00; Su 07:00-16:00,Junge,Q1561751
6521,kik,KiK,,Pinneberg,,,DE,+49 4101 3742834,,Mo-Sa 09:00-20:00,KiK,Q883965
7376,lidl_de,,,Pinneberg,,,DE,,,Mo-Sa 07:00-21:00,Lidl,Q151954
488863,remax_de,RE/MAX,,,,,DE,+49 4101 8193310,/immobilientraum-pinneberg,Mo-Th 08:30-18:00; Fr 08:30-15:30; Sa-Su 00:00-24:00,RE/MAX,Q965845
https://www.rossmann.de/de/filialen/schleswig-holstein/pinneberg/friedr--ebert-str--29-33.html,rossmann_de,Rossmann Drogerie-Markt Friedr.-Ebert-Str. 29-33,,Pinneberg,,,DE,+49 4101 375744,https://www.rossmann.de/de/filialen/schleswig-holstein/pinneberg/friedr--ebert-str--29-33.html,Mo-Fr 08:00-19:00; Sa 08:00-16:00,Rossmann,Q316004
47694,seat_de,Autohof Reimers GmbH,,Pinneberg,,,DE,+49 4101 490894,https://reimers.seat.de,,SEAT,Q188217
19223,sparkasse_de,Sparkasse Südholstein Geldautomat Pinneberg-Quellental (1),,Pinneberg,,,DE,+49 4321 4084444,https://www.sparkasse.de/standorte/geldautomaten/sparkasse-suedholstein-geldautomat-pinneberg-quellental-1-19223,Mo-Su 06:00-23:00,Sparkasse,Q13601825
10364,sparkasse_de,Sparkasse Südholstein Filiale Pinneberg-Quellental,,Pinneberg,,,DE,+49 4321 4084444,https://www.sparkasse.de/standorte/filialen/sparkasse-suedholstein-filiale-pinneberg-quellental-10364,"Mo 09:00-12:00,14:00-18:00; Tu-We 09:00-12:00; Th 09:00-12:00,14:00-18:00; Fr 09:00-12:00",Sparkasse,Q13601825
110870,sparkasse_de,Sparkasse Südholstein Geldautomat Pinneberg-Kundencenter,,Pinneberg,,,DE,+49 4321 4084444,https://www.sparkasse.de/standorte/geldautomaten/sparkasse-suedholstein-geldautomat-pinneberg-kundencenter-110870,24/7,Sparkasse,Q13601825
110869,sparkasse_de,Sparkasse Südholstein Hauptfiliale Pinneberg-Kundencenter,,Pinneberg,,,DE,+49 4321 4084444,https://www.sparkasse.de/standorte/filialen/sparkasse-suedholstein-hauptfiliale-pinneberg-kundencenter-110869,"Mo 09:00-12:00,14:00-18:00; Tu 09:00-12:00,14:00-16:00; We 09:00-12:00; Th 09:00-12:00,14:00-18:00; Fr 09:00-12:00,14:00-16:00",Sparkasse,Q13601825
169768,sparkasse_de,Sparkasse Südholstein PrivateBanking Private Banking,,Pinneberg,,,DE,+49 4321 4084444,https://www.sparkasse.de/standorte/filialen/sparkasse-suedholstein-private-banking-private-banking-169768,Mo 09:00-18:00; Tu 09:00-16:00; We 09:00-15:00; Th 09:00-18:00; Fr 09:00-16:00,Sparkasse,Q13601825
40575,sparkasse_de,Sparkasse Südholstein Geldautomat Famila Markt Pinneberg,,Pinneberg,,,DE,+49 4321 4084444,https://www.sparkasse.de/standorte/geldautomaten/sparkasse-suedholstein-geldautomat-famila-markt-pinneberg-40575,Mo-Sa 08:00-21:00,Sparkasse,Q13601825
https://toom.de/m/pinneberg/,toom_baumarkt_de,toom Baumarkt in Pinneberg,,Pinneberg,,,DE,+49 4101 8520710,https://toom.de/m/pinneberg/,Mo-Sa 07:00-20:00,Toom Baumarkt,Q2442970
ND003996,totalenergies,PINNEBERG ELMSHORNER STR. 143-147,,PINNEBERG,,,DE,+49 4101 74305,https://store.totalenergies.fr/en_EN/ND003996,Mo-Fr 06:00-22:00; Sa 07:00-22:00; Su 08:00-22:00,,
ND007955,totalenergies,PINNEBERG THESDORFER WEG 194,,PINNEBERG,,,DE,+49 4101 693669,https://store.totalenergies.fr/en_EN/ND007955,Mo-Fr 05:00-23:00; Sa-Su 07:00-23:00,,
ND037606,totalenergies,PINNEBERG DAMM 80,,PINNEBERG,,,DE,+49 4101 26837,https://store.totalenergies.fr/en_EN/ND037606,Mo-Fr 06:00-22:00; Sa-Su 07:00-22:00,,
WES_DE_712,totalenergies,"PINNEBERG, ELMSHORNER STRAßE 42",,Pinneberg,,,DE,,https://store.totalenergies.fr/en_EN/WES_DE_712,,Westfalen,Q1411209
3045,valora,Press & Books,,Pinneberg,,,DE,,,,Press & Books,Q100407277
https://www.vlh.de/bst/2790/Oeffnungszeiten.html,vhl_de,VLH-Beraterin Susanne Hirtenfelder in Pinneberg,,Pinneberg,,,DE,+49 172 3841737,https://www.vlh.de/bst/2790/,,Vereinigte Lohnsteuerhilfe e.V.,Q15852617
https://www.vlh.de/bst/2163/Oeffnungszeiten.html,vhl_de,VLH-Beraterin Ella Speiser in Pinneberg,,Pinneberg,,,DE,+49 4101 7734706,https://www.vlh.de/bst/2163/,,Vereinigte Lohnsteuerhilfe e.V.,Q15852617
https://www.vlh.de/bst/2092/Oeffnungszeiten.html,vhl_de,VLH-Beraterin Katja Schmitt in Pinneberg,,Pinneberg,,,DE,+49 4101 8692888,https://www.vlh.de/bst/2092/,Mo 13:00-16:00; We-Th 09:00-12:00,Vereinigte Lohnsteuerhilfe e.V.,Q15852617
,visa,,,PINNEBERG,,,DE,,,,,
,visa,,,PINNEBERG,,,DE,,,,,
,visa,,,PINNEBERG,,,DE,,,,,
,visa,,,PINNEBERG,,,DE,,,,,
,visa,,,PINNEBERG,,,DE,,,,,
,visa,,,PINNEBERG,,,DE,,,,,
,visa,,,PINNEBERG,,,DE,,,,,
,visa,,,PINNEBERG,,,DE,,,,,
,visa,,,PINNEBERG,,,DE,,,,,
https://shops.vodafone.de/pinneberg/am-rathaus-8a,vodafone_de,Vodafone-Shop,,Pinneberg,,,DE,+49 4101 586023,https://shops.vodafone.de/pinneberg/am-rathaus-8a,Mo-Fr 09:00-18:00; Sa 09:00-16:00,Vodafone,Q122141
6DE07825,volvo,Finck & Claus GmbH,,Pinneberg,,,DE,+49 4101 78320,http://www.volvocars-haendler.de/finck-und-claus/pinneberg,,Volvo,Q215293
https://www.vr.de/standorte/P/vr-bank-in-holstein-eg-6911.html,vr_bank,VR Bank in Holstein eG,,Pinneberg,,,DE,+49 4101 5010,https://www.vrbank-in-holstein.de,"Mo 09:00-12:30,14:30-16:00; Tu 09:00-12:30,14:30-18:00; We 09:00-12:30; Th 09:00-12:30,14:30-18:00; Fr 09:00-12:30,14:30-16:00",,
https://www.vr.de/standorte/P/vr-bank-in-holstein-eg-6912.html,vr_bank,VR Bank in Holstein eG,,Pinneberg,,,DE,+49 4101 5010,https://www.vrbank-in-holstein.de,"Mo 09:00-12:30; Tu 09:00-12:30,14:30-18:00; We 09:00-12:30; Th 09:00-12:30,14:30-18:00; Fr 09:00-12:30",,
