Ref,Spider,Name,Address,City,State,Zipcode,Country,Phone,Website,Hours,Brand,WikiData
11 W 33rd Street,allied_universal,Allied Universal,,Erie,PA,,US,+1 814-459-0390,https://www.aus.com/erie-security-systems-services,,Allied Universal,Q4732537
29063,bluerhino,Kwik Fill #M0185,,Erie,PA,,US,+1 814-459-0247,,,Blue Rhino,Q65681213
229410,bluerhino,Circle K #4704218,,Erie,PA,,US,+1 814-453-7908,,,Blue Rhino,Q65681213
205845,bluerhino,Rite Aid #02382,,Erie,PA,,US,+1 814-452-4012,,,Blue Rhino,Q65681213
153131,bluerhino,Walgreens #10520,,Erie,PA,,US,+1 814-864-0292,,,Blue Rhino,Q65681213
90591,citi,ATM Walgreens,,Erie,PA,,US,,,,Citibank,Q857063
,credit_union_us,Erie FCU,,Erie,PA,,US,+1 814-825-2436,,Mo-We 09:00-05:00; Th-Fr 09:00-06:00; Sa 09:00-03:00,,
https://www.edwardjones.com/us-en/financial-advisor/charles-holt2,edwardjones,Charles R Holt,,Erie,PA,,US,+1 814-864-6563,https://www.edwardjones.com/us-en/financial-advisor/charles-holt2,Mo 08:30-16:00; Tu 08:30-18:00; We-Fr 08:30-16:00,Edward Jones,Q5343830
https://stores.gnc.com/#24058262,gnc,GNC Liberty Plaza,,,PA,,US,+1 814-864-8172,https://stores.gnc.com/all-stores-pennsylvania/erie/3502-liberty-street,Mo-Sa 10:00-20:00; Su 12:00-17:00,GNC,Q4808595
https://www.harborfreight.com/storelocator/3508-liberty-plaza-erie-16508?number=158,harborfreight,"Harbor Freight Tools Erie, PA",,Erie,PA,,US,+1 814-864-8464,https://www.harborfreight.com/storelocator/3508-liberty-plaza-erie-16508?number=158,Mo-Sa 08:00-20:00; Su 09:00-18:00,Harbor Freight Tools,Q5654601
36587,h_r_block,H&R Block,,Erie,PA,,US,+1 814-868-5143,https://www.hrblock.com/local-tax-offices/pennsylvania/erie/liberty-shopping-ctr/36587/,,H&R Block,Q5627799
37296,h_r_block,H&R Block,,Erie,PA,,US,+1 814-455-3676,https://www.hrblock.com/local-tax-offices/pennsylvania/erie/tops-plaza/37296/,,H&R Block,Q5627799
https://office.jacksonhewitt.com/#27577640,jackson_hewitt,Jackson Hewitt,,Erie,PA,,US,+1 814-855-3024,https://office.jacksonhewitt.com/tax-preparation-services-locations/en/pa/erie/1210-west-26th-street/16012,Mo-Sa 11:00-19:00; Su 12:00-16:00,Jackson Hewitt,Q6117132
1230,mightyflame,COUNTRY FAIR #81,,ERIE,PA,,US,+1 814-453-5186,,,Mighty Flame,
4954,mightyflame,TOPS MARKET #602,,ERIE,PA,,US,+1 814-455-9000,,,Mighty Flame,
4959,mightyflame,TOPS MARKET #665,,ERIE,PA,,US,+1 814-864-4958,,,Mighty Flame,
1199,mightyflame,COUNTRY FAIR  #43,,ERIE,PA,,US,+1 814-864-1144,,,Mighty Flame,
https://locations.northwest.bank/#35177084,northwest_bank,3407 Liberty St Erie - 34th & Liberty,,Erie,PA,,US,+1 814-868-4646,https://locations.northwest.bank/pa/erie/3407-liberty-st,Mo-Th 09:00-16:30; Fr 09:00-18:00; Sa 09:00-12:00,Northwest Bank,Q7060191
https://locations.northwest.bank/#35177041,northwest_bank,121 West 26th Street Erie - 26th & Peach,,Erie,PA,,US,+1 814-452-6465,https://locations.northwest.bank/pa/erie/121-west-26th-street,Mo-Th 09:00-16:00; Fr 09:00-17:00,Northwest Bank,Q7060191
737744,penske,Api Autobody Products,,ERIE,PA,,US,+1 814-459-3075,https://www.pensketruckrental.com/locations/us/pennsylvania/erie/737744/,,Penske,Q81234570
3892,rentacenter,Rent-A-Center,,Erie,PA,,US,+1 814-866-6611,https://locations.rentacenter.com/pennsylvania/erie/3706-liberty-st/,Mo-Sa 10:00-18:00,Rent-A-Center,Q7313497
02382,rite_aid_us,Rite Aid #02382 Erie,,Erie,PA,,US,+1 814-452-4012,https://locations2.riteaid.com.yext-cdn.com/pa/erie/163-west-26th-street.html,Mo-Fr 08:00-22:00; Sa-Su 09:00-21:00,Rite Aid,Q3433273
https://restaurants.subway.com/#14911050,subway,Subway,,Erie Erie,PA,,US,+1 814-314-0656,https://restaurants.subway.com/united-states/pa/erie/1522-west-26th-st,Mo-Su 08:30-22:00,Subway,Q244457
665,tops,Tops,"712 West 38th St., Liberty Plaza",Erie,PA,,US,+1 814-864-4958,,,Tops,Q7825137
1382155,usps,SOUTH ERIE,,ERIE,PA,,US,+1 814-866-0321,,Mo-Fr 08:30-17:00; Sa 08:30-12:30,United States Postal Service,Q668687
1650800037,usps_collection_boxes,USPS COLLECTION BOX - BLUE BOX,3304 STATE ST,ERIE,PA,,US,,,,United States Postal Service,Q668687
1650800038,usps_collection_boxes,USPS COLLECTION BOX - BLUE BOX,3514 STATE ST,ERIE,PA,,US,,,,United States Postal Service,Q668687
1650800025,usps_collection_boxes,USPS COLLECTION BOX - BLUE BOX,3580 PEACH ST,ERIE,PA,,US,,,,United States Postal Service,Q668687
1650800043,usps_collection_boxes,USPS COLLECTION BOX - PO LOBBY,3607 POPLAR ST,ERIE,PA,,US,,,,United States Postal Service,Q668687
1650800044,usps_collection_boxes,USPS COLLECTION BOX - APC,3607 POPLAR ST,ERIE,PA,,US,,,,United States Postal Service,Q668687
1650800029,usps_collection_boxes,USPS COLLECTION BOX - BLUE BOX,3607 POPLAR ST,ERIE,PA,,US,,,,United States Postal Service,Q668687
1650800027,usps_collection_boxes,USPS COLLECTION BOX - BLUE BOX,3607 POPLAR ST,ERIE,PA,,US,,,,United States Postal Service,Q668687
1650800047,usps_collection_boxes,USPS COLLECTION BOX - PO LOBBY,3607 POPLAR ST,ERIE,PA,,US,,,,United States Postal Service,Q668687
1650800021,usps_collection_boxes,USPS COLLECTION BOX - BLUE BOX,3608 LIBERTY ST,ERIE,PA,,US,,,,United States Postal Service,Q668687
1650800002,usps_collection_boxes,USPS COLLECTION BOX - BLUE BOX,1520 W 26TH ST,ERIE,PA,,US,,,,United States Postal Service,Q668687
1650800032,usps_collection_boxes,USPS COLLECTION BOX - BLUE BOX,3129 POST AVE,ERIE,PA,,US,,,,United States Postal Service,Q668687
1650800013,usps_collection_boxes,USPS COLLECTION BOX - BLUE BOX,1515 W 38TH ST,ERIE,PA,,US,,,,United States Postal Service,Q668687
,visa,,,ERIE,PA,,US,,,,,
,visa,,,ERIE,PA,,US,,,,,
,visa,,,ERIE,PA,,US,,,,,
,visa,,,ERIE,PA,,US,,,,,
,visa,,,ERIE,PA,,US,,,,,
,visa,,,ERIE,PA,,US,,,,,
,visa,,,ERIE,PA,,US,,,,,
,visa,,,ERIE,PA,,US,,,,,
,visa,,,ERIE,PA,,US,,,,,
,visa,,,ERIE,PA,,US,,,,,
,visa,,,ERIE,PA,,US,,,,,
,visa,,,ERIE,PA,,US,,,,,
,visa,,,ERIE,PA,,US,,,,,
,visa,,,ERIE,PA,,US,,,,,
,visa,,,ERIE,PA,,US,,,,,
,visa,,,ERIE,PA,,US,,,,,
,visa,,,ERIE,PA,,US,,,,,
,visa,,,ERIE,PA,,US,,,,,
,visa,,,ERIE,PA,,US,,,,,
,visa,,,ERIE,PA,,US,,,,,
,visa,,,ERIE,PA,,US,,,,,
,visa,,,ERIE,PA,,US,,,,,
,visa,,,ERIE,PA,,US,,,,,
,visa,,,ERIE,PA,,US,,,,,
,visa,,,ERIE,PA,,US,,,,,
,visa,,,ERIE,PA,,US,,,,,
,visa,,,ERIE,PA,,US,,,,,
,visa,,,ERIE,PA,,US,,,,,
,visa,,,ERIE,PA,,US,,,,,
,visa,,,ERIE,PA,,US,,,,,
,visa,,,ERIE,PA,,US,,,,,
,visa,,,ERIE,PA,,US,,,,,
,visa,,,ERIE,PA,,US,,,,,
,visa,,,ERIE,PA,,US,,,,,
,visa,,,ERIE,PA,,US,,,,,
,visa,,,ERIE,PA,,US,,,,,
,visa,,,ERIE,PA,,US,,,,,
,visa,,,ERIE,PA,,US,,,,,
,visa,,,ERIE,PA,,US,,,,,
,visa,,,ERIE,PA,,US,,,,,
,visa,,,ERIE,PA,,US,,,,,
,visa,,,ERIE,PA,,US,,,,,
,visa,,,ERIE,PA,,US,,,,,
,visa,,,ERIE,PA,,US,,,,,
https://www.walgreens.com/locator/walgreens-3727+peach+st-erie-pa-16508/id=10520,walgreens,Walgreens,,Erie,PA,,US,+1 814-864-0292,https://www.walgreens.com/locator/walgreens-3727+peach+st-erie-pa-16508/id=10520,Mo-Fr 08:00-22:00; Sa 08:00-21:00; Su 09:00-21:00,Walgreens,Q1591889
