Ref,Spider,Name,Address,City,State,Zipcode,Country,Phone,Website,Hours,Brand,WikiData
https://locations.atipt.com/n-billerica-ma,ati_physical_therapy,ATI Physical Therapy (2049),,Billerica,MA,,US,+1 978-901-3513,https://locations.atipt.com/n-billerica-ma,,ATI Physical Therapy,Q50039703
5059,autozone_us,AutoZone Auto Parts North Billerica,,North Billerica,MA,,US,+1 978-663-0042,https://www.autozone.com/locations/ma/north-billerica/305-boston-rd.html,Mo-Fr 07:30-20:00; Sa 07:30-19:00; Su 09:00-17:00,AutoZone,Q4826087
187596,bluerhino,"Global #2743 - Billerica, MA",,Billerica,MA,,US,+1 978-663-1440,,,Blue Rhino,Q65681213
2340,bluerhino,Cumberland Farms #3493,,North Billerica,MA,,US,+1 978-670-6415,,,Blue Rhino,Q65681213
ma_billerica_199-boston-rd,chipotle, ,,Billerica,MA,,US,+1 978-667-1980,https://locations.chipotle.com/ma/billerica/199-boston-rd,,Chipotle,Q465751
28988,citi,ATM 7ELEVEN-FCTI,,Billerica,MA,,US,,,,Citibank,Q857063
48986,citi,ATM CVS,,North Billerica,MA,,US,,,,Citibank,Q857063
58665,citi,ATM HANSCOM FEDERAL CREDIT UNION,,Billerica,MA,,US,,,,Citibank,Q857063
ATM-1646,citizens_us,,,North Billerica,MA,,US,,,,Citizens,Q5122694
,credit_union_us,Hanscom FCU,,North Billerica,MA,,US,+1 978-667-4863,,Mo 08:00-04:00; Tu 09:00-04:00; We 08:00-05:00; Th 08:30-06:00; Fr 08:00-04:00; Sa 09:00-12:00,,
520092,cumberland_farms_us,Cumberland Farms,,NORTH BILLERICA,MA,,US,+1 978-670-6415,https://www.cumberlandfarms.com/find-us/generic-store-page/?id=003493,,Cumberland Farms,Q1143685
131,cvs_us,CVS Pharmacy,,North Billerica,MA,,US,+1 978-663-6616,https://www.cvs.com/store-locator/north-billerica-ma-pharmacies/210-boston-rd-north-billerica-ma-01862/storeid=131,Mo-Su 07:00-22:00,CVS Pharmacy,Q2078880
335900,dunkin_us,Dunkin',,North Billerica,MA,,US,+1 978-667-8588,https://locations.dunkindonuts.com/en/ma/north-billerica/80-chelmsford-rd/335900,24/7,Dunkin',Q847743
304648,dunkin_us,Dunkin',,North Billerica,MA,,US,+1 978-663-5377,https://locations.dunkindonuts.com/en/ma/north-billerica/181-boston-rd/304648,Mo-Fr 04:00-21:00; Sa-Su 05:00-21:00,Dunkin',Q847743
350740,dunkin_us,Dunkin',,North Billerica,MA,,US,+1 978-362-1070,https://locations.dunkindonuts.com/en/ma/north-billerica/1-republic-rd/350740,Mo-Fr 04:00-19:00; Sa-Su 05:00-19:00,Dunkin',Q847743
520092,eg_america_us,Cumberland Farms,,NORTH BILLERICA,MA,,US,+1 978-670-6415,https://www.cumberlandfarms.com/find-us/generic-store-page/?id=003493,,Cumberland Farms,Q1143685
1000000299,extra_space_storage,North Billerica Self Storage at 225 Rangeway Rd,,North Billerica,MA,,US,+1 978-262-2299,https://www.extraspace.com/storage/facilities/us/massachusetts/north_billerica/1000000299/,Mo-Fr 09:30-18:00; Sa 09:00-17:30,Extra Space Storage,Q5422162
200325407,exxonmobil,YATCO PETROLEX - NORTH BILLE,,NORTH BILLERICA,MA,,US,,https://www.exxon.com/en/find-station/mobil-northbillerica-ma-yatcopetrolexnorthbille-200325407,24/7,Mobil,Q109676002
858,joann_us,JOANN Fabric and Crafts,,Billerica,MA,,US,+1 978-663-4581,https://stores.joann.com/ma/billerica/858/,Mo-Sa 09:00-19:00; Su 10:00-18:00,JOANN,Q6203968
301389,kindercare,North Billerica KinderCare,,North Billerica,MA,,US,,https://www.kindercare.com/our-centers/north-billerica/ma/301389,,KinderCare Learning Centers,Q6410551
https://locations.massageenvy.com/#1811645,massage_envy,Massage Envy Billerica,,North Billerica,MA,,US,+1 978-663-3689,https://locations.massageenvy.com/massachusetts/north-billerica/199-boston-rd.html,Mo-Fr 08:00-22:00; Sa-Su 10:00-18:00,Massage Envy,Q10327170
https://locations.oreillyauto.com/ma/northbillerica/check-engine-light-testing-4548.html,oreilly,Your North Billerica O'Reilly Auto Parts Store,,North Billerica,MA,,US,+1 978-663-0030,https://locations.oreillyauto.com/ma/northbillerica/check-engine-light-testing-4548.html,Mo-Sa 07:30-21:00; Su 09:00-19:00,O'Reilly Auto Parts,Q7071951
https://locations.oreillyauto.com/ma/northbillerica/wiper-installation-4548.html,oreilly,Your North Billerica O'Reilly Auto Parts Store,,North Billerica,MA,,US,+1 978-663-0030,https://locations.oreillyauto.com/ma/northbillerica/wiper-installation-4548.html,Mo-Sa 07:30-21:00; Su 09:00-19:00,O'Reilly Auto Parts,Q7071951
https://locations.oreillyauto.com/ma/northbillerica/battery-testing-4548.html,oreilly,Your North Billerica O'Reilly Auto Parts Store,,North Billerica,MA,,US,+1 978-663-0030,https://locations.oreillyauto.com/ma/northbillerica/battery-testing-4548.html,Mo-Sa 07:30-21:00; Su 09:00-19:00,O'Reilly Auto Parts,Q7071951
https://locations.oreillyauto.com/ma/northbillerica/autopartes-4548.html,oreilly,Tu tienda O'Reilly Auto Parts en North Billerica,,North Billerica,MA,,US,+1 978-663-0030,https://locations.oreillyauto.com/ma/northbillerica/autopartes-4548.html,Mo-Sa 07:30-21:00; Su 09:00-19:00,O'Reilly Auto Parts,Q7071951
80928,supercuts,Treble Cove Plaza,199 Boston Rd,North Billerica,MA,,US,+1 978-663-7900,https://www.supercuts.com/checkin/80928,Mo-Fr 09:00-19:00; Sa 09:00-17:00; Su 10:00-17:00,Supercuts,Q7643239
https://locations.tccrocks.com/ma/north-billerica/305-boston-road.html,tcc_us,TCC North Billerica,,North Billerica,MA,,US,+1 617-241-0170,https://locations.tccrocks.com/ma/north-billerica/305-boston-road.html,Mo-Sa 10:00-18:00; Su 11:00-18:00,Verizon,Q919641
0004,the_paper_store_us,The Paper Store,,Billerica,MA,,US,+1 978-663-4500,https://locations.thepaperstore.com/north-billerica-199-boston-rd-ste-7-01862-2328,Mo-Th 10:00-19:00; Fr-Sa 09:00-19:00; Su 10:00-17:00,The Paper Store,Q65068381
1375262,usps,NORTH BILLERICA,,NORTH BILLERICA,MA,,US,+1 978-663-9900,,Mo-Fr 09:00-16:30; Sa 09:30-12:00,United States Postal Service,Q668687
0186200001,usps_collection_boxes,USPS COLLECTION BOX - BLUE BOX,95 BOSTON RD,NORTH BILLERICA,MA,,US,,,,United States Postal Service,Q668687
0186200002,usps_collection_boxes,USPS COLLECTION BOX - BLUE BOX,95 BOSTON RD,NORTH BILLERICA,MA,,US,,,,United States Postal Service,Q668687
0186200003,usps_collection_boxes,USPS COLLECTION BOX - PO LOBBY,95 BOSTON RD,NORTH BILLERICA,MA,,US,,,,United States Postal Service,Q668687
0186200004,usps_collection_boxes,USPS COLLECTION BOX - PO LOBBY,95 BOSTON RD,NORTH BILLERICA,MA,,US,,,,United States Postal Service,Q668687
A00000243559,verizon_us,TCC North Billerica,,NORTH BILLERICA,MA,,US,+1 978-670-5500,https://www.verizon.com/stores/details/massachusetts/north-billerica/tcc-north-billerica-1800422/,Mo-Sa 10:00-18:00; Su 11:00-18:00,Verizon,Q919641
,visa,,,BILLERICA,MA,,US,,,,,
,visa,,,BILLERICA,MA,,US,,,,,
,visa,,,NORTH BILLERICA,MA,,US,,,,,
,visa,,,N BILLERICA,MA,,US,,,,,
,visa,,,BILLERICA,MA,,US,,,,,
,visa,,,BILLERICA,MA,,US,,,,,
,visa,,,N. BILLERICA,MA,,US,,,,,
,visa,,,NORTH BILLERICA,MA,,US,,,,,
,visa,,,NORTH BILLERICA,MA,,US,,,,,
,visa,,,BILLERICA,MA,,US,,,,,
,visa,,,BILLERICA,MA,,US,,,,,
,visa,,,BILLERICA,MA,,US,,,,,
,visa,,,BILLERICA,MA,,US,,,,,
,visa,,,NORTH BILLERICA,MA,,US,,,,,
,visa,,,NORTH BILLERICA,MA,,US,,,,,
https://locations.wendys.com/#9254323,wendys,"Wendy's Boston Road in North Billerica, MA",,North Billerica,MA,,US,+1 978-663-4550,https://locations.wendys.com/united-states/ma/north-billerica/312-boston-rd,"Mo-Su 06:30-10:30,07:00-22:00",Wendy's,Q550258
