Ref,Spider,Name,Address,City,State,Zipcode,Country,Phone,Website,Hours,Brand,WikiData
149909,bluerhino,Quick Shop #5,,Northumberland,PA,,US,+1 570-473-9679,,,Blue Rhino,Q65681213
34524,bluerhino,TruServ - Cole's Hardware #124605,,Northumberland,PA,,US,+1 570-473-3095,,,Blue Rhino,Q65681213
81251,citi,ATM SUSQUEHANNA COMMUNITY BANK,,Northumberland,PA,,US,,,,Citibank,Q857063
83585,citi,ATM THE NORTHUMBERLAND NATIONAL BANK,,Northumberland,PA,,US,,,,Citibank,Q857063
83584,citi,ATM THE NORTHUMBERLAND NATIONAL BANK,,Northumberland,PA,,US,,,,Citibank,Q857063
83582,citi,ATM THE NORTHUMBERLAND NATIONAL BANK,,Northumberland,PA,,US,,,,Citibank,Q857063
28828,citi,ATM 7ELEVEN-FCTI,,Northumberland,PA,,US,,,,Citibank,Q857063
50827,citi,ATM CVS,,Northumberland,PA,,US,,,,Citibank,Q857063
1575,cvs_us,CVS Pharmacy,,Northumberland,PA,,US,+1 570-473-3221,https://www.cvs.com/store-locator/northumberland-pa-pharmacies/401-duke-street-northumberland-pa-17857/storeid=1575,Mo-Sa 08:00-21:00; Su 09:00-19:00,CVS Pharmacy,Q2078880
https://www.edwardjones.com/us-en/financial-advisor/brad-buch,edwardjones,Brad L Buch,,Northumberland,PA,,US,+1 570-701-1430,https://www.edwardjones.com/us-en/financial-advisor/brad-buch,,Edward Jones,Q5343830
40405,seven_eleven_ca_us,7-Eleven,,NORTHUMBERLAND,PA,,US,+1 570-473-9836,https://www.7-eleven.com/locations/pa/northumberland/303-duke-street-40405,,7-Eleven,Q259340
https://restaurants.subway.com/#14894684,subway,Subway,,Northumberland Northumberland,PA,,US,+1 570-473-8242,https://restaurants.subway.com/united-states/pa/northumberland/119-duke-street,Mo-Th 08:00-21:00; Fr-Sa 08:00-22:00; Su 08:00-21:00,Subway,Q244457
0847170800,sunoco_us,Sunoco,,NORTHUMBERLAND,PA,,US,+1 570-473-9836,,,Sunoco,Q1423218
0542239900,sunoco_us,Sunoco,,NORTHUMBERLAND,PA,,US,+1 570-473-9679,,Mo-Sa 04:00-23:00; Su 05:00-23:00,Sunoco,Q1423218
1375560,usps,NORTHUMBERLAND,,NORTHUMBERLAND,PA,,US,+1 570-473-3581,,Mo-Fr 09:00-16:30; Sa 09:00-12:00,United States Postal Service,Q668687
1785700012,usps_collection_boxes,USPS COLLECTION BOX - BLUE BOX,395 6TH ST,NORTHUMBERLAND,PA,,US,,,,United States Postal Service,Q668687
1785700016,usps_collection_boxes,USPS COLLECTION BOX - BLUE BOX,147 KING ST,NORTHUMBERLAND,PA,,US,,,,United States Postal Service,Q668687
1785700029,usps_collection_boxes,USPS COLLECTION BOX - PO LOBBY,75 QUEEN ST,NORTHUMBERLAND,PA,,US,,,,United States Postal Service,Q668687
1785700023,usps_collection_boxes,USPS COLLECTION BOX - PO LOBBY,75 QUEEN ST,NORTHUMBERLAND,PA,,US,,,,United States Postal Service,Q668687
1785700017,usps_collection_boxes,USPS COLLECTION BOX - BLUE BOX,75 QUEEN ST,NORTHUMBERLAND,PA,,US,,,,United States Postal Service,Q668687
,visa,,,NORTHUMBERLAND,PA,,US,,,,,
,visa,,,NORTHUMBERLAND,PA,,US,,,,,
,visa,,,NORTHUMBERLAND,PA,,US,,,,,
,visa,,,NORTHUMBERLAND,PA,,US,,,,,
,visa,,,NORTHUMBERLAND,PA,,US,,,,,
,visa,,,NORTHUMBERLAND,PA,,US,,,,,
,visa,,,NORTHUMBERLAN,PA,,US,,,,,
,visa,,,NORTHUMBERLAND,PA,,US,,,,,
,visa,,,NORTHUMBERLAND,PA,,US,,,,,
,visa,,,NORTHUMBERLAND,PA,,US,,,,,
,visa,,,NORTHUMBERLAND,PA,,US,,,,,
,visa,,,NORTHUMBERLAND,PA,,US,,,,,
,visa,,,NORTHUMBERLAND,PA,,US,,,,,
,visa,,,NORTHUMBERLAND,PA,,US,,,,,
,visa,,,NORTHUMBERLAND,PA,,US,,,,,
,visa,,,NORTHUMBERLAND,PA,,US,,,,,
,visa,,,NORTHUMBERLAND,PA,,US,,,,,
,visa,,,NORTHUMBERLAND,PA,,US,,,,,
,visa,,,NORTHUMBERLAND,PA,,US,,,,,
,visa,,,NORTHUMBERLAND,PA,,US,,,,,
,visa,,,NORTHUMBERLAN,PA,,US,,,,,
