Ref,Spider,Name,Address,City,State,Zipcode,Country,Phone,Website,Hours,Brand,WikiData
72639975,moneygram,BANCO AZTECA MEXICO - LOS CABOS - DAZ SA,,LOS CABOS,BS,,MX,+52 55 1720 8177,,Mo-Su 09:00-21:00,MoneyGram,Q1944412
72639810,moneygram,DINERO EXPRESS - LOS CABOS - DAZ SAN JOS,,LOS CABOS,BS,,MX,+52 55 1720 8177,,Mo-Su 09:00-21:00,MoneyGram,Q1944412
72667620,moneygram,BANCO AZTECA MEXICO - SAN JOSE DEL CABO,,SAN JOSE DEL CABO,BS,,MX,+52 55 1720 8177,,Mo-Su 09:00-21:00,MoneyGram,Q1944412
72667691,moneygram,DINERO EXPRESS - SAN JOSE DEL CABO - DAZ,,SAN JOSE DEL CABO,BS,,MX,+52 55 1720 8177,,Mo-Su 09:00-21:00,MoneyGram,Q1944412
72857809,moneygram,CADENA COMERCIAL OXXO SA DE CV - #10OBR5,,SAN JOSE DEL CABO,BS,,MX,+52 81 8389 2121,,Mo-Su 03:00-24:00,MoneyGram,Q1944412
69455997,moneygram,LEY - #1142 - LOS CABOS - SUPER CABO,,LOS CABOS,BS,,MX,+52 624 142 6230,,Mo-Su 07:00-22:00,MoneyGram,Q1944412
68812337,moneygram,DINERO EXPRESS - #6622 - SAN JOSE DEL CA,,SAN JOSE DEL CABO,BS,,MX,+52 55 1720 8141,,Mo-Su 09:00-21:00,MoneyGram,Q1944412
68817769,moneygram,DINERO EXPRESS - #9637 - LOS CABOS - ELE,,LOS CABOS,BS,,MX,+52 55 1720 8141,,Mo-Su 09:00-21:00,MoneyGram,Q1944412
68830018,moneygram,DINERO EXPRESS - #4613 - LOS CABOS - BAN,,LOS CABOS,BS,,MX,+52 55 1720 8141,,Mo-Su 09:00-21:00,MoneyGram,Q1944412
70752702,moneygram,ELECZION - #1086 - CABO SAN LUCAS - LOS,,CABO SAN LUCAS,BS,,MX,5263180635,,Mo-Su 07:00-23:00,MoneyGram,Q1944412
70752809,moneygram,ELECZION - #1125 - SAN JOSE DEL CABO - S,,SAN JOSE DEL CABO,BS,,MX,5263180635,,Mo-Su 07:00-23:00,MoneyGram,Q1944412
70754687,moneygram,ELECZION - #1313 - SAN JOSE DEL CABO - S,,SAN JOSE DEL CABO,BS,,MX,5263180635,,Mo-Su 07:00-23:00,MoneyGram,Q1944412
71113324,moneygram,TELECOMM - #TELECOMM 03023 - LOS CABOS -,,LOS CABOS,BS,,MX,55118008334700,,Mo-Fr 09:00-18:30; Sa-Su 00:00-24:00,MoneyGram,Q1944412
71145981,moneygram,ELEKTRA - #6622 - LOS CABOS - BA MEGA SA,,LOS CABOS,BS,,MX,+52 55 1720 7000,,Mo-Su 09:00-21:00,MoneyGram,Q1944412
41333480,moneygram,BANORTE - #1901 - SAN JOSE DEL CABO,,SAN JOSE DEL CABO,BS,,MX,+52 624 142 3742,,Mo-Fr 09:00-20:00; Sa 09:00-16:00; Su 00:00-24:00,MoneyGram,Q1944412
44428868,moneygram,BANORTE - #1413 - SAN JOSE LAS VELAS,,SAN JOSE DEL CABO,BS,,MX,+52 624 146 9355,,Mo-Fr 09:00-18:00; Sa-Su 00:00-24:00,MoneyGram,Q1944412
71285825,moneygram,OXXO - #10OBR50HLF - DOBLADO LAP,,SAN JOSE DEL CABO,BS,,MX,+52 81 8389 2121,,Mo-Su 03:00-24:00,MoneyGram,Q1944412
71286332,moneygram,OXXO - #10OBR50PVD - MIJARES LAP,,SAN JOSE DEL CABO,BS,,MX,+52 81 8389 2121,,Mo-Su 03:00-24:00,MoneyGram,Q1944412
71286277,moneygram,OXXO - #10OBR50OSO - VALERIO GONZALEZ LA,,SAN JOSE DEL CABO,BS,,MX,+52 81 8389 2121,,Mo-Su 03:00-24:00,MoneyGram,Q1944412
