Ref,Spider,Name,Address,City,State,Zipcode,Country,Phone,Website,Hours,Brand,WikiData
,carrefour_es,Carrefour Express Torrent Gornal - Hospitalet,,Hospitalet de Llobregat,Barcelona,,ES,+34 914 90 89 00,https://www.carrefour.es/tiendas-carrefour/supermercados/carrefour-express/torrent-gornal-hospitalet-s.aspx,,Carrefour Express,Q2940190
b3ce1173e43c882c32c0d4f66fcf0ef3,western_union,OXI MOBILE AND LOCUTORI,,L Hospitalet De Llobregat,BARCELONA,,ES,+34 934 40 54 19,https://location.westernunion.com/es/barcelona/l-hospitalet-de-llobregat/b3ce1173e43c882c32c0d4f66fcf0ef3,Mo-Su 09:30-21:00,Western Union,Q861042
b6a8fa390badc1555de9ee1271b5383d,western_union,FAISAL MOBILE SHOP,,L Hospitalet De Llobregat,BARCELONA,,ES,+34 602 04 97 60,https://location.westernunion.com/es/barcelona/l-hospitalet-de-llobregat/b6a8fa390badc1555de9ee1271b5383d,Mo-Su 09:00-22:00,Western Union,Q861042
89503ce58b6f1c774d717712802d59d8,western_union,TUNI TRANSFER,,L Hospitalet De Llobregat,BARCELONA,,ES,+34 931 77 78 96,https://location.westernunion.com/es/barcelona/l-hospitalet-de-llobregat/89503ce58b6f1c774d717712802d59d8,Mo-Su 10:00-22:00,Western Union,Q861042
a318331239ba3fd8365de017218da86c,western_union,EL MUNDO CENTRAL DE ENVIOS,,Hospitalet De Llobregat,BARCELONA,,ES,+34 935 29 87 87,https://location.westernunion.com/es/barcelona/hospitalet-de-llobregat/a318331239ba3fd8365de017218da86c,Mo-Su 10:00-23:00,Western Union,Q861042
b831f59bce1c8d1615062b606151d0c3,western_union,GS ENVIOS 7,,L Hospitalet De Llobregat,BARCELONA,,ES,+34 900 633 633,https://location.westernunion.com/es/barcelona/l-hospitalet-de-llobregat/b831f59bce1c8d1615062b606151d0c3,Mo-Su 09:00-23:00,Western Union,Q861042
003536e4762a8d75c89095795e16f6d0,western_union,SUPER EFECTIVO 2035,,L Hospitalet De Llobregat,BARCELONA,,ES,+34 934 47 06 18,https://location.westernunion.com/es/barcelona/l-hospitalet-de-llobregat/003536e4762a8d75c89095795e16f6d0,Mo-Fr 10:00-20:00; Sa 10:00-14:00,Western Union,Q861042
95199cf514df3487fad0535a1597dcbf,western_union,BAN CARIBE EXPRESS,,L Hospitalet De Llobregat,BARCELONA,,ES,+34 936 27 03 61,https://location.westernunion.com/es/barcelona/l-hospitalet-de-llobregat/95199cf514df3487fad0535a1597dcbf,Mo-Su 09:30-21:00,Western Union,Q861042
e2e112cfb343ef36653493913cb92a0b,western_union,LOCUTORIO EL PAISA 13,,Hospitalet De Llobregat,BARCELONA,,ES,+34 934 37 97 84,https://location.westernunion.com/es/barcelona/hospitalet-de-llobregat/e2e112cfb343ef36653493913cb92a0b,Mo-Sa 10:00-21:00; Su 10:00-22:00,Western Union,Q861042
86f829e095f971055410cdfe1347bb6d,western_union,MOVIL MART,,L Hospitalet De Llobregat,BARCELONA,,ES,+34 936 27 63 38,https://location.westernunion.com/es/barcelona/l-hospitalet-de-llobregat/86f829e095f971055410cdfe1347bb6d,Mo-Su 10:00-23:00,Western Union,Q861042
2dc162a29b1c4778deed6fab552fcdb7,western_union,SKYWAYS,,L Hospitalet De Llobregat,BARCELONA,,ES,+34 931 86 96 08,https://location.westernunion.com/es/barcelona/l-hospitalet-de-llobregat/2dc162a29b1c4778deed6fab552fcdb7,Mo-Su 09:00-22:15,Western Union,Q861042
a141552aca217272e0c3527267149427,western_union,LOCUTORI EL PAISA 8,,L Hospitalet De Llobregat,BARCELONA,,ES,+34 938 28 85 79,https://location.westernunion.com/es/barcelona/l-hospitalet-de-llobregat/a141552aca217272e0c3527267149427,Mo-Su 10:00-23:00,Western Union,Q861042
ed549c0a7709a384f51e9d33f8062b75,western_union,AGENCIA PROGRES HOSPITALET,,L Hospitalet De Llobregat,BARCELONA,,ES,+34 931 96 83 08,https://location.westernunion.com/es/barcelona/l-hospitalet-de-llobregat/ed549c0a7709a384f51e9d33f8062b75,Mo-Sa 10:00-22:00,Western Union,Q861042
7e238e7eb8c2bdeb7b89989e01c6c2ae,western_union,ECOBOL,,L Hospitalet De Llobregat,BARCELONA,,ES,+34 936 76 46 05,https://location.westernunion.com/es/barcelona/l-hospitalet-de-llobregat/7e238e7eb8c2bdeb7b89989e01c6c2ae,Mo-Sa 10:00-21:30,Western Union,Q861042
7a3551d40c2f0b1e1d608e5f972f4377,western_union,LOCUTORIO PUBLICO,,L Hospitalet De Llobregat,BARCELONA,,ES,+34 622 42 13 84,https://location.westernunion.com/es/barcelona/l-hospitalet-de-llobregat/7a3551d40c2f0b1e1d608e5f972f4377,Mo 10:00-23:00; Tu-Su 10:00-01:00,Western Union,Q861042
34a6f2cb73374d1a1f8343cbde3ad7d5,western_union,MUNDO ENVIOS,,L Hospitalet De Llobregat,BARCELONA,,ES,+34 931 70 56 45,https://location.westernunion.com/es/barcelona/l-hospitalet-de-llobregat/34a6f2cb73374d1a1f8343cbde3ad7d5,Mo-Su 10:00-23:00,Western Union,Q861042
7d36873234db68522851177c8a791cc3,western_union,LOCUTORI EL PAISA 5,,L Hospitalet De Llobregat,BARCELONA,,ES,+34 936 67 31 95,https://location.westernunion.com/es/barcelona/l-hospitalet-de-llobregat/7d36873234db68522851177c8a791cc3,Mo-Su 09:00-23:00,Western Union,Q861042
92dd9fd88d43e44d469e853d83f05275,western_union,UNIVERSAL SERVICE 2,,L Hospitalet De Llobregat,BARCELONA,,ES,+34 963 67 31 95,https://location.westernunion.com/es/barcelona/l-hospitalet-de-llobregat/92dd9fd88d43e44d469e853d83f05275,Mo-Su 10:00-21:00,Western Union,Q861042
8164a02d2b9c0307d1a7da96d9c62512,western_union,CORREOS ESPAï¿½A HOSPITALET LLOBREGAT 4,,L Hospitalet De Llobregat,BARCELONA,,ES,+34 915 19 71 97,https://location.westernunion.com/es/barcelona/l-hospitalet-de-llobregat/8164a02d2b9c0307d1a7da96d9c62512,Mo-Fr 08:30-20:30; Sa 08:30-14:30,Western Union,Q861042
eddff973d0d62a865c25a11ddbd76460,western_union,AGENCIA HOSPITALET,,L Hospitalet De Llobregat,BARCELONA,,ES,+34 938 28 85 79,https://location.westernunion.com/es/barcelona/l-hospitalet-de-llobregat/eddff973d0d62a865c25a11ddbd76460,Mo-Su 09:00-20:00,Western Union,Q861042
0182721b6fdad2fd1c432f4a277cf561,western_union,EL MUNDO CENTRAL DE ENVIOS,,L Hospitalet De Llobregat,BARCELONA,,ES,+34 931 52 59 94,https://location.westernunion.com/es/barcelona/l-hospitalet-de-llobregat/0182721b6fdad2fd1c432f4a277cf561,Mo-Su 09:00-23:00,Western Union,Q861042
