Ref,Spider,Name,Address,City,State,Zipcode,Country,Phone,Website,Hours,Brand,WikiData
sc/richburg/3229-lancaster-hwy,bojangles,"Bojangles Richburg, SC",,Richburg,SC,,US,+1 803-789-5573,https://locations.bojangles.com/sc/richburg/3229-lancaster-hwy.html,,Bojangles',Q891163
78302930861042972900100000000000,bp,BP,,Richburg,SC,,US,+1 803-789-7123,,Mo-Su 05:00-24:00,BP,Q152057
200311058,exxonmobil,CRENCO #2,,RICHBURG,SC,,US,+1 803-789-5801,https://www.exxon.com/en/find-station/exxon-richburg-sc-crenco2-200311058,24/7,Exxon,Q109675651
https://local.fedex.com/#25236164,fedex,,,Richburg,SC,,US,+1 800-463-3339,https://local.fedex.com/en-us/sc/richburg/pnvbf,,FedEx,Q459477
39331,h_r_block,H&R Block,,Richburg,SC,,US,+1 803-328-2937,https://www.hrblock.com/local-tax-offices/south-carolina/richburg/813-elliott-rd/39331/,,H&R Block,Q5627799
Richburg IGA,iga,Richburg IGA,"3191 Lancaster Hwy, Richburg, SC, 29729",Richburg,SC,,US,+1 803-735-1915,https://richburg.iga.com,,IGA,Q3146662
https://locations.kfc.com/#11247036,kfc,Chicken Nuggets Near Richburg,,Richburg,SC,,US,,https://locations.kfc.com/sc/richburg/3062-lancaster-highway/chickennugget,Mo-Su 10:30-21:00,KFC,Q524757
https://locations.papajohns.com/#14058073,papa_johns,Papa John's,,Richburg,SC,,US,+1 803-789-8888,https://locations.papajohns.com/united-states/sc/29729/richburg/3104-commerce-drive,Mo-Su 10:00-22:00,Papa John's Pizza,Q2759586
https://locations.quiktrip.com/#16004333,quiktrip_us,QuikTrip Store #1093 3190 Lancaster Hwy,,Richburg,SC,,US,+1 803-789-6109,https://locations.quiktrip.com/sc/richburg/3190-lancaster-hwy,24/7,QuikTrip,Q7271953
4418,shellrecharge,HMS Mgmt,,Richburg,SC,,US,,,,Shell Recharge,Q105883058
413,south_carolina,Lewisville Library,"3771 Lancaster Highway Richburg, SC ",,SC,,US,+1 803-789-7800,,,,Q1456
https://restaurants.subway.com/#14894209,subway,Subway Richburg Liberty,,Richburg Chester,SC,,US,+1 803-789-3707,https://restaurants.subway.com/united-states/sc/richburg/3205-lancaster-highway,Mo-Sa 08:00-21:30; Su 09:00-21:00,Subway,Q244457
https://locations.tacobell.com/#3916978,taco_bell,Taco Bell,,Richburg,SC,,US,+1 803-789-3697,https://locations.tacobell.com/sc/richburg/3062-lancaster-highway.html,,Taco Bell,Q752941
1379210,usps,RICHBURG,,RICHBURG,SC,,US,+1 803-789-5102,,"Mo-Fr 09:30-12:30,13:00-16:00; Sa 10:00-12:45",United States Postal Service,Q668687
2972900002,usps_collection_boxes,USPS COLLECTION BOX - BLUE BOX,109 BROAD ST,RICHBURG,SC,,US,,,,United States Postal Service,Q668687
2972900003,usps_collection_boxes,USPS COLLECTION BOX - PO LOBBY,109 BROAD ST,RICHBURG,SC,,US,,,,United States Postal Service,Q668687
2972900004,usps_collection_boxes,USPS COLLECTION BOX - PO LOBBY,109 BROAD ST,RICHBURG,SC,,US,,,,United States Postal Service,Q668687
2972900005,usps_collection_boxes,USPS COLLECTION BOX - PO LOBBY,109 BROAD ST,RICHBURG,SC,,US,,,,United States Postal Service,Q668687
,visa,,,RICHBURG,SC,,US,,,,,
,visa,,,RICHBURG,SC,,US,,,,,
,visa,,,RICHBURG,SC,,US,,,,,
,visa,,,RICHBURG,SC,,US,,,,,
,visa,,,RICHBURG,SC,,US,,,,,
,visa,,,RICHBURG,SC,,US,,,,,
,visa,,,RICHBURG,SC,,US,,,,,
,visa,,,RICHBURG,SC,,US,,,,,
,visa,,,RICHBURG,SC,,US,,,,,
,visa,,,RICHBURG,SC,,US,,,,,
,visa,,,RICHBURG,SC,,US,,,,,
3190__LANCASTER__HWY_RICHBURG_SC_29729,wellsfargo,,3190 LANCASTER HWY,RICHBURG,SC,,US,+1 800-869-3557,https://www.wellsfargo.com/locator/bank/3190__LANCASTER__HWY_RICHBURG_SC_29729/,,Wells Fargo,Q744149
73ba30421edb3932a9c3f5220c07ff05,western_union,QUIKTRIP #1093,,Richburg,SC,,US,+1 803-789-6109,https://location.westernunion.com/us/sc/richburg/73ba30421edb3932a9c3f5220c07ff05,,Western Union,Q861042
600349019ebe20f0b7792ebf477ead50,western_union,SCOTCHMAN #3891,,Richburg,SC,,US,+1 803-789-5801,https://location.westernunion.com/us/sc/richburg/600349019ebe20f0b7792ebf477ead50,Mo-Su 06:00-22:00,Western Union,Q861042
