Ref,Spider,Name,Address,City,State,Zipcode,Country,Phone,Website,Hours,Brand,WikiData
435,biedronka_pl,Biedronka,,Wolsztyn,,,PL,,"https://www.biedronka.pl/pl/shop,id,435",Mo-Sa 06:00-22:00,Biedronka,Q857182
687,biedronka_pl,Biedronka,,Wolsztyn,,,PL,,"https://www.biedronka.pl/pl/shop,id,687",Mo-Sa 06:00-22:00,Biedronka,Q857182
131,biedronka_pl,Biedronka,,Wolsztyn,,,PL,,"https://www.biedronka.pl/pl/shop,id,131",Mo-Sa 06:00-22:00,Biedronka,Q857182
"https://www.brw.pl/siec-sprzedazy/salon,salon-meblowy-rondo,wolsztyn-karpicko,52.html",black_red_white_pl,Salon meblowy RONDO - Wolsztyn - Karpicko,,Wolsztyn - Karpicko,,,PL,+48 68 347 26 82,"https://www.brw.pl/siec-sprzedazy/salon,salon-meblowy-rondo,wolsztyn-karpicko,52.html",Mo-Fr 10:00-18:00; Sa 10:00-14:00,Black Red White,Q4921546
1858773289,bp,WOLSZTYN,,WOLSZTYN,,,PL,+48 68 384 36 60,,24/7,BP,Q152057
388,ccc,Wolsztyn CCC Wolsztyn 2151,,Wolsztyn,,,PL,+48 68 412 02 29,https://ccc.eu/pl/market/wolsztyn-ccc-wolsztyn-2151,Mo-Sa 09:00-20:00; Su 10:00-18:00,CCC,Q11788344
5902,chorten_pl,Chorten,,WOLSZTYN,,,PL,,https://chorten.com.pl/sklepy/wolsztyn_monopolowy-4_5902,Mo-Th 13:00-23:00; Fr-Sa 13:00-01:00,Chorten,Q48843988
101637,delikatesy_centrum_pl,WOLSZTYN POZNAŃSKA,,Wolsztyn,,,PL,,,Mo-Sa 06:30-21:00; Su 09:00-19:00,Delikatesy Centrum,Q11693824
101638,delikatesy_centrum_pl,WOLSZTYN SŁOWACKIEGO,,Wolsztyn,,,PL,,,Mo-Sa 06:30-21:00; Su 09:00-19:00,Delikatesy Centrum,Q11693824
865,epaka_pl,,,Wolsztyn,,,PL,+48 512 313 975,https://wolsztyn.epaka.pl,Mo-Fr 09:00-18:00,Epaka.pl,Q123028724
7107,kik,KiK,,Wolsztyn,,,PL,+48 881 985 107,,Mo-Sa 09:00-20:00; Su 10:00-18:00,KiK,Q883965
1863,lidl_pl,Lidl,,Wolsztyn,,,PL,,,Mo-Sa 06:00-22:00; Su 09:00-19:00,Lidl,Q151954
RCN80Q11,millennium_bank_pl,RCN80Q11,,Wolsztyn,,,PL,,,,Bank Millennium,Q4855947
RNET6154,millennium_bank_pl,RNET6154,,Wolsztyn,,,PL,,,,Bank Millennium,Q4855947
RNET6230,millennium_bank_pl,RNET6230,,Wolsztyn,,,PL,,,,Bank Millennium,Q4855947
RNETA025,millennium_bank_pl,RNETA025,,Wolsztyn,,,PL,,,,Bank Millennium,Q4855947
65052255,moneygram,UP WOLSZTYN 1 - POCZTA POLSKA,,WOLSZTYN,,,PL,+48 68 384 55 33,,Mo-Fr 06:00-22:00; Sa 08:00-20:00; Su 00:00-24:00,MoneyGram,Q1944412
70969469,moneygram,FUP WOLSZTYN 1 - POCZTA POLSKA,,WOLSZTYN,,,PL,+48 68 384 35 94,,Mo-Fr 06:00-22:00; Sa 08:00-20:00; Su 00:00-24:00,MoneyGram,Q1944412
39088,neonet_pl,NEONET,,Wolsztyn,,,PL,+48 606 620 641,https://sklepydw.neonet.pl/polska/wolsztyn/neonet-wolsztyn-dworcowa-7-39088,Mo-Fr 10:00-19:00; Sa 09:00-15:00,Neonet,Q11790622
https://www.netto.pl/sklepy/wolsztyn/spacerowa-30/14ee27cc0e754606a8dce603165db0c7/,netto_salling,Netto Wolsztyn Spacerowa,,Wolsztyn,,,PL,+48 531 994 994,https://www.netto.pl/sklepy/wolsztyn/spacerowa-30/14ee27cc0e754606a8dce603165db0c7/,Mo-Th 06:00-21:00; Fr-Sa 06:00-22:00,Netto,Q552652
https://www.netto.pl/sklepy/szczecin/gabriela-narutowicza-13-e/e96e5045021a447b84ea9e7145d2060c/,netto_salling,Netto Szczecin-Narutowicza,,Szczecin,,,PL,+48 531 994 994,https://www.netto.pl/sklepy/szczecin/gabriela-narutowicza-13-e/e96e5045021a447b84ea9e7145d2060c/,Mo-Sa 06:00-21:00,Netto,Q552652
https://www.netto.pl/sklepy/wolsztyn/ul-dworcowa-13a/9238b3709620457593cb2f1f175bcc5d/,netto_salling,Netto Wolsztyn,,Wolsztyn,,,PL,+48 531 994 994,https://www.netto.pl/sklepy/wolsztyn/ul-dworcowa-13a/9238b3709620457593cb2f1f175bcc5d/,Mo-Th 06:00-21:00; Fr-Sa 06:00-22:00,Netto,Q552652
26833,orange_pl,Orange Wolsztyn,,Wolsztyn,,,PL,+48 506 108 161,https://salony.orange.pl/pl/orange-wolsztyn-26833,Mo-Fr 09:00-17:00; Sa 09:00-13:00,Orange,Q1431486
166862,orlen_paczka_pl,,,Wolsztyn,,,PL,,,Mo-Fr 10:00-17:00,Orlen Paczka,Q110457879
641980,orlen_paczka_pl,,,Wolsztyn,,,PL,,,,Orlen Paczka,Q110457879
688081,orlen_paczka_pl,,,Wolsztyn,,,PL,,,Mo-Su 10:00-22:00,Orlen Paczka,Q110457879
641240,orlen_paczka_pl,,,Wolsztyn,,,PL,,,Mo-Fr 09:00-19:00,Orlen Paczka,Q110457879
474492,orlen_paczka_pl,,,Wolsztyn,,,PL,,,Mo-Fr 09:00-18:00,Orlen Paczka,Q110457879
717839,orlen_paczka_pl,,,Wolsztyn,,,PL,,,Mo-Sa 07:00-22:00; Su 09:00-17:00,Orlen Paczka,Q110457879
188118,orlen_paczka_pl,,,Wolsztyn,,,PL,,,Mo-Fr 09:00-17:00,Orlen Paczka,Q110457879
642632,orlen_paczka_pl,,,Wolsztyn,,,PL,,,Mo-Fr 07:30-17:00; Sa 09:00-13:00,Orlen Paczka,Q110457879
297341,orlen_paczka_pl,,,Wolsztyn,,,PL,,,Mo-Sa 06:00-19:00; Su 08:00-13:00,Orlen Paczka,Q110457879
1522513,santander_pl,1 Oddział w Wolsztynie,,Wolsztyn,,,PL,+48 61 811 99 99,,Mo-Fr 09:30-16:30,Santander,Q806653
https://stokrotka.pl/nasze-sklepy/wolsztyn-ul-zeromskiego-30-4771.html,stokrotka_pl,Stokrotka Market,,Wolsztyn,,,PL,+48 81 888 92 00,https://stokrotka.pl/nasze-sklepy/wolsztyn-ul-zeromskiego-30-4771.html,Mo-Fr 06:30-22:00; Sa 07:00-22:00; Su 08:00-21:00,Stokrotka Market,Q110801183
9,tmobile_pl,T-Mobile,,Wolsztyn,,,PL,604408933/602211083,,Mo-Fr 10:00-18:00; Sa 10:00-13:00,T-Mobile,Q327634
219,tmobile_pl,T-Mobile,,Wolsztyn,,,PL,+48 728 901 325,,Mo-We 10:00-18:00; Th 09:00-17:00; Fr 10:00-18:00; Sa 10:00-13:00,T-Mobile,Q327634
BP_EXT_22671,totalenergies,WOLSZTYN,,Wolsztyn,,,PL,,https://store.totalenergies.fr/en_EN/BP_EXT_22671,,BP,Q152057
,visa,,,WOLSZTYN,,,PL,,,,,
,visa,,,WOLSZTYN,,,PL,,,,,
,visa,,,WOLSZTYN,,,PL,,,,,
ID00958,zabka_pl,Żabka,,Wolsztyn,,,PL,,,Mo-Sa 06:00-23:00; Su 10:00-22:00,Żabka,Q2589061
ID09773,zabka_pl,Żabka,,Wolsztyn,,,PL,,,Mo-Sa 06:00-23:00,Żabka,Q2589061
ID0C319,zabka_pl,Żabka,,Wolsztyn,,,PL,,,Mo-Sa 06:00-23:00,Żabka,Q2589061
ID0C367,zabka_pl,Żabka,,Wolsztyn,,,PL,,,Mo-Sa 06:00-23:00; Su 08:00-23:00,Żabka,Q2589061
ID0C379,zabka_pl,Żabka,,Wolsztyn,,,PL,,,Mo-Sa 06:00-23:00,Żabka,Q2589061
