Ref,Spider,Name,Address,City,State,Zipcode,Country,Phone,Website,Hours,Brand,WikiData
https://stores.advanceautoparts.com/wv/chapmanville/3618-north-main-street,advance_auto_parts_us,Advance Auto Parts,,Chapmanville,WV,,US,+1 304-855-2090,https://stores.advanceautoparts.com/wv/chapmanville/3618-north-main-street,Mo-Sa 07:30-21:00; Su 09:00-20:00,Advance Auto Parts,Q4686051
98964,bluerhino,Little General #4030,,Chapmanville,WV,,US,+1 304-855-3055,,,Blue Rhino,Q65681213
58851,bluerhino,Speedway #9368,,Chapmanville,WV,,US,+1 304-855-7112,,,Blue Rhino,Q65681213
58852,bluerhino,Speedway #3959 dba Rich Oil,,Chapmanville,WV,,US,+1 304-855-0050,,,Blue Rhino,Q65681213
192037,bluerhino,Walgreens #17792,,Chapmanville,WV,,US,+1 304-855-1032,,,Blue Rhino,Q65681213
221506,bluerhino,Dollar General #3641,,CHAPMANVILLE,WV,,US,+1 304-833-9695,,,Blue Rhino,Q65681213
107541,bluerhino,Towne n Country Foodland,,Chapmanville,WV,,US,+1 304-855-3000,,,Blue Rhino,Q65681213
09252,chevrolet,"THORNHILL SUPERSTORE, INC.",,Chapmanville,WV,,US,+1 304-855-1400,https://www.thornhillgmsuperstore.com,Mo-Fr 09:00-19:00; Sa 09:00-18:00,Chevrolet,Q29570
93352,citi,ATM Walgreens,,Chapmanville,WV,,US,,,,Citibank,Q857063
79072,citi,ATM Speedway,,Chapmanville,WV,,US,,,,Citibank,Q857063
E1683E,enterprise,Chapmanville Thornhill GM,,Chapmanville,WV,,US,+1 304-855-2400,,,Enterprise Rent-A-Car,Q17085454
https://local.fedex.com/#25205696,fedex,,,Chapmanville,WV,,US,+1 800-463-3339,https://local.fedex.com/en-us/wv/chapmanville/crwoc,,FedEx,Q459477
Motorcraft2415USAEnglish,ford,Thornhill Ford Lincoln,,West Virginia,WV,,US,+1 304-855-8300,,,Ford,Q44294
https://www.ford.com/dealerships/dealer-details/wv/chapmanville/thornhill-ford/,ford_dealers_us,Thornhill Ford,,Chapmanville,WV,,US,+1 681-366-5461,https://www.ford.com/dealerships/dealer-details/wv/chapmanville/thornhill-ford/,Mo-Fr 09:00-19:00; Sa 09:00-18:00,Ford Motor Company,Q44294
46248,h_r_block,H&R Block,,Chapmanville,WV,,US,+1 304-855-2429,https://www.hrblock.com/local-tax-offices/west-virginia/chapmanville/167-crawley-creek-rd/46248/,,H&R Block,Q5627799
155920,marathon_petroleum_us,MOUNT STATE TIRE AND AUTO,,CHAPMANVILLE,WV,,US,+1 304-855-3060,,,Marathon,Q458363
wv_chapmanville_80-friendly-neighbor-road,pizza_hut_us,80 Friendly Neighbor Road,,Chapmanville,WV,,US,+1 304-855-4503,https://locations.pizzahut.com/wv/chapmanville/80-friendly-neighbor-road,,Pizza Hut,Q191615
0878589100,sunoco_us,Sunoco,,CHAPMANVILLE,WV,,US,+1 304-855-3000,,Mo-Su 06:00-00:00,Sunoco,Q1423218
040003,uhaul,Mountain State Tire,315 Main St,Chapmanville,WV,,US,+1 304-269-2628,,Mo-Fr 00:00-16:00; Sa 00:00-14:00,U-Haul,Q7862902
1357651,usps,CHAPMANVILLE,,CHAPMANVILLE,WV,,US,+1 304-855-3465,,Mo-Fr 09:30-16:30; Sa 09:00-11:00,United States Postal Service,Q668687
2550800003,usps_collection_boxes,USPS COLLECTION BOX - PO LOBBY,93 MAIN ST,CHAPMANVILLE,WV,,US,,,,United States Postal Service,Q668687
2550800004,usps_collection_boxes,USPS COLLECTION BOX - BLUE BOX,93 MAIN ST,CHAPMANVILLE,WV,,US,,,,United States Postal Service,Q668687
2550800006,usps_collection_boxes,USPS COLLECTION BOX - PO LOBBY,93 MAIN ST,CHAPMANVILLE,WV,,US,,,,United States Postal Service,Q668687
,visa,,,CHAPMANVILLE,WV,,US,,,,,
,visa,,,CHAPMANVILLE,WV,,US,,,,,
,visa,,,CHAMPANVILLE,WV,,US,,,,,
,visa,,,CHAPMANVILLE,WV,,US,,,,,
,visa,,,CHAPMANVILLE,WV,,US,,,,,
,visa,,,CHAPMANVILLE,WV,,US,,,,,
,visa,,,CHAPMANVILLE,WV,,US,,,,,
,visa,,,CHAPMANVILLE,WV,,US,,,,,
,visa,,,CHAPMANVILLE,WV,,US,,,,,
https://www.walgreens.com/locator/walgreens-901+main+st-chapmanville-wv-25508/id=17792,walgreens,Walgreens,,Chapmanville,WV,,US,+1 304-855-1032,https://www.walgreens.com/locator/walgreens-901+main+st-chapmanville-wv-25508/id=17792,Mo-Su 09:00-21:00,Walgreens,Q1591889
https://locations.wendys.com/#9251363,wendys,"Wendy's #815 Chapmanville in Chapmanville, WV",,Chapmanville,WV,,US,+1 304-855-2481,https://locations.wendys.com/united-states/wv/chapmanville/3621-n-main-st,"Mo-Su 06:30-10:30,07:00-22:00",Wendy's,Q550258
60ecf05ca09bd25c44e4291dd479d369,western_union,WALGREENS #17792,,Chapmanville,WV,,US,+1 304-855-1032,https://location.westernunion.com/us/wv/chapmanville/60ecf05ca09bd25c44e4291dd479d369,Mo-Fr 08:00-21:00; Sa 08:00-20:00; Su 08:00-19:00,Western Union,Q861042
