Ref,Spider,Name,Address,City,State,Zipcode,Country,Phone,Website,Hours,Brand,WikiData
5487,lukoil,SDC Brasov 1,"str. Alexandru Vlahuta, Brasov, Brasov, Romania",Brasov,Brasov,,RO,+40 746 211 230,,24/7,Lukoil,Q329347
5441,lukoil,SDC Brasov 3,"str. Grivitei, nr. 1, Brasov, Brasov, Romania",Brasov,Brasov,,RO,+40 746 211 232,,24/7,Lukoil,Q329347
5440,lukoil,SDC Brasov 5,"str. Harmanului, nr. 49, Brasov, Brasov, Romania",Brasov,Brasov,,RO,+40 746 212 403,,24/7,Lukoil,Q329347
5422,lukoil,SDC Brasov 4,"str. Poienilor, nr. 4, Brasov, Brasov, Romania",Brasov,Brasov,,RO,+40 746 212 402,,24/7,Lukoil,Q329347
5400,lukoil,SDC Brasov 6,"str. Zizinului, Brasov, Brasov, Romania",Brasov,Brasov,,RO,+40 749 152 249,,24/7,Lukoil,Q329347
5293,lukoil,SDC Brasov 2,"str. Calea Bucuresti, nr. 9, Sacele, Brasov, Romania",Sacele,Brasov,,RO,+40 746 211 231,,24/7,Lukoil,Q329347
5245,lukoil,SDC Rasnov,"DN67, bd. Caraiman int. str. Florilor, Rasnov, Brasov, Romania",Rasnov,Brasov,,RO,+40 746 212 404,,24/7,Lukoil,Q329347
27974,pepco,Pepco,,,Brasov,,RO,,,,Pepco,Q11815580
27973,pepco,Pepco,,,Brasov,,RO,,,,Pepco,Q11815580
27579,pepco,Pepco,,Comuna Zarnesti,Brasov,,RO,,,,Pepco,Q11815580
27541,pepco,Pepco,,Comuna Cristian,Brasov,,RO,,,,Pepco,Q11815580
27540,pepco,Pepco,,,Brasov,,RO,,,,Pepco,Q11815580
27496,pepco,Pepco,,Oras Victoria,Brasov,,RO,,,,Pepco,Q11815580
27480,pepco,Pepco,,,Brasov,,RO,,,,Pepco,Q11815580
27475,pepco,Pepco,,,Brasov,,RO,,,,Pepco,Q11815580
27406,pepco,Pepco,,,Brasov,,RO,,,,Pepco,Q11815580
27368,pepco,Pepco,,,Brasov,,RO,,,,Pepco,Q11815580
27361,pepco,Pepco,,,Brasov,,RO,,,,Pepco,Q11815580
27358,pepco,Pepco,,,Brasov,,RO,,,,Pepco,Q11815580
27352,pepco,Pepco,,,Brasov,,RO,,,,Pepco,Q11815580
25565,pepco,Pepco,,,Brasov,,RO,,,,Pepco,Q11815580
25561,pepco,Pepco,,Municipiul Sacele,Brasov,,RO,,,,Pepco,Q11815580
25560,pepco,Pepco,,Oras Rupea,Brasov,,RO,,,,Pepco,Q11815580
https://www.rompetrol.ro/routeplanner/stations?language_id=1:3996,rompetrol,DOEX DODO STOP UNU GRIVIÈšA ,,Brasov,Brasov,,RO,,,,Rompetrol,Q1788862
https://www.rompetrol.ro/routeplanner/stations?language_id=1:3997,rompetrol,Partener Brasov - Bran,,Bran,Brasov,,RO,,,,Rompetrol,Q1788862
https://www.rompetrol.ro/routeplanner/stations?language_id=1:3998,rompetrol,Partener Sanpetru,,Sanpetru,Brasov,,RO,,,,Rompetrol,Q1788862
https://www.rompetrol.ro/routeplanner/stations?language_id=1:4046,rompetrol,Rompetrol Brasov - Fagarasului,,Brasov,Brasov,,RO,,,,Rompetrol,Q1788862
https://www.rompetrol.ro/routeplanner/stations?language_id=1:4047,rompetrol,Rompetrol Brasov - Noua,,Brasov,Brasov,,RO,,,,Rompetrol,Q1788862
https://www.rompetrol.ro/routeplanner/stations?language_id=1:4048,rompetrol,Rompetrol Brasov - Rozelor,,Brasov,Brasov,,RO,,,,Rompetrol,Q1788862
https://www.rompetrol.ro/routeplanner/stations?language_id=1:4049,rompetrol,Rompetrol Brasov - Vistea,,Brasov,Brasov,,RO,,,,Rompetrol,Q1788862
https://www.rompetrol.ro/routeplanner/stations?language_id=1:4181,rompetrol,Rompetrol Brasov - Cristianului,,Cristian,Brasov,,RO,,,,Rompetrol,Q1788862
https://www.rompetrol.ro/routeplanner/stations?language_id=1:4182,rompetrol,Rompetrol Brasov - Tractorul,,Brasov,Brasov,,RO,,,,Rompetrol,Q1788862
https://www.rompetrol.ro/routeplanner/stations?language_id=1:4183,rompetrol,Rompetrol Brasov - Mihai Viteazul,,Brasov,Brasov,,RO,,,,Rompetrol,Q1788862
https://www.rompetrol.ro/routeplanner/stations?language_id=1:4196,rompetrol,Rompetrol Fagaras,,Fagaras,Brasov,,RO,,,,Rompetrol,Q1788862
https://www.rompetrol.ro/routeplanner/stations?language_id=1:4197,rompetrol,Rompetrol Feldioara,,Feldioara,Brasov,,RO,,,,Rompetrol,Q1788862
https://www.rompetrol.ro/routeplanner/stations?language_id=1:4218,rompetrol,Rompetrol Sacele - George Moroianu,,Sacele,Brasov,,RO,,,,Rompetrol,Q1788862
https://www.rompetrol.ro/routeplanner/stations?language_id=1:4246,rompetrol,Rompetrol Zarnesti,,Zarnesti,Brasov,,RO,,,,Rompetrol,Q1788862
https://www.rompetrol.ro/routeplanner/stations?language_id=1:4308,rompetrol,Rompetrol Gas,,Brasov,Brasov,,RO,,,,Rompetrol,Q1788862
https://www.rompetrol.ro/routeplanner/stations?language_id=1:4491,rompetrol,Codlea,,Codlea,Brasov,,RO,,,,Rompetrol,Q1788862
https://www.rompetrol.ro/routeplanner/stations?language_id=1:4501,rompetrol,DODOEX  Bac Trade,,Vulcan,Brasov,,RO,,,,Rompetrol,Q1788862
,visa,,,VICTORIA,BRASOV,,RO,,,,,
,visa,,,CRISTIAN,BRASOV,,RO,,,,,
,visa,,,BRAN,BRASOV,,RO,,,,,
,visa,,,BRAN,BRASOV,,RO,,,,,
,visa,,,ZARNESTI,BRASOV,,RO,,,,,
,visa,,,ZARNESTI,BRASOV,,RO,,,,,
,visa,,,ZARNESTI,BRASOV,,RO,,,,,
,visa,,,ZARNESTI,BRASOV,,RO,,,,,
,visa,,,ZARNESTI,BRASOV,,RO,,,,,
,visa,,,ZARNESTI TOHANUL NOU,BRASOV,,RO,,,,,
,visa,,,ZARNESTI,BRASOV,,RO,,,,,
,visa,,,POIANA MARULUI,BRASOV,,RO,,,,,
,visa,,,PREDEAL,BRASOV,,RO,,,,,
,visa,,,PREDEAL,BRASOV,,RO,,,,,
,visa,,,RASNOV,BRASOV,,RO,,,,,
,visa,,,RISNOV,BRASOV,,RO,,,,,
,visa,,,RASNOV,BRASOV,,RO,,,,,
,visa,,,FAGARAS,BRASOV,,RO,,,,,
,visa,,,FAGARAS,BRASOV,,RO,,,,,
,visa,,,FAGARAS,BRASOV,,RO,,,,,
,visa,,,FAGARAS,BRASOV,,RO,,,,,
,visa,,,FAGARAS,BRASOV,,RO,,,,,
,visa,,,FAGARAS,BRASOV,,RO,,,,,
,visa,,,FAGARAS,BRASOV,,RO,,,,,
,visa,,,FAGARAS,BRASOV,,RO,,,,,
,visa,,,CINCU,BRASOV,,RO,,,,,
,visa,,,FAGARAS,BRASOV,,RO,,,,,
,visa,,,FAGARAS,BRASOV,,RO,,,,,
,visa,,,FAGARAS,BRASOV,,RO,,,,,
,visa,,,POIANA BRASOV,BRASOV,,RO,,,,,
,visa,,,POIANA BRASOV,BRASOV,,RO,,,,,
,visa,,,POIANA BRASOV,BRASOV,,RO,,,,,
,visa,,,CRISTIAN,BRASOV,,RO,,,,,
,visa,,,GHIMBAV,BRASOV,,RO,,,,,
,visa,,,CODLEA,BRASOV,,RO,,,,,
,visa,,,BRASOV,BRASOV,,RO,,,,,
,visa,,,CODLEA,BRASOV,,RO,,,,,
,visa,,,CODLEA,BRASOV,,RO,,,,,
,visa,,,CODLEA,BRASOV,,RO,,,,,
,visa,,,CODLEA,BRASOV,,RO,,,,,
,visa,,,BRASOV,BRASOV,,RO,,,,,
,visa,,,CODLEA,BRASOV,,RO,,,,,
,visa,,,BRASOV,BRASOV,,RO,,,,,
,visa,,,BRASOV,BRASOV,,RO,,,,,
,visa,,,BRASOV,BRASOV,,RO,,,,,
,visa,,,BRASOV,BRASOV,,RO,,,,,
,visa,,,BRASOV,BRASOV,,RO,,,,,
,visa,,,BRASOV,BRASOV,,RO,,,,,
,visa,,,BRASOV,BRASOV,,RO,,,,,
,visa,,,BRASOV,BRASOV,,RO,,,,,
,visa,,,BRASOV,BRASOV,,RO,,,,,
,visa,,,BRASOV,BRASOV,,RO,,,,,
,visa,,,BRASOV,BRASOV,,RO,,,,,
,visa,,,BRASOV,BRASOV,,RO,,,,,
,visa,,,BRASOV,BRASOV,,RO,,,,,
,visa,,,BRASOV,BRASOV,,RO,,,,,
,visa,,,BRASOV,BRASOV,,RO,,,,,
,visa,,,BRASOV,BRASOV,,RO,,,,,
,visa,,,BRASOV,BRASOV,,RO,,,,,
,visa,,,GHIMBAV,BRASOV,,RO,,,,,
,visa,,,BRASOV,BRASOV,,RO,,,,,
,visa,,,COMUNA MAIERUS,BRASOV,,RO,,,,,
,visa,,,BRASOV,BRASOV,,RO,,,,,
,visa,,,BRASOV,BRASOV,,RO,,,,,
,visa,,,BRASOV,BRASOV,,RO,,,,,
,visa,,,BRASOV,BRASOV,,RO,,,,,
,visa,,,BRASOV,BRASOV,,RO,,,,,
,visa,,,BRASOV,BRASOV,,RO,,,,,
,visa,,,BRASOV,BRASOV,,RO,,,,,
,visa,,,BRASOV,BRASOV,,RO,,,,,
,visa,,,BRASOV,BRASOV,,RO,,,,,
,visa,,,BRASOV,BRASOV,,RO,,,,,
,visa,,,BRASOV,BRASOV,,RO,,,,,
,visa,,,BRASOV,BRASOV,,RO,,,,,
,visa,,,BRASOV,BRASOV,,RO,,,,,
,visa,,,BRASOV,BRASOV,,RO,,,,,
,visa,,,BRASOV,BRASOV,,RO,,,,,
,visa,,,BRASOV,BRASOV,,RO,,,,,
,visa,,,CRISTIAN,BRASOV,,RO,,,,,
,visa,,,BRASOV,BRASOV,,RO,,,,,
,visa,,,BRASOV,BRASOV,,RO,,,,,
,visa,,,BRASOV,BRASOV,,RO,,,,,
,visa,,,BRASOV,BRASOV,,RO,,,,,
,visa,,,BRASOV,BRASOV,,RO,,,,,
,visa,,,BRASOV,BRASOV,,RO,,,,,
,visa,,,BRASOV,BRASOV,,RO,,,,,
,visa,,,BRASOV,BRASOV,,RO,,,,,
,visa,,,BRASOV,BRASOV,,RO,,,,,
,visa,,,BRASOV,BRASOV,,RO,,,,,
,visa,,,BRASOV,BRASOV,,RO,,,,,
,visa,,,BRASOV,BRASOV,,RO,,,,,
,visa,,,BRASOV,BRASOV,,RO,,,,,
,visa,,,BRASOV,BRASOV,,RO,,,,,
,visa,,,BRASOV,BRASOV,,RO,,,,,
,visa,,,BRASOV,BRASOV,,RO,,,,,
,visa,,,BRASOV,BRASOV,,RO,,,,,
,visa,,,BRASOV,BRASOV,,RO,,,,,
,visa,,,BRASOV,BRASOV,,RO,,,,,
,visa,,,BRASOV,BRASOV,,RO,,,,,
,visa,,,BRASOV,BRASOV,,RO,,,,,
,visa,,,BRASOV,BRASOV,,RO,,,,,
,visa,,,BRASOV,BRASOV,,RO,,,,,
,visa,,,BRASOV,BRASOV,,RO,,,,,
,visa,,,BRASOV,BRASOV,,RO,,,,,
,visa,,,BRASOV,BRASOV,,RO,,,,,
,visa,,,BRASOV,BRASOV,,RO,,,,,
,visa,,,BRASOV,BRASOV,,RO,,,,,
,visa,,,BRASOV,BRASOV,,RO,,,,,
,visa,,,BRASOV,BRASOV,,RO,,,,,
,visa,,,BRASOV,BRASOV,,RO,,,,,
,visa,,,SACELE,BRASOV,,RO,,,,,
,visa,,,SACELE,BRASOV,,RO,,,,,
,visa,,,GHIMBAV,BRASOV,,RO,,,,,
,visa,,,BRASOV,BRASOV,,RO,,,,,
,visa,,,BRASOV,BRASOV,,RO,,,,,
,visa,,,BRASOV,BRASOV,,RO,,,,,
,visa,,,BRASOV,BRASOV,,RO,,,,,
,visa,,,BRASOV,BRASOV,,RO,,,,,
,visa,,,BRASOV,BRASOV,,RO,,,,,
,visa,,,BRASOV,BRASOV,,RO,,,,,
,visa,,,BRASOV,BRASOV,,RO,,,,,
,visa,,,BRASOV,BRASOV,,RO,,,,,
,visa,,,BRASOV,BRASOV,,RO,,,,,
,visa,,,BRASOV,BRASOV,,RO,,,,,
,visa,,,BRASOV,BRASOV,,RO,,,,,
,visa,,,BRASOV,BRASOV,,RO,,,,,
,visa,,,BRASOV,BRASOV,,RO,,,,,
,visa,,,BRASOV,BRASOV,,RO,,,,,
,visa,,,BRASOV,BRASOV,,RO,,,,,
,visa,,,BRASOV,BRASOV,,RO,,,,,
,visa,,,SACELE,BRASOV,,RO,,,,,
,visa,,,BRASOV,BRASOV,,RO,,,,,
,visa,,,SACELE,BRASOV,,RO,,,,,
,visa,,,BRASOV,BRASOV,,RO,,,,,
,visa,,,BRASOV,BRASOV,,RO,,,,,
,visa,,,BRASOV,BRASOV,,RO,,,,,
,visa,,,BRASOV,BRASOV,,RO,,,,,
,visa,,,BRASOV,BRASOV,,RO,,,,,
,visa,,,SANPETRU,BRASOV,,RO,,,,,
,visa,,,TARLUNGENI,BRASOV,,RO,,,,,
,visa,,,HALCHIU,BRASOV,,RO,,,,,
,visa,,,HARMAN,BRASOV,,RO,,,,,
,visa,,,PREJMER,BRASOV,,RO,,,,,
,visa,,,FELDIOARA,BRASOV,,RO,,,,,
,visa,,,FELDIOARA,BRASOV,,RO,,,,,
,visa,,,BUNESTI,BRASOV,,RO,,,,,
,visa,,,RUPEA,BRASOV,,RO,,,,,
,visa,,,RUPEA,BRASOV,,RO,,,,,
3e337db1327e475462ddd6197e91694f,western_union,POSTA ROMANA,,Sanpetru,BRASOV,,RO,+40 21 314 7912,https://location.westernunion.com/ro/brasov/sanpetru/3e337db1327e475462ddd6197e91694f,Mo-Fr 09:00-15:00,Western Union,Q861042
b3e21ed361550c43885760a6018d6a36,western_union,DUMBRAVA ELECTRO SRL,,Rupea,BRASOV,,RO,+40 746 091 316,https://location.westernunion.com/ro/brasov/rupea/b3e21ed361550c43885760a6018d6a36,Mo-Su 09:00-19:00,Western Union,Q861042
4b06b759ea3888c80f850e8b48db6a33,western_union,BSG AMANET AND EXCHANGE,,Brasov,BRASOV,,RO,+40 748 262 638,https://location.westernunion.com/ro/brasov/brasov/4b06b759ea3888c80f850e8b48db6a33,Mo-Fr 08:00-20:15; Sa 08:00-16:15,Western Union,Q861042
e868abc837bfa76245e222ec2410f046,western_union,BANCA TRANSILVANIA,,Brasov,BRASOV,,RO,+40 729 399 046,https://location.westernunion.com/ro/brasov/brasov/e868abc837bfa76245e222ec2410f046,Mo-Fr 09:00-17:00,Western Union,Q861042
d45c4fd72e2b3c8193ce2c836408e8af,western_union,JOPHINE SRL,,Brasov,BRASOV,,RO,+40 756 664 030,https://location.westernunion.com/ro/brasov/brasov/d45c4fd72e2b3c8193ce2c836408e8af,Mo-Fr 08:00-19:00; Sa 09:00-18:00; Su 09:00-15:00,Western Union,Q861042
5e60997b9591754b524f4f7c9826e5a2,western_union,VICTORIA BRASOV 15 NOIEMBRIE,,Brasov,BRASOV,,RO,+40 727 620 214,https://location.westernunion.com/ro/brasov/brasov/5e60997b9591754b524f4f7c9826e5a2,Mo-Fr 09:00-18:00,Western Union,Q861042
290d5e05184b1c129c7be1e127f6b276,western_union,LARONINA SRL,,Codlea,BRASOV,,RO,+40 770 797 197,https://location.westernunion.com/ro/brasov/codlea/290d5e05184b1c129c7be1e127f6b276,Mo-Su 08:00-20:00,Western Union,Q861042
177a60e5f88518ce0f1da2f2c09b41b7,western_union,PARVULESCU GABRIELA GEORGETA INTREPRINDE,,Vulcan,BRASOV,,RO,+40 743 174 049,https://location.westernunion.com/ro/brasov/vulcan/177a60e5f88518ce0f1da2f2c09b41b7,Mo-Su 08:00-20:00,Western Union,Q861042
c862d12c071c558736c27179ce9fbc32,western_union,SEMPI SRL,,Beclean,BRASOV,,RO,+40 749 394 161,https://location.westernunion.com/ro/brasov/beclean/c862d12c071c558736c27179ce9fbc32,Mo-Su 08:00-20:00,Western Union,Q861042
