Ref,Spider,Name,Address,City,State,Zipcode,Country,Phone,Website,Hours,Brand,WikiData
https://stores.advanceautoparts.com/fl/lakeland/4275-old-kathleen-rd,advance_auto_parts_us,Advance Auto Parts,,Lakeland,FL,,US,+1 863-858-2138,https://stores.advanceautoparts.com/fl/lakeland/4275-old-kathleen-rd,Mo-Sa 07:30-21:00; Su 09:00-20:00,Advance Auto Parts,Q4686051
6432,autozone_us,AutoZone Auto Parts Lakeland,,Lakeland,FL,,US,+1 863-400-4980,https://www.autozone.com/locations/fl/lakeland/4277-kathleen-rd.html,Mo-Fr 07:30-21:00; Sa 08:00-21:00; Su 08:00-20:00,AutoZone,Q4826087
198064,bluerhino,Publix #1734,,Lakeland,FL,,US,+1 863-816-0379,,,Blue Rhino,Q65681213
235595,bluerhino,Circle K #2707087,,Lakeland,FL,,US,+1 863-858-7817,,,Blue Rhino,Q65681213
163343,bluerhino,Family Dollar #11086,,Lakeland,FL,,US,+1 863-853-7617,,,Blue Rhino,Q65681213
235596,bluerhino,Circle K #2707167,,Lakeland,FL,,US,+1 863-858-9423,,,Blue Rhino,Q65681213
153168,bluerhino,Walgreens #9573,,Lakeland,FL,,US,+1 863-853-1087,,,Blue Rhino,Q65681213
162069,bluerhino,Publix #0702,,Lakeland,FL,,US,+1 863-858-1146,,,Blue Rhino,Q65681213
28732,burgerking,Burger King,,Lakeland,FL,,US,+1 863-337-4631,https://www.bk.com/store-locator/store/restaurant_239312,Mo-Su 07:00-23:00,Burger King,Q177054
32391,citi,ATM 7ELEVEN-FCTI,,Lakeland,FL,,US,,,,Citibank,Q857063
42594,citi,ATM Circle K,,Lakeland,FL,,US,,,,Citibank,Q857063
28695,citi,ATM 7ELEVEN-FCTI,,Lakeland,FL,,US,,,,Citibank,Q857063
42198,citi,ATM Circle K,,Lakeland,FL,,US,,,,Citibank,Q857063
90070,citi,ATM Walgreens,,Lakeland,FL,,US,,,,Citibank,Q857063
28165,citi,ATM 7ELEVEN-FCTI,,Lakeland,FL,,US,,,,Citibank,Q857063
16646,dollar_general,Dollar General,,Lakeland,FL,,US,+1 863-400-5055,https://www.dollargeneral.com/store-directory/fl/lakeland/16646,Mo-Su 08:00-22:00,Dollar General,Q145168
4915,dominos_pizza_us,Domino's Pizza,,Lakeland,FL,,US,+1 863-345-1500,https://pizza.dominos.com/florida/lakeland/7372-kathleen-road,Mo-Th 10:30-24:00; Fr-Sa 10:30-01:00; Su 10:30-24:00,Domino's,Q839466
https://www.edwardjones.com/us-en/financial-advisor/dylan-allen,edwardjones,Dylan M Allen,,Lakeland,FL,,US,+1 863-815-3429,https://www.edwardjones.com/us-en/financial-advisor/dylan-allen,Mo-Fr 08:00-18:00,Edward Jones,Q5343830
200324640,exxonmobil,7-ELEVEN 38118,,LAKELAND,FL,,US,+1 863-608-4059,https://www.exxon.com/en/find-station/mobil-lakeland-fl-7eleven38118-200324640,24/7,Mobil,Q109676002
31086,family_dollar_us,FAMILY DOLLAR #11086,,Lakeland,FL,,US,+1 863-315-8574,https://www.familydollar.com/locations/fl/lakeland/31086/,Mo-Sa 09:00-22:00; Su 09:00-21:00,Family Dollar,Q5433101
https://local.fedex.com/#25231136,fedex,,,Lakeland,FL,,US,+1 800-463-3339,https://local.fedex.com/en-us/fl/lakeland/lalaa,,FedEx,Q459477
https://local.fedex.com/#25205872,fedex,,,Lakeland,FL,,US,+1 800-463-3339,https://local.fedex.com/en-us/fl/lakeland/de8hs,,FedEx,Q459477
https://local.fedex.com/#88294385,fedex,FedEx Authorized ShipCenter,,Lakeland,FL,,US,+1 863-816-4277,https://local.fedex.com/en-us/fl/lakeland/00vh2,,FedEx,Q459477
Motorcraft666USAEnglish,ford,"Seaboard Distribution, Inc.",,Florida,FL,,US,,,,Ford,Q44294
https://salons.greatclips.com/us/fl/lakeland/2274-griffin-rd,greatclips,Great Clips,,Lakeland,FL,,US,+1 863-940-4876,https://salons.greatclips.com/us/fl/lakeland/2274-griffin-rd,Mo-Fr 08:30-19:30; Sa 09:00-18:00; Su 10:00-17:00,Great Clips,Q5598967
9566,h_r_block,H&R Block,,Lakeland,FL,,US,+1 863-853-7807,https://www.hrblock.com/local-tax-offices/florida/lakeland/2342-griffin-rd/9566/,,H&R Block,Q5627799
157100,marathon_petroleum_us,APEC GRIFFIN RD MARATHON,,LAKELAND,FL,,US,+1 863-937-9758,,,Marathon,Q458363
fl_lakeland_4410-kathleen-rd,pizza_hut_us,4410 Kathleen Rd,,Lakeland,FL,,US,,https://locations.pizzahut.com/fl/lakeland/4410-kathleen-rd,,Pizza Hut,Q191615
14481,quiznos,Nick & Moes #1,,Lakeland,FL,,US,+1 863-858-0928,,Mo-Su 06:00-21:00,Quizno's,Q1936229
https://www.racetrac.com/locations/florida/lakeland/marcum,racetrac_us,RaceTrac,,Lakeland,FL,,US,+1 863-815-2716,https://www.racetrac.com/locations/florida/lakeland/marcum,,RaceTrac,Q735942
https://stores.saloncentric.com/#29173545,salon_centric_us,SalonCentric,,,FL,,US,+1 863-853-3550,https://stores.saloncentric.com/fl/lakeland/1129,Mo 08:00-18:30; Tu-Fr 08:00-18:00; Sa 08:30-16:00,SalonCentric,Q124339481
38842,seven_eleven_ca_us,7-11 Str   7240 Kathleen Rd,,Lakeland,FL,,US,+1 863-738-7044,https://www.7-eleven.com/locations/fl/lakeland/7240-kathleen-rd-38842,,7-Eleven,Q259340
38118,seven_eleven_ca_us,7-11 Str   2580 Kathleen Rd,,Lakeland,FL,,US,+1 863-815-9881,https://www.7-eleven.com/locations/fl/lakeland/2580-kathleen-rd-38118,,7-Eleven,Q259340
3286,speedee_us,"Lakeland, FL",,Lakeland,FL,,US,+1 863-859-4433,https://www.speedeeoil.com/lakeland-fl-3286/,Mo-Fr 08:00-18:00; Sa 08:00-17:00,SpeeDee Oil Change and Auto Service,Q120537032
https://restaurants.subway.com/#14916099,subway,Subway,,Lakeland Polk,FL,,US,+1 863-816-2866,https://restaurants.subway.com/united-states/fl/lakeland/2276-griffin-rd,Mo-Th 08:00-22:00; Fr-Sa 08:00-23:00; Su 08:00-22:00,Subway,Q244457
0169623600,sunoco_us,Sunoco,,LAKELAND,FL,,US,+1 952-210-9832,,,Sunoco,Q1423218
3381000002,usps_collection_boxes,USPS COLLECTION BOX - BLUE BOX,2300 GRIFFIN RD,LAKELAND,FL,,US,,,,United States Postal Service,Q668687
3381000000,usps_collection_boxes,USPS COLLECTION BOX - BLUE BOX,3173 SAND TRAP CT,LAKELAND,FL,,US,,,,United States Postal Service,Q668687
3381000001,usps_collection_boxes,USPS COLLECTION BOX - BLUE BOX,4500 WILLIAMSTOWN BLVD,LAKELAND,FL,,US,,,,United States Postal Service,Q668687
,visa,,,SEBRING,FL,,US,,,,,
,visa,,,SEBRING,FL,,US,,,,,
,visa,,,LAKELAND,FL,,US,,,,,
,visa,,,LAKELAND,FL,,US,,,,,
,visa,,,LAKELAND,FL,,US,,,,,
,visa,,,LAKELAND,FL,,US,,,,,
,visa,,,LAKELAND,FL,,US,,,,,
,visa,,,LAKELAND,FL,,US,,,,,
,visa,,,LAKELAND,FL,,US,,,,,
,visa,,,LAKELAND,FL,,US,,,,,
,visa,,,LAKELAND,FL,,US,,,,,
,visa,,,LAKELAND,FL,,US,,,,,
,visa,,,LAKELAND,FL,,US,,,,,
,visa,,,LAKELAND,FL,,US,,,,,
,visa,,,LAKELAND,FL,,US,,,,,
,visa,,,LAKELAND,FL,,US,,,,,
,visa,,,LAKELAND,FL,,US,,,,,
,visa,,,LAKELAND,FL,,US,,,,,
,visa,,,LAKELAND,FL,,US,,,,,
,visa,,,LAKELAND,FL,,US,,,,,
,visa,,,KATHLEEN,FL,,US,,,,,
,visa,,,KATHLEEN,FL,,US,,,,,
https://www.walgreens.com/locator/walgreens-3120+kathleen+rd-lakeland-fl-33810/id=9573,walgreens,Walgreens,,Lakeland,FL,,US,+1 863-853-1087,https://www.walgreens.com/locator/walgreens-3120+kathleen+rd-lakeland-fl-33810/id=9573,Mo-Su 07:00-22:00,Walgreens,Q1591889
https://locations.wendys.com/#9253452,wendys,"Wendy's Griffin Road in Lakeland, FL",,Lakeland,FL,,US,+1 863-853-5757,https://locations.wendys.com/united-states/fl/lakeland/2240-griffin-rd,"Mo-Su 06:30-10:30,08:00-22:00",Wendy's,Q550258
d31e253141adbf99826535f51ca27f1a,western_union,7-ELEVEN #38118,,Lakeland,FL,,US,+1 863-815-9881,https://location.westernunion.com/us/fl/lakeland/d31e253141adbf99826535f51ca27f1a,,Western Union,Q861042
76139cad7c555bfbff54aa0fa21b4254,western_union,MIESES MULTISERVICES LLC,,Lakeland,FL,,US,+1 863-815-4614,https://location.westernunion.com/us/fl/lakeland/76139cad7c555bfbff54aa0fa21b4254,Mo-Sa 09:00-18:00,Western Union,Q861042
3809677a3b6a68fca1f808849752a1dd,western_union,PUBLIX #1734,,Lakeland,FL,,US,+1 863-816-0379,https://location.westernunion.com/us/fl/lakeland/3809677a3b6a68fca1f808849752a1dd,Mo-Su 07:00-22:00,Western Union,Q861042
