Ref,Spider,Name,Address,City,State,Zipcode,Country,Phone,Website,Hours,Brand,WikiData
169827,bluerhino,Waverly Sunoco,,Waverly,VA,,US,+1 804-834-8247,,,Blue Rhino,Q65681213
212788,bluerhino,Family Dollar #1272,,Waverly,VA,,US,+1 804-253-1351,,,Blue Rhino,Q65681213
24918,citi,ATM 7ELEVEN-FCTI,,Waverly,VA,,US,,,,Citibank,Q857063
https://local.fedex.com/#25234207,fedex,,,Waverly,VA,,US,+1 800-463-3339,https://local.fedex.com/en-us/va/waverly/ptbbb,,FedEx,Q459477
https://office.jacksonhewitt.com/#27578161,jackson_hewitt,Jackson Hewitt,,Waverly,VA,,US,+1 804-834-2046,https://office.jacksonhewitt.com/tax-preparation-services-locations/en/va/waverly/233-south-country-dr/11003,Mo-Fr 10:00-18:00; Sa 10:00-17:00,Jackson Hewitt,Q6117132
0448152900,sunoco_us,Sunoco,,WAVERLY,VA,,US,+1 804-834-2161,,Mo-Sa 06:00-23:00; Su 07:00-22:00,Sunoco,Q1423218
014774,uhaul,Rowley Mini Storage LLC,128 N County Dr,Waverly,VA,,US,+1 804-834-9877,,Mo-Fr 00:00-17:00; Sa 00:00-24:00,U-Haul,Q7862902
1386699,usps,WAVERLY,,WAVERLY,VA,,US,+1 804-834-3509,,Mo-Fr 08:00-16:30; Sa 10:00-11:00,United States Postal Service,Q668687
2389000001,usps_collection_boxes,USPS COLLECTION BOX - BLUE BOX,325 W MAIN ST,WAVERLY,VA,,US,,,,United States Postal Service,Q668687
2389000002,usps_collection_boxes,USPS COLLECTION BOX - PO LOBBY,325 W MAIN ST,WAVERLY,VA,,US,,,,United States Postal Service,Q668687
2389000004,usps_collection_boxes,USPS COLLECTION BOX - PO LOBBY,325 MAIN STREET,WAVERLY,VA,,US,,,,United States Postal Service,Q668687
,visa,,,WAVERLY,VA,,US,,,,,
,visa,,,WAVERLY,VA,,US,,,,,
,visa,,,WAVERLY,VA,,US,,,,,
,visa,,,WAVERLY,VA,,US,,,,,
,visa,,,WAVERLY,VA,,US,,,,,
,visa,,,WAVERLY,VA,,US,,,,,
,visa,,,WAVERLY,VA,,US,,,,,
e32b1bb467ff0c1617c460754f292dc4,western_union,7-ELEVEN #21468,,Waverly,VA,,US,+1 804-834-2622,https://location.westernunion.com/us/va/waverly/e32b1bb467ff0c1617c460754f292dc4,,Western Union,Q861042
