Ref,Spider,Name,Address,City,State,Zipcode,Country,Phone,Website,Hours,Brand,WikiData
342,choices_flooring_au,Rockingham,"11 Dixon Road, Rockingham WA 6168",,WA,,AU,+61 8 9527 1260,https://www.choicesflooring.com.au/stores/western-australia/rockingham/,Mo-Fr 09:00-17:00; Sa 09:00-13:00,Choices Flooring,Q117155570
353,choices_flooring_au,Myaree,"98 McCoy Street, Myaree WA 6154",,WA,,AU,+61 8 9330 6001,https://www.choicesflooring.com.au/stores/western-australia/myaree/,Mo-Fr 09:00-17:00; Sa 09:00-13:00,Choices Flooring,Q117155570
319,choices_flooring_au,Margaret River,"30 Station Road, Margaret River WA 6285",,WA,,AU,+61 8 9758 8348,https://www.choicesflooring.com.au/stores/western-australia/margaret-river/,Mo-Fr 09:00-17:00; Sa 09:00-12:00,Choices Flooring,Q117155570
310,choices_flooring_au,Joondalup,"Unit 1/ 182 Winton Road, Joondalup WA 6027",,WA,,AU,+61 8 9300 0911,https://www.choicesflooring.com.au/stores/western-australia/joondalup/,Mo-Fr 09:00-17:00; Sa 09:00-16:00,Choices Flooring,Q117155570
303,choices_flooring_au,Geraldton,"S1/ 74 North West Coastal Hwy, Wonthella WA 6530",,WA,,AU,+61 8 9964 1866,https://www.choicesflooring.com.au/stores/western-australia/geraldton/,Mo-Fr 09:00-17:00; Sa 09:00-14:00,Choices Flooring,Q117155570
298,choices_flooring_au,Esperance,"5A Sheldon Road, Esperance WA 6450",,WA,,AU,+61 8 9071 1200,https://www.choicesflooring.com.au/stores/western-australia/esperance/,Mo-Fr 09:00-17:00; Sa 09:00-12:00,Choices Flooring,Q117155570
311,choices_flooring_au,by Kennedy's,"293 Hannan Street, Kalgoorlie WA 6430",,WA,,AU,+61 8 9021 4741,https://www.choicesflooring.com.au/stores/western-australia/by-kennedys/,Mo-Fr 09:00-17:00; Sa 09:00-12:00,Choices Flooring,Q117155570
266,choices_flooring_au,"by G&A, Osborne Park","Unit 1, 28 Frobisher Road, Osborne Park WA 6017",,WA,,AU,+61 8 9444 9955,https://www.choicesflooring.com.au/stores/western-australia/by-ga-osborne-park/,Mo-Fr 09:00-17:00; Sa 09:00-15:00,Choices Flooring,Q117155570
388,choices_flooring_au,"by Dallimores, Northam","258 Fitzgerald Street, Northam WA 6401",,WA,,AU,+61 8 9622 1154,https://www.choicesflooring.com.au/stores/western-australia/by-dallimores-northam/,Mo-Fr 09:00-16:00,Choices Flooring,Q117155570
340,choices_flooring_au,by Albany Interiors,"165 Albany Highway, Albany WA 6330",,WA,,AU,+61 8 9841 5555,https://www.choicesflooring.com.au/stores/western-australia/by-albany-interiors/,Mo-Fr 08:30-17:00; Sa 09:00-12:00,Choices Flooring,Q117155570
270,choices_flooring_au,Busselton,"23 Barlee Street, Busselton WA 6280",,WA,,AU,+61 8 9754 4929,https://www.choicesflooring.com.au/stores/western-australia/busselton/,Mo-Fr 09:00-17:00; Sa 09:00-12:00,Choices Flooring,Q117155570
364,choices_flooring_au,Bunbury,"Units 2 - 3, Old Mill Centre, 9 Hennessy Road, Bunbury WA 6230",,WA,,AU,+61 8 9791 3522,https://www.choicesflooring.com.au/stores/western-australia/bunbury/,Mo-Fr 09:00-17:00; Sa 09:00-12:00,Choices Flooring,Q117155570
268,choices_flooring_au,Bellevue,"143 Great Eastern Highway, Bellevue WA 6056",,WA,,AU,+61 8 9274 3244,https://www.choicesflooring.com.au/stores/western-australia/bellevue/,Mo-Fr 09:00-17:00; Sa 09:00-14:00,Choices Flooring,Q117155570
6157,commonwealth_bank_au,Karrinyup,,Karrinyup,WA,,AU,+61 8 9446 6622,,Mo-Fr 09:30-16:00,Commonwealth Bank,Q285328
6161,commonwealth_bank_au,Innaloo,,Innaloo,WA,,AU,+61 8 9445 1833,,Mo-Fr 09:30-16:00,Commonwealth Bank,Q285328
6140,commonwealth_bank_au,Osborne Park,,Osborne Park,WA,,AU,+61 8 9349 9222,,Mo-Fr 09:30-16:00,Commonwealth Bank,Q285328
6192,commonwealth_bank_au,Warwick,,Warwick,WA,,AU,+61 8 9447 6644,,Mo-Fr 09:30-16:00,Commonwealth Bank,Q285328
6125,commonwealth_bank_au,Subiaco,,Subiaco,WA,,AU,+61 8 9381 9066,,Mo-Fr 09:30-16:00,Commonwealth Bank,Q285328
6013,commonwealth_bank_au,Mirrabooka,,Mirrabooka,WA,,AU,+61 8 9282 7008,,Mo-Fr 09:30-16:00,Commonwealth Bank,Q285328
6103,commonwealth_bank_au,Claremont,,Claremont,WA,,AU,+61 8 9384 2377,,Mo-Fr 09:30-16:00,Commonwealth Bank,Q285328
6000,commonwealth_bank_au,95 William St Perth,,Perth,WA,,AU,+61 8 9282 7004,,Mo-Fr 09:30-16:00,Commonwealth Bank,Q285328
6118,commonwealth_bank_au,Mount Lawley,,Mount Lawley,WA,,AU,+61 8 9272 1600,,Mo-Fr 09:30-16:00,Commonwealth Bank,Q285328
6160,commonwealth_bank_au,Whitford,,Hillarys,WA,,AU,+61 8 9401 4700,,Mo-Fr 09:30-16:00,Commonwealth Bank,Q285328
6167,commonwealth_bank_au,Malaga,,Malaga,WA,,AU,+61 8 9249 3588,,Mo-Fr 09:30-16:00,Commonwealth Bank,Q285328
6132,commonwealth_bank_au,Morley,,Morley,WA,,AU,+61 8 9276 8844,,Mo-Fr 09:30-16:00; Sa 10:00-14:00,Commonwealth Bank,Q285328
6128,commonwealth_bank_au,East Victoria Park,,East Victoria Park,WA,,AU,+61 8 9361 8266,,Mo-Fr 09:30-16:00,Commonwealth Bank,Q285328
6163,commonwealth_bank_au,Booragoon,,Booragoon,WA,,AU,+61 8 9364 9232,,Mo-Fr 09:30-16:00,Commonwealth Bank,Q285328
6166,commonwealth_bank_au,Joondalup,,Joondalup,WA,,AU,+61 8 9300 2233,,Mo-Fr 09:30-16:00; Sa 10:00-14:00,Commonwealth Bank,Q285328
6107,commonwealth_bank_au,Fremantle,,Fremantle,WA,,AU,+61 8 9430 3131,,,Commonwealth Bank,Q285328
6153,commonwealth_bank_au,Belmont,,Cloverdale,WA,,AU,+61 8 9277 5499,,Mo-Fr 09:30-16:00,Commonwealth Bank,Q285328
6164,commonwealth_bank_au,Riverton,,Riverton,WA,,AU,+61 8 9354 2633,,Mo-Fr 09:30-16:00,Commonwealth Bank,Q285328
6134,commonwealth_bank_au,Cannington,,Cannington,WA,,AU,+61 8 9458 9877,,Mo-Fr 09:30-16:00,Commonwealth Bank,Q285328
6165,commonwealth_bank_au,Canning Vale,,Canning Vale,WA,,AU,+61 8 9455 2099,,Mo-Fr 09:30-16:00,Commonwealth Bank,Q285328
6534,commonwealth_bank_au,Ellenbrook,,Ellenbrook,WA,,AU,+61 8 6297 0510,,Mo-Fr 09:30-16:00,Commonwealth Bank,Q285328
6115,commonwealth_bank_au,Midland,,Midland,WA,,AU,+61 8 9250 1411,,Mo-Fr 09:30-16:00,Commonwealth Bank,Q285328
6058,commonwealth_bank_au,Clarkson,,Clarkson,WA,,AU,+61 8 9407 9349,,Mo-Fr 09:30-16:00,Commonwealth Bank,Q285328
6190,commonwealth_bank_au,Spearwood,,Spearwood,WA,,AU,+61 8 9434 3188,,Mo-Fr 09:30-16:00,Commonwealth Bank,Q285328
6162,commonwealth_bank_au,Maddington,,Maddington,WA,,AU,+61 8 9459 6244,,Mo-Fr 09:30-16:00,Commonwealth Bank,Q285328
6202,commonwealth_bank_au,Success,,Success,WA,,AU,+61 8 6399 1334,,Mo-Fr 09:30-16:00; Sa 10:00-14:00,Commonwealth Bank,Q285328
6112,commonwealth_bank_au,Kalamunda,,Kalamunda,WA,,AU,+61 8 9293 2722,,Mo-Fr 09:30-16:00,Commonwealth Bank,Q285328
6131,commonwealth_bank_au,Armadale,,Armadale,WA,,AU,+61 8 9399 2411,,Mo-Fr 09:30-16:00,Commonwealth Bank,Q285328
6135,commonwealth_bank_au,Kwinana,,Kwinana Town Centre,WA,,AU,+61 8 9419 2566,,Mo-Fr 09:30-16:00,Commonwealth Bank,Q285328
6159,commonwealth_bank_au,Rockingham City,,Rockingham,WA,,AU,+61 8 9527 5366,,Mo-Fr 09:30-16:00,Commonwealth Bank,Q285328
6274,commonwealth_bank_au,Warnbro,,Warnbro,WA,,AU,+61 8 9557 1302,,Mo-Fr 09:30-16:00,Commonwealth Bank,Q285328
6516,commonwealth_bank_au,Mandurah,,Mandurah,WA,,AU,+61 8 9535 1666,,Mo-Fr 09:30-16:00,Commonwealth Bank,Q285328
6524,commonwealth_bank_au,Northam,,Northam,WA,,AU,+61 8 9622 1277,,Mo-Fr 09:30-13:00,Commonwealth Bank,Q285328
6519,commonwealth_bank_au,Moora,,Moora,WA,,AU,+61 8 9651 1011,,Mo-Fr 09:30-13:00,Commonwealth Bank,Q285328
6540,commonwealth_bank_au,Eaton,,Eaton,WA,,AU,+61 8 9797 0066,,Mo-Fr 09:30-16:00,Commonwealth Bank,Q285328
6507,commonwealth_bank_au,Bunbury,,Bunbury,WA,,AU,+61 8 9745 9358,,Mo-Fr 09:30-16:00,Commonwealth Bank,Q285328
6522,commonwealth_bank_au,Narrogin,,Narrogin,WA,,AU,+61 8 9881 1599,,Mo-Fr 09:30-13:00,Commonwealth Bank,Q285328
6508,commonwealth_bank_au,Busselton,,Busselton,WA,,AU,+61 8 9752 1788,,Mo-Fr 09:30-16:00,Commonwealth Bank,Q285328
6532,commonwealth_bank_au,Margaret River,,Margaret River,WA,,AU,+61 8 9730 0104,,Mo-Fr 09:30-13:00,Commonwealth Bank,Q285328
6518,commonwealth_bank_au,Merredin,,Merredin,WA,,AU,+61 8 9041 1422,,Mo-Fr 09:30-13:00,Commonwealth Bank,Q285328
6515,commonwealth_bank_au,Katanning,,Katanning,WA,,AU,+61 8 9821 1088,,Mo-Fr 09:30-13:00,Commonwealth Bank,Q285328
6517,commonwealth_bank_au,Manjimup,,Manjimup,WA,,AU,+61 8 9771 1811,,Mo-Fr 09:30-13:00,Commonwealth Bank,Q285328
6512,commonwealth_bank_au,Geraldton,,Geraldton,WA,,AU,+61 8 9921 2588,,Mo-Fr 09:30-16:00,Commonwealth Bank,Q285328
6500,commonwealth_bank_au,Albany,,Albany,WA,,AU,+61 8 9841 2022,,Mo-Fr 09:30-16:00,Commonwealth Bank,Q285328
6514,commonwealth_bank_au,Kalgoorlie,,Kalgoorlie,WA,,AU,+61 8 9021 2333,,Mo-Fr 09:30-16:00,Commonwealth Bank,Q285328
6511,commonwealth_bank_au,Esperance,,Esperance,WA,,AU,+61 8 9071 2555,,Mo-Fr 09:30-13:00,Commonwealth Bank,Q285328
6509,commonwealth_bank_au,Carnarvon,,Carnarvon,WA,,AU,+61 8 9941 1005,,Mo-Fr 09:30-16:00,Commonwealth Bank,Q285328
6531,commonwealth_bank_au,Karratha,,Karratha,WA,,AU,+61 8 9185 1622,,Mo-Fr 09:30-16:00,Commonwealth Bank,Q285328
6528,commonwealth_bank_au,South Hedland,,South Hedland,WA,,AU,+61 8 9173 1255,,Mo-Fr 09:30-16:00,Commonwealth Bank,Q285328
6505,commonwealth_bank_au,Broome,,Broome,WA,,AU,+61 8 9192 1103,,Mo-Fr 09:30-16:00,Commonwealth Bank,Q285328
6530,commonwealth_bank_au,Kununurra,,Kununurra,WA,,AU,+61 8 9169 1511,,Mo-Fr 09:30-16:00,Commonwealth Bank,Q285328
211600,flight_centre_au,Flight Centre Ocean Keys,,Clarkson ,WA,,AU,+61 1300 507 335,https://www.flightcentre.com.au/stores/clarkson/fc-ocean-keys,Mo-Fr 09:00-17:30; Sa 10:00-15:00; Su 11:00-16:00,Flight Centre,Q5459202
58400,flight_centre_au,Flight Centre Floreat,,Floreat,WA,,AU,+61 1300 502 930,https://www.flightcentre.com.au/stores/floreat/fc-floreat,Mo-Fr 09:00-17:30,Flight Centre,Q5459202
46800,flight_centre_au,Flight Centre Mt Lawley,,Mount Lawley,WA,,AU,+61 1300 508 683,https://www.flightcentre.com.au/stores/mount-lawley/fc-mt-lawley,Mo-Fr 09:00-17:30,Flight Centre,Q5459202
48500,flight_centre_au,Flight Centre Albany,,Albany,WA,,AU,+61 1300 511 658,https://www.flightcentre.com.au/stores/albany/fc-albany,Mo-Fr 09:00-17:30; Sa 09:00-17:00,Flight Centre,Q5459202
45501,flight_centre_au,Flight Centre Geraldton,,Geraldton,WA,,AU,+61 1300 511 869,https://www.flightcentre.com.au/stores/geraldton/fc-geraldton,Mo-Fr 09:00-17:30,Flight Centre,Q5459202
49700,flight_centre_au,Flight Centre Southlands Boulevarde,,Willetton,WA,,AU,+61 1300 504 415,https://www.flightcentre.com.au/stores/willetton/fc-southlands-boulevarde,Mo-Fr 09:00-17:30,Flight Centre,Q5459202
54900,flight_centre_au,Flight Centre Cottesloe,,Cottesloe,WA,,AU,+61 1300 503 036,https://www.flightcentre.com.au/stores/cottesloe/fc-first-business-cottesloe,Mo-We 09:00-17:00; Th 09:00-17:30; Fr 09:00-17:00,Flight Centre,Q5459202
15102,flight_centre_au,Flight Centre Claremont,,Claremont,WA,,AU,+61 1300 506 797,https://www.flightcentre.com.au/stores/claremont/fc-first-business-claremont,Mo-Fr 09:00-17:30; Sa 09:00-17:00,Flight Centre,Q5459202
18601,flight_centre_au,Flight Centre Joondalup,,Joondalup,WA,,AU,+61 1300 503 406,https://www.flightcentre.com.au/stores/joondalup/fc-joondalup,Mo-We 09:00-17:30; Th 09:00-19:00; Fr 09:00-17:30; Sa 10:00-15:00,Flight Centre,Q5459202
12304,flight_centre_au,Flight Centre Kalamunda,,Kalamunda,WA,,AU,+61 1300 502 405,https://www.flightcentre.com.au/stores/kalamunda/fc-kalamunda,Mo-Fr 09:00-17:30,Flight Centre,Q5459202
34101,flight_centre_au,Flight Centre Karrinyup,,Karrinyup,WA,,AU,+61 1300 508 591,https://www.flightcentre.com.au/stores/karrinyup/fc-karrinyup,Mo-We 09:00-17:30; Th 09:00-20:00; Fr 09:00-17:30; Sa 09:00-17:00,Flight Centre,Q5459202
18904,flight_centre_au,Flight Centre Midland Gate,,Midland,WA,,AU,+61 1300 502 527,https://www.flightcentre.com.au/stores/midland/fc-midland-gate,Mo-We 09:00-17:30; Th 09:00-20:00; Fr 09:00-17:30; Sa 09:00-17:00; Su 11:00-17:00,Flight Centre,Q5459202
29006,flight_centre_au,Flight Centre Rockingham,,Rockingham,WA,,AU,+61 1300 510 585,https://www.flightcentre.com.au/stores/rockingham/fc-rockingham,Mo-We 09:00-17:30; Th 09:00-21:00; Fr 09:00-17:30; Sa 09:00-17:00; Su 11:00-17:00,Flight Centre,Q5459202
16501,flight_centre_au,Flight Centre Warwick,,Warwick,WA,,AU,+61 1300 502 294,https://www.flightcentre.com.au/stores/warwick/fc-warwick,Mo-Fr 09:00-17:30,Flight Centre,Q5459202
27801,flight_centre_au,Flight Centre Whitford City,,Hillarys,WA,,AU,+61 1300 507 301,https://www.flightcentre.com.au/stores/hillarys/fc-whitford-city,Mo-We 09:00-17:30; Th 09:00-19:00; Fr 09:00-17:30; Sa 09:00-16:00; Su 11:00-16:00,Flight Centre,Q5459202
25301,flight_centre_au,Flight Centre Galleria,,Morley,WA,,AU,+61 1300 502 928,https://www.flightcentre.com.au/stores/morley/fc-galleria,Mo-Fr 09:00-17:30; Sa 09:00-17:00,Flight Centre,Q5459202
30102,flight_centre_au,Flight Centre Carousel,,Cannington,WA,,AU,+61 1300 506 256,https://www.flightcentre.com.au/stores/cannington/fc-carousel,Mo-We 09:00-17:30; Th 09:00-19:00; Fr 09:00-17:30; Sa 09:00-17:00; Su 11:00-17:00,Flight Centre,Q5459202
32902,flight_centre_au,Flight Centre Belmont,,Cloverdale,WA,,AU,+61 1300 508 699,https://www.flightcentre.com.au/stores/cloverdale/fc-belmont,Mo-Fr 09:00-17:30; Sa 09:00-17:00,Flight Centre,Q5459202
40202,flight_centre_au,Flight Centre Garden City,,Booragoon,WA,,AU,+61 1300 504 438,https://www.flightcentre.com.au/stores/booragoon/fc-garden-city-wa,Mo-We 09:00-17:30; Th 09:00-21:00; Fr 09:00-17:30; Sa 09:00-17:00; Su 11:00-17:00,Flight Centre,Q5459202
530700,flight_centre_au,Flight Centre Livingston,,Canning Vale,WA,,AU,+61 1300 501 867,https://www.flightcentre.com.au/stores/canning-vale/fc-livingston,Mo-Fr 09:00-17:30,Flight Centre,Q5459202
514700,flight_centre_au,Flight Centre Esperance,,Esperance,WA,,AU,+61 1300 500 987,https://www.flightcentre.com.au/stores/esperance/fc-esperance,Mo-Fr 09:00-17:30; Sa 09:00-14:00,Flight Centre,Q5459202
566300,flight_centre_au,Flight Centre Gateways,,Success,WA,,AU,+61 1300 507 506,https://www.flightcentre.com.au/stores/success/fc-gateways,Mo-We 09:00-17:30; Th 09:00-19:00; Fr 09:00-17:30; Sa 09:00-17:00; Su 11:00-17:00,Flight Centre,Q5459202
566400,flight_centre_au,Flight Centre Armadale,,Armadale,WA,,AU,+61 1300 506 944,https://www.flightcentre.com.au/stores/armadale/fc-armadale-wa,Mo-Fr 09:00-17:30; Sa 09:00-17:00,Flight Centre,Q5459202
571400,flight_centre_au,Flight Centre Busselton,,Busselton,WA,,AU,+61 1300 511 592,https://www.flightcentre.com.au/stores/busselton/fc-busselton,Mo-Fr 09:00-17:00,Flight Centre,Q5459202
576600,flight_centre_au,Flight Centre Miami Plaza,,Falcon,WA,,AU,+61 1300 510 154,https://www.flightcentre.com.au/stores/falcon/fc-miami-plaza,Mo-Fr 09:00-17:30,Flight Centre,Q5459202
340100,flight_centre_au,Flight Centre Baldivis,,Baldivis,WA,,AU,+61 1300 509 775,https://www.flightcentre.com.au/stores/baldivis/fc-baldivis,Mo-We 09:00-17:30; Th 09:00-19:00; Fr 09:00-17:30; Sa 10:00-17:00; Su 11:00-17:00,Flight Centre,Q5459202
321700,flight_centre_au,Flight Centre Wanneroo,,Wanneroo,WA,,AU,+61 1300 501 466,https://www.flightcentre.com.au/stores/wanneroo/fc-wanneroo,Mo-Fr 09:00-17:30; Sa 09:00-17:00,Flight Centre,Q5459202
459588,flight_centre_au,Flight Centre Round the World Experts Perth,,Perth,WA,,AU,+61 1300 101 428,https://www.flightcentre.com.au/stores/perth/fc-rtw-experts-perth,Mo-We 09:00-17:00; Th 09:00-17:30; Fr 09:00-17:00,Flight Centre,Q5459202
174288,flight_centre_au,Flight Centre Mandurah,,Mandurah,WA,,AU,+61 1300 165 748,https://www.flightcentre.com.au/stores/mandurah/fc-mandurah,Mo-We 09:00-17:30; Th 09:00-19:00; Fr 09:00-17:30; Sa 09:00-17:00; Su 11:00-17:00,Flight Centre,Q5459202
846500,flight_centre_au,Flight Centre Bunbury,,Eaton,WA,,AU,+61 1300 094 324,https://www.flightcentre.com.au/stores/bunbury/fc-bunbury-tailor-made,Mo-We 09:00-17:30; Th 09:00-19:00; Fr 09:00-17:30; Sa 09:00-17:00; Su 11:00-17:00,Flight Centre,Q5459202
848500,flight_centre_au,Flight Centre Maylands,,Maylands,WA,,AU,+61 1300 839 403,https://www.flightcentre.com.au/stores/maylands/fc-maylands,Mo-We 09:00-17:00; Th 09:00-17:30; Fr 09:00-17:00,Flight Centre,Q5459202
535400,flight_centre_au,Flight Centre Murray Street Mall,,Perth,WA,,AU,+61 1300 151 526,https://www.flightcentre.com.au/stores/perth/fc-murray-street-mall,Mo-Fr 09:00-17:30; Sa 09:00-17:00,Flight Centre,Q5459202
671188,flight_centre_au,Flight Centre Raine Square,,Perth,WA,,AU,+61 1300 308 993,https://www.flightcentre.com.au/stores/perth/fc-raine-square,Mo-Fr 09:00-17:30,Flight Centre,Q5459202
dfo_perth,gant_au,DFO Perth,"G-084, 11 High Street, Perth Airport, WA 6105",,WA,,AU,+61 428 987 104,,Mo-Su 10:00-18:00,GANT,Q1493667
2746,liberty_au,,,Dongara,WA,,AU,+61 8 6500 3262,,Mo-Fr 09:00-17:00,Liberty Oil,Q106687078
2754,liberty_au,,,Oconnor,WA,,AU,+61 8 6500 7831,,Mo-Fr 09:00-17:00,Liberty Oil,Q106687078
