Ref,Spider,Name,Address,City,State,Zipcode,Country,Phone,Website,Hours,Brand,WikiData
636688,afcurgentcare,American Family Care Memorial City,,Houston,TX,,US,+1 346-385-5989,https://www.afcurgentcare.com/memorial-city/,Mo-Fr 08:00-20:00; Sa-Su 08:00-17:00,AFC Urgent Care,Q110552174
https://local.pharmacy.randalls.com/#5673050,albertsons,Randalls Pharmacy,,Houston,TX,,US,+1 713-365-6704,https://local.pharmacy.randalls.com/tx/houston/12850-memorial-dr.html,Mo-Fr 09:00-20:00; Sa 09:00-18:00; Su 10:00-17:00,Randalls,Q7291489
https://local.randalls.com/#5603868,albertsons,Randalls,,Houston,TX,,US,+1 713-365-6700,https://local.randalls.com/tx/houston/12850-memorial-dr.html,"Mo-Fr 06:00-23:00,09:00-20:00; Sa 06:00-23:00,09:00-18:00; Su 06:00-23:00,10:00-17:00",Randalls,Q7291489
https://storelocations.ae.com/#1725983,american_eagle_outfitters,American Eagle & OFFLINE Store Memorial City Mall,,Houston,TX,,US,+1 713-647-7771,https://storelocations.ae.com/us/tx/houston/377-memorial-city-way.html,Mo-Th 10:00-20:00; Fr-Sa 10:00-21:00; Su 11:00-19:00,American Eagle & OFFLINE Store,Q2842931
https://storelocations.ae.com/#48964422,american_eagle_outfitters,Aerie Store Memorial City Mall,,Houston,TX,,US,+1 713-353-2173,https://storelocations.ae.com/us/tx/houston/303-memorial-city-way.html,Mo-Th 10:00-20:00; Fr-Sa 10:00-21:00; Su 11:00-19:00,Aerie Store,Q2842931
a61eae73-e11d-e611-80c5-005056aa8521,amf_bowling,Bowlero Houston,,Houston,TX,,US,+1 713-461-1207,https://www.bowlero.com/location/bowlero-houston,,Bowlero,Q17102967
https://stores.anntaylor.com/tx/houston/12850-memorial-drive.html,anntaylor,Ann Taylor,,Houston,TX,,US,+1 713-973-1196,https://stores.anntaylor.com/tx/houston/12850-memorial-drive.html,Mo-Sa 10:00-19:00; Su 12:00-18:00,Ann Taylor,Q4766699
R164,apple,Apple Memorial City,,Houston,TX,,US,+1 713-986-2476,https://www.apple.com/retail/memorialcity,Mo-Th 10:00-20:00; Fr-Sa 10:00-21:00; Su 11:00-19:00,Apple,Q421253
34008,asics_us,Sun & Ski,303 Memorial City Mall Suite 326,Houston,TX,,US,+1 713-464-6363,,Mo-Th 10:00-20:00; Fr-Sa 10:00-21:00; Su 11:00-19:00,asics,Q327247
22559,asics_us,SIX:02,303 Memorial City Way,Houston,TX,,US,+1 713-461-3925,,,asics,Q327247
62443,asics_us,Finish Line,217 Memorial City Mall,Houston,TX,,US,+1 713-461-5008,,,asics,Q327247
4796,athleta,TOWN & COUNTRY VILL,,Houston,TX,,US,+1 713-463-8847,https://athleta.gap.com/stores/tx/houston/athleta-4796.html,Mo-Sa 10:00-19:00; Su 11:00-18:00,Athleta,Q105722424
79528,att_us,TOWN & COUNTRY STORE,,Houston,TX,,US,+1 713-465-3281,https://www.att.com/stores/texas/houston/79528,Mo-Sa 10:00-20:00; Su 11:00-18:00,AT&T,Q298594
75888,att_us,SPRING VALLEY STORE,,Houston,TX,,US,+1 713-463-5345,https://www.att.com/stores/texas/houston/75888,Mo-Sa 10:00-20:00; Su 11:00-18:00,AT&T,Q298594
https://locations.auntieannes.com/#7397,auntie_annes,Auntie Anne's Memorial City Mall,,Houston,TX,,US,+1 832-358-8888,https://locations.auntieannes.com/tx/houston/574-memorial-city,Mo-Th 10:00-20:00; Fr-Sa 10:00-21:00; Su 11:00-19:00,Auntie Anne's,Q4822010
https://locations.auntieannes.com/#7593,auntie_annes,Auntie Anne's Memorial City Mall #2,,Houston,TX,,US,+1 832-548-1919,https://locations.auntieannes.com/tx/houston/303-memorial-city-way,Mo-Su 11:00-19:00,Auntie Anne's,Q4822010
https://www.avis.com/en/locations/us/tx/houston/h2n,avis,Avis U S A Houston,,Houston,TX,,US,+1 713-461-6220,https://www.avis.com/en/locations/us/tx/houston/h2n,Mo-Fr 07:30-18:00; Sa-Su 09:00-13:00,Avis,Q791136
https://locators.bankofamerica.com/tx/houston/financial-centers-houston-12588.html,bankofamerica,Bank of America Financial Center & Drive-Thru ATM | Town & Country,,Houston,TX,,US,+1 713-365-3220,https://locators.bankofamerica.com/tx/houston/financial-centers-houston-12588.html,Mo-Fr 10:00-16:00,Bank of America,Q487907
https://locators.bankofamerica.com/tx/houston/financial-centers-houston-12449.html,bankofamerica,Bank of America Financial Center & Drive-Thru ATM | Spring Branch,,Houston,TX,,US,+1 713-827-3600,https://locators.bankofamerica.com/tx/houston/financial-centers-houston-12449.html,Mo-Fr 10:00-16:00,Bank of America,Q487907
https://locators.bankofamerica.com/tx/houston/financial-centers-houston-16599.html,bankofamerica,Bank of America Financial Center & Drive-Thru ATM | Silber,,Houston,TX,,US,+1 832-667-9970,https://locators.bankofamerica.com/tx/houston/financial-centers-houston-16599.html,Mo-Fr 10:00-16:00,Bank of America,Q487907
houston-memorial,barmethod,The Bar Method Houston - Memorial,,Houston,TX,,US,+1 281-888-6266,https://barmethod.com/locations/houston-memorial/,,The Bar Method,Q117599728
https://locations.baskinrobbins.com/tx/houston/9315-katy-fwy-360491-br,baskin_robbins_us,Baskin-Robbins™,,Houston,TX,,US,+1 713-468-3642,https://locations.baskinrobbins.com/tx/houston/9315-katy-fwy-360491-br,Mo-Th 11:00-21:00; Fr-Sa 11:00-22:00; Su 11:00-21:00,Baskin-Robbins,Q584601
BBW00770,bathandbodyworks_us,TOWN AND COUNTRY VILLAGE,,HOUSTON,TX,,US,+1 713-464-7246,,Mo-Sa 10:00-20:00; Su 10:00-18:00,Bath & Body Works,Q810773
BBW00396,bathandbodyworks_us,MEMORIAL CITY MALL,,HOUSTON,TX,,US,+1 713-827-2261,,Mo-Th 10:00-20:00; Fr-Sa 10:00-21:00; Su 11:00-19:00,Bath & Body Works,Q810773
https://www.benihana.com/locations/houston-city-centre/,benihana,"HOUSTON - CITY CENTRE, TX",, HOUSTON,TX,,US,+1 713-258-1567,https://www.benihana.com/locations/houston-city-centre/,,Benihana,Q4887996
212421,bluerhino,Timewise #176,,Houston,TX,,US,+1 713-461-6541,,,Blue Rhino,Q65681213
237836,bluerhino,Circle K #2740565,,Houston,TX,,US,+1 713-984-2437,,,Blue Rhino,Q65681213
45315,bluerhino,Lowe's #1058,,Houston,TX,,US,+1 713-647-6711,,,Blue Rhino,Q65681213
212267,bluerhino,Timewise #241,,Houston,TX,,US,+1 713-467-0504,,,Blue Rhino,Q65681213
227225,bluerhino,Timewise #880839,,Houston,TX,,US,+1 713-686-2223,,,Blue Rhino,Q65681213
212434,bluerhino,Timewise #312,,Houston,TX,,US,+1 713-680-8942,,,Blue Rhino,Q65681213
196929,bluerhino,Richards Grocery Store (Inshah Enterprise LLC),,Houston,TX,,US,+1 713-681-7299,,,Blue Rhino,Q65681213
0206,bootbarn,Houston - NW Parkway,,"Houston,",TX,,US,+1 713-984-8887,https://www.bootbarn.com/stores?StoreID=0206,Mo-Sa 10:00-21:00; Su 12:00-19:00,Boot Barn,Q109825187
10624,brookdale_us,Brookdale Memorial City,,Houston,TX,,US,+1 713-932-0400,https://www.brookdale.com/en/communities/brookdale-memorial-city.html,,Brookdale,Q4974387
03342,brookdale_us,BAH Memorial City,,Houston,TX,,US,+1 713-463-5995,https://www.brookdale.com/en/brookdale-at-home/houston-memorial-city.html,,Brookdale,Q4974387
https://local.buckle.com/tx/houston/clothing-335.html,buckle_us,Houston Men’s & Women’s Clothing,,Houston,TX,,US,+1 713-468-3651,https://local.buckle.com/tx/houston/clothing-335.html,Mo-We 10:00-20:00; Th 10:00-22:00; Fr-Sa 10:00-21:00; Su 11:00-19:00,Buckle,Q4983306
3654,buffalo_wild_wings_us,"Houston, TX - Hedwig Village",,Houston,TX,,US,+1 281-833-8300,https://www.buffalowildwings.com/locations/us/tx/houston/9435-katy-freeway/sports-bar-1250,Mo-Su 11:00-02:00,Buffalo Wild Wings,Q509255
TX047-M1-SR1,california_closets_us,California Closets - Houston,,Houston,TX,,US,+1 713-785-0111,https://www.locations.californiaclosets.com/california-closets-houston-b05336a23ef7,Mo-Sa 10:00-16:00,California Closets,Q5020325
2041513,chase_us,Memorial Villages Motor Bank - New branch,,Houston,TX,,US,+1 713-463-4324,https://locator.chase.com/tx/houston/9335-katy-fwy,Mo-Fr 09:00-17:00; Sa 09:00-14:00,Chase,Q524629
2041512,chase_us,Memorial Villages - New branch,,Houston,TX,,US,+1 713-463-4301,https://locator.chase.com/tx/houston/9309-katy-fwy,Mo-Fr 09:00-17:00; Sa 09:00-14:00,Chase,Q524629
2041579,chase_us,Town and Country Houston - New branch,,Houston,TX,,US,+1 713-932-1133,https://locator.chase.com/tx/houston/12802-memorial-dr,Mo-Fr 09:00-17:00; Sa 09:00-14:00,Chase,Q524629
tx_houston_303-memorial-city,chipotle, ,,Houston,TX,,US,+1 281-605-1083,https://locations.chipotle.com/tx/houston/303-memorial-city,,Chipotle,Q465751
tx_houston_12888-queensbury-ln,chipotle, ,,Houston,TX,,US,+1 713-343-0521,https://locations.chipotle.com/tx/houston/12888-queensbury-ln,,Chipotle,Q465751
76094,citi,ATM SIMMONS BANK,,Houston,TX,,US,,,,Citibank,Q857063
54328,citi,ATM EAST WEST BANK,,Houston,TX,,US,,,,Citibank,Q857063
54327,citi,ATM EAST WEST BANK,,Houston,TX,,US,,,,Citibank,Q857063
61660,citi,ATM Kroger,,Houston,TX,,US,,,,Citibank,Q857063
83232,citi,ATM Target,,Houston,TX,,US,,,,Citibank,Q857063
46686,citi,ATM CVS,,Houston,TX,,US,,,,Citibank,Q857063
36161,citi,ATM BANK OF TEXAS,,Houston,TX,,US,,,,Citibank,Q857063
87266,citi,ATM Walgreens,,Houston,TX,,US,,,,Citibank,Q857063
houston/6283,claires,Shop Ear Piercings & Jewelry at Memorial City Mall,,HOUSTON,TX,,US,+1 713-973-7756,https://stores.claires.com/us/tx/houston/6283.html,Mo-Th 10:00-20:00; Fr-Sa 10:00-21:00; Su 10:00-18:00,Claire's,Q2974996
https://www.coach.com/stores/#17277582,coach_us,COACH,,Houston,TX,,US,+1 832-780-3159,https://www.coach.com/stores/tx/houston/740-memorial-city-mall,Mo-Th 10:00-20:00; Fr-Sa 10:00-21:00; Su 11:00-19:00,Coach,Q727697
memorial,corner_bakery_cafe,Memorial,,Houston,TX,,US,+1 713-973-2037,https://cornerbakerycafe.com/location/memorial,Mo-Fr 06:30-21:00; Sa 07:00-21:00; Su 07:00-20:00,Corner Bakery Cafe,Q5171598
29639,cpk,California Pizza Kitchen Memorial City,,Houston,TX,,US,+1 713-365-9473,https://www.cpk.com/locations/29639,,California Pizza Kitchen,Q15109854
16769,cvs_us,CVS Pharmacy,,Houston,TX,,US,+1 713-300-0228,https://www.cvs.com/store-locator/houston-tx-pharmacies/984-gessner-rd-houston-tx-77024/storeid=16769,"Mo-Fr 09:00-13:30,14:00-19:00; Sa 09:00-13:30,14:00-17:00; Su 11:00-13:30,14:00-17:00",CVS Pharmacy,Q2078880
6752,cvs_us,CVS Pharmacy,,Houston,TX,,US,+1 713-465-6443,https://www.cvs.com/store-locator/houston-tx-pharmacies/12502-memorial-dr-houston-tx-77024/storeid=6752,Mo-Th 07:00-22:00; Fr-Su 08:00-22:00,CVS Pharmacy,Q2078880
6726,cvs_us,CVS Pharmacy,,Houston,TX,,US,+1 713-957-7500,https://www.cvs.com/store-locator/houston-tx-pharmacies/8201-katy-freeway-houston-tx-77024/storeid=6726,24/7,CVS Pharmacy,Q2078880
0774,dillards,"Dillard's Memorial City Mall in Houston, Texas",,Houston,TX,,US,+1 713-464-1851,https://www.dillards.com/stores/texas/memorial-city-mall-houston/0774,Mo-Sa 11:00-20:00; Su 12:00-18:00,Dillard's,Q844805
6792,dominos_pizza_us,Domino's Pizza,,Houston,TX,,US,+1 713-464-0708,https://pizza.dominos.com/texas/houston/12740-memorial-dr,Mo-Th 10:00-24:00; Fr-Sa 10:00-01:00; Su 10:00-24:00,Domino's,Q839466
Hedwig Village,dsw,DSW,,Houston,TX,,US,+1 713-465-8923,https://stores.dsw.com/usa/tx/houston/dsw-designer-shoe-warehouse-hedwig-village.html,Mo-Sa 10:00-20:00; Su 11:00-19:00,Designer Shoe Warehouse,Q5206207
https://www.edwardjones.com/us-en/financial-advisor/luis-acosta,edwardjones,Luis D Acosta,,Houston,TX,,US,+1 281-463-1071,https://www.edwardjones.com/us-en/financial-advisor/luis-acosta,,Edward Jones,Q5343830
600-w-sam-houston-pkwy-n,einsteinbros,Kimberly and Beltway 8 Einstein Bros. Bagels,,Houston,TX,,US,+1 713-463-8687,https://locations.einsteinbros.com/us/tx/houston/600-w-sam-houston-pkwy-n,Mo-Fr 05:00-14:00; Sa-Su 06:00-14:00,Einstein Bros. Bagels,Q5349788
303-memorial-city-mall,express,Memorial City,,Houston,TX,,US,+1 713-467-4897,https://stores.express.com/us/tx/houston/303-memorial-city-mall,Mo-Th 10:00-20:00; Fr-Sa 10:00-21:00; Su 11:00-19:00,Express,Q1384784
1000000291,extra_space_storage,Houston Self Storage at 7879 Katy Fwy,,Houston,TX,,US,+1 713-683-7979,https://www.extraspace.com/storage/facilities/us/texas/houston/1000000291/,Mo-Fr 09:30-18:00; Sa 09:00-17:30,Extra Space Storage,Q5422162
https://local.fedex.com/#25202831,fedex,,,Houston,TX,,US,+1 800-463-3339,https://local.fedex.com/en-us/tx/houston/h8azd,,FedEx,Q459477
https://local.fedex.com/#25199854,fedex,,,Houston,TX,,US,+1 800-463-3339,https://local.fedex.com/en-us/tx/houston/h7286,,FedEx,Q459477
https://local.fedex.com/#25477282,fedex,,,Houston,TX,,US,+1 800-463-3339,https://local.fedex.com/en-us/tx/houston/dvhnw,,FedEx,Q459477
https://local.fedex.com/#27754550,fedex,FedEx Authorized ShipCenter,,Houston,TX,,US,+1 713-464-1233,https://local.fedex.com/en-us/tx/houston/97056,,FedEx,Q459477
https://local.fedex.com/#27747166,fedex,FedEx Authorized ShipCenter,,Houston,TX,,US,+1 713-467-2080,https://local.fedex.com/en-us/tx/houston/67732,,FedEx,Q459477
https://local.fedex.com/#25458466,fedex,,,Houston,TX,,US,+1 800-463-3339,https://local.fedex.com/en-us/tx/houston/00jc0,,FedEx,Q459477
https://local.fedex.com/#27768819,fedex,FedEx Authorized ShipCenter,,Houston,TX,,US,+1 713-467-2080,https://local.fedex.com/en-us/tx/houston/00bf7,,FedEx,Q459477
7714,firestone_auto_care,Firestone Complete Auto Care,,Houston,TX,,US,+1 713-401-3946,https://local.firestonecompleteautocare.com/texas/houston/9823-katy-fwy/,,Firestone,Q420837
https://locations.fivebelow.com/tx/houston/9403-katy-freeway,five_below,Five Below Hedwig Village,,Houston,TX,,US,,https://locations.fivebelow.com/tx/houston/9403-katy-freeway,Mo-Sa 10:00-20:00; Su 11:00-18:00,Five Below,Q5455836
https://stores.footlocker.com/tx/houston/303-memorial-city-7152.html,footlocker,"Foot Locker in Memorial City Mall: Houston, Texas | Approved | Own It",,Houston,TX,,US,+1 713-465-8738,https://stores.footlocker.com/tx/houston/303-memorial-city-7152.html,Mo-Th 10:00-20:00; Fr-Sa 10:00-21:00; Su 11:00-19:00,Foot Locker,Q63335
Motorcraft801USAEnglish,ford,Mac Haik Ford,,Texas,TX,,US,+1 713-932-5000,,,Ford,Q44294
https://www.ford.com/dealerships/dealer-details/tx/houston/mac-haik-ford/,ford_dealers_us,Mac Haik Ford,,Houston,TX,,US,+1 346-537-0249,https://www.ford.com/dealerships/dealer-details/tx/houston/mac-haik-ford/,Mo-Sa 09:00-21:00,Ford Motor Company,Q44294
https://locations.forever21.com/#35646762,forever21_us,Memorial City Mall,,Houston,TX,,US,+1 832-839-8916,https://locations.forever21.com/us/stores/tx/houston/900-gessner-rd,Mo-Th 11:00-20:00; Fr-Sa 11:00-21:00; Su 11:00-19:00,Forever 21,Q1060537
8329,fossil,Fossil,,Houston,TX,,US,+1 713-984-9110,,Mo-Sa 11:00-20:00; Su 11:00-19:00,Fossil,Q356212
https://www.fuddruckers.com/houston-town-and-country,fuddruckers,Houston Town & Country,,Houston,TX,,US,+1 713-722-7440,https://www.fuddruckers.com/houston-town-and-country,,Fuddruckers,Q5507056
4614,gamestop_us,Memorial City Mall,,HOUSTON,TX,,US,+1 713-722-8287,https://www.gamestop.com/search/?store=4614,Mo-Th 10:00-20:00; Fr-Sa 10:00-21:00; Su 11:00-19:00,GameStop,Q202210
https://stores.gnc.com/#24057823,gnc,GNC Memorial City Mall,,,TX,,US,+1 713-973-0619,https://stores.gnc.com/all-stores-texas/houston/383-memorial-city-mall,Mo-Th 10:00-20:00; Fr-Sa 10:00-21:00; Su 11:00-19:00,GNC,Q4808595
https://www.grimaldispizzeria.com/location/citycentre/,grimaldis_pizzeria,Grimaldi&#039;s Pizzeria,,Houston,TX,,US,+1 713-463-3730,https://www.grimaldispizzeria.com/location/citycentre/,Mo-Th 11:00-22:00; Fr-Sa 11:00-23:00; Su 11:00-22:00,Grimaldi's Pizzeria,Q564256
0126,helzberg_diamonds,Helzberg Diamonds,,Houston,TX,,US,+1 713-467-4872,https://www.helzberg.com/store?storeId=0126,Mo-Th 10:00-20:00; Fr-Sa 10:00-21:00; Su 11:00-19:00,Helzberg Diamonds,Q16995161
69458,hopdoddy_burger_bar,Houston CityCentre,,Houston,TX,,US,+1 713-461-6600,,,HopDoddy Burger Bar,Q123689179
9925408,hugo_boss,BOSS Menswear Shop,,Houston,TX,,US,,https://www.hugoboss.com/us/storedetail?storeid=9925408,Mo-Th 10:00-21:00; Fr-Sa 10:00-22:00; Su 11:00-20:00,Hugo Boss,Q491627
379,ikea,"Houston, TX",,Houston,TX,,US,,https://www.ikea.com/us/en/stores/houston/,Mo-Sa 10:00-21:00; Su 10:00-20:00,IKEA,Q54078
city-centre-5,indigo,City Centre 5,,Houston,TX,,US,+1 713-907-2830,,,Indigo,Q3559970
citycentre-garage-premium,indigo,CITYCENTRE Garage Premium,,Houston,TX,,US,+1 713-400-0238,,,Indigo,Q3559970
https://locations.jackinthebox.com/us/tx/houston/7699-katy-fwy,jackinthebox,Jack in the Box,,Houston,TX,,US,+1 346-200-5767,https://locations.jackinthebox.com/us/tx/houston/7699-katy-fwy,Mo-Su 04:00-04:00,Jack in the Box,Q1538507
memorial-city-deli,jasonsdeli,Memorial City Deli,"10321 Katy Fwy, Houston, Texas 77024",Houston,TX,,US,+1 713-467-2007,https://www.jasonsdeli.com/restaurants/memorial-city-deli,Mo-Su 10:00-22:00,Jason's Deli,Q16997641
https://stores.jdsports.com/tx/houston/memorial-city-mall.html,jdsports_us,JD Sports,,Houston,TX,,US,+1 713-461-5008,https://stores.jdsports.com/tx/houston/memorial-city-mall.html,Mo-Th 11:00-19:00; Fr-Sa 11:00-20:00; Su 11:00-19:00,JD Sports,Q6108019
https://locations.jimmyjohns.com/tx/houston/sandwiches-3162.html,jimmy_johns,Jimmy John's,,Houston,TX,,US,+1 832-925-8598,https://locations.jimmyjohns.com/tx/houston/sandwiches-3162.html,,Jimmy John's,Q1689380
161,jmclaughlin_us,J. McLaughlin,,West Houston,TX,,US,+1 346-215-0952,https://www.jmclaughlin.com/store-details?store=US/TX/West-Houston/600-W-Sam-Houston-North-Pkwy/West-Houston,Mo-Sa 10:00-18:00; Su 12:00-17:00,J. McLaughlin,Q111230943
000063,kindercare,Bunker Hill KinderCare,,Houston,TX,,US,,https://www.kindercare.com/our-centers/houston/tx/000063,,KinderCare Learning Centers,Q6410551
https://local.lenscrafters.com/tx/houston/303-memorial-city-mall.html,lenscrafters,LensCrafters,,Houston,TX,,US,+1 713-973-2274,https://local.lenscrafters.com/tx/houston/303-memorial-city-mall.html,Mo-Th 10:00-21:00; Fr-Sa 10:00-22:00; Su 11:00-20:00,LensCrafters,Q6523209
TXCCH,life_time,City Centre Houston,,Houston,TX,,US,+1 713-464-1200,https://my.lifetime.life/clubs/tx/city-centre-houston.html,Mo-Fr 04:00-24:00; Sa-Su 05:00-23:00,Life Time,Q6545004
88580,little_free_library,Memorial Bend Little Library #88580 Houston TX,,Houston,TX,,US,,,,Little Free Library,Q6650101
95511,little_free_library,HSES Little Free Library #95511 Houston TX,,Houston,TX,,US,,,,Little Free Library,Q6650101
72179,little_free_library,Dr. Nguyen's Little Free Library #72179 Houston TX,,Houston,TX,,US,,,,Little Free Library,Q6650101
135456,little_free_library,Taly’s Bunker Hill Library #135456 Houston TX,,Houston,TX,,US,,,,Little Free Library,Q6650101
8714,little_free_library,Sherri Boyd #8714 Houston TX,,Houston,TX,,US,,,,Little Free Library,Q6650101
101823,little_free_library,Piney Point Little Library #101823 Piney Point Village TX,,Piney Point Village,TX,,US,,,,Little Free Library,Q6650101
26348,little_free_library,Rebecca Kroger #26348 houston TX,,houston,TX,,US,,,,Little Free Library,Q6650101
54584,little_free_library,Kate Carmain #54584 Houston TX,,Houston,TX,,US,,,,Little Free Library,Q6650101
95150,little_free_library,Arboretum Library #95150 Houston TX,,Houston,TX,,US,,,,Little Free Library,Q6650101
https://stores.loft.com/tx/houston/303-memorial-city.html,loft_us,Loft,,Houston,TX,,US,+1 713-467-3135,https://stores.loft.com/tx/houston/303-memorial-city.html,,Loft,Q62075137
54620,lovisa,Lovisa,,Houston,TX,,US,+1 281-886-0357,,,Lovisa,Q106298409
Houston CityCentre,lululemon,Lululemon,"800 Town and Country Boulevard, 100, Houston, TX, US, 77024",Houston,TX,,US,+1 281-916-2660,https://shop.lululemon.com/stores/us/houston/houstoncity,Mo-Th 10:00-20:00; Fr-Sa 10:00-21:00; Su 11:00-19:00,Lululemon,Q6702957
https://stores.madewell.com/#2776584,madewell_us,Madewell,,Houston,TX,,US,+1 713-932-0163,https://stores.madewell.com/us/tx/houston/799-town-country-blvd.,Mo-Sa 10:00-19:00; Su 12:00-18:00,Madewell,Q64026213
dealer_6360,maserati,HELFMAN MASERATI,,HOUSTON,TX,,US,+1 713-533-6190,https://www.helfmanimports.com/,,Maserati,Q35962
17404,mattress_firm_us,Mattress Firm Hedwig Village,,Houston,TX,,US,+1 713-827-1388,https://www.mattressfirm.com/en-us/stores/tx/houston/001050/,,Mattress Firm,Q6791878
https://locations.michaelkors.com/us/tx/houston/303-memorial-city-way.html,michaelkors,Michael Kors MEMORIAL CITY,,Houston,TX,,US,+1 713-984-9336,https://locations.michaelkors.com/us/tx/houston/303-memorial-city-way.html,Mo-Th 10:00-20:00; Fr-Sa 10:00-21:00; Su 11:00-19:00,Michael Kors,Q19572998
https://locations.michaelkors.com/fr/us/tx/houston/303-memorial-city-way.html,michaelkors,Michael Kors MEMORIAL CITY,,Houston,TX,,US,+1 713-984-9336,https://locations.michaelkors.com/fr/us/tx/houston/303-memorial-city-way.html,Mo-Th 10:00-20:00; Fr-Sa 10:00-21:00; Su 11:00-19:00,Michael Kors,Q19572998
1333,orangetheory_fitness,"Town and Country-Houston, TX",,Houston,TX,,US,+1 281-769-1064,,,Orangetheory Fitness,Q25005163
112076,pandaexpress,I-10 & Silber,,Houston,TX,,US,+1 713-263-7252,https://www.pandaexpress.com/locations/tx/houston/7670-katy-freeway,Mo-Th 10:00-21:30; Fr-Sa 10:00-22:00; Su 10:30-21:30,Panda Express,Q1358690
1500,paper_source_us,"Houston City Center, Houston, TX",,Houston,TX,,US,+1 713-984-8619,https://www.papersource.com/locator/Tx-houston-city-center/,Mo-Sa 10:00-20:00; Su 11:00-18:00,Paper Source,Q25000269
272,pinch_a_penny_us,Pinch A Penny,,Houston,TX,,US,+1 713-364-2838,https://pinchapenny.com/stores/houston-tx-272,Mo-Fr 09:00-18:00; Sa 09:00-17:00; Su 10:00-14:00,Pinch A Penny,Q121436109
tx_houston_984-gessner-road,pizza_hut_us,984 Gessner Road,,Houston,TX,,US,,https://locations.pizzahut.com/tx/houston/984-gessner-road,,Pizza Hut,Q191615
136993,potbelly_sandwich,Memorial City,,Houston,TX,,US,+1 713-343-6042,,Mo-Su 10:00-22:00,Potbelly Sandwich Shop,Q7234777
interline-brands-houston-tx-27286,ppgpaints,INTERLINE BRANDS HOUSTON TX,,"Houston, ",TX,,US,,https://www.ppgpaints.com/store-locator/us/texas/houston-paint-stores/interline-brands-houston-tx-27286,,PPG Paints,Q83891559
home-depot-6985-7755,ppgpaints,HOME DEPOT 6985,,"Houston, ",TX,,US,+1 713-984-2741,https://www.ppgpaints.com/store-locator/us/texas/houston-paint-stores/home-depot-6985-7755,,PPG Paints,Q83891559
https://www.publicstorage.com/self-storage-tx-houston/723.html,public_storage_us,Public Storage,,Houston,TX,,US,+1 832-384-5166,https://www.publicstorage.com/self-storage-tx-houston/723.html,,Public Storage,Q1156045
1043,quiznos,Town and Country Village,,Houston,TX,,US,+1 713-647-9966,https://order.quiznos.com/menu/town-country-village-2?handoff=delivery,Mo-Sa 10:00-21:00; Su 11:00-20:00,Quizno's,Q1936229
328,ross_dress_for_less_us,Katy Freeway,,Houston,TX,,US,+1 713-464-9495,,Mo-Th 09:30-22:00; Fr-Sa 09:30-23:00; Su 10:00-22:00,Ross Dress for Less,Q3442791
location-9213,sbarro,Memorial City Mall,303 MEMORIAL CITY WAY,HOUSTON,TX,,US,,https://sbarro.com/locations/tx/houston/memorial-city-mall/,,Sbarro,Q2589409
https://restaurants.subway.com/#14901014,subway,Subway Hedwig Village Ii Shopping Ctr,,Houston Harris,TX,,US,+1 713-464-1972,https://restaurants.subway.com/united-states/tx/houston/9439-katy-freeway,Mo-Fr 07:00-22:00; Sa 08:00-22:00; Su 09:00-22:00,Subway,Q244457
https://restaurants.subway.com/#14902302,subway,Subway,,Houston Harris,TX,,US,+1 713-686-0505,https://restaurants.subway.com/united-states/tx/houston/909-antoine-dr,Mo-Fr 08:00-21:00; Sa-Su 09:00-20:00,Subway,Q244457
https://restaurants.subway.com/#14911295,subway,Subway,,Houston Harris,TX,,US,+1 832-806-4514,https://restaurants.subway.com/united-states/tx/houston/8420-katy-freeway,Mo-Su 08:00-21:00,Subway,Q244457
https://restaurants.subway.com/#14907665,subway,Subway,,Houston Harris,TX,,US,+1 713-680-0801,https://restaurants.subway.com/united-states/tx/houston/7680-katy-freeway,Mo-Su 08:00-21:00,Subway,Q244457
https://restaurants.subway.com/#14908526,subway,Subway,,Houston Harris,TX,,US,+1 832-762-5617,https://restaurants.subway.com/united-states/tx/houston/791-town-and-counrty-blvd,Mo-Su 09:00-21:00,Subway,Q244457
https://restaurants.subway.com/#14906834,subway,Subway The Shops at Memorial City,,Houston Harris,TX,,US,+1 713-461-2160,https://restaurants.subway.com/united-states/tx/houston/12365-kingsride-drive,,Subway,Q244457
https://stores.sunglasshut.com/us/tx/houston/12850-memorial-dr,sunglass_hut_1,Sunglass Hut,,Houston,TX,,US,+1 713-468-3235,https://stores.sunglasshut.com/us/tx/houston/12850-memorial-dr,Mo-Sa 10:00-18:00; Su 12:00-18:00,Sunglass Hut,Q136311
https://stores.sunglasshut.com/us/tx/houston/303-memorial-city-way,sunglass_hut_1,Sunglass Hut,,Houston,TX,,US,+1 713-973-9694,https://stores.sunglasshut.com/us/tx/houston/303-memorial-city-way,Mo-Th 10:00-20:00; Fr-Sa 10:00-21:00; Su 11:00-19:00,Sunglass Hut,Q136311
https://stores.sunglasshut.com/us/tx/houston/900-gessner-rd,sunglass_hut_1,Sunglass Hut at Macy's,,Houston,TX,,US,+1 713-461-0460,https://stores.sunglasshut.com/us/tx/houston/900-gessner-rd,Mo-Th 10:00-21:00; Fr-Sa 10:00-22:00; Su 11:00-20:00,Sunglass Hut,Q136311
089,sur_la_table_us,Sur La Table,,Houston,TX,,US,+1 832-201-3492,https://www.surlatable.com/locations/tx/houston/store-89.html,Mo-Sa 10:00-21:00; Su 11:00-18:00,Sur La Table,Q7645220
https://locations.tacobell.com/#23557810,taco_bell,Taco Bell,,Houston,TX,,US,+1 713-461-9102,https://locations.tacobell.com/tx/houston/303-memorial-city-way-760-memorial-city-mall.html,,Taco Bell,Q752941
153,the_cheesecake_factory,Memorial City Mall,,Houston,TX,,US,+1 713-932-6344,https://locations.thecheesecakefactory.com/tx/houston-153/,Mo-Th 11:00-22:00; Fr 11:00-23:00; Su 10:00-22:00,The Cheesecake Factory,Q1045842
0265,tillys,Memorial City Mall,,Houston,TX,,US,+1 832-214-1912,,Mo-Th 11:00-07:00; Fr-Sa 11:00-08:00; Su 12:00-07:00,Tillys,Q7802889
1059,tjx,Houston,9425 Katy Freeway,Houston,TX,,US,+1 713-647-7501,,Mo-Sa 09:30-21:30; Su 10:00-20:00,Marshalls,Q15903261
28349,tjx,Houston,9425 Katy Freeway,Houston,TX,,US,+1 713-647-7501,,Mo-Sa 09:30-21:30; Su 10:00-20:00,HomeGoods,Q5887941
081439,tjx,Houston,9347 Katy Freeway,Houston,TX,,US,+1 713-722-0199,,Mo-Sa 09:30-21:30; Su 10:00-20:00,TJ Maxx,Q10860683
9478,tmobile_us,I-10 & Silber,,Houston,TX,,US,+1 713-686-8605,https://www.t-mobile.com/store-locator/tx/houston/i-10-silber,,T-Mobile,Q3511885
517,total_wine_and_more_us,Memorial,,Houston,TX,,US,+1 713-827-7060,https://www.totalwine.com/store-info/517,Mo-Sa 10:00-21:00,Total Wine & More,Q7828084
https://www.ubreakifix.com/locations/memorial,ubreakifix,uBreakiFix Memorial,,Houston,TX,,US,+1 832-649-8157,https://www.ubreakifix.com/locations/memorial,Mo-Sa 10:00-19:00; Su 12:00-17:00,uBreakiFix,Q53685733
1372669,usps,MEMORIAL PARK,,HOUSTON,TX,,US,+1 713-456-7109,,Mo-Fr 07:30-17:00; Sa 09:00-14:00,United States Postal Service,Q668687
7702400095,usps_collection_boxes,USPS COLLECTION BOX - BLUE BOX,12850 MEMORIAL DR,HOUSTON,TX,,US,,,,United States Postal Service,Q668687
7702400062,usps_collection_boxes,USPS COLLECTION BOX - BLUE BOX,10505 TOWN AND COUNTRY WAY,HOUSTON,TX,,US,,,,United States Postal Service,Q668687
7702400089,usps_collection_boxes,USPS COLLECTION BOX - PO LOBBY,10505 TOWN AND COUNTRY WAY,HOUSTON,TX,,US,,,,United States Postal Service,Q668687
7702400137,usps_collection_boxes,USPS COLLECTION BOX - PO LOBBY,10505 TOWN AND COUNTRY WAY,HOUSTON,TX,,US,,,,United States Postal Service,Q668687
7702400002,usps_collection_boxes,USPS COLLECTION BOX - BLUE BOX,820 GESSNER RD,HOUSTON,TX,,US,,,,United States Postal Service,Q668687
7702400009,usps_collection_boxes,USPS COLLECTION BOX - BLUE BOX,902 FROSTWOOD DR,HOUSTON,TX,,US,,,,United States Postal Service,Q668687
7702400025,usps_collection_boxes,USPS COLLECTION BOX - BLUE BOX,9821 KATY FWY,HOUSTON,TX,,US,,,,United States Postal Service,Q668687
7702400021,usps_collection_boxes,USPS COLLECTION BOX - BLUE BOX,9313 KATY FWY,HOUSTON,TX,,US,,,,United States Postal Service,Q668687
7702400059,usps_collection_boxes,USPS COLLECTION BOX - BLUE BOX,9235 KATY FWY,HOUSTON,TX,,US,,,,United States Postal Service,Q668687
7702400111,usps_collection_boxes,USPS COLLECTION BOX - BLUE BOX,8793 GAYLORD DR,HOUSTON,TX,,US,,,,United States Postal Service,Q668687
7702400022,usps_collection_boxes,USPS COLLECTION BOX - BLUE BOX,9429 KATY FWY,HOUSTON,TX,,US,,,,United States Postal Service,Q668687
7702400024,usps_collection_boxes,USPS COLLECTION BOX - BLUE BOX,9545 KATY FWY,HOUSTON,TX,,US,,,,United States Postal Service,Q668687
7702400028,usps_collection_boxes,USPS COLLECTION BOX - BLUE BOX,303 MEMORIAL CITY STE 400 STE 400,HOUSTON,TX,,US,,,,United States Postal Service,Q668687
7702400035,usps_collection_boxes,USPS COLLECTION BOX - BLUE BOX,123 N POST OAK LN,HOUSTON,TX,,US,,,,United States Postal Service,Q668687
7702400076,usps_collection_boxes,USPS COLLECTION BOX - BLUE BOX,7050 PORTWEST DR,HOUSTON,TX,,US,,,,United States Postal Service,Q668687
7702400083,usps_collection_boxes,USPS COLLECTION BOX - BLUE BOX,9039 KATY FWY,HOUSTON,TX,,US,,,,United States Postal Service,Q668687
7702400109,usps_collection_boxes,USPS COLLECTION BOX - BLUE BOX,8558 KATY FWY,HOUSTON,TX,,US,,,,United States Postal Service,Q668687
7702400054,usps_collection_boxes,USPS COLLECTION BOX - BLUE BOX,8500 KATY FWY,HOUSTON,TX,,US,,,,United States Postal Service,Q668687
7702400015,usps_collection_boxes,USPS COLLECTION BOX - BLUE BOX,8303 KATY FWY,HOUSTON,TX,,US,,,,United States Postal Service,Q668687
USA272,vans,Vans Store - MEMORIAL CITY MALL,,Houston,TX,,US,+1 713-468-1059,https://www.vans.com/en-us/stores/tx/houston/usa272,Mo-Th 11:00-19:00; Fr-Sa 11:00-20:00; Su 11:00-19:00,Vans,Q1135366
R00000255538,verizon_us,Town and Country,,Houston,TX,,US,+1 281-661-3932,https://www.verizon.com/stores/details/texas/houston/town-and-country-1234122/,Mo-Sa 10:00-18:00; Su 11:00-18:00,Verizon,Q919641
R00000003281,verizon_us,Hedwig Village,,Houston,TX,,US,+1 713-827-0707,https://www.verizon.com/stores/details/texas/houston/hedwig-village-281744/,Mo-Sa 10:00-20:00; Su 11:00-18:00,Verizon,Q919641
10201-katy-freeway,via313,"Via 313 Pizza - Houston, TX",,Houston,TX,,US,+1 346-501-4313,https://locations.via313.com/locations/10201-katy-freeway,,Via 313,Q115699944
,visa,,,HOUSTON,TX,,US,,,,,
,visa,,,HOUSTON,TX,,US,,,,,
,visa,,,HOUSTON,TX,,US,,,,,
,visa,,,HOUSTON,TX,,US,,,,,
,visa,,,HOUSTON,TX,,US,,,,,
,visa,,,HOUSTON,TX,,US,,,,,
,visa,,,HOUSTON,TX,,US,,,,,
,visa,,,HOUSTON,TX,,US,,,,,
,visa,,,HOUSTON,TX,,US,,,,,
,visa,,,HOUSTON,TX,,US,,,,,
,visa,,,HOUSTON,TX,,US,,,,,
,visa,,,HOUSTON,TX,,US,,,,,
,visa,,,HOUSTON,TX,,US,,,,,
,visa,,,HOUSTON,TX,,US,,,,,
,visa,,,HOUSTON,TX,,US,,,,,
,visa,,,HOUSTON,TX,,US,,,,,
,visa,,,HOUSTON,TX,,US,,,,,
,visa,,,HOUSTON,TX,,US,,,,,
,visa,,,HOUSTON,TX,,US,,,,,
,visa,,,HOUSTON,TX,,US,,,,,
,visa,,,HOUSTON,TX,,US,,,,,
,visa,,,HOUSTON,TX,,US,,,,,
,visa,,,HOUSTON,TX,,US,,,,,
,visa,,,HOUSTON,TX,,US,,,,,
,visa,,,HOUSTON,TX,,US,,,,,
,visa,,,HOUSTON,TX,,US,,,,,
,visa,,,HOUSTON,TX,,US,,,,,
,visa,,,HOUSTON,TX,,US,,,,,
,visa,,,HOUSTON,TX,,US,,,,,
,visa,,,HOUSTON,TX,,US,,,,,
,visa,,,HOUSTON,TX,,US,,,,,
,visa,,,HOUSTON,TX,,US,,,,,
,visa,,,HOUSTON,TX,,US,,,,,
,visa,,,HOUSTON,TX,,US,,,,,
,visa,,,HOUSTON,TX,,US,,,,,
,visa,,,HOUSTON,TX,,US,,,,,
,visa,,,HOUSTON,TX,,US,,,,,
,visa,,,HOUSTON,TX,,US,,,,,
,visa,,,HOUSTON,TX,,US,,,,,
,visa,,,HOUSTON,TX,,US,,,,,
,visa,,,HOUSTON,TX,,US,,,,,
,visa,,,HOUSTON,TX,,US,,,,,
,visa,,,HOUSTON,TX,,US,,,,,
,visa,,,HOUSTON,TX,,US,,,,,
,visa,,,HOUSTON,TX,,US,,,,,
,visa,,,HOUSTON,TX,,US,,,,,
,visa,,,HOUSTON,TX,,US,,,,,
,visa,,,HOUSTON,TX,,US,,,,,
,visa,,,HOUSTON,TX,,US,,,,,
,visa,,,HOUSTON,TX,,US,,,,,
,visa,,,HOUSTON,TX,,US,,,,,
,visa,,,HOUSTON,TX,,US,,,,,
,visa,,,HOUSTON,TX,,US,,,,,
,visa,,,HOUSTON,TX,,US,,,,,
,visa,,,HOUSTON,TX,,US,,,,,
,visa,,,HOUSTON,TX,,US,,,,,
,visa,,,HOUSTON,TX,,US,,,,,
,visa,,,HOUSTON,TX,,US,,,,,
,visa,,,HOUSTON,TX,,US,,,,,
,visa,,,HOUSTON,TX,,US,,,,,
,visa,,,HOUSTON,TX,,US,,,,,
,visa,,,HOUSTON,TX,,US,,,,,
,visa,,,HOUSTON,TX,,US,,,,,
,visa,,,HOUSTON,TX,,US,,,,,
,visa,,,HOUSTON,TX,,US,,,,,
,visa,,,HOUSTON,TX,,US,,,,,
,visa,,,HOUSTON,TX,,US,,,,,
,visa,,,HOUSTON,TX,,US,,,,,
,visa,,,HOUSTON,TX,,US,,,,,
,visa,,,HOUSTON,TX,,US,,,,,
,visa,,,HOUSTON,TX,,US,,,,,
,visa,,,HOUSTON,TX,,US,,,,,
,visa,,,HOUSTON,TX,,US,,,,,
,visa,,,HOUSTON,TX,,US,,,,,
,visa,,,HOUSTON,TX,,US,,,,,
,visa,,,HOUSTON,TX,,US,,,,,
,visa,,,HOUSTON,TX,,US,,,,,
,visa,,,HOUSTON,TX,,US,,,,,
,visa,,,HOUSTON,TX,,US,,,,,
,visa,,,HOUSTON,TX,,US,,,,,
,visa,,,HOUSTON,TX,,US,,,,,
,visa,,,HOUSTON,TX,,US,,,,,
,visa,,,HOUSTON,TX,,US,,,,,
,visa,,,HOUSTON,TX,,US,,,,,
,visa,,,HOUSTON,TX,,US,,,,,
87,visionworks,Visionworks Hedwig,,Houston,TX,,US,+1 713-468-6648,https://locations.visionworks.com/ll/US/TX/Houston/9453-Katy-Fwy,Mo-Sa 09:00-19:00,Visionworks,Q5422607
https://www.walgreens.com/locator/walgreens-9329+katy+fwy-houston-tx-77024/id=1583,walgreens,Walgreens,,Houston,TX,,US,+1 713-461-3607,https://www.walgreens.com/locator/walgreens-9329+katy+fwy-houston-tx-77024/id=1583,Mo-Su 07:00-22:00,Walgreens,Q1591889
https://www.walgreens.com/locator/walgreens-12850+memorial+dr-houston-tx-77024/id=3328,walgreens,Walgreens,,Houston,TX,,US,+1 713-722-7247,https://www.walgreens.com/locator/walgreens-12850+memorial+dr-houston-tx-77024/id=3328,Mo-Su 07:00-22:00,Walgreens,Q1591889
https://www.walgreens.com/locator/walgreens-9055+katy+fwy-houston-tx-77024/id=21388,walgreens,Walgreens,,Houston,TX,,US,+1 713-373-3300,https://www.walgreens.com/locator/walgreens-9055+katy+fwy-houston-tx-77024/id=21388,Mo-Fr 08:00-18:00; Sa-Su 00:00-24:00,Walgreens,Q1591889
9413__KATY__FWY_HOUSTON_TX_77024,wellsfargo,Wells Fargo,9413 KATY FWY,HOUSTON,TX,,US,+1 713-292-1368,https://www.wellsfargo.com/locator/bank/9413__KATY__FWY_HOUSTON_TX_77024/,Mo-Fr 09:00-17:00,Wells Fargo,Q744149
901__GESSNER__RD_HOUSTON_TX_77024,wellsfargo,Wells Fargo,901 GESSNER RD,HOUSTON,TX,,US,+1 713-463-8044,https://www.wellsfargo.com/locator/bank/901__GESSNER__RD_HOUSTON_TX_77024/,Mo-Fr 09:00-17:00,Wells Fargo,Q744149
12859__KIMBERLEY__LN_HOUSTON_TX_77024,wellsfargo,Wells Fargo,12859 KIMBERLEY LN,HOUSTON,TX,,US,+1 713-461-8707,https://www.wellsfargo.com/locator/bank/12859__KIMBERLEY__LN_HOUSTON_TX_77024/,Mo-Fr 09:00-17:00,Wells Fargo,Q744149
2611,whitehouseblackmarket,Memorial City Mall,"303 Memorial City Way, Ste 806",Houston,TX,,US,+1 713-647-9919,,Mo-Th 11:00-20:00; Fr-Sa 10:00-21:00; Su 11:00-19:00,White House Black Market,Q7994858
1595,whitehouseblackmarket,Town & Country Village,"12850 Memorial Dr, Ste 300",Houston,TX,,US,+1 713-464-2411,,Mo-Th 10:00-21:00; Fr 08:00-21:00; Sa 09:00-21:00; Su 12:00-18:00,White House Black Market,Q7994858
