Ref,Spider,Name,Address,City,State,Zipcode,Country,Phone,Website,Hours,Brand,WikiData
1090700065,banque_populaire_fr,LESPARRE MEDOC,,LESPARRE MEDOC,,,FR,+33 5 56 73 31 80,https://agences.banquepopulaire.fr/banque-assurance/agence-lesparre-medoc-id1090700065,"Tu-We 09:00-12:30,13:45-18:00; Th 09:00-12:30,14:45-18:00; Fr 09:00-12:30,13:45-18:00; Sa 09:00-12:30",Banque Populaire,Q846647
33340004,carrefour_fr,Station Service Carrefour - Lesparre,,Lesparre-Médoc,,,FR,+33 5 56 73 13 79,https://www.carrefour.fr/magasin/lesparre,24/7,Carrefour,Q217599
8167,carrefour_fr,Carrefour Lesparre,,Lesparre Medoc,,,FR,+33 5 56 73 13 79,https://www.carrefour.fr/magasin/lesparre,Mo-Sa 08:00-20:00; Su 08:00-12:30,Carrefour,Q217599
955921926,century_21_fr,CENTURY 21 Agence Biran,,LESPARRE MEDOC,,,FR,+33 5 56 73 40 31,https://www.century21.fr/trouver_agence/agence/955921926/,,Century 21,Q1054480
https://www.credit-agricole.fr/particulier/agence/aquitaine/relais-ca-tabac-presse-le-gaillan-10073.html,credit_agricole,Crédit Agricole,,Gaillan-en-Médoc,,,FR,,https://www.credit-agricole.fr/particulier/agence/aquitaine/relais-ca-tabac-presse-le-gaillan-10073.html,,Credit Agricole,Q590952
https://www.credit-agricole.fr/particulier/agence/aquitaine/relais-ca-tabac-borie-9718.html,credit_agricole,Crédit Agricole,,Queyrac,,,FR,,https://www.credit-agricole.fr/particulier/agence/aquitaine/relais-ca-tabac-borie-9718.html,,Credit Agricole,Q590952
https://www.credit-agricole.fr/particulier/agence/aquitaine/relais-ca-commerce-joelle-wallet-9863.html,credit_agricole,Crédit Agricole,,Bégadan,,,FR,,https://www.credit-agricole.fr/particulier/agence/aquitaine/relais-ca-commerce-joelle-wallet-9863.html,,Credit Agricole,Q590952
https://www.credit-agricole.fr/particulier/agence/aquitaine/relais-ca-chez-sophie-10045.html,credit_agricole,Crédit Agricole,,Saint-Yzans-de-Médoc,,,FR,,https://www.credit-agricole.fr/particulier/agence/aquitaine/relais-ca-chez-sophie-10045.html,,Credit Agricole,Q590952
https://www.credit-agricole.fr/particulier/agence/aquitaine/lesparre-1978.html,credit_agricole,Crédit Agricole,,LESPARRE,,,FR,+33 5 56 73 18 69,https://www.credit-agricole.fr/particulier/agence/aquitaine/lesparre-1978.html,"Tu-Fr 08:45-12:45,14:00-17:30; Sa 08:45-12:45,14:00-16:30",Credit Agricole,Q590952
4417,croix_rouge_francaise_fr,UNITE LOCALE TERRES DU MEDOC,,LESPARRE MEDOC,,,FR,,https://www.croix-rouge.fr/unite-locale-terres-du-medoc,Mo 13:30-18:00; Th 13:30-18:00,Croix-Rouge française,Q3003244
FordFF24026  FRA,ford,RPF AUTOMOBILE RPF AUTOMOBILE,,LESPARRE-MEDOC,,,FR,,www.fordandernoslesbains.fr,,Ford,Q44294
3327,lidl_fr,LESPARRE,,LESPARRE,,,FR,,,Mo-Sa 08:30-20:00,Lidl,Q151954
1083,mcdonalds_fr,LESPARRE MEDOC,,LESPARRE MEDOC,,,FR,+33 5 56 41 16 16,https://www.mcdonalds.fr/restaurants/mcdonalds-lesparre-medoc/1083,Mo-Th 10:00-22:30; Fr-Sa 10:00-23:00; Su 10:00-22:30,McDonald's,Q38076
https://magasin.netto.fr/114-netto-gaillan-en-medoc,netto_les_mousquetaires,Netto Gaillan-en-Médoc,,Gaillan-en-Médoc,,,FR,+33 5 56 41 71 30,https://magasin.netto.fr/114-netto-gaillan-en-medoc,Mo-Sa 08:30-19:30,Netto,Q2720988
659-opticien-lesparre-medoc-optical-center,optical_center,Opticien LESPARRE MEDOC - Optical Center,,LESPARRE MEDOC,,,FR,+33 5 64 55 00 40,https://opticien.optical-center.fr/659-opticien-lesparre-medoc-optical-center,Mo-Fr 10:00-19:00; Sa 09:00-19:00,Optical Center,Q3354448
00016087_001-renault,renault,GARAGE RENOM,,LESPARRE MEDOC,,,FR,+33 5 56 41 21 73,,,Renault,Q6686
00016087_001-dacia,renault,GARAGE RENOM,,LESPARRE MEDOC,,,FR,+33 5 56 41 21 73,,,Dacia,Q27460
00016133_001-renault,renault,LESPARRE AUTOS SERVICES,,LESPARRE MEDOC,,,FR,+33 5 56 41 00 95,,,Renault,Q6686
00016133_001-dacia,renault,LESPARRE AUTOS SERVICES,,LESPARRE MEDOC,,,FR,+33 5 56 41 00 95,,,Dacia,Q27460
NF082815,totalenergies,SAS LE RELAIS DU MEDOC,,LESPARRE,,,FR,+33 5 56 41 81 39,https://store.totalenergies.fr/en_EN/NF082815,"Mo-Sa 07:00-20:00; Su 08:00-12:00,14:00-20:00",TotalEnergies,Q154037
,visa,,,ANDERNOS LES BAINS,,,FR,,,,,
,visa,,,LESPARRE MEDOC,,,FR,,,,,
,visa,,,LESPARRE,,,FR,,,,,
,visa,,,LESPARRE MEDOC,,,FR,,,,,
,visa,,,LESPARRE-MEDOC,,,FR,,,,,
,visa,,,LESPARRE-MEDOC,,,FR,,,,,
,visa,,,LESPARRE MEDOC,,,FR,,,,,
,visa,,,LESPARRE,,,FR,,,,,
,visa,,,LESPARRE,,,FR,,,,,
,visa,,,LESPARRE MEDOC,,,FR,,,,,
http://magasins.vival.fr/fr/vival-st-yzans-de-medoc,vival_fr,Vival St Yzans De Medoc,,Saint-Yzans-de-Médoc,,,FR,+33 9 75 32 88 72,http://magasins.vival.fr/fr/vival-st-yzans-de-medoc,"Mo-Fr 07:30-13:00,16:00-19:30; Sa 09:30-12:30,16:00-19:30; Su 09:30-12:30",Vival,Q7937525
fb28c8ce3ebf54a0481b311179ae7dd7,western_union,STREETPHONE,,Lesparre Medoc,,,FR,+33 7 61 87 27 16,https://location.westernunion.com/fr/state/lesparre-medoc/fb28c8ce3ebf54a0481b311179ae7dd7,Mo 14:00-19:00; Tu-Sa 09:30-19:00,Western Union,Q861042
