Ref,Spider,Name,Address,City,State,Zipcode,Country,Phone,Website,Hours,Brand,WikiData
7350,aaa,AAA San Jose Brokaw Commons,,San Jose,CA,,US,+1 408-436-7300,,,American Automobile Association,Q463436
https://www.banfield.com/locations/veterinarians/ca/san-jose/sjb,banfield_pet_hospital,San Jose Brokaw,,San Jose,CA,,US,+1 408-453-6401,https://www.banfield.com/locations/veterinarians/ca/san-jose/sjb,Mo-Sa 07:00-18:00; Su 08:00-18:00,Banfield Pet Hospital,Q2882416
https://locators.bankofamerica.com/ca/sanjose/financial-centers-san-jose-16835.html,bankofamerica,Bank of America Financial Center & Walk-Up ATM | Brokaw Plaza,,San Jose,CA,,US,+1 408-490-2070,https://locators.bankofamerica.com/ca/sanjose/financial-centers-san-jose-16835.html,Mo-Fr 09:00-17:00,Bank of America,Q487907
109234,bluerhino,Lowe's #2790,,San Jose,CA,,US,+1 408-518-4165,,,Blue Rhino,Q65681213
2039799,chase_us,Oakland Rd and Brokaw Rd - New branch,,San Jose,CA,,US,+1 408-392-0932,https://locator.chase.com/ca/san-jose/1077-e-brokaw-rd,Mo-Fr 09:00-17:00; Sa 09:00-14:00,Chase,Q524629
ca_san-jose_1095-e-brokaw-rd,chipotle, ,,San Jose,CA,,US,+1 408-703-2871,https://locations.chipotle.com/ca/san-jose/1095-e-brokaw-rd,,Chipotle,Q465751
45905,citi,ATM Costco,,San Jose,CA,,US,,,,Citibank,Q857063
54253,citi,ATM EAST WEST BANK,,San Jose,CA,,US,,,,Citibank,Q857063
26233,citi,ATM 7ELEVEN-FCTI,,San Jose,CA,,US,,,,Citibank,Q857063
14175140,cricket_wireless,Cricket Wireless Authorized Retailer,,San Jose,CA,,US,+1 408-326-2389,https://www.cricketwireless.com/stores/ll/US/CA/San-Jose/1628-Hostetter-Rd,Mo 11:00-17:00; We 11:00-17:00; Fr-Su 11:00-17:00,Cricket Wireless,Q5184987
247442,dennys,Denny's,,San Jose,CA,,US,+1 408-436-8481,https://locations.dennys.com/CA/SAN-JOSE/247442,24/7,Denny's,Q1189695
https://locations.us.express.dhl.com/#24056792,dhl_express_us_ca,PUNTO DE VENTA DE DHL EXPRESS Pacific Rim Plaza II,,,CA,,US,+1 408-982-3756,https://locations.us.express.dhl.com/es/ca/san-jose/1715-lundy-ave,Mo-Fr 09:00-18:00; Sa 09:00-15:00,DHL,Q489815
7976,extra_space_storage,San Jose Self Storage at 1799 Oakland Rd,,San Jose,CA,,US,+1 408-834-7455,https://www.extraspace.com/storage/facilities/us/california/san_jose/7976/,Mo-Fr 09:30-18:00; Sa 09:00-17:30,Extra Space Storage,Q5422162
https://salons.greatclips.com/us/ca/san-jose/1085-e-brokaw-rd,greatclips,Great Clips,,San Jose,CA,,US,+1 408-441-0355,https://salons.greatclips.com/us/ca/san-jose/1085-e-brokaw-rd,Mo-Fr 09:00-20:00; Sa-Su 09:00-18:00,Great Clips,Q5598967
https://www.habitburger.com/locations/san-jose-brokaw/,habit_burger,The Habit Burger Grill,,San Jose,CA,,US,+1 408-437-8840,https://www.habitburger.com/locations/san-jose-brokaw/,Mo-Su 10:00-22:00,The Habit Burger Grill,Q18158741
sjccahw-homewood-suites-san-jose-airport-silicon-valley,hilton,Homewood Suites by Hilton San Jose Airport-Silicon Valley,,,CA,,US,+1 408-428-9900,https://www.hilton.com/ar/hotels/sjccahw-homewood-suites-san-jose-airport-silicon-valley/,,Homewood Suites by Hilton,Q5890701
https://locations.ironmountain.com/ca/san-jose/im159/,iron_mountain,"Iron Mountain in 635 Dado St, San Jose, California | Secure Shredding, Scanning, IT Asset Disposition, & Records Management",,San Jose,CA,,US,+1 800-899-4766,https://locations.ironmountain.com/ca/san-jose/im159/,,Iron Mountain Incorporated,Q1673079
https://locations.jamba.com/#436-Jamba,jambajuice,Jamba North Park Plaza,,San Jose,CA,,US,+1 408-441-2179,https://locations.jamba.com/ca/san-jose/1704-oakland-rd,Mo-Fr 09:00-20:00; Sa-Su 08:00-20:00,Jamba Juice,Q3088784
https://healthy.kaiserpermanente.org/northern-california/facilities/stars-behavioral-health-group-enhanced-care-management-ecm-172977,kaiser_permanente_us,Stars Behavioral Health Group - Enhanced Care Management (ECM),,San Jose,CA,,US,+1 323-244-8735,https://healthy.kaiserpermanente.org/northern-california/facilities/stars-behavioral-health-group-enhanced-care-management-ecm-172977,,Kaiser Permanente,Q1721601
https://healthy.kaiserpermanente.org/northern-california/facilities/davita-silicon-valley-dialysis-339819,kaiser_permanente_us,DaVita Silicon Valley Dialysis,,San Jose,CA,,US,+1 866-544-6741,https://healthy.kaiserpermanente.org/northern-california/facilities/davita-silicon-valley-dialysis-339819,,Kaiser Permanente,Q1721601
17093,mattress_firm_us,Mattress Firm Brokaw Commons,,San Jose,CA,,US,+1 408-392-8276,https://www.mattressfirm.com/en-us/stores/ca/san-jose/502104/,,Mattress Firm,Q6791878
https://locations.modpizza.com/#23558259,modpizza,MOD Pizza Brokaw Plaza,,San Jose,CA,,US,+1 669-242-8805,https://locations.modpizza.com/usa/ca/san-jose/1068-e-brokaw-rd,Mo-We 10:30-22:00; Th-Sa 10:30-23:00; Su 10:30-22:00,MOD Pizza,Q19903469
1095-e-brokaw-rd,noahsnybagels,Noah's Bagels Brokaw & Old Oakland,,San Jose,CA,,US,+1 408-797-2100,https://locations.noahs.com/us/ca/san-jose/1095-e-brokaw-rd,Mo-Fr 05:00-14:00; Sa-Su 06:00-14:00,Noah's New York Bagels,Q64517373
https://www.orkin.com/locations/california-ca/san-jose-pest-control/branch-437,orkin_us,Orkin,,San Jose,CA,,US,+1 408-890-7653,https://www.orkin.com/locations/california-ca/san-jose-pest-control/branch-437,,Orkin,Q7102943
112358,pandaexpress,Oakland & Murphy,,San Jose,CA,,US,+1 408-436-8261,https://www.pandaexpress.com/locations/ca/san-jose/1704-oakland-rd,Mo-Fr 09:00-22:00; Sa-Su 10:00-22:00,Panda Express,Q1358690
16526076,peets_coffee_us,San Jose - Brokaw,,San Jose,CA,,US,+1 408-610-2834,https://peets.app.link?&$fallback_url=https%3A%2F%2Forder.peets.com%2Flocation%2Fsan-jose-brokaw%2Fmenu&$type=order&~campaign=orderaheadonline&~channel=web&~feature=menu&~tags=san-jose-brokaw,Mo-Th 05:30-17:30; Fr-Sa 05:30-18:00; Su 06:30-18:00,Peet's Coffee,Q1094101
0000877072,phillips_66_conoco_76,FALCO INC,,SAN JOSE,CA,,US,+1 408-435-8838,,,U76,Q1658320
0000848479,phillips_66_conoco_76,"NORTH FIRST UNION, INC",,SAN JOSE,CA,,US,+1 408-436-1260,,24/7,U76,Q1658320
1919,ross_dress_for_less_us,NE San Jose,,San Jose,CA,,US,+1 408-436-5307,,Mo-Th 10:00-22:00; Fr-Sa 09:00-22:00; Su 10:00-22:00,Ross Dress for Less,Q3442791
https://www.sprouts.com/store/ca/san-jose/san-jose-brokaw-rd/,sprouts_farmer_market,Sprouts Farmers Market 406-San Jose &#8211; Brokaw Rd.,,San Jose,CA,,US,+1 408-490-3041,https://www.sprouts.com/store/ca/san-jose/san-jose-brokaw-rd/,Mo-Su 07:00-22:00,Sprouts Farmer Market,Q7581369
https://restaurants.subway.com/#14896855,subway,Subway Chevron Gas Station,,San Jose Santa Clara,CA,,US,+1 408-577-1518,https://restaurants.subway.com/united-states/ca/san-jose/790-montague-expressway,Mo-Fr 08:00-21:00; Sa 09:00-17:00; Su 02:00-02:30,Subway,Q244457
https://restaurants.subway.com/#14916873,subway,Subway The Marketplace S/C,,San Jose Santa Clara,CA,,US,+1 408-577-1100,https://restaurants.subway.com/united-states/ca/san-jose/2585-north-first-street,Mo-Fr 08:00-22:00; Sa-Su 09:00-21:00,Subway,Q244457
https://restaurants.subway.com/#14909053,subway,Subway Brokaw Commons,,San Jose Santa Clara,CA,,US,+1 408-573-7750,https://restaurants.subway.com/united-states/ca/san-jose/1095-e-brokaw-road,Mo-Fr 08:00-23:00; Sa-Su 09:00-23:00,Subway,Q244457
81627,supercuts,Brokaw Plaza II,1088 E Brokaw Rd Ste 30,San Jose,CA,,US,+1 408-436-5030,https://www.supercuts.com/checkin/81627,Mo 10:00-18:00; Tu-Th 12:00-20:00; Fr 09:00-20:00; Sa-Su 10:00-18:00,Supercuts,Q7643239
28763,tjx,San Jose,1036 East Brokaw Rd,San Jose,CA,,US,+1 408-436-5408,,Mo-Sa 09:30-21:30; Su 10:00-20:00,HomeGoods,Q5887941
2413,tmobile_us,Brokaw Commons,,San Jose,CA,,US,+1 408-628-1904,https://www.t-mobile.com/store-locator/ca/san-jose/brokaw-commons,,T-Mobile,Q3511885
707061,uhaul,U-Haul of Milpitas,2395 Oakland Rd,San Jose,CA,,US,+1 408-943-9191,,Mo-Th 00:00-19:00; Fr 00:00-20:00; Sa 00:00-19:00; Su 00:00-17:00,U-Haul,Q7862902
9513100002,usps_collection_boxes,USPS COLLECTION BOX - BLUE BOX,2055 HIKIDO DR,SAN JOSE,CA,,US,,,,United States Postal Service,Q668687
9513100031,usps_collection_boxes,USPS COLLECTION BOX - BLUE BOX,1750 LUNDY AVE,SAN JOSE,CA,,US,,,,United States Postal Service,Q668687
9513100032,usps_collection_boxes,USPS COLLECTION BOX - BLUE BOX,1750 LUNDY AVE,SAN JOSE,CA,,US,,,,United States Postal Service,Q668687
9513100033,usps_collection_boxes,USPS COLLECTION BOX - BLUE BOX,1750 LUNDY AVE,SAN JOSE,CA,,US,,,,United States Postal Service,Q668687
9513100068,usps_collection_boxes,USPS COLLECTION BOX - APC,1750 LUNDY AVE,SAN JOSE,CA,,US,,,,United States Postal Service,Q668687
9513100013,usps_collection_boxes,USPS COLLECTION BOX - BLUE BOX,1688 HOSTETTER RD,SAN JOSE,CA,,US,,,,United States Postal Service,Q668687
9513100005,usps_collection_boxes,USPS COLLECTION BOX - BLUE BOX,1570 OAKLAND RD,SAN JOSE,CA,,US,,,,United States Postal Service,Q668687
9513100004,usps_collection_boxes,USPS COLLECTION BOX - BLUE BOX,2020 JUNCTION AVE,SAN JOSE,CA,,US,,,,United States Postal Service,Q668687
9513100009,usps_collection_boxes,USPS COLLECTION BOX - BLUE BOX,2010 N 1ST ST,SAN JOSE,CA,,US,,,,United States Postal Service,Q668687
9513100018,usps_collection_boxes,USPS COLLECTION BOX - BLUE BOX,235 CHARCOT AVE,SAN JOSE,CA,,US,,,,United States Postal Service,Q668687
,visa,,,SAN JOSE,CA,,US,,,,,
,visa,,,SAN JOSE,CA,,US,,,,,
,visa,,,SAN JOSE,CA,,US,,,,,
,visa,,,SAN JOSE,CA,,US,,,,,
,visa,,,SAN JOSE,CA,,US,,,,,
,visa,,,SAN JOSE,CA,,US,,,,,
,visa,,,SAN JOSE,CA,,US,,,,,
,visa,,,SAN JOSE,CA,,US,,,,,
,visa,,,SAN JOSE,CA,,US,,,,,
,visa,,,SAN JOSE,CA,,US,,,,,
,visa,,,SAN JOSE,CA,,US,,,,,
,visa,,,SAN JOSE,CA,,US,,,,,
,visa,,,SAN JOSE,CA,,US,,,,,
,visa,,,SAN JOSE,CA,,US,,,,,
,visa,,,SAN JOSE,CA,,US,,,,,
,visa,,,SAN JOSE,CA,,US,,,,,
,visa,,,SAN JOSE,CA,,US,,,,,
,visa,,,SAN JOSE,CA,,US,,,,,
,visa,,,SAN JOSE,CA,,US,,,,,
,visa,,,SAN JOSE,CA,,US,,,,,
,visa,,,SAN JOSE,CA,,US,,,,,
,visa,,,SAN JOSE,CA,,US,,,,,
,visa,,,SAN JOSE,CA,,US,,,,,
,visa,,,SAN JOSE,CA,,US,,,,,
,visa,,,SAN JOSE,CA,,US,,,,,
,visa,,,SAN JOSE,CA,,US,,,,,
,visa,,,SAN JOSE,CA,,US,,,,,
,visa,,,SAN JOSE,CA,,US,,,,,
,visa,,,SAN JOSE,CA,,US,,,,,
,visa,,,SAN JOSE,CA,,US,,,,,
,visa,,,SAN JOSE,CA,,US,,,,,
,visa,,,SAN JOSE,CA,,US,,,,,
,visa,,,SAN JOSE,CA,,US,,,,,
,visa,,,SAN JOSE,CA,,US,,,,,
,visa,,,SAN JOSE,CA,,US,,,,,
,visa,,,SAN JOSE,CA,,US,,,,,
1068__E__BROKAW__RD__STE__10_SAN__JOSE_CA_95131,wellsfargo,Wells Fargo,1068 E BROKAW RD STE 10,SAN JOSE,CA,,US,+1 408-878-4500,https://www.wellsfargo.com/locator/bank/1068__E__BROKAW__RD__STE__10_SAN__JOSE_CA_95131/,Mo-Fr 09:00-17:00,Wells Fargo,Q744149
3b0e1033da8b57e517c6b1b07a1ecb67,western_union,7-ELEVEN #16889,,San Jose,CA,,US,+1 408-258-7711,https://location.westernunion.com/us/ca/san-jose/3b0e1033da8b57e517c6b1b07a1ecb67,,Western Union,Q861042
9115,wingstop,Wingstop San Jose Ridder Park,725 Ridder Park Dr Ste 80,San Jose,CA,,US,+1 408-573-9464,,,Wingstop,Q8025339
