Ref,Spider,Name,Address,City,State,Zipcode,Country,Phone,Website,Hours,Brand,WikiData
https://stores.advanceautoparts.com/in/demotte/400-n-halleck-st,advance_auto_parts_us,Advance Auto Parts,,Demotte,IN,,US,+1 219-987-3678,https://stores.advanceautoparts.com/in/demotte/400-n-halleck-st,Mo-Sa 07:30-21:00; Su 09:00-20:00,Advance Auto Parts,Q4686051
3037,anytime_fitness,Anytime Fitness,,DeMotte,IN,,US,+1 219-987-7911,https://www.anytimefitness.com/gyms/3037/demotte-in-46310/,,Anytime Fitness,Q4778364
3577,autozone_us,AutoZone Auto Parts Demotte,,Demotte,IN,,US,+1 219-987-6790,https://www.autozone.com/locations/in/demotte/405-s-halleck-st.html,Mo-Sa 07:30-21:00; Su 08:30-20:00,AutoZone,Q4826087
198587,bluerhino,Dollar General #21323,,Lake Village,IN,,US,+1 219-964-4002,,,Blue Rhino,Q65681213
221061,bluerhino,Dollar General #7933,,De Motte,IN,,US,+1 765-400-3409,,,Blue Rhino,Q65681213
168546,bluerhino,Love's #394,,De Motte,IN,,US,+1 219-987-2202,,,Blue Rhino,Q65681213
154053,bluerhino,Walgreens #12640,,De Motte,IN,,US,+1 219-987-4900,,,Blue Rhino,Q65681213
209823,bluerhino,SVT De Motte #8753 (Tysen's) - AWG #1951,,De Motte,IN,,US,+1 219-987-2141,,,Blue Rhino,Q65681213
162846,bluerhino,Family Dollar #03833,,De Motte,IN,,US,+1 219-895-6321,,,Blue Rhino,Q65681213
203269,bluerhino,CASEY'S GENERAL STORE #3459,,De Motte,IN,,US,+1 219-255-0129,,,Blue Rhino,Q65681213
72611444181664631000100000000000,bp,BP,,Demotte,IN,,US,+1 219-987-7520,,24/7,BP,Q152057
05126058814174631000100000000000,bp,BP,,Demotte,IN,,US,+1 219-987-7033,,Mo-Fr 04:00-21:00; Sa-Su 05:00-21:00,BP,Q152057
11446,chevrolet,WIERS CHEVROLET GMC,,Demotte,IN,,US,+1 219-987-5555,https://www.wiersauto.com,Mo-Th 08:30-19:00; Fr 08:30-18:00; Sa 08:30-16:00,Chevrolet,Q29570
55078,citi,ATM FE22 DeMotte,,Demotte,IN,,US,,,,Citibank,Q857063
89097,citi,ATM Walgreens,,Demotte,IN,,US,,,,Citibank,Q857063
56188,citi,ATM FIRST MERCHANTS BANK,,De Motte,IN,,US,,,,Citibank,Q857063
50146,citi,ATM CVS,,Demotte,IN,,US,,,,Citibank,Q857063
55089,citi,ATM FE34 Roselawn,,Demotte,IN,,US,,,,Citibank,Q857063
51868,citi,ATM CVS,,Demotte,IN,,US,,,,Citibank,Q857063
6908,cvs_us,CVS Pharmacy,,Demotte,IN,,US,+1 219-987-3301,https://www.cvs.com/store-locator/demotte-in-pharmacies/310-n-halleck-st-demotte-in-46310/storeid=6908,Mo-Su 08:00-22:00,CVS Pharmacy,Q2078880
8019,dollartree,DollarTree,,Demotte,IN,,US,+1 219-964-4747,,Mo-Sa 09:00-21:00; Su 10:00-20:00,Dollar Tree,Q5289230
21323,dollar_general,Dollar General,,Demotte,IN,,US,+1 219-964-4002,https://www.dollargeneral.com/store-directory/in/demotte/21323,Mo-Su 08:00-22:00,Dollar General,Q145168
362786,dunkin_us,Dunkin',,Demotte,IN,,US,+1 219-246-2300,https://locations.dunkindonuts.com/en/in/demotte/11781-w-state-road-10/362786,Mo-Su 03:00-22:00,Dunkin',Q847743
https://www.edwardjones.com/us-en/financial-advisor/mitchell-mullen,edwardjones,Mitchell D Mullen,,Demotte,IN,,US,+1 219-987-5414,https://www.edwardjones.com/us-en/financial-advisor/mitchell-mullen,Mo-Fr 08:00-16:00,Edward Jones,Q5343830
https://local.fedex.com/#25236398,fedex,,,Demotte,IN,,US,+1 800-463-3339,https://local.fedex.com/en-us/in/demotte/mgcab,,FedEx,Q459477
https://local.fedex.com/#25203764,fedex,,,Demotte,IN,,US,+1 800-463-3339,https://local.fedex.com/en-us/in/demotte/k5dzk,,FedEx,Q459477
https://locations.53.com/#3033797,fifththirdbank,Fifth Third Bank DeMotte,,DeMotte,IN,,US,+1 219-987-4811,https://locations.53.com/in/demotte/128-halleck-street-nw.html,Mo-Th 09:00-17:00; Fr 09:00-18:00; Sa 09:00-13:00,Fifth Third Bank,Q1411810
Motorcraft3524USAEnglish,ford,"Fieldhouse Ford Sales, Inc.",,Indiana,IN,,US,+1 219-987-2500,,,Ford,Q44294
https://www.ford.com/dealerships/dealer-details/in/demotte/fieldhouse-ford-sales-inc/,ford_dealers_us,"Fieldhouse Ford Sales, Inc.",,Demotte,IN,,US,+1 219-270-6011,https://www.ford.com/dealerships/dealer-details/in/demotte/fieldhouse-ford-sales-inc/,Mo-Th 09:00-19:00; Fr 09:00-18:00; Sa 09:00-16:00,Ford Motor Company,Q44294
14951,h_r_block,H&R Block,,Demotte,IN,,US,+1 219-215-4068,https://www.hrblock.com/local-tax-offices/indiana/demotte/522-s-halleck-st/14951/,,H&R Block,Q5627799
https://office.jacksonhewitt.com/#27575942,jackson_hewitt,Jackson Hewitt,,DeMotte,IN,,US,+1 219-987-4161,https://office.jacksonhewitt.com/tax-preparation-services-locations/en/in/demotte/432-n-halleck-st/16505,Mo-Fr 10:00-19:00; Sa 10:00-17:00,Jackson Hewitt,Q6117132
https://locations.kfc.com/#11249638,kfc,Chicken Nuggets Near Demotte,,Demotte,IN,,US,,https://locations.kfc.com/in/demotte/419-north-halleck-street/chickennugget,Mo-Th 10:30-21:00; Fr-Sa 10:30-22:00; Su 10:30-21:00,KFC,Q524757
394,loves,Site 394,,Demotte,IN,,US,+1 219-987-2202,,,Love's,Q1872496
160885,marathon_petroleum_us,ROSELAWN MARATHON,,DEMOTTE,IN,,US,+1 219-345-4016,,,Marathon,Q458363
https://locations.oreillyauto.com/in/demotte/check-engine-light-testing-6573.html,oreilly,Your Demotte O'Reilly Auto Parts Store,,Demotte,IN,,US,+1 219-987-6759,https://locations.oreillyauto.com/in/demotte/check-engine-light-testing-6573.html,Mo-Sa 07:30-21:00; Su 08:00-20:00,O'Reilly Auto Parts,Q7071951
https://locations.oreillyauto.com/in/demotte/wiper-installation-6573.html,oreilly,Your Demotte O'Reilly Auto Parts Store,,Demotte,IN,,US,+1 219-987-6759,https://locations.oreillyauto.com/in/demotte/wiper-installation-6573.html,Mo-Sa 07:30-21:00; Su 08:00-20:00,O'Reilly Auto Parts,Q7071951
https://locations.oreillyauto.com/in/demotte/battery-testing-6573.html,oreilly,Your Demotte O'Reilly Auto Parts Store,,Demotte,IN,,US,+1 219-987-6759,https://locations.oreillyauto.com/in/demotte/battery-testing-6573.html,Mo-Sa 07:30-21:00; Su 08:00-20:00,O'Reilly Auto Parts,Q7071951
https://locations.oreillyauto.com/in/demotte/autopartes-6573.html,oreilly,O'Reilly Auto Parts,,Demotte,IN,,US,+1 219-987-6759,https://locations.oreillyauto.com/in/demotte/autopartes-6573.html,Mo-Sa 07:30-21:00; Su 08:00-20:00,O'Reilly Auto Parts,Q7071951
in_demotte_425-no-halleck,pizza_hut_us,425 No. Halleck,,Demotte,IN,,US,+1 219-987-5530,https://locations.pizzahut.com/in/demotte/425-no-halleck,,Pizza Hut,Q191615
https://restaurants.subway.com/#14912040,subway,Subway Clark Gas Station,,Demotte Jasper,IN,,US,+1 219-345-7827,https://restaurants.subway.com/united-states/in/demotte/11750-state-rd-10-west,Mo-Su 08:00-21:00,Subway,Q244457
https://restaurants.subway.com/#14912866,subway,Subway,,de Motte Jasper,IN,,US,+1 219-987-3278,https://restaurants.subway.com/united-states/in/de-motte/437-n-halleck-st,Mo-Su 08:00-21:00,Subway,Q244457
https://locations.tacobell.com/#18930925,taco_bell,Taco Bell,,Demotte,IN,,US,+1 219-987-8226,https://locations.tacobell.com/in/demotte/1222-s-halleck-street.html,Mo-Th 06:00-01:00; Fr-Sa 06:00-02:00; Su 06:00-01:00,Taco Bell,Q752941
0241,travelcenters_of_america_us,TA DeMotte #0241,,DeMotte,IN,,US,+1 219-507-7013,https://www.ta-petro.com/location/in/ta-demotte/,,TA,Q7835892
1360655,usps,DEMOTTE,,DEMOTTE,IN,,US,+1 219-987-3293,,Mo-Fr 08:30-16:30; Sa 09:00-12:00,United States Postal Service,Q668687
4631000010,usps_collection_boxes,USPS COLLECTION BOX - PO LOBBY,825 S HALLECK ST,DEMOTTE,IN,,US,,,,United States Postal Service,Q668687
4631000002,usps_collection_boxes,USPS COLLECTION BOX - BLUE BOX,825 S HALLECK ST,DEMOTTE,IN,,US,,,,United States Postal Service,Q668687
4631000004,usps_collection_boxes,USPS COLLECTION BOX - PO LOBBY,825 S HALLECK ST,DEMOTTE,IN,,US,,,,United States Postal Service,Q668687
4631000007,usps_collection_boxes,USPS COLLECTION BOX - BLUE BOX,1011 15TH ST SE,DEMOTTE,IN,,US,,,,United States Postal Service,Q668687
4631000003,usps_collection_boxes,USPS COLLECTION BOX - BLUE BOX,325 N HALLECK ST,DEMOTTE,IN,,US,,,,United States Postal Service,Q668687
A00000041346,verizon_us,Your Wireless Demotte,,DEMOTTE,IN,,US,+1 219-987-2252,https://www.verizon.com/stores/details/indiana/demotte/venture-demotte-1496622/,Mo-Fr 09:00-18:00; Sa 09:00-16:00,Verizon,Q919641
,visa,,,DEMOTTE,IN,,US,,,,,
,visa,,,DEMOTTE,IN,,US,,,,,
,visa,,,DEMOTTE,IN,,US,,,,,
,visa,,,DEMOTTE,IN,,US,,,,,
,visa,,,DEMOTTE,IN,,US,,,,,
,visa,,,DEMOTTE,IN,,US,,,,,
,visa,,,DEMOTTE,IN,,US,,,,,
,visa,,,DE MOTTE,IN,,US,,,,,
,visa,,,DE MOTTE,IN,,US,,,,,
,visa,,,DEMOTTE,IN,,US,,,,,
,visa,,,DEMOTTE,IN,,US,,,,,
,visa,,,DEMOTTE,IN,,US,,,,,
,visa,,,DEMOTTE,IN,,US,,,,,
,visa,,,DEMOTTE,IN,,US,,,,,
,visa,,,DEMOTTE,IN,,US,,,,,
,visa,,,DEMOTTE,IN,,US,,,,,
,visa,,,DEMOTTE,IN,,US,,,,,
,visa,,,DEMOTTE,IN,,US,,,,,
,visa,,,DEMOTTE,IN,,US,,,,,
,visa,,,DE MOTTE,IN,,US,,,,,
https://www.walgreens.com/locator/walgreens-226+n+halleck+st-demotte-in-46310/id=12640,walgreens,Walgreens,,Demotte,IN,,US,+1 219-987-4900,https://www.walgreens.com/locator/walgreens-226+n+halleck+st-demotte-in-46310/id=12640,Mo-Su 07:00-22:00,Walgreens,Q1591889
