Ref,Spider,Name,Address,City,State,Zipcode,Country,Phone,Website,Hours,Brand,WikiData
https://stores.advanceautoparts.com/il/elmwood-park/2850-n-harlem-ave,advance_auto_parts_us,Advance Auto Parts,,Elmwood Park,IL,,US,+1 708-453-0464,https://stores.advanceautoparts.com/il/elmwood-park/2850-n-harlem-ave,Mo-Sa 07:30-21:00; Su 09:00-20:00,Advance Auto Parts,Q4686051
https://stores.aldi.us/#4419777,aldi_sud_us,ALDI  6520 W. Fullerton Ave.,,Chicago,IL,,US,+1 833-440-1034,https://stores.aldi.us/il/chicago/6520-w-fullerton-ave,"Mo-We 08:30-20:00,09:00-20:00; Th-Fr 08:30-20:00,08:30-21:00,09:00-20:00; Sa-Su 08:30-20:00,09:00-20:00",ALDI,Q41171672
https://restaurants.applebees.com/en-us/il/chicago/6656-w.-grand-avenue-93034,applebees,Connect with this Applebee's,,Chicago,IL,,US,+1 773-836-7696,https://restaurants.applebees.com/en-us/il/chicago/6656-w.-grand-avenue-93034,Mo-Su 11:00-23:00,Applebees,Q621532
https://locations.atipt.com/chicago-il-bricktown,ati_physical_therapy,ATI Physical Therapy Chicago 125,,Chicago,IL,,US,+1 773-745-0338,https://locations.atipt.com/chicago-il-bricktown,,ATI Physical Therapy,Q50039703
2674,autozone_us,AutoZone Auto Parts Chicago,,Chicago,IL,,US,+1 773-385-9745,https://www.autozone.com/locations/il/chicago/7123-w-grand-ave.html,Mo-Sa 07:30-21:00; Su 09:00-20:00,AutoZone,Q4826087
https://locators.bankofamerica.com/il/chicago/financial-centers-chicago-16031.html,bankofamerica,Bank of America Financial Center & Drive-Thru ATM | Galewood,,Chicago,IL,,US,+1 773-804-1728,https://locators.bankofamerica.com/il/chicago/financial-centers-chicago-16031.html,Mo-Fr 10:00-16:00,Bank of America,Q487907
https://locations.baskinrobbins.com/il/elmwood-park/7201-w-grand-ave-304907-br,baskin_robbins_us,Baskin-Robbinsâ„¢,,Elmwood Park,IL,,US,+1 708-452-0145,https://locations.baskinrobbins.com/il/elmwood-park/7201-w-grand-ave-304907-br,24/7,Baskin-Robbins,Q584601
891,batteriesplus,Shop our Oak Park store,,Elmwood Park,IL,,US,+1 708-948-7885,https://www.batteriesplus.com/store-locator/il/elmwoodpark/batteries-plus-891,Mo-Sa 08:00-20:00; Su 10:00-18:00,Batteries Plus Bulbs,Q17005157
199008,bluerhino,Grand & 75th BP,,Elmwood,IL,,US,+1 708-453-3529,,,Blue Rhino,Q65681213
157180,bluerhino,Walgreens #13826,,Elmwood Park,IL,,US,+1 708-456-8810,,,Blue Rhino,Q65681213
198503,bluerhino,Harlem Palmer Mobil,,Elmwood,IL,,US,+1 708-452-6610,,,Blue Rhino,Q65681213
179397,bluerhino,Caputo's New Farm Produce - Elmwood Park AWG #1909,,Elmwood Park,IL,,US,+1 708-453-0155,,,Blue Rhino,Q65681213
156069,bluerhino,Walgreens #3833,,Elmwood Park,IL,,US,+1 708-583-0170,,,Blue Rhino,Q65681213
198566,bluerhino,Colandrea Ace Hardware #00219,,Elmwood Park,IL,,US,+1 708-452-7440,,,Blue Rhino,Q65681213
187376,bluerhino,Farmers Best Market #610288,,Chicago,IL,,US,+1 312-598-1080,,,Blue Rhino,Q65681213
39665902296006070700100000000000,bp,BP,,Elmwood Park,IL,,US,+1 708-456-9345,,24/7,BP,Q152057
26022434838006070700100000000000,bp,BP,,Elmwood Park,IL,,US,+1 708-456-3140,,24/7,BP,Q152057
95671039707586070700100000000000,bp,BP,,Elmwood Park,IL,,US,+1 708-456-4180,,24/7,BP,Q152057
C791,carpet_one_floor_and_home_us,Yonan Carpet One Floor & Home,,Chicago,IL,,US,+1 773-889-7500,https://www.yonancarpetonechicago.com/,,Carpet One Floor & Home,Q121335910
2042212,chase_us,Grand and Harlem - New branch,,Chicago,IL,,US,+1 773-481-9337,https://locator.chase.com/il/chicago/7180-w-grand-ave,Mo-Fr 09:00-17:00; Sa 09:00-14:00,Chase,Q524629
671,culvers_us,"Culver's of Elmwood Park, IL - W Grand Ave",,Elmwood Park,IL,,US,+1 708-695-5067,http://www.culvers.com/restaurants/elmwood-park-il-w-grand-ave,Mo-Fr 10:00-22:00; Su 10:00-22:00,Culver's,Q1143589
8739,cvs_us,CVS Pharmacy,,Chicago,IL,,US,+1 773-237-8927,https://www.cvs.com/store-locator/chicago-il-pharmacies/1819-n-harlem-avenue-chicago-il-60707/storeid=8739,"Mo-Fr 09:00-13:30,14:00-20:00; Sa 09:00-13:30,14:00-18:00; Su 10:00-13:30,14:00-18:00",CVS Pharmacy,Q2078880
17042,cvs_us,CVS Pharmacy,,Chicago,IL,,US,+1 773-804-3611,https://www.cvs.com/store-locator/chicago-il-pharmacies/6525-w-diversey-ave-chicago-il-60707/storeid=17042,"Mo-Fr 09:00-13:30,14:00-20:00; Sa-Su 09:00-13:30,14:00-18:00",CVS Pharmacy,Q2078880
645,dollartree,DollarTree,,Chicago,IL,,US,+1 872-231-6107,,Mo-Sa 08:00-22:00; Su 08:00-21:00,Dollar Tree,Q5289230
304907,dunkin_us,Dunkin',,Elmwood Park,IL,,US,+1 708-452-0145,https://locations.dunkindonuts.com/en/il/elmwood-park/7201-w-grand-ave/304907,24/7,Dunkin',Q847743
https://www.edwardjones.com/us-en/financial-advisor/joe-perino,edwardjones,Joe Perino,,Elmwood Park,IL,,US,+1 708-453-8427,https://www.edwardjones.com/us-en/financial-advisor/joe-perino,Mo-Fr 08:00-16:30,Edward Jones,Q5343830
E115CH,enterprise,Elmwood Park,,Elmwood Park,IL,,US,+1 708-452-2380,,,Enterprise Rent-A-Car,Q17085454
https://local.fedex.com/#25206560,fedex,,,Elmwood Park,IL,,US,+1 800-463-3339,https://local.fedex.com/en-us/il/elmwood-park/pxxmn,,FedEx,Q459477
https://local.fedex.com/#25202159,fedex,,,Elmwood Park,IL,,US,+1 800-463-3339,https://local.fedex.com/en-us/il/elmwood-park/p3t9p,,FedEx,Q459477
https://locations.53.com/#3034602,fifththirdbank,Fifth Third Bank Brickyard,,Chicago,IL,,US,+1 773-385-6050,https://locations.53.com/il/chicago/2710-north-narragansett.html,Mo-Th 09:00-17:30; Fr 09:00-18:00; Sa 09:00-14:00,Fifth Third Bank,Q1411810
https://locations.53.com/#3033807,fifththirdbank,Fifth Third Bank Elmwood Park,,Chicago,IL,,US,+1 773-237-4804,https://locations.53.com/il/chicago/1725-north-harlem-avenue.html,Mo-Th 09:00-17:30; Fr 09:00-18:00; Sa 09:00-14:00,Fifth Third Bank,Q1411810
https://locations.fivebelow.com/il/chicago/6451-west-diversey-avenue,five_below,Five Below The Brickyard,,Chicago,IL,,US,,https://locations.fivebelow.com/il/chicago/6451-west-diversey-avenue,Mo-Sa 10:00-20:00; Su 11:00-18:00,Five Below,Q5455836
2865,gamestop_us,The Brickyard Shopping Center,,Chicago,IL,,US,+1 773-804-1669,https://www.gamestop.com/search/?store=2865,Mo-Th 12:00-20:00; Fr-Sa 10:00-21:00; Su 12:00-20:00,GameStop,Q202210
https://www.harborfreight.com/storelocator/6420-w-fullerton-ave-ste-a101-chicago-60707?number=400,harborfreight,"Harbor Freight Tools Chicago Fullerton, IL",,Chicago,IL,,US,+1 773-622-2959,https://www.harborfreight.com/storelocator/6420-w-fullerton-ave-ste-a101-chicago-60707?number=400,Mo-Sa 08:00-20:00; Su 09:00-18:00,Harbor Freight Tools,Q5654601
23532,huntingtonbank,Elmwood Park,,Elmwood Park,IL,,US,+1 708-456-4700,https://www.huntington.com/Community/branch-info?locationId=23532,Mo-Fr 09:00-17:00; Sa 09:00-12:00; Su 00:00-00:00,Huntington Bank,Q798819
https://www.blockadvisors.com/local-tax-offices/illinois/elmwood-park/cameo-towers/12703/,h_r_block,H&R Block,,Elmwood Park,IL,,US,+1 708-453-2255,https://www.blockadvisors.com/local-tax-offices/illinois/elmwood-park/cameo-towers/12703/,,H&R Block,Q5627799
https://locations.jimmyjohns.com/il/elmwoodpark/sandwiches-769.html,jimmy_johns,Jimmy John's,,Elmwood Park,IL,,US,+1 708-453-2300,https://locations.jimmyjohns.com/il/elmwoodpark/sandwiches-769.html,,Jimmy John's,Q1689380
https://locations.jimmyjohns.com/il/chicago/sandwiches-739.html,jimmy_johns,Jimmy John's,,Chicago,IL,,US,+1 773-385-9930,https://locations.jimmyjohns.com/il/chicago/sandwiches-739.html,,Jimmy John's,Q1689380
https://locations.oreillyauto.com/il/chicago/check-engine-light-testing-3411.html,oreilly,Your Chicago O'Reilly Auto Parts Store,,Chicago,IL,,US,+1 773-622-8976,https://locations.oreillyauto.com/il/chicago/check-engine-light-testing-3411.html,Mo-Sa 07:30-22:00; Su 08:00-20:00,O'Reilly Auto Parts,Q7071951
https://locations.oreillyauto.com/il/chicago/wiper-installation-3411.html,oreilly,Your Chicago O'Reilly Auto Parts Store,,Chicago,IL,,US,+1 773-622-8976,https://locations.oreillyauto.com/il/chicago/wiper-installation-3411.html,Mo-Sa 07:30-22:00; Su 08:00-20:00,O'Reilly Auto Parts,Q7071951
https://locations.oreillyauto.com/il/chicago/battery-testing-3411.html,oreilly,Your Chicago O'Reilly Auto Parts Store,,Chicago,IL,,US,+1 773-622-8976,https://locations.oreillyauto.com/il/chicago/battery-testing-3411.html,Mo-Sa 07:30-22:00; Su 08:00-20:00,O'Reilly Auto Parts,Q7071951
https://locations.oreillyauto.com/il/chicago/autopartes-3411.html,oreilly,Tu tienda O'Reilly Auto Parts en Chicago,,Chicago,IL,,US,+1 773-622-8976,https://locations.oreillyauto.com/il/chicago/autopartes-3411.html,Mo-Sa 07:30-22:00; Su 08:00-20:00,O'Reilly Auto Parts,Q7071951
131890,pandaexpress,Fullerton Ave & Narragansett Ave,,Chicago,IL,,US,+1 773-435-9818,https://www.pandaexpress.com/locations/il/chicago/6420-west-fullerton-ave,Mo-Fr 09:30-22:00; Sa 10:00-22:00; Su 09:30-22:00,Panda Express,Q1358690
us63e65c72,pandora,About Pandora Jewelry Authorized Retailer - Arezzo Jewelers,,Elmwood Park,IL,,US,+1 773-745-1244,https://stores.pandora.net/il/elmwoodpark/pandora-jewelry-us63e65c72.html,,Pandora,Q2241604
021831,penske,Home Depot #1903,,CHICAGO,IL,,US,+1 773-622-2857,https://www.pensketruckrental.com/locations/us/illinois/chicago/021831/,,Penske,Q81234570
il_chicago_6525-w-diversey,pizza_hut_us,6525 W. Diversey,,Chicago,IL,,US,,https://locations.pizzahut.com/il/chicago/6525-w-diversey,,Pizza Hut,Q191615
restaurant_83157,popeyes_us_fr,Popeyes,"6622 W Fullerton Ave Chicago, Illinois 60707 - USA",Chicago,IL,,US,+1 773-237-4613,https://www.popeyes.com/store-locator/store/restaurant_83157,Mo-Su 10:00-22:00,Popeyes,Q1330910
home-depot-1903-13424,ppgpaints,HOME DEPOT 1903,,"Chicago, ",IL,,US,+1 773-745-9900,https://www.ppgpaints.com/store-locator/us/illinois/chicago-paint-stores/home-depot-1903-13424,,PPG Paints,Q83891559
https://www.publicstorage.com/self-storage-il-chicago/1487.html,public_storage_us,Public Storage,,Chicago,IL,,US,+1 773-922-8081,https://www.publicstorage.com/self-storage-il-chicago/1487.html,,Public Storage,Q1156045
https://www.publicstorage.com/self-storage-il-chicago/1273.html,public_storage_us,Public Storage,,Chicago,IL,,US,+1 773-922-8086,https://www.publicstorage.com/self-storage-il-chicago/1273.html,,Public Storage,Q1156045
8010,savers,Unique Bricktown,,Chicago,IL,,US,+1 773-622-6654,https://stores.savers.com/il/chicago/unique-thrift-store-8010.html,Mo 08:00-21:00; Tu-Sa 10:00-21:00; Su 10:00-19:00,Unique,Q7428188
32227,smilebrands,Park Place Dental,7702 W North Avenue,Elmwood Park,IL,,US,+1 708-453-7275,https://parkplacedental-il.com,,Smile Brands Inc.,Q108286823
https://restaurants.subway.com/#14913369,subway,Subway North Tower Plaza,,Elmwood Park Cook,IL,,US,+1 708-456-7827,https://restaurants.subway.com/united-states/il/elmwood-park/7230-w-north-ave,Mo-Fr 07:00-21:00; Sa 08:00-21:00; Su 09:00-21:00,Subway,Q244457
https://restaurants.subway.com/#14906501,subway,Subway Harlem & George Plaza,,Elmwood Park Cook,IL,,US,+1 708-452-1730,https://restaurants.subway.com/united-states/il/elmwood-park/2836-n-harlem-ave,Mo-Fr 07:00-21:00; Sa 08:00-21:00; Su 09:00-19:00,Subway,Q244457
1434848,usps,ELMWOOD PARK,,ELMWOOD PARK,IL,,US,+1 708-453-4390,,Mo-Fr 09:00-18:30; Sa 09:00-14:30,United States Postal Service,Q668687
6070700107,usps_collection_boxes,USPS COLLECTION BOX - BLUE BOX,7937 W BELMONT AVE,CHICAGO,IL,,US,,,,United States Postal Service,Q668687
6070700066,usps_collection_boxes,USPS COLLECTION BOX - BLUE BOX,2947 N 79TH AVE,CHICAGO,IL,,US,,,,United States Postal Service,Q668687
6070700016,usps_collection_boxes,USPS COLLECTION BOX - BLUE BOX,7827 W DIVERSEY AVE,CHICAGO,IL,,US,,,,United States Postal Service,Q668687
6070700059,usps_collection_boxes,USPS COLLECTION BOX - BLUE BOX,3000 N ORIOLE AVE,CHICAGO,IL,,US,,,,United States Postal Service,Q668687
6070700102,usps_collection_boxes,USPS COLLECTION BOX - BLUE BOX,13 W CONTI PKWY,CHICAGO,IL,,US,,,,United States Postal Service,Q668687
6070700013,usps_collection_boxes,USPS COLLECTION BOX - BLUE BOX,1747 N 79TH AVE,CHICAGO,IL,,US,,,,United States Postal Service,Q668687
6070700050,usps_collection_boxes,USPS COLLECTION BOX - BLUE BOX,7840 W NORTH AVE,CHICAGO,IL,,US,,,,United States Postal Service,Q668687
6070700048,usps_collection_boxes,USPS COLLECTION BOX - BLUE BOX,7516 W NORTH AVE,CHICAGO,IL,,US,,,,United States Postal Service,Q668687
6070700015,usps_collection_boxes,USPS COLLECTION BOX - BLUE BOX,7540 W CORTLAND ST,CHICAGO,IL,,US,,,,United States Postal Service,Q668687
6070700083,usps_collection_boxes,USPS COLLECTION BOX - BLUE BOX,7234 W NORTH AVE,CHICAGO,IL,,US,,,,United States Postal Service,Q668687
6070700012,usps_collection_boxes,USPS COLLECTION BOX - BLUE BOX,7350 W BLOOMINGDALE AVE,CHICAGO,IL,,US,,,,United States Postal Service,Q668687
6070700026,usps_collection_boxes,USPS COLLECTION BOX - BLUE BOX,1801 N HARLEM AVE,CHICAGO,IL,,US,,,,United States Postal Service,Q668687
6070700060,usps_collection_boxes,USPS COLLECTION BOX - BLUE BOX,2147 N 77TH AVE,CHICAGO,IL,,US,,,,United States Postal Service,Q668687
6070700017,usps_collection_boxes,USPS COLLECTION BOX - BLUE BOX,2047 N 74TH AVE,CHICAGO,IL,,US,,,,United States Postal Service,Q668687
6070700027,usps_collection_boxes,USPS COLLECTION BOX - BLUE BOX,1901 N HARLEM AVE,CHICAGO,IL,,US,,,,United States Postal Service,Q668687
6070700030,usps_collection_boxes,USPS COLLECTION BOX - BLUE BOX,1959 N HARLEM AVE,CHICAGO,IL,,US,,,,United States Postal Service,Q668687
6070700065,usps_collection_boxes,USPS COLLECTION BOX - BLUE BOX,7000 W NORTH AVE NW,CHICAGO,IL,,US,,,,United States Postal Service,Q668687
6070700044,usps_collection_boxes,USPS COLLECTION BOX - BLUE BOX,6930 W NORTH AVE NW,CHICAGO,IL,,US,,,,United States Postal Service,Q668687
6070700062,usps_collection_boxes,USPS COLLECTION BOX - BLUE BOX,2102 N SAYRE AVE,CHICAGO,IL,,US,,,,United States Postal Service,Q668687
6070700055,usps_collection_boxes,USPS COLLECTION BOX - BLUE BOX,1757 N OAK PARK AVE,CHICAGO,IL,,US,,,,United States Postal Service,Q668687
6070700034,usps_collection_boxes,USPS COLLECTION BOX - BLUE BOX,2200 N HARLEM AVE,CHICAGO,IL,,US,,,,United States Postal Service,Q668687
6070700053,usps_collection_boxes,USPS COLLECTION BOX - BLUE BOX,6801 W ARMITAGE AVE,CHICAGO,IL,,US,,,,United States Postal Service,Q668687
6070700061,usps_collection_boxes,USPS COLLECTION BOX - BLUE BOX,6714 W NORTH AVE NE,CHICAGO,IL,,US,,,,United States Postal Service,Q668687
6070700040,usps_collection_boxes,USPS COLLECTION BOX - BLUE BOX,7139 W GRAND AVE,CHICAGO,IL,,US,,,,United States Postal Service,Q668687
6070700047,usps_collection_boxes,USPS COLLECTION BOX - BLUE BOX,2301 N 74TH CT,CHICAGO,IL,,US,,,,United States Postal Service,Q668687
6070700054,usps_collection_boxes,USPS COLLECTION BOX - BLUE BOX,2300 N OAK PARK AVE,CHICAGO,IL,,US,,,,United States Postal Service,Q668687
6070700064,usps_collection_boxes,USPS COLLECTION BOX - BLUE BOX,7001 W GRAND AVE,CHICAGO,IL,,US,,,,United States Postal Service,Q668687
6070700085,usps_collection_boxes,USPS COLLECTION BOX - BLUE BOX,7172 W GRAND AVE,CHICAGO,IL,,US,,,,United States Postal Service,Q668687
6070700021,usps_collection_boxes,USPS COLLECTION BOX - BLUE BOX,7300 W FULLERTON AVE,CHICAGO,IL,,US,,,,United States Postal Service,Q668687
6070700087,usps_collection_boxes,USPS COLLECTION BOX - BLUE BOX,7300 W FULLERTON AVE,CHICAGO,IL,,US,,,,United States Postal Service,Q668687
6070700043,usps_collection_boxes,USPS COLLECTION BOX - BLUE BOX,6919 W GRAND AVE,CHICAGO,IL,,US,,,,United States Postal Service,Q668687
6070700106,usps_collection_boxes,USPS COLLECTION BOX - PO LOBBY,7300 W FULLERTON AVE,CHICAGO,IL,,US,,,,United States Postal Service,Q668687
6070700023,usps_collection_boxes,USPS COLLECTION BOX - BLUE BOX,7315 W GRAND AVE,CHICAGO,IL,,US,,,,United States Postal Service,Q668687
6070700101,usps_collection_boxes,USPS COLLECTION BOX - BLUE BOX,6801 W GRAND AVE,CHICAGO,IL,,US,,,,United States Postal Service,Q668687
6070700022,usps_collection_boxes,USPS COLLECTION BOX - BLUE BOX,7547 W FULLERTON AVE,CHICAGO,IL,,US,,,,United States Postal Service,Q668687
6070700091,usps_collection_boxes,USPS COLLECTION BOX - BLUE BOX,2539 N HARLEM AVE,CHICAGO,IL,,US,,,,United States Postal Service,Q668687
6070700092,usps_collection_boxes,USPS COLLECTION BOX - BLUE BOX,7500 W GRAND AVE,CHICAGO,IL,,US,,,,United States Postal Service,Q668687
6070700070,usps_collection_boxes,USPS COLLECTION BOX - BLUE BOX,2601 N SAYRE AVE,CHICAGO,IL,,US,,,,United States Postal Service,Q668687
6070700031,usps_collection_boxes,USPS COLLECTION BOX - BLUE BOX,2759 N HARLEM AVE,CHICAGO,IL,,US,,,,United States Postal Service,Q668687
6070700063,usps_collection_boxes,USPS COLLECTION BOX - BLUE BOX,7000 W DIVERSEY AVE,CHICAGO,IL,,US,,,,United States Postal Service,Q668687
6070700042,usps_collection_boxes,USPS COLLECTION BOX - BLUE BOX,6925 W DIVERSEY AVE,CHICAGO,IL,,US,,,,United States Postal Service,Q668687
6070700032,usps_collection_boxes,USPS COLLECTION BOX - BLUE BOX,2859 N HARLEM AVE,CHICAGO,IL,,US,,,,United States Postal Service,Q668687
6070700056,usps_collection_boxes,USPS COLLECTION BOX - BLUE BOX,6755 W DIVERSEY AVE,CHICAGO,IL,,US,,,,United States Postal Service,Q668687
6070700019,usps_collection_boxes,USPS COLLECTION BOX - BLUE BOX,7528 W DIVERSEY AVE,CHICAGO,IL,,US,,,,United States Postal Service,Q668687
6070700039,usps_collection_boxes,USPS COLLECTION BOX - BLUE BOX,6625 W DIVERSEY AVE,CHICAGO,IL,,US,,,,United States Postal Service,Q668687
6070700018,usps_collection_boxes,USPS COLLECTION BOX - BLUE BOX,7253 W DIVERSEY AVE,CHICAGO,IL,,US,,,,United States Postal Service,Q668687
6070700049,usps_collection_boxes,USPS COLLECTION BOX - BLUE BOX,7700 W NORTH AVE NW,CHICAGO,IL,,US,,,,United States Postal Service,Q668687
6070700088,usps_collection_boxes,USPS COLLECTION BOX - BLUE BOX,6560 W FULLERTON AVE,CHICAGO,IL,,US,,,,United States Postal Service,Q668687
https://vcahospitals.com/mont-clare,vca,VCA Mont Clare Animal Hospital,,Chicago,IL,,US,+1 773-237-0716,https://vcahospitals.com/mont-clare,Mo-Fr 08:00-18:00; Sa 08:00-13:00,VCA,Q7906620
R00000006917,verizon_us,Brickyard,,Chicago,IL,,US,+1 773-836-4401,https://www.verizon.com/stores/details/illinois/chicago/brickyard-246917/,Mo-Fr 10:00-19:00; Sa 09:00-19:00; Su 10:00-17:00,Verizon,Q919641
,visa,,,CHICAGO,IL,,US,,,,,
,visa,,,CHICAGO BRICKYARD,IL,,US,,,,,
,visa,,,CHICAGO BRICKYARD,IL,,US,,,,,
,visa,,,CHICAGO,IL,,US,,,,,
,visa,,,CHICAGO,IL,,US,,,,,
,visa,,,CHICAGO,IL,,US,,,,,
,visa,,,ELMWOOD PARK,IL,,US,,,,,
,visa,,,CHICAGO,IL,,US,,,,,
,visa,,,CHICAGO,IL,,US,,,,,
,visa,,,CHICAGO,IL,,US,,,,,
,visa,,,CHICAGO,IL,,US,,,,,
,visa,,,CHICAGO,IL,,US,,,,,
,visa,,,CHICAGO,IL,,US,,,,,
,visa,,,CHICAGO,IL,,US,,,,,
,visa,,,CHICAGO,IL,,US,,,,,
,visa,,,CHICAGO,IL,,US,,,,,
,visa,,,ELMWOOD PARK,IL,,US,,,,,
,visa,,,CHICAGO,IL,,US,,,,,
,visa,,,CHICAGO,IL,,US,,,,,
,visa,,,CHICAGO,IL,,US,,,,,
,visa,,,ELMWOOD PARK,IL,,US,,,,,
,visa,,,ELMWOOD PARK,IL,,US,,,,,
,visa,,,ELMWOOD PARK,IL,,US,,,,,
,visa,,,ELMWOOD PARK,IL,,US,,,,,
,visa,,,ELMWOOD PARK,IL,,US,,,,,
,visa,,,ELMWOOD PARK,IL,,US,,,,,
,visa,,,ELMWOOD PARK,IL,,US,,,,,
,visa,,,ELMWOOD PARK,IL,,US,,,,,
,visa,,,CHICAGO,IL,,US,,,,,
,visa,,,CHICAGO,IL,,US,,,,,
,visa,,,CHICAGO,IL,,US,,,,,
,visa,,,ELMWOOD PARK,IL,,US,,,,,
,visa,,,ELMWOOD PARK,IL,,US,,,,,
,visa,,,ELMWOOD PARK,IL,,US,,,,,
,visa,,,ELMWOOD PARK,IL,,US,,,,,
,visa,,,ELMWOOD PARK,IL,,US,,,,,
,visa,,,ELMWOOD PARK,IL,,US,,,,,
,visa,,,ELMWOOD PARK,IL,,US,,,,,
,visa,,,ELMWOOD PARK,IL,,US,,,,,
,visa,,,ELMWOOD PARK,IL,,US,,,,,
,visa,,,ELMWOOD PARK,IL,,US,,,,,
,visa,,,ELMWOOD PARK,IL,,US,,,,,
,visa,,,ELMWOOD PARK,IL,,US,,,,,
,visa,,,ELMWOOD PARK,IL,,US,,,,,
,visa,,,ELMWOOD PARK,IL,,US,,,,,
,visa,,,ELMWOOD PARK,IL,,US,,,,,
,visa,,,ELMWOOD PARK,IL,,US,,,,,
,visa,,,"ELMWOOD PARK,",IL,,US,,,,,
,visa,,,ELMWOOD PARK,IL,,US,,,,,
,visa,,,ELMWOOD,IL,,US,,,,,
,visa,,,ELMWOOD,IL,,US,,,,,
,visa,,,ELMWOOD PARK,IL,,US,,,,,
,visa,,,ELMWOOD PARK,IL,,US,,,,,
,visa,,,ELMWOOD PARK,IL,,US,,,,,
,visa,,,ELMWOOD PARK,IL,,US,,,,,
,visa,,,ELMWOOD PARK,IL,,US,,,,,
,visa,,,ELMWOOD PARK,IL,,US,,,,,
,visa,,,ELMWOOD PARK,IL,,US,,,,,
,visa,,,ELMWOOD PARK,IL,,US,,,,,
,visa,,,ELMWOOD,IL,,US,,,,,
,visa,,,ELMWOOD PARK,IL,,US,,,,,
https://www.walgreens.com/locator/walgreens-2828+n+harlem+ave-elmwood+park-il-60707/id=3833,walgreens,Walgreens,,Elmwood Park,IL,,US,+1 708-583-0170,https://www.walgreens.com/locator/walgreens-2828+n+harlem+ave-elmwood+park-il-60707/id=3833,Mo-Su 07:00-23:00,Walgreens,Q1591889
https://www.walgreens.com/locator/walgreens-7200+w+north+ave-elmwood+park-il-60707/id=13826,walgreens,Walgreens,,Elmwood Park,IL,,US,+1 708-456-8810,https://www.walgreens.com/locator/walgreens-7200+w+north+ave-elmwood+park-il-60707/id=13826,Mo-Su 06:00-23:00,Walgreens,Q1591889
8787,wingstop,Wingstop Elmwood park,1740 Harlem ave,Elmwood Park,IL,,US,+1 708-452-1010,,,Wingstop,Q8025339
www.xsportfitness.com/locations/bricktown-chicago-gym.aspx,xsport_fitness_us,XSport Fitness,,Chicago,IL,,US,+1 773-237-5730,https://www.xsportfitness.com/locations/bricktown-chicago-gym.aspx,24/7,XSport Fitness,Q122981991
