Ref,Spider,Name,Address,City,State,Zipcode,Country,Phone,Website,Hours,Brand,WikiData
https://stores.advanceautoparts.com/mn/fairmont/1403-n-state-st,advance_auto_parts_us,Advance Auto Parts,,Fairmont,MN,,US,+1 507-235-6626,https://stores.advanceautoparts.com/mn/fairmont/1403-n-state-st,Mo-Sa 07:30-19:00; Su 09:00-18:00,Advance Auto Parts,Q4686051
https://www.ameripriseadvisors.com/team/investors-advisory-management-group/contact/,ameriprise_us,Investors Advisory Management Group,,Fairmont,MN,,US,+1 507-238-9722,https://www.ameripriseadvisors.com/team/investors-advisory-management-group/,Mo-Fr 08:00-03:00,Ameriprise Financial,Q2843129
https://locations.arbys.com/mn/fairmont/427-s.-state-st.html,arbys_us,"Arby's Fast-Food Drive Through Near You in Fairmont, MN",,Fairmont,MN,,US,+1 507-238-1741,https://locations.arbys.com/mn/fairmont/427-s.-state-st.html,Mo-Sa 10:00-22:30; Su 10:00-22:00,Arby's,Q630866
78049,asics_us,Dunham's Sports,400 S State St,Fairmont,MN,,US,+1 507-238-9990,,,asics,Q327247
228260,bluerhino,Speedway #4709,,Fairmont,MN,,US,+1 507-235-8424,,,Blue Rhino,Q65681213
203496,bluerhino,CASEY'S GENERAL STORE #1772,,FAIRMONT,MN,,US,+1 507-238-2043,,,Blue Rhino,Q65681213
168679,bluerhino,Fleet & Farm Supply #5869W,,Fairmont,MN,,US,+1 507-238-1823,,,Blue Rhino,Q65681213
228258,bluerhino,Speedway #4707,,Fairmont,MN,,US,+1 507-235-5856,,,Blue Rhino,Q65681213
152712,bluerhino,Walgreens #9350,,Fairmont,MN,,US,+1 507-235-5065,,,Blue Rhino,Q65681213
200766,bluerhino,Fairmont HyVee C-Store #1183,,Fairmont,MN,,US,+1 507-238-2885,,,Blue Rhino,Q65681213
190609,bluerhino,Bomgaar's #092,,Fairmont,MN,,US,+1 507-749-1100,,,Blue Rhino,Q65681213
05642011924075603100100000000000,bp,BP,,Fairmont,MN,,US,+1 507-238-9392,,Mo-Fr 05:00-23:00; Sa-Su 06:00-22:00,BP,Q152057
12474,cenex,Poppe Oil Company,,Fairmont,MN,,US,+1 507-235-6216,,24/7,Cenex,Q62127191
04597,chevrolet,HAWKINS CHEVROLET,,Fairmont,MN,,US,+1 507-399-0908,https://www.hawkinsbestprice.com,Mo 08:00-19:00; Tu-Fr 08:00-18:00; Sa 09:00-14:00,Chevrolet,Q29570
55578,citi,ATM FIRST FARMERS MERCHANT,,Fairmont,MN,,US,,,,Citibank,Q857063
86005,citi,ATM Vet's Super America,,Fairmont,MN,,US,,,,Citibank,Q857063
86007,citi,ATM Vets Superamerica Fairmont,,Fairmont,MN,,US,,,,Citibank,Q857063
86810,citi,ATM Walgreens,,Fairmont,MN,,US,,,,Citibank,Q857063
35894,citi,ATM BANK MIDWEST,,Fairmont,MN,,US,,,,Citibank,Q857063
62832,citi,ATM Kwik Trip #424-1,,Fairmont,MN,,US,,,,Citibank,Q857063
62833,citi,ATM Kwik Trip #424-2,,Fairmont,MN,,US,,,,Citibank,Q857063
44613,citi,ATM CITIZENS COMMUNITY FED29,,Fairmont,MN,,US,,,,Citibank,Q857063
1915,dominos_pizza_us,Domino's Pizza,,Fairmont,MN,,US,+1 507-229-0000,https://pizza.dominos.com/minnesota/fairmont/117-downtown-plaza,Mo-Th 10:30-24:00; Fr-Sa 10:30-01:00; Su 10:30-24:00,Domino's,Q839466
123,dunhams_sports_us,FAIRMONT MN,,FAIRMONT,MN,,US,+1 507-238-9990,https://www.dunhamssports.com/store-details?storeID=123,Mo-Fr 09:00-20:00; Sa 09:00-18:00; Su 10:00-17:00,Dunham's Sports,Q5315238
https://www.edwardjones.com/us-en/financial-advisor/linsey-preuss,edwardjones,Linsey Preuss,,Fairmont,MN,,US,+1 507-238-4244,https://www.edwardjones.com/us-en/financial-advisor/linsey-preuss,Mo-Th 08:00-16:30; Fr 08:00-15:00,Edward Jones,Q5343830
Motorcraft4588USAEnglish,ford,Fairmont Ford,,Minnesota,MN,,US,+1 507-235-6681,,,Ford,Q44294
https://www.ford.com/dealerships/dealer-details/mn/fairmont/fairmont-ford/,ford_dealers_us,Fairmont Ford,,Fairmont,MN,,US,+1 507-618-5315,https://www.ford.com/dealerships/dealer-details/mn/fairmont/fairmont-ford/,Mo 08:00-19:00; Tu-Fr 08:00-17:30; Sa 09:00-13:00,Ford Motor Company,Q44294
https://salons.greatclips.com/us/mn/fairmont/1243-goemann-rd,greatclips,Great Clips,,Fairmont,MN,,US,+1 507-235-5857,https://salons.greatclips.com/us/mn/fairmont/1243-goemann-rd,Mo-Fr 11:00-19:00; Sa 09:00-17:00; Su 00:00-24:00,Great Clips,Q5598967
1506167,hardees_us,Hardee's,,Fairmont,MN,,US,+1 507-235-5222,https://locations.hardees.com/mn/fairmont/2000-n-state-st,,Hardee's,Q1585088
22806,h_r_block,H&R Block,,Fairmont,MN,,US,+1 507-238-9016,https://www.hrblock.com/local-tax-offices/minnesota/fairmont/406-n-state-st/22806/,,H&R Block,Q5627799
https://locations.maurices.com/#11688467,maurices,maurices Fairmont Plaza,,Fairmont,MN,,US,+1 507-238-1506,https://locations.maurices.com/us/mn/fairmont/1241-goemann-road,Mo-Fr 10:00-20:00; Sa 10:00-17:00; Su 11:00-17:00,maurices,Q6793571
https://locations.oreillyauto.com/mn/fairmont/check-engine-light-testing-4655.html,oreilly,Your Fairmont O'Reilly Auto Parts Store,,Fairmont,MN,,US,+1 507-238-2665,https://locations.oreillyauto.com/mn/fairmont/check-engine-light-testing-4655.html,Mo-Sa 07:30-21:00; Su 09:00-18:00,O'Reilly Auto Parts,Q7071951
https://locations.oreillyauto.com/mn/fairmont/wiper-installation-4655.html,oreilly,Your Fairmont O'Reilly Auto Parts Store,,Fairmont,MN,,US,+1 507-238-2665,https://locations.oreillyauto.com/mn/fairmont/wiper-installation-4655.html,Mo-Sa 07:30-21:00; Su 09:00-18:00,O'Reilly Auto Parts,Q7071951
https://locations.oreillyauto.com/mn/fairmont/battery-testing-4655.html,oreilly,Your Fairmont O'Reilly Auto Parts Store,,Fairmont,MN,,US,+1 507-238-2665,https://locations.oreillyauto.com/mn/fairmont/battery-testing-4655.html,Mo-Sa 07:30-21:00; Su 09:00-18:00,O'Reilly Auto Parts,Q7071951
https://locations.oreillyauto.com/mn/fairmont/autopartes-4655.html,oreilly,Tu tienda O'Reilly Auto Parts en Fairmont,,Fairmont,MN,,US,+1 507-238-2665,https://locations.oreillyauto.com/mn/fairmont/autopartes-4655.html,Mo-Sa 07:30-21:00; Su 09:00-18:00,O'Reilly Auto Parts,Q7071951
292,scooters_coffee_us,S State St & Tilden St,,Fairmont,MN,,US,+1 507-399-2082,,Mo-Su 06:00-20:00,Scooter's Coffee,Q117280308
059,shopko,Shopko Optical Fairmont,,Fairmont,MN,,US,+1 507-238-9490,https://www.shopko.com/eye-care/mn/fairmont/store-059/,Mo-Fr 09:00-19:00; Sa 09:00-15:00,Shopko Optical,Q109228833
https://restaurants.subway.com/#14901963,subway,Subway,,Fairmont Martin,MN,,US,+1 507-235-8469,https://restaurants.subway.com/united-states/mn/fairmont/207-n-state-st,Mo-Su 09:00-22:00,Subway,Q244457
https://locations.tacobell.com/#15035764,taco_bell,Taco Bell,,Fairmont,MN,,US,+1 507-519-2182,https://locations.tacobell.com/mn/fairmont/2235-state-st-n.html,Mo-Su 07:00-24:00,Taco Bell,Q752941
583621,taco_johns_us,Fairmont,"901 E Blue Earth Ave, Fairmont MN 56031",Fairmont,MN,,US,+1 507-238-2322,https://locations.tacojohns.com/mn/fairmont/901-e-blue-earth-ave/,Mo-Su 07:00-22:00,Taco John's,Q7673962
19159,true_value_us,FAIRMONT TRUE VALUE,,FAIRMONT,MN,,US,+1 507-235-8783,http://truevalue.com,,True Value,Q7847545
1363015,usps,FAIRMONT,,FAIRMONT,MN,,US,+1 507-235-6368,,Mo-Fr 08:45-16:30; Sa 09:30-11:30,United States Postal Service,Q668687
5603100026,usps_collection_boxes,USPS COLLECTION BOX - BLUE BOX,800 CLINIC CIR,FAIRMONT,MN,,US,,,,United States Postal Service,Q668687
5603100010,usps_collection_boxes,USPS COLLECTION BOX - BLUE BOX,907 S STATE ST,FAIRMONT,MN,,US,,,,United States Postal Service,Q668687
5603100002,usps_collection_boxes,USPS COLLECTION BOX - PO LOBBY,490 S STATE ST,FAIRMONT,MN,,US,,,,United States Postal Service,Q668687
5603100012,usps_collection_boxes,USPS COLLECTION BOX - BLUE BOX,490 S STATE ST,FAIRMONT,MN,,US,,,,United States Postal Service,Q668687
5603100013,usps_collection_boxes,USPS COLLECTION BOX - BLUE BOX,490 S STATE ST,FAIRMONT,MN,,US,,,,United States Postal Service,Q668687
5603100024,usps_collection_boxes,USPS COLLECTION BOX - PO LOBBY,490 S STATE ST,FAIRMONT,MN,,US,,,,United States Postal Service,Q668687
5603100032,usps_collection_boxes,USPS COLLECTION BOX - PO LOBBY,490 S STATE ST,FAIRMONT,MN,,US,,,,United States Postal Service,Q668687
5603100033,usps_collection_boxes,USPS COLLECTION BOX - PO LOBBY,490 S STATE ST,FAIRMONT,MN,,US,,,,United States Postal Service,Q668687
5603100019,usps_collection_boxes,USPS COLLECTION BOX - BLUE BOX,51 DOWNTOWN PLZ,FAIRMONT,MN,,US,,,,United States Postal Service,Q668687
5603100014,usps_collection_boxes,USPS COLLECTION BOX - BLUE BOX,201 LAKE AVE,FAIRMONT,MN,,US,,,,United States Postal Service,Q668687
5603100020,usps_collection_boxes,USPS COLLECTION BOX - BLUE BOX,202 DOWNTOWN PLZ,FAIRMONT,MN,,US,,,,United States Postal Service,Q668687
5603100023,usps_collection_boxes,USPS COLLECTION BOX - BLUE BOX,103 S JUDSON ST,FAIRMONT,MN,,US,,,,United States Postal Service,Q668687
A00000234918,verizon_us,Wireless World - Fairmont,,Fairmont,MN,,US,+1 507-235-3344,https://www.verizon.com/stores/details/minnesota/fairmont/wireless-world-fairmont-1881522/,Mo-Fr 09:00-19:00; Sa 09:00-17:00; Su 12:00-16:00,Verizon,Q919641
,visa,,,FAIRMONT,MN,,US,,,,,
,visa,,,NORTHROP,MN,,US,,,,,
,visa,,,FAIRMONT,MN,,US,,,,,
,visa,,,FAIRMONT,MN,,US,,,,,
,visa,,,FAIRMONT,MN,,US,,,,,
,visa,,,FAIRMONT,MN,,US,,,,,
,visa,,,FAIRMONT,MN,,US,,,,,
,visa,,,FAIRMONT,MN,,US,,,,,
,visa,,,FAIRMONT,MN,,US,,,,,
,visa,,,FAIRMONT,MN,,US,,,,,
,visa,,,FAIRMONT,MN,,US,,,,,
,visa,,,FAIRMONT,MN,,US,,,,,
,visa,,,FAIRMONT,MN,,US,,,,,
,visa,,,FAIRMONT,MN,,US,,,,,
,visa,,,FAIRMONT,MN,,US,,,,,
,visa,,,FAIRMONT,MN,,US,,,,,
,visa,,,FAIRMONT,MN,,US,,,,,
,visa,,,FAIRMONT,MN,,US,,,,,
,visa,,,FAIRMONT,MN,,US,,,,,
,visa,,,FAIRMONT,MN,,US,,,,,
https://www.walgreens.com/locator/walgreens-1123+e+blue+earth+ave-fairmont-mn-56031/id=9350,walgreens,Walgreens,,Fairmont,MN,,US,+1 507-235-5965,https://www.walgreens.com/locator/walgreens-1123+e+blue+earth+ave-fairmont-mn-56031/id=9350,Mo-Su 08:00-21:00,Walgreens,Q1591889
62d26a663dca3a6c98059a9a9aac35d3,western_union,WALMART #003806,,Fairmont,MN,,US,+1 507-235-2500,https://location.westernunion.com/us/mn/fairmont/62d26a663dca3a6c98059a9a9aac35d3,Mo-Su 07:00-21:00,Western Union,Q861042
