Ref,Spider,Name,Address,City,State,Zipcode,Country,Phone,Website,Hours,Brand,WikiData
72586507,moneygram,ALMADINA WESTERN UNION,,HYDERABAD,,,IN,+91 99851 43585,,Mo-Su 08:00-21:00,MoneyGram,Q1944412
72894228,moneygram,OMER COMMUNICATIONS,,HYDERABAD,,,IN,+91 90324 22376,,Mo-Su 08:00-21:00,MoneyGram,Q1944412
73267896,moneygram,MUTHOOT FINANCE LTD - #2111 - HYDERABAD,,HYDERABAD,,,IN,+91 40 2453 1999,,Mo-Su 09:00-19:00,MoneyGram,Q1944412
73279509,moneygram,MUTHOOT FINANCE LTD - #2988 - HYDERABAD,,HYDERABAD,,,IN,+91 40 2453 2011,,Mo-Su 09:00-19:00,MoneyGram,Q1944412
73280637,moneygram,MUTHOOT FINANCE LTD - #3111 - HYDERABAD,,HYDERABAD,,,IN,+91 40 2351 1926,,Mo-Su 09:00-19:00,MoneyGram,Q1944412
73283676,moneygram,MUTHOOT FINANCE LTD - #3443 - HYDERABAD,,HYDERABAD,,,IN,+91 40 2407 9696,,Mo-Su 09:00-19:00,MoneyGram,Q1944412
73256658,moneygram,MUTHOOT FINANCE LTD - #820 - RANGA REDDY,,RANGA REDDY,,,IN,+91 40 2453 2997,,Mo-Su 09:00-19:00,MoneyGram,Q1944412
73323688,moneygram,MUTHOOT FINCORP LIMITED - #F2712 - HYDER,,HYDERABAD,,,IN,+91 92470 62998,,Mo-Sa 09:00-17:30; Su 00:00-24:00,MoneyGram,Q1944412
73329705,moneygram,MUTHOOT FINCORP LIMITED - #F3386 - SAIDA,,HYDERABAD,,,IN,+91 40 6455 0588,,Mo-Sa 09:00-17:30; Su 00:00-24:00,MoneyGram,Q1944412
73329679,moneygram,MUTHOOT FINCORP LIMITED - #F3389 - SAIDA,,HYDERABAD,,,IN,+91 40 6455 0577,,Mo-Sa 09:00-17:30; Su 00:00-24:00,MoneyGram,Q1944412
73309495,moneygram,MUTHOOT FINCORP LIMITED - #F773 - SANTHO,,HYDERABAD,,,IN,+91 40 6464 2349,,Mo-Sa 09:00-17:30; Su 00:00-24:00,MoneyGram,Q1944412
73737300,moneygram,MAA TOURS AND TRAVELS,,HYDERABAD,,,IN,+91 95022 20646,,Mo-Su 08:00-21:00,MoneyGram,Q1944412
73735920,moneygram,SUMITRA RAILWAY E SEVA COUNTER,,HYDERABAD,,,IN,+91 99081 72761,,Mo-Su 08:00-21:00,MoneyGram,Q1944412
73814676,moneygram,AFSAR ENTERPRISES,,HYDERABAD,,,IN,+91 93467 22014,,Mo-Su 08:00-21:00,MoneyGram,Q1944412
73814663,moneygram,HELLO MOBILE,,HYDERABAD,,,IN,+91 91005 30864,,Mo-Su 08:00-21:00,MoneyGram,Q1944412
73663694,moneygram,MAA COMMUNICATION,,HYDERABAD,,,IN,+91 99126 76189,,Mo-Su 08:00-21:00,MoneyGram,Q1944412
73929752,moneygram,IMPERIAL ENTERPRISES,,HYDERABAD,,,IN,+91 95507 89131,,Mo-Su 08:00-21:00,MoneyGram,Q1944412
74055117,moneygram,MUTHOOTTU MINI FINANCIERS LTD - KURMAGUD,,KURMAGUDA,,,IN,+91 40 2451 0179,,Mo-Sa 09:00-17:30; Su 00:00-24:00,MoneyGram,Q1944412
74062090,moneygram,TELANGANA GRAMEENA BANK - HYDERABAD - HY,,HYDERABAD,,,IN,+91 94910 41943,,Mo-Sa 09:00-18:00; Su 00:00-24:00,MoneyGram,Q1944412
70277290,moneygram,CITY EXPRESS - HYDERABAD,,HYDERABAD,,,IN,+91 97006 65277,,Mo-Su 06:00-23:00,MoneyGram,Q1944412
74651061,moneygram,BLINK OPTICALS,,HYDERABAD,,,IN,+91 70934 75277,,Mo-Su 04:00-24:00,MoneyGram,Q1944412
74696592,moneygram,RJ ENTERPRISES,,HYDERABAD,,,IN,+91 93182 78120,,Mo-Su 01:00-24:00,MoneyGram,Q1944412
74884016,moneygram,AL MADINA ONLINE SERVICES AND COMMUNICAT,,HYDERABAD,,,IN,+91 93984 33087,,Mo-Su 01:00-24:00,MoneyGram,Q1944412
65621013,moneygram,MANAPPURAM FINANCE,,HYDERABAD,,,IN,+91 40 3258 3011,,Mo-Sa 10:00-19:00; Su 00:00-24:00,MoneyGram,Q1944412
66067391,moneygram,MANAPPURAM FINANCE,,HYDERABAD,,,IN,+91 40 3221 1141,,Mo-Sa 10:00-19:00; Su 00:00-24:00,MoneyGram,Q1944412
66707839,moneygram,MANAPPURAM FINANCE - #2170 - HYDERABAD,,HYDERABAD,,,IN,+91 40 2433 0021,,Mo-Sa 10:00-19:00; Su 10:00-16:00,MoneyGram,Q1944412
66940544,moneygram,MANAPPURAM FINANCE - #2110 - HYDERABAD,,HYDERABAD,,,IN,+91 40 2433 0021,,Mo-Sa 10:00-19:00; Su 10:00-16:00,MoneyGram,Q1944412
,visa,,,HYDERABAD,,,IN,,,,,
,visa,,,HYDERABAD,,,IN,,,,,
,visa,,,HYDERABAD,,,IN,,,,,
