Ref,Spider,Name,Address,City,State,Zipcode,Country,Phone,Website,Hours,Brand,WikiData
4390,lukoil,Beranovac,"Autodrumska, nn, 36000, Beranovac",Beranovac,Central Serbia,,RS,,,Mo-Su 06:00-22:00,Lukoil,Q329347
4388,lukoil,Grdica 1,"Grdicka, nn, 36000, Kralevo",Kralevo,Central Serbia,,RS,,,24/7,Lukoil,Q329347
4387,lukoil,Grdica 2,"Grdicka, nn, 36000, Kralevo",Kralevo,Central Serbia,,RS,,,24/7,Lukoil,Q329347
0e9f2e9ee138be6c1c1901a01402b5cd,western_union,MENJACNICA RMD 2014,,Kraljevo,Central Serbia,,RS,+381 36 5100150,https://location.westernunion.com/yu/state/kraljevo/0e9f2e9ee138be6c1c1901a01402b5cd,Mo-Sa 08:00-20:00; Su 10:00-16:00,Western Union,Q861042
a56fb4fba92585eca605007a1fc85356,western_union,MENJACNICA NIV 2018,,Kraljevo,Central Serbia,,RS,+381 61 6222540,https://location.westernunion.com/yu/state/kraljevo/a56fb4fba92585eca605007a1fc85356,Mo-Sa 08:00-20:00; Su 10:00-14:00,Western Union,Q861042
63ad42a4ed26d572dec33ec5127858a2,western_union,KNJAZ,,Kraljevo,Central Serbia,,RS,+381 11 3334999,https://location.westernunion.com/yu/state/kraljevo/63ad42a4ed26d572dec33ec5127858a2,Mo-Su 06:00-22:00,Western Union,Q861042
cc5eef13d5e9e22d793d4fb90fb4b3db,western_union,PCELICA 2007,,Kraljevo,Central Serbia,,RS,+381 11 3334999,https://location.westernunion.com/yu/state/kraljevo/cc5eef13d5e9e22d793d4fb90fb4b3db,Mo-Fr 07:00-20:00; Sa 07:00-14:00,Western Union,Q861042
d57663f8bbc2a80a9f000c970bf09212,western_union,MENJACKI POSLOVI KRALJEVO,,Kraljevo,Central Serbia,,RS,+381 11 3334999,https://location.westernunion.com/yu/state/kraljevo/d57663f8bbc2a80a9f000c970bf09212,Mo-Sa 07:00-20:00; Su 07:00-13:00,Western Union,Q861042
7deee1f1eeda2f80ab6d93789c92ec7d,western_union,MENJACNICA RSD,,Kraljevo,Central Serbia,,RS,+381 11 3334999,https://location.westernunion.com/yu/state/kraljevo/7deee1f1eeda2f80ab6d93789c92ec7d,Mo-Sa 07:00-21:00; Su 07:00-17:00,Western Union,Q861042
e049958262787c67cdeb7bb9267a754a,western_union,MENJACNICA EXPRESS NO 1,,Kraljevo,Central Serbia,,RS,+381 36 326640,https://location.westernunion.com/yu/state/kraljevo/e049958262787c67cdeb7bb9267a754a,Mo-Fr 07:30-20:00; Sa 08:00-20:00; Su 10:00-14:00,Western Union,Q861042
8b4bb825e54afadcf929860fdf25e347,western_union,CUPKO 2,,Kraljevo,Central Serbia,,RS,+381 11 3334999,https://location.westernunion.com/yu/state/kraljevo/8b4bb825e54afadcf929860fdf25e347,Mo-Fr 09:00-17:00; Sa 09:00-15:00,Western Union,Q861042
2025b8cb3deab524c8ba48da7b33e05e,western_union,MENJACNICA 26 JULI,,Kraljevo,Central Serbia,,RS,+381 65 4667350,https://location.westernunion.com/yu/state/kraljevo/2025b8cb3deab524c8ba48da7b33e05e,Mo-Sa 08:00-22:00; Su 10:00-22:00,Western Union,Q861042
2705b275d224c1afbf3b063bea212d11,western_union,MENJACNICA DMB 2008,,Kraljevo,Central Serbia,,RS,+381 11 3334999,https://location.westernunion.com/yu/state/kraljevo/2705b275d224c1afbf3b063bea212d11,Mo-Su 07:00-15:00,Western Union,Q861042
77186f3b2851b22d35b426f43dc7ed61,western_union,MENJACKI POSLOVI 2,,Kraljevo,Central Serbia,,RS,+381 11 3334999,https://location.westernunion.com/yu/state/kraljevo/77186f3b2851b22d35b426f43dc7ed61,Mo-Su 07:00-15:00,Western Union,Q861042
21745c2bedcc7be59e3250071ec43cf6,western_union,MENJACNICA VLADIMIR 984,,Kraljevo,Central Serbia,,RS,+381 36 311288,https://location.westernunion.com/yu/state/kraljevo/21745c2bedcc7be59e3250071ec43cf6,Mo-Fr 08:00-19:00; Sa 09:00-15:00,Western Union,Q861042
9a1b72a3932d5fa547e243448fd5adea,western_union,ERSTE BANK AD NOVI SAD,,Kraljevo,Central Serbia,,RS,+381 11 3300300,https://location.westernunion.com/yu/state/kraljevo/9a1b72a3932d5fa547e243448fd5adea,Mo-We 09:00-17:00; Th 09:00-18:00; Fr 09:00-17:00,Western Union,Q861042
0f2eabd7f95bfbf75fa2eb442da3c456,western_union,MENJACNICA STEVANI 2,,Kraljevo,Central Serbia,,RS,+381 36 324369,https://location.westernunion.com/yu/state/kraljevo/0f2eabd7f95bfbf75fa2eb442da3c456,Mo-Fr 08:00-16:00; Sa-Su 08:00-15:00,Western Union,Q861042
4fdfdc000b13c4145c0772acb7a3239c,western_union,IRENA,,Kraljevo,Central Serbia,,RS,+381 11 3334999,https://location.westernunion.com/yu/state/kraljevo/4fdfdc000b13c4145c0772acb7a3239c,Mo-Sa 07:00-15:00; Su 08:00-13:00,Western Union,Q861042
d6d23268b853eec50edcc9f96445344d,western_union,MENJACNICA HALO HALO,,Kraljevo,Central Serbia,,RS,+381 65 5759569,https://location.westernunion.com/yu/state/kraljevo/d6d23268b853eec50edcc9f96445344d,Mo-Fr 08:00-20:00; Sa 08:00-16:00,Western Union,Q861042
b6c64b216850380fc37051ebfa4f8837,western_union,MENJACNICA STEVANI 2,,Kraljevo,Central Serbia,,RS,+381 36 338564,https://location.westernunion.com/yu/state/kraljevo/b6c64b216850380fc37051ebfa4f8837,Mo-Fr 08:00-16:00,Western Union,Q861042
7be832d5399e4c0ac384b8ed5226f954,western_union,PELIKAN 1  BEST KOMERC,,Kraljevo,Central Serbia,,RS,+381 11 3334999,https://location.westernunion.com/yu/state/kraljevo/7be832d5399e4c0ac384b8ed5226f954,Mo-Fr 08:00-20:00; Sa 08:00-14:00,Western Union,Q861042
c4692ec6466a7d70d02514069fd77e77,western_union,MENJACNICA STEVANI 2,,Kraljevo,Central Serbia,,RS,+381 36 351650,https://location.westernunion.com/yu/state/kraljevo/c4692ec6466a7d70d02514069fd77e77,Mo-Fr 08:00-20:00; Sa 08:00-15:00,Western Union,Q861042
a58bf916f53d82b87e08de47e4b2f4b9,western_union,BANKA POSTANSKA STEDIONICA,,Kraljevo,Central Serbia,,RS,+381 11 3024662,https://location.westernunion.com/yu/state/kraljevo/a58bf916f53d82b87e08de47e4b2f4b9,Mo-Fr 07:30-20:00; Sa 08:00-15:00,Western Union,Q861042
7342c3f8a4ebce6be73a1204a87dd7cc,western_union,VEKO ID 2014 2,,Kraljevo,Central Serbia,,RS,+381 11 3334999,https://location.westernunion.com/yu/state/kraljevo/7342c3f8a4ebce6be73a1204a87dd7cc,Mo-Sa 08:00-17:30,Western Union,Q861042
327a97f3b05301b56f073f25ce021a08,western_union,HALKBANK AD BEOGRAD,,Kraljevo,Central Serbia,,RS,+381 11 3300300,https://location.westernunion.com/yu/state/kraljevo/327a97f3b05301b56f073f25ce021a08,Mo-Fr 07:30-15:30; Sa 08:00-12:00,Western Union,Q861042
4954c9c0790fa4390d48480c59eac8f3,western_union,CUPKO,,Kraljevo,Central Serbia,,RS,+381 11 3334999,https://location.westernunion.com/yu/state/kraljevo/4954c9c0790fa4390d48480c59eac8f3,Mo-Fr 08:00-21:00; Sa 08:00-20:00,Western Union,Q861042
d94861629815792e7737626f0b1e5bc0,western_union,TOKSI,,Kraljevo,Central Serbia,,RS,+381 11 3334999,https://location.westernunion.com/yu/state/kraljevo/d94861629815792e7737626f0b1e5bc0,Mo-Sa 07:00-23:00; Su 08:00-16:00,Western Union,Q861042
df185ac949c59a11b75a2b64219d66dc,western_union,EXCLUSIVE CHANGE 27,,Kraljevo,Central Serbia,,RS,+381 11 3334999,https://location.westernunion.com/yu/state/kraljevo/df185ac949c59a11b75a2b64219d66dc,Mo-Su 09:00-22:00,Western Union,Q861042
a8f2248c15c1c0995d862041eee6a415,western_union,JEKA 965,,Kraljevo,Central Serbia,,RS,+381 11 3334999,https://location.westernunion.com/yu/state/kraljevo/a8f2248c15c1c0995d862041eee6a415,Mo-Su 07:00-21:00,Western Union,Q861042
ccf7e80419f6365202a1b5cc1d27ddac,western_union,MENJACNICA VLADIMIR 984,,Kraljevo,Central Serbia,,RS,+381 36 336682,https://location.westernunion.com/yu/state/kraljevo/ccf7e80419f6365202a1b5cc1d27ddac,Mo-Sa 08:00-20:00,Western Union,Q861042
559e5991e09e36b9b6ee9a96a164ff2b,western_union,MENJACNICA VESKO,,Kraljevo,Central Serbia,,RS,+381 11 3334999,https://location.westernunion.com/yu/state/kraljevo/559e5991e09e36b9b6ee9a96a164ff2b,Mo-Su 08:30-20:30,Western Union,Q861042
