Ref,Spider,Name,Address,City,State,Zipcode,Country,Phone,Website,Hours,Brand,WikiData
3108,action,Menden,,Menden,,,DE,,https://www.action.com/de-de/laden/menden-unnaer-strabe/,,Action,Q2634111
https://vertretung.allianz.de/kuhlemann.vertretung/,allianz_de,Allianz Versicherung Dipl.-Kfm. Linus Kuhlemann GENERALVERTRETUNG,,Menden Sauerland,,,DE,+49 2373 4191,https://vertretung.allianz.de/kuhlemann.vertretung/,Mo-Fr 08:00-18:00,Allianz SE,Q487292
https://vertretung.allianz.de/seydi.goeksu/,allianz_de,Allianz Versicherung Seydi Ahmet Göksu HAUPTVERTRETUNG,,Menden Sauerland,,,DE,+49 2373 3978274,https://vertretung.allianz.de/seydi.goeksu/,Mo-Th 09:00-17:30,Allianz SE,Q487292
https://vertretung.allianz.de/guenter.tengler/,allianz_de,Allianz Versicherung Günter Tengler HAUPTVERTRETUNG,,Menden Sauerland,,,DE,+49 2373 932030,https://vertretung.allianz.de/guenter.tengler/,"Mo-Th 08:30-12:30,14:30-17:30; Fr 08:30-12:30",Allianz SE,Q487292
03892_5,bmw_group,Procar Automobile GmbH,,Menden,,,DE,+49 2373 92850,https://www.procar-automobile.de,,BMW,Q26678
15282,burgerking,Burger King,,Menden,,,DE,+49 2373 3978815,https://www.burgerking.de/store-locator/store/restaurant_9219,Mo-Th 10:00-00:00; Fr-Sa 10:00-02:00; Su 10:00-00:00,Burger King,Q177054
https://www.biomarkt.de/menden-unnaer-str-24,denns_de,Denns BioMarkt Menden,,Menden,,,DE,+49 2373 1707737,https://www.biomarkt.de/menden-unnaer-str-24/marktseite,,Denns BioMarkt,Q48883773
50,deutsche_telekom_de,Telekom Shop Menden,,Menden,,,DE,+49 2373 391339,https://shopseite.telekom.de/west/menden/hauptstr-39,Mo-Fr 09:30-18:00; Sa 10:00-14:00,Deutsche Telekom,Q9396
51.43844167.7918587,dpd_de,NKD Deutschland GmbH,,Menden,,,DE,,,,DPD,Q541030
100150869,exxonmobil,Esso Station Menden,,MENDEN,,,DE,+49 2373 4470,https://www.esso.de/de-de/find-station/esso-menden-essostationmenden-100150869,Mo-Fr 05:00-00:00; Sa-Su 07:00-00:00,Esso,Q867662
FordGK2K670  DEU,ford,Autohaus Pflug GmbH & Co. KG Menden,,Menden,,,DE,+49 2373 93950,www.ford-pflug-menden.de,,Ford,Q44294
https://www.fressnapf.de/stores/fressnapf-menden/,fressnapf_de,Fressnapf Menden,,Menden,,,DE,+49 2373 919276,https://www.fressnapf.de/stores/fressnapf-menden/,Mo-Sa 09:00-20:00,Fressnapf,Q875796
2760232035,gls_de,Radio Neuhaus GmbH,,Menden,,,DE,+49 2373 15015,,"Mo-Fr 09:00-12:30,14:30-18:30; Sa 09:00-13:00",General Logistics Systems,Q46495823
2760916101,gls_de,Musikhaus Jost / MacJoker Spielzeug,,Menden,,,DE,+49 2373 2893,,"Mo-Tu 09:30-12:30,14:30-18:00; We 09:30-12:30; Th-Fr 09:30-12:30,14:30-18:00; Sa 09:30-14:00",General Logistics Systems,Q46495823
5917,kik,KiK,,Menden,,,DE,+49 2373 1708294,,Mo-Sa 09:00-19:00,KiK,Q883965
9174,lidl_de,,,Menden-Mitte,,,DE,,,Mo-Sa 07:00-21:00,Lidl,Q151954
177802,sparkasse_de,Sparkasse Märkisches Sauerland Hemer-Menden Geldautomat Menden-Nord,,Menden,,,DE,+49 2372 5080,https://www.sparkasse.de/standorte/geldautomaten/sparkasse-maerkisches-sauerland-hemer-menden-geldautomat-menden-nord-177802,Mo-Su 06:00-23:00,Sparkasse,Q13601825
177799,sparkasse_de,Sparkasse Märkisches Sauerland Hemer-Menden SB-Geschäftsstelle Menden-Nord,,Menden,,,DE,+49 2372 5080,https://www.sparkasse.de/standorte/filialen/sparkasse-maerkisches-sauerland-hemer-menden-sb-geschaeftsstelle-menden-nord-177799,Mo-Su 06:00-23:00,Sparkasse,Q13601825
109989,sparkasse_de,Sparkasse Märkisches Sauerland Hemer-Menden Hauptstelle Menden,,Menden,,,DE,+49 2373 1620,https://www.sparkasse.de/standorte/filialen/sparkasse-maerkisches-sauerland-hemer-menden-hauptstelle-menden-109989,Mo-We 09:00-16:00; Th 09:00-18:00; Fr 09:00-14:00,Sparkasse,Q13601825
177926,sparkasse_de,Sparkasse Märkisches Sauerland Hemer-Menden Geldautomat Bösperde (im Kaufland),,Menden,,,DE,+49 2372 5080,https://www.sparkasse.de/standorte/geldautomaten/sparkasse-maerkisches-sauerland-hemer-menden-geldautomat-boesperde-im-kaufland-177926,Mo-Sa 07:00-22:00,Sparkasse,Q13601825
177923,sparkasse_de,Sparkasse Märkisches Sauerland Hemer-Menden SB-Geschäftsstelle Bösperde (im Kaufland),,Menden,,,DE,+49 2372 5080,https://www.sparkasse.de/standorte/filialen/sparkasse-maerkisches-sauerland-hemer-menden-sb-geschaeftsstelle-boesperde-im-kaufland-177923,Mo-Sa 07:00-22:00,Sparkasse,Q13601825
ND005652,totalenergies,MENDEN WERLER STR. 60,,MENDEN,,,DE,+49 2373 3544,https://store.totalenergies.fr/en_EN/ND005652,24/7,TotalEnergies,Q154037
https://www.vlh.de/bst/5815/Oeffnungszeiten.html,vhl_de,VLH-Beraterin Vera Schulte in Menden,,Menden,,,DE,,https://www.vlh.de/bst/5815/,Sa 09:00-12:00,Vereinigte Lohnsteuerhilfe e.V.,Q15852617
https://www.vlh.de/bst/5465/Oeffnungszeiten.html,vhl_de,VLH-Berater Hans Jürgen Rieber in Menden,,Menden,,,DE,+49 2373 3990013,https://www.vlh.de/bst/5465/,,Vereinigte Lohnsteuerhilfe e.V.,Q15852617
,visa,,,MENDEN,,,DE,,,,,
,visa,,,MENDEN,,,DE,,,,,
,visa,,,MENDEN,,,DE,,,,,
,visa,,,MENDEN,,,DE,,,,,
https://www.vr.de/standorte/M/maerkische-bank-eg-sb-filiale-menden-kaufland-18744.html,vr_bank,Märkische Bank eG SB-Filiale Menden-Kaufland,,Menden,,,DE,+49 2331 2090,https://www.maerkische-bank.de,Mo-Sa 07:00-22:00,,
https://www.vr.de/standorte/M/mendener-bank-eg-kundencenter-menden-5564.html,vr_bank,Mendener Bank eG KundenCenter Menden,,Menden,,,DE,+49 2373 39710,https://www.mendener-bank.de,"Mo-We 09:00-12:30,14:00-16:30; Th 09:00-12:30,14:00-19:00; Fr 09:00-13:30",,
https://www.vr.de/standorte/M/maerkische-bank-eg-kompetenzcenter-menden-5565.html,vr_bank,Märkische Bank eG Kompetenzcenter Menden,,Menden,,,DE,+49 2373 93560,https://www.maerkische-bank.de,Mo-Th 08:00-19:00; Fr 08:00-16:00,,
