Ref,Spider,Name,Address,City,State,Zipcode,Country,Phone,Website,Hours,Brand,WikiData
220,aaa,Chesterfield VA,,Chesterfield,VA,,US,+1 804-379-4487,,,American Automobile Association,Q463436
https://stores.advanceautoparts.com/va/north-chesterfield/10052-midlothian-tpke,advance_auto_parts_us,Advance Auto Parts,,North Chesterfield,VA,,US,+1 804-327-9067,https://stores.advanceautoparts.com/va/north-chesterfield/10052-midlothian-tpke,Mo-Fr 07:30-18:00; Sa 08:00-17:00; Su 09:00-16:00,Advance Auto Parts,Q4686051
https://stores.aldi.us/#4420192,aldi_sud_us,ALDI  1670 Mall Drive,,North Chesterfield,VA,,US,+1 833-480-1006,https://stores.aldi.us/va/north-chesterfield/1670-mall-drive,Mo-Su 09:00-20:00,ALDI,Q41171672
9211 Forest Hill Ave,allied_universal,Allied Universal,,Richmond,VA,,US,+1 804-560-0162,https://www.aus.com/richmond-commercial-security-systems-services,,Allied Universal,Q4732537
https://storelocations.ae.com/#1726274,american_eagle_outfitters,American Eagle Store Chesterfield Towne Center,,Richmond,VA,,US,+1 804-379-2463,https://storelocations.ae.com/us/va/richmond/11500-midlothian-turnpike.html,Mo-Th 11:00-19:00; Fr-Sa 11:00-20:00; Su 12:00-18:00,American Eagle Store,Q2842931
0caae76e-b1cf-eb11-80d9-005056820081,amf_bowling,Bowl America Midlothian,,Richmond,VA,,US,,https://www.bowlero.com/location/bowl-america-midlothian,,Bowlero,Q17102967
https://locations.arbys.com/va/richmond/10901-midlothian-tpk.html,arbys_us,"Arby's Fast-Food Drive Through Near You in Richmond, VA",,Richmond,VA,,US,+1 804-794-9759,https://locations.arbys.com/va/richmond/10901-midlothian-tpk.html,Mo-Su 10:00-22:00,Arby's,Q630866
12083,asics_us,DICK'S Sporting Goods  - North Chesterfield,1520 W Koger Center Blvd,North Chesterfield,VA,,US,+1 804-897-5299,,Mo-Sa 09:00-21:00; Su 10:00-19:00,asics,Q327247
62401,asics_us,Finish Line,11500 Midlothian Turnpike,Richmond,VA,,US,+1 804-594-0494,,,asics,Q327247
https://locations.auntieannes.com/#5413,auntie_annes,Auntie Anne's Chesterfield Towne Center,,North Chesterfield,VA,,US,+1 804-920-3838,https://locations.auntieannes.com/va/north-chesterfield/11500-midlothian-tpke,Mo-Sa 11:00-19:00; Su 12:00-18:00,Auntie Anne's,Q4822010
2012,autozone_us,AutoZone Auto Parts North Chesterfield,,North Chesterfield,VA,,US,+1 804-674-7385,https://www.autozone.com/locations/va/north-chesterfield/7222-hull-street-rd.html,Mo-Fr 07:30-22:00; Sa 07:30-21:00; Su 08:00-21:00,AutoZone,Q4826087
4641,autozone_us,AutoZone Auto Parts North Chesterfield,,North Chesterfield,VA,,US,+1 804-378-7281,https://www.autozone.com/locations/va/north-chesterfield/11523-midlothian-turnpike.html,Mo-Sa 07:30-20:00; Su 08:30-20:00,AutoZone,Q4826087
https://www.avis.com/en/locations/us/va/richmond/xr4,avis,Avis U S A Richmond,,Richmond,VA,,US,+1 804-272-1476,https://www.avis.com/en/locations/us/va/richmond/xr4,Mo-Fr 08:00-18:00; Sa 08:30-13:00; Su 09:00-13:00,Avis,Q791136
https://www.banfield.com/locations/veterinarians/va/north-chesterfield/cht,banfield_pet_hospital,"Chesterfield, VA",,North Chesterfield,VA,,US,+1 804-794-1122,https://www.banfield.com/locations/veterinarians/va/north-chesterfield/cht,Mo-Sa 08:00-18:00; Su 09:00-17:00,Banfield Pet Hospital,Q2882416
https://locators.bankofamerica.com/va/richmond/financial-centers-richmond-8260.html,bankofamerica,Bank of America Financial Center & Drive-Thru ATM | Turner Road,,Richmond,VA,,US,+1 804-674-8650,https://locators.bankofamerica.com/va/richmond/financial-centers-richmond-8260.html,Mo-Fr 10:00-16:00; Sa 10:00-14:00,Bank of America,Q487907
https://locators.bankofamerica.com/va/richmond/financial-centers-richmond-7474.html,bankofamerica,Bank of America Financial Center & Drive-Thru ATM | Johnston-Willis,,Richmond,VA,,US,+1 804-378-8675,https://locators.bankofamerica.com/va/richmond/financial-centers-richmond-7474.html,Mo-Fr 09:00-17:00; Sa 09:00-14:00,Bank of America,Q487907
https://locators.bankofamerica.com/va/richmond/atm-richmond-105528.html,bankofamerica,Bank of America Walk-Up ATM | The Shoppes At Belgrade,,Richmond,VA,,US,+1 844-401-8500,https://locators.bankofamerica.com/va/richmond/atm-richmond-105528.html,,Bank of America,Q487907
https://locators.bankofamerica.com/va/richmond/atm-richmond-110970.html,bankofamerica,Bank of America Walk-Up ATM | Bon Air Remote,,Richmond,VA,,US,+1 844-401-8500,https://locators.bankofamerica.com/va/richmond/atm-richmond-110970.html,,Bank of America,Q487907
BBW00321,bathandbodyworks_us,CHESTERFIELD TOWN CENTER,,RICHMOND,VA,,US,+1 804-378-9445,,Mo-Th 11:00-19:00; Fr-Sa 11:00-20:00; Su 12:00-18:00,Bath & Body Works,Q810773
318,batteriesplus,Shop our Richmond store today,,Richmond,VA,,US,+1 804-320-7707,https://www.batteriesplus.com/store-locator/va/richmond/batteries-plus-318,Mo-Fr 08:00-20:00; Sa 08:00-19:00; Su 10:00-18:00,Batteries Plus Bulbs,Q17005157
https://stores.bestbuy.com/va/richmond/1560-w-koger-center-blvd-422.html,bestbuy,Best Buy Chesterfield,,Richmond,VA,,US,+1 804-897-8080,https://stores.bestbuy.com/va/richmond/1560-w-koger-center-blvd-422.html,,Best Buy,Q533415
https://local.biglots.com/#13189970,biglots,Big Lots - Richmond: Bon Air,,North Chesterfield,VA,,US,+1 804-272-0887,https://local.biglots.com/va/north-chesterfield/8533-midlothian-tpke,Mo-Th 10:00-21:00; Fr-Sa 09:00-21:00; Su 11:00-19:00,Big Lots,Q4905973
199876,bluerhino,Publix #1679,,North Chesterfield,VA,,US,+1 804-330-3704,,,Blue Rhino,Q65681213
5547,bluerhino,Lowe's #113,,Richmond,VA,,US,+1 804-379-8500,,,Blue Rhino,Q65681213
225473,bluerhino,Royal Farms #484,,Richmond,VA,,US,,,,Blue Rhino,Q65681213
156464,bluerhino,Walgreens #4250,,Richmond,VA,,US,+1 804-320-9752,,,Blue Rhino,Q65681213
41062,bluerhino,Food Lion #0623,,Richmond,VA,,US,+1 804-330-7866,,,Blue Rhino,Q65681213
47332,bluerhino,Kroger #501 - MidAtlantic,,Richmond,VA,,US,+1 804-675-2288,,,Blue Rhino,Q65681213
va/richmond/2807-hicks-road,bojangles,"Bojangles Richmond, VA",,Richmond,VA,,US,+1 804-562-5327,https://locations.bojangles.com/va/richmond/2807-hicks-road.html,,Bojangles',Q891163
05644754111302323500100000000000,bp,BP,,Richmond,VA,,US,+1 804-330-5805,,Mo-Su 06:00-22:00,BP,Q152057
76978667312002323500100000000000,bp,BP,,Richmond,VA,,US,+1 804-320-2412,,Mo-Th 06:00-22:00; Fr-Sa 06:00-23:00; Su 06:00-22:00,BP,Q152057
96750495652202323500100000000000,bp,BP,,Richmond,VA,,US,+1 804-330-3318,,Mo-Su 06:00-23:00,BP,Q152057
09235912485312323500100000000000,bp,Amoco,,Richmond,VA,,US,+1 804-420-4793,,Mo-Fr 06:00-22:00; Sa-Su 07:00-22:00,BP,Q152057
93142926552112323500100000000000,bp,BP,,Bon Air,VA,,US,+1 804-918-4192,,Mo-Su 07:00-22:30,BP,Q152057
https://locations.carrabbas.com/#15502964,carrabbasitaliangrill,"Carrabba's Richmond, VA",,Richmond,VA,,US,+1 804-794-1771,https://locations.carrabbas.com/virginia/richmond/11450-midlothian-turnpike,Mo-Th 11:00-22:00; Fr-Sa 11:00-23:00; Su 11:00-22:00,Carrabba's Italian Grill,Q5045999
//locations.carters.com/va/richmond/carters-richmond-chesterfield-va,carters_us,Carter's Chesterfield,,Richmond,VA,,US,+1 804-594-8712,https://locations.carters.com/va/richmond/carters-richmond-chesterfield-va,Mo-Th 11:00-19:00; Fr-Sa 11:00-20:00; Su 12:00-18:00,Carter's,Q5047083
34158424,chase_us,DU ISLAND - 846158,,RICHMOND,VA,,US,+1 800-935-9935,https://locator.chase.com/va/richmond/9101-midlothian-turnpike,,Chase,Q524629
https://schools.childcarenetwork.com/va/richmond/8210-walmsley-blvd,childcare_network_us,Childcare Network,,Richmond,VA,,US,+1 804-276-0959,https://schools.childcarenetwork.com/va/richmond/8210-walmsley-blvd,,Childcare Network,Q121356406
va_north-chesterfield_11440-midlothian-tpke,chipotle, ,,North Chesterfield,VA,,US,+1 804-379-2791,https://locations.chipotle.com/va/north-chesterfield/11440-midlothian-tpke,,Chipotle,Q465751
https://locations.chuckecheese.com/us/va/richmond/10430-midlothian-turnpike,chuckecheese,Chuck E. Cheese,,Richmond,VA,,US,+1 804-330-9865,https://locations.chuckecheese.com/us/va/richmond/10430-midlothian-turnpike,Mo-Th 11:00-21:00; Fr 11:00-22:00; Sa 10:00-22:00; Su 11:00-21:00,Chuck E. Cheese,Q2438391
68288,citi,ATM PNC AT SHEETZ,,Richmond,VA,,US,,,,Citibank,Q857063
45848,citi,ATM Costco,,Richmond,VA,,US,,,,Citibank,Q857063
81443,citi,ATM Target,,Richmond,VA,,US,,,,Citibank,Q857063
68998,citi,ATM PNC AT WAWA,,Richmond,VA,,US,,,,Citibank,Q857063
74781,citi,ATM Royal Farms #0484 - 2,,Richmond,VA,,US,,,,Citibank,Q857063
74792,citi,ATM Royal Farms 1,,Richmond,VA,,US,,,,Citibank,Q857063
74843,citi,ATM Royal Farms 2,,Richmond,VA,,US,,,,Citibank,Q857063
74780,citi,ATM Royal Farms #0484 - 1,,Richmond,VA,,US,,,,Citibank,Q857063
46765,citi,ATM CVS,,Richmond,VA,,US,,,,Citibank,Q857063
45506,citi,ATM CONNECTS FEDERAL CREDIT UNION,,Richmond,VA,,US,,,,Citibank,Q857063
28365,citi,ATM 7ELEVEN-FCTI,,Richmond,VA,,US,,,,Citibank,Q857063
53194,citi,ATM CVS,,Richmond,VA,,US,,,,Citibank,Q857063
88608,citi,ATM Walgreens,,Chesterfield,VA,,US,,,,Citibank,Q857063
52972,citi,ATM CVS,,Richmond,VA,,US,,,,Citibank,Q857063
61258,citi,ATM Kroger,,North Chesterfield,VA,,US,,,,Citibank,Q857063
37278,citi,ATM Bryant And Stratton,,North Chesterfield,VA,,US,,,,Citibank,Q857063
44493,citi,ATM Circle K Macs,,Richmond,VA,,US,,,,Citibank,Q857063
52415,citi,ATM CVS,,Richmond,VA,,US,,,,Citibank,Q857063
richmond/5627,claires,Shop Ear Piercings & Jewelry at Chesterfield Towne Center,,RICHMOND,VA,,US,+1 804-379-8906,https://stores.claires.com/us/va/richmond/5627.html,Mo-Th 11:00-19:00; Fr-Sa 11:00-20:00; Su 12:00-18:00,Claire's,Q2974996
441,cookout,Midlothian Turnpike,,Richmond,VA,,US,,https://www.facebook.com/Cook-Out-Midlothian-Turnpike-794685847347782/,Mo-Th 10:30-03:00; Fr-Sa 10:30-04:00; Su 10:30-03:00,Cookout,Q5166992
423,cookout,Monticello Ave.,,Norfolk,VA,,US,,https://www.facebook.com/Cook-Out-Monticello-Ave-145050145667487/,Mo-Th 10:30-03:00; Fr-Sa 10:30-04:00; Su 10:30-03:00,Cookout,Q5166992
,credit_union_us,Connects FCU,,North Chesterfield,VA,,US,+1 804-756-5000,,Mo-Fr 09:00-05:00,,
70088261,cricket_wireless,Cricket Wireless Authorized Retailer,,North Chesterfield,VA,,US,+1 804-447-5420,https://www.cricketwireless.com/stores/ll/US/VA/North-Chesterfield/7112-Hull-Street-Rd,Mo-Sa 10:00-20:00; Su 12:00-18:00,Cricket Wireless,Q5184987
308,crunch_fitness,Crunch Fitness,,Richmond,VA,,US,+1 804-245-8905,https://www.crunch.com/locations/midlothian,,Crunch Fitness,Q5190093
16426,cvs_us,CVS Pharmacy,,Richmond,VA,,US,+1 804-897-5245,https://www.cvs.com/store-locator/richmond-va-pharmacies/11301-midlothian-tpke-richmond-va-23235/storeid=16426,"Mo-Fr 09:00-13:30,14:00-19:00; Sa 09:00-13:30,14:00-17:00; Su 11:00-13:30,14:00-17:00",CVS Pharmacy,Q2078880
3328,cvs_us,CVS Pharmacy,,Richmond,VA,,US,+1 804-674-8196,https://www.cvs.com/store-locator/richmond-va-pharmacies/6911-walmsley-boulevard-richmond-va-23235/storeid=3328,Mo-Su 08:00-22:00,CVS Pharmacy,Q2078880
1546,cvs_us,CVS Pharmacy,,Richmond,VA,,US,+1 804-320-7367,https://www.cvs.com/store-locator/richmond-va-pharmacies/8811-forest-hill-road-richmond-va-23235/storeid=1546,Mo-Su 08:00-22:00,CVS Pharmacy,Q2078880
2706,cvs_us,CVS Pharmacy,,Richmond,VA,,US,+1 804-560-9481,https://www.cvs.com/store-locator/richmond-va-pharmacies/8121-midlothian-turnpike-richmond-va-23235/storeid=2706,24/7,CVS Pharmacy,Q2078880
2193,cvs_us,CVS Pharmacy,,Richmond,VA,,US,+1 804-560-9082,https://www.cvs.com/store-locator/richmond-va-pharmacies/10100-robious-rd-richmond-va-23235/storeid=2193,Mo-Th 08:00-22:00; Fr-Sa 08:00-23:00; Su 08:00-22:00,CVS Pharmacy,Q2078880
102,dickssportinggoods,"DICK'S Sporting Goods Store in North Chesterfield, VA | 102",,North Chesterfield,VA,,US,+1 804-897-5299,https://stores.dickssportinggoods.com/va/north-chesterfield/102/,Mo-Sa 09:00-21:00; Su 10:00-19:00,Dick's Sporting Goods,Q5272601
0179,dillards,"Dillard's Stony Point Fashion Park in Richmond, Virginia",,Richmond,VA,,US,+1 804-253-1860,https://www.dillards.com/stores/virginia/stony-point-fashion-park-richmond/0179,Mo-Sa 11:00-20:00; Su 12:00-18:00,Dillard's,Q844805
356915,dunkin_us,Dunkin',,Richmond,VA,,US,+1 804-320-3260,https://locations.dunkindonuts.com/en/va/richmond/8501-midlothian-turnpike/356915,Mo-Su 05:00-19:00,Dunkin',Q847743
https://www.edwardjones.com/us-en/financial-advisor/kevin-clark2,edwardjones,Kevin Clark,,Richmond,VA,,US,+1 804-320-6067,https://www.edwardjones.com/us-en/financial-advisor/kevin-clark2,Mo-Fr 08:30-17:00,Edward Jones,Q5343830
3058-stony-point-rd,einsteinbros,Stony Point Rd & Huguenot Rd Einstein Bros. Bagels,,Richmond,VA,,US,+1 804-320-0988,https://locations.einsteinbros.com/us/va/richmond/3058-stony-point-rd,Mo-Su 06:00-14:00,Einstein Bros. Bagels,Q5349788
E121F2,enterprise,Richmond Midlothian & Powhite,,Richmond,VA,,US,+1 804-560-9494,,,Enterprise Rent-A-Car,Q17085454
E12111,enterprise,Richmond Buford & Midlothian,,Richmond,VA,,US,+1 804-330-3030,,,Enterprise Rent-A-Car,Q17085454
E1215T,enterprise,Enterprise Rent-A-Car,,North Chesterfield,VA,,US,+1 804-330-4467,,,Enterprise Rent-A-Car,Q17085454
E1217T,enterprise,Richmond Truck Rental,,Richmond,VA,,US,+1 804-330-4467,,,Enterprise Rent-A-Car,Q17085454
E121W3,enterprise,Richmond Hull Street Rd.,,North Chesterfield,VA,,US,+1 804-205-9000,,,Enterprise Rent-A-Car,Q17085454
1000000335,extra_space_storage,Richmond Self Storage at 8025 Midlothian Tpke,,Richmond,VA,,US,+1 804-560-7735,https://www.extraspace.com/storage/facilities/us/virginia/richmond/1000000335/,Mo-Su 06:00-22:00,Extra Space Storage,Q5422162
4137,extra_space_storage,North Chesterfield Self Storage at 1671 Mall Dr,,North Chesterfield,VA,,US,+1 804-215-1790,https://www.extraspace.com/storage/facilities/us/virginia/north_chesterfield/4137/,Mo-Fr 09:30-18:00; Sa 09:00-17:30,Extra Space Storage,Q5422162
200326674,exxonmobil,ARCH VILLAGE,,NORTH CHESTERFIELD,VA,,US,,https://www.exxon.com/en/find-station/exxon-northchesterfield-va-archvillage-200326674,24/7,Exxon,Q109675651
200319598,exxonmobil,Exxon,,BON AIR,VA,,US,,https://www.exxon.com/en/find-station/exxon-bonair-va-exxon-200319598,Mo-Su 07:00-22:00,Exxon,Q109675651
200317534,exxonmobil,A-PLUS #14,,RICHMOND,VA,,US,+1 804-864-5891,https://www.exxon.com/en/find-station/exxon-richmond-va-aplus14-200317534,24/7,Exxon,Q109675651
200313942,exxonmobil,A-PLUS #45,,BON AIR,VA,,US,+1 804-276-7722,https://www.exxon.com/en/find-station/exxon-bonair-va-aplus45-200313942,24/7,Exxon,Q109675651
https://local.fedex.com/#1020177162,fedex,FedEx Authorized ShipCenter,,Richmond,VA,,US,+1 804-964-3911,https://local.fedex.com/en-us/va/richmond/00w3q,,FedEx,Q459477
https://local.fedex.com/#25203379,fedex,,,North Chesterfield,VA,,US,+1 800-463-3339,https://local.fedex.com/en-us/va/north-chesterfield/am84b,,FedEx,Q459477
https://stores.finishline.com/va/richmond/chesterfield-town-center.html,finishline,Finish Line,,Richmond,VA,,US,+1 804-594-0494,https://stores.finishline.com/va/richmond/chesterfield-town-center.html,Mo-Th 11:00-19:00; Fr-Sa 11:00-20:00; Su 12:00-18:00,Finish Line,Q5450341
19151,firestone_auto_care,Firestone Complete Auto Care,,North Chesterfield,VA,,US,+1 804-212-2994,https://local.firestonecompleteautocare.com/virginia/north-chesterfield/2001-huguenot-rd/,,Firestone,Q420837
https://locations.fivebelow.com/va/richmond/11350-midlothian-turnpike,five_below,Five Below Chesterfield Town Center Plaza,,Richmond,VA,,US,,https://locations.fivebelow.com/va/richmond/11350-midlothian-turnpike,Mo-Sa 10:00-20:00; Su 11:00-18:00,Five Below,Q5455836
https://stores.footlocker.com/va/richmond/11500-midlothian-turnpike-7951.html,footlocker,"Foot Locker in Richmond: Richmond, Virginia | Approved | Own It",,Richmond,VA,,US,+1 804-379-3845,https://stores.footlocker.com/va/richmond/11500-midlothian-turnpike-7951.html,Mo-Th 11:00-19:00; Fr-Sa 11:00-20:00; Su 12:00-18:00,Foot Locker,Q63335
Motorcraft2299USAEnglish,ford,Sheehy Ford Lincoln,,Virginia,VA,,US,+1 804-794-0500,,,Ford,Q44294
https://www.ford.com/dealerships/dealer-details/va/richmond/sheehy-ford-of-richmond/,ford_dealers_us,Sheehy Ford of Richmond,,Richmond,VA,,US,+1 804-566-3130,https://www.ford.com/dealerships/dealer-details/va/richmond/sheehy-ford-of-richmond/,Mo-Fr 09:00-20:00; Sa 09:00-18:00; Su 12:00-17:00,Ford Motor Company,Q44294
7815,gamestop_us,Shoppes at Mall Drive - Gamestop,,Richmond,VA,,US,+1 804-897-4888,https://www.gamestop.com/search/?store=7815,Mo-Th 12:00-20:00; Fr-Sa 11:00-21:00; Su 11:00-19:00,GameStop,Q202210
richmond_brian-cory,geico,Brian Cory,,Richmond,VA,,US,+1 804-591-4797,https://www.geico.com/insurance-agents/virginia/richmond/brian-cory/,,GEICO,Q1498689
https://stores.gnc.com/#24058472,gnc,GNC Chesterfield Town Center,,,VA,,US,+1 804-379-7439,https://stores.gnc.com/all-stores-virginia/richmond/11500-midlothian-turnpike,Mo-Th 11:00-19:00; Fr-Sa 11:00-20:00; Su 12:00-18:00,GNC,Q4808595
https://www.goldsgym.com/richmondsouthsideva/,goldsgym,Gold's Gym Richmond (Arboretum),,Richmond,VA,,US,+1 804-562-4631,https://www.goldsgym.com/richmondsouthsideva/,Mo-Th 04:00-23:00; Fr 04:00-22:00; Sa-Su 07:00-20:00,Gold's Gym,Q1536234
0519f063-458a-e111-8dde-005056934050,goodwill,Midlothian Crossing Retail Store,,Richmond,VA,,US,+1 804-320-6733,https://www.goodwill.org/locator/location/?store=MDUxOWYwNjMtNDU4YS1lMTExLThkZGUtMDA1MDU2OTM0MDUw&lat=MzcuNDk0NDE=&lng=LTc3LjU1NDIx,,Goodwill,Q5583655
https://www.habitburger.com/locations/richmond-midlothian-va-dt/,habit_burger,The Habit Burger Grill,,Richmond,VA,,US,+1 804-351-8635,https://www.habitburger.com/locations/richmond-midlothian-va-dt/,Mo-Th 10:30-21:30; Fr-Sa 10:30-22:30; Su 10:30-21:30,The Habit Burger Grill,Q18158741
ricksdt-doubletree-richmond-midlothian,hilton,DoubleTree by Hilton Hotel Richmond - Midlothian,,,VA,,US,+1 804-379-3800,https://www.hilton.com/ar/hotels/ricksdt-doubletree-richmond-midlothian/,,DoubleTree by Hilton,Q2504643
US0441,hm,Chesterfield Towne Center,,Richmond,VA,,US,+1 855-466-7467,,Mo-Th 11:00-19:00; Fr-Sa 11:00-20:00; Su 12:00-18:00,H&M,Q188326
44263,h_r_block,H&R Block,,Richmond,VA,,US,+1 804-330-2435,https://www.hrblock.com/local-tax-offices/virginia/richmond/arch-village-shopping-center/44263/,,H&R Block,Q5627799
va_richmond_breakfast-1101-carmia-way-3722,ihop,IHOP Breakfast Restaurants Near You at 1101 Carmia Way,,Richmond,VA,,US,+1 866-891-0844,https://restaurants.ihop.com/en-us/va/richmond/breakfast-1101-carmia-way-3722,,IHOP,Q1185675
va_richmond_breakfast-7714-midlothian-turnpike-571,ihop,IHOP Breakfast Restaurants Near You at 7714 Midlothian Turnpike,,Richmond,VA,,US,+1 804-327-1650,https://restaurants.ihop.com/en-us/va/richmond/breakfast-7714-midlothian-turnpike-571,,IHOP,Q1185675
https://office.jacksonhewitt.com/#27577906,jackson_hewitt,Jackson Hewitt,,Richmond,VA,,US,+1 804-745-7450,https://office.jacksonhewitt.com/tax-preparation-services-locations/en/va/richmond/7102-hull-street-rd/16194,Mo-Fr 10:00-18:00; Sa 10:00-17:00; Su 13:00-17:00,Jackson Hewitt,Q6117132
https://locations.kfc.com/#11249407,kfc,Chicken Nuggets Near Richmond,,Richmond,VA,,US,,https://locations.kfc.com/va/richmond/9300-midlothian-turnpike/chickennugget,Mo-Su 10:30-22:30,KFC,Q524757
000589,kindercare,Pocoshock KinderCare,,Richmond,VA,,US,,https://www.kindercare.com/our-centers/richmond/va/000589,,KinderCare Learning Centers,Q6410551
302027,kindercare,Bon Air KinderCare,,Richmond,VA,,US,,https://www.kindercare.com/our-centers/richmond/va/302027,,KinderCare Learning Centers,Q6410551
1401,kohls_us,Kohl's,,North Chesterfield,VA,,US,+1 804-794-1480,https://www.kohls.com/stores/va/northchesterfield-1401.shtml,Mo-Sa 09:00-21:00; Su 09:00-20:00,Kohl's,Q967265
1001,lidl_us,N Chesterfield VA - Mall Dr,,North Chesterfield,VA,,US,+1 844-747-5435,,,Lidl,Q151954
https://stores.loft.com/va/richmond/11500-midlothian-turnpike.html,loft_us,Loft,,Richmond,VA,,US,+1 804-794-1780,https://stores.loft.com/va/richmond/11500-midlothian-turnpike.html,,Loft,Q62075137
RICFW,marriott,Fairfield Inn & Suites Richmond Midlothian,,Richmond,VA,,US,+1 804-447-8326,https://www.marriott.com/RICFW,,Fairfield by Marriott,Q5430314
RICFP,marriott,Four Points by Sheraton Richmond,,Richmond,VA,,US,+1 804-323-1144,https://www.marriott.com/RICFP,,Four Points by Sheraton,Q1439966
RICLO,marriott,Residence Inn Richmond West/Midlothian,,Midlothian,VA,,US,+1 804-525-9090,https://www.marriott.com/RICLO,,Residence Inn by Marriott,Q7315394
17159,mattress_firm_us,Mattress Firm Midlothian and North Courthouse,,Richmond,VA,,US,+1 804-794-1947,https://www.mattressfirm.com/en-us/stores/va/richmond/171010/,,Mattress Firm,Q6791878
0074,mattress_warehouse_us,Mattress Warehouse,,Richmond,VA,,US,+1 804-378-7034,https://mattresswarehouse.com/store-locator/mattress-warehouse-of-towne_plaza-0074-richmond-va,Mo-Fr 10:00-21:00; Sa 10:00-20:00; Su 11:00-18:00,Mattress Warehouse,Q61995079
65988484,moneygram,CVS - #1546,,RICHMOND,VA,,US,+1 804-320-4367,,Mo-Su 08:00-22:00,MoneyGram,Q1944412
https://locations.oreillyauto.com/va/richmond/check-engine-light-testing-5099.html,oreilly,Your Richmond O'Reilly Auto Parts Store,,Richmond,VA,,US,+1 804-212-3076,https://locations.oreillyauto.com/va/richmond/check-engine-light-testing-5099.html,Mo-Sa 07:30-20:00; Su 09:00-20:00,O'Reilly Auto Parts,Q7071951
https://locations.oreillyauto.com/va/richmond/wiper-installation-5099.html,oreilly,Your Richmond O'Reilly Auto Parts Store,,Richmond,VA,,US,+1 804-212-3076,https://locations.oreillyauto.com/va/richmond/wiper-installation-5099.html,Mo-Sa 07:30-20:00; Su 09:00-20:00,O'Reilly Auto Parts,Q7071951
https://locations.oreillyauto.com/va/richmond/battery-testing-5099.html,oreilly,Your Richmond O'Reilly Auto Parts Store,,Richmond,VA,,US,+1 804-212-3076,https://locations.oreillyauto.com/va/richmond/battery-testing-5099.html,Mo-Sa 07:30-20:00; Su 09:00-20:00,O'Reilly Auto Parts,Q7071951
https://locations.oreillyauto.com/va/richmond/autopartes-5099.html,oreilly,Tu tienda O'Reilly Auto Parts en Richmond,,Richmond,VA,,US,+1 804-212-3076,https://locations.oreillyauto.com/va/richmond/autopartes-5099.html,Mo-Sa 07:30-20:00; Su 09:00-20:00,O'Reilly Auto Parts,Q7071951
https://www.orkin.com/locations/virginia-va/north-chesterfield-pest-control/branch-660,orkin_us,Orkin,,North Chesterfield,VA,,US,+1 804-299-7026,https://www.orkin.com/locations/virginia-va/north-chesterfield-pest-control/branch-660,,Orkin,Q7102943
//locations.oshkosh.com/va/richmond/oshkosh-richmond-chesterfield-va,oshkosh_us,Oshkosh B'gosh Midlothian,,Richmond,VA,,US,+1 804-594-8712,https://locations.oshkosh.com/va/richmond/oshkosh-richmond-chesterfield-va,Mo-Th 11:00-19:00; Fr-Sa 11:00-20:00; Su 12:00-18:00,OshKosh B'gosh,Q1417347
https://locations.outback.com/#15502221,outbacksteakhouse,Outback Steakhouse,,Richmond,VA,,US,+1 804-272-4500,https://locations.outback.com/virginia/richmond/2063-huguenot-road,Mo-Th 11:00-22:00; Fr-Sa 11:00-23:00; Su 11:00-21:00,Outback Steakhouse,Q1064893
https://locations.papajohns.com/#10692988,papa_johns,Papa John's,,Richmond,VA,,US,+1 804-330-9000,https://locations.papajohns.com/united-states/va/23235/richmond/10054-robious-rd,Mo-Th 10:30-23:00; Fr-Sa 10:30-01:00; Su 11:00-23:00,Papa John's Pizza,Q2759586
637023,penske,Auto Discounters Rva,,RICHMOND,VA,,US,+1 804-745-1099,https://www.pensketruckrental.com/locations/us/virginia/richmond/637023/,,Penske,Q81234570
VA - Chesterfield,petparadise,VA - Chesterfield,,North Chesterfield,VA,,US,+1 804-533-2320,https://www.petparadise.com/chesterfield.htm,,Pet Paradise,Q122955413
https://www.pfchangs.com/locations/#5265445,pf_changs,P.F. Chang's Richmond,,Richmond,VA,,US,+1 804-253-0492,https://www.pfchangs.com/locations/us/va/richmond/9212-stony-point/9938-richmond.html,"Mo-Fr 11:00-22:00,15:00-18:00; Sa-Su 11:00-22:00",P. F. Chang's China Bistro,Q5360181
va_richmond_2701-buford-rd,pizza_hut_us,2701 Buford Rd,,Richmond,VA,,US,+1 804-330-3311,https://locations.pizzahut.com/va/richmond/2701-buford-rd,,Pizza Hut,Q191615
va_richmond_11301-midlothian-turnpike,pizza_hut_us,11301 Midlothian Turnpike,,Richmond,VA,,US,,https://locations.pizzahut.com/va/richmond/11301-midlothian-turnpike,,Pizza Hut,Q191615
restaurant_879803,popeyes_us_fr,Popeyes,"1250 Koger Center Boulevard Richmond, Virginia 23235 - USA",Richmond,VA,,US,+1 804-466-3400,https://www.popeyes.com/store-locator/store/restaurant_879803,Mo-Su 10:00-23:00,Popeyes,Q1330910
https://www.publicstorage.com/self-storage-va-richmond/1806.html,public_storage_us,Public Storage,,Richmond,VA,,US,+1 804-767-6838,https://www.publicstorage.com/self-storage-va-richmond/1806.html,,Public Storage,Q1156045
https://www.publicstorage.com/self-storage-va-north-chesterfield/5295.html,public_storage_us,Public Storage,,North Chesterfield,VA,,US,+1 804-204-6329,https://www.publicstorage.com/self-storage-va-north-chesterfield/5295.html,,Public Storage,Q1156045
1332,ross_dress_for_less_us,Midlothian,,Richmond,VA,,US,+1 804-379-5982,,Mo-Sa 09:30-22:00; Su 10:00-21:30,Ross Dress for Less,Q3442791
11500-midlothian-turnpike,rue21,Chesterfield Towne Center,,Richmond,VA,,US,,https://stores.rue21.com/va/richmond/11500-midlothian-turnpike.html,Mo-Th 11:00-19:00; Fr-Sa 11:00-20:00; Su 12:00-18:00,rue21,Q7377762
https://stores.saloncentric.com/#29173306,salon_centric_us,SalonCentric,,,VA,,US,+1 804-560-3784,https://stores.saloncentric.com/va/richmond/2807,Mo 08:00-18:30; Tu-Fr 08:00-18:00; Sa 08:30-16:00,SalonCentric,Q124339481
40008,seven_eleven_ca_us,0014sunoco 2708 Buford Rd,,Richmond,VA,,US,+1 804-560-4325,https://www.7-eleven.com/locations/va/richmond/2708-buford-rd-40008,,7-Eleven,Q259340
16666,seven_eleven_ca_us,7-11 Str   10030 Midlothian Tpke,,Richmond,VA,,US,+1 804-323-0338,https://www.7-eleven.com/locations/va/richmond/10030-midlothian-tnpk-16666,,7-Eleven,Q259340
11593371188899442289,sleep_number_us,Sleep Number,,Richmond,VA,,US,,https://www.sleepnumber.com/stores/va/north-chesterfield/11546-midlothian-turnpike,Mo-Th 09:00-19:00; Fr-Sa 09:00-20:00; Su 10:00-19:00,Sleep Number,Q7447640
1248-carmia-way,staples,"Staples Richmond, VA",,Richmond,VA,,US,,https://stores.staples.com/va/richmond/1248-carmia-way,Mo-Fr 08:00-20:00; Sa 09:00-18:00; Su 10:00-18:00,Staples,Q785943
https://restaurants.subway.com/#14894000,subway,Subway 360 West Shopping Center,,Richmond Chesterfield,VA,,US,+1 804-276-8971,https://restaurants.subway.com/united-states/va/richmond/7102-c-hull-street-rd,Mo-Fr 07:00-21:00; Sa 08:00-21:00; Su 09:00-21:00,Subway,Q244457
https://restaurants.subway.com/#14914710,subway,Subway,,Richmond Chesterfield,VA,,US,+1 804-320-1596,https://restaurants.subway.com/united-states/va/richmond/10433-midlothian-tpke,Mo-Th 09:00-22:00; Fr 09:00-23:00; Sa 09:00-22:00; Su 09:00-21:00,Subway,Q244457
https://restaurants.subway.com/#14899158,subway,Subway Johnston-Willis Hospital,,North Chesterfield Chesterfield,VA,,US,+1 804-320-7827,https://restaurants.subway.com/united-states/va/north-chesterfield/1401-johnston-willis-dr,Mo-Fr 09:00-22:00; Sa 10:00-15:00,Subway,Q244457
https://restaurants.subway.com/#14913357,subway,Subway Chesterfield Marketplace,,North Chesterfield Chesterfield,VA,,US,+1 804-897-8087,https://restaurants.subway.com/united-states/va/north-chesterfield/1221-carmia-way,Mo-Th 08:30-21:30; Fr 08:30-20:00; Sa-Su 10:00-21:30,Subway,Q244457
https://stores.sunglasshut.com/us/va/richmond/11504-midlothian-tpke,sunglass_hut_1,Sunglass Hut at Macy's,,Richmond,VA,,US,+1 804-794-5800,https://stores.sunglasshut.com/us/va/richmond/11504-midlothian-tpke,Mo-Sa 10:00-21:00; Su 11:00-19:00,Sunglass Hut,Q136311
35014,sweetfrog_us,sweetFrog Store 35014,,Richmond,VA,,US,+1 804-893-3772,https://www.sweetfrog.com/stores/frozen-yogurt-richmond/35014,Mo-Su 12:00-21:00,sweetFrog,Q16952110
https://locations.tacobell.com/#6147289,taco_bell,Taco Bell,,Richmond,VA,,US,+1 804-330-2407,https://locations.tacobell.com/va/richmond/10230-midlothian-turnpike.html,Mo-Su 09:00-01:00,Taco Bell,Q752941
08411,tjx,Richmond,11500 Midlothian Tpke,Richmond,VA,,US,+1 804-594-0190,,Mo-Sa 09:30-21:30; Su 10:00-20:00,TJ Maxx,Q10860683
28511,tjx,Richmond,11500 Midlothian Turnpike,Richmond,VA,,US,+1 804-594-0190,,Mo-Sa 09:30-21:30; Su 10:00-20:00,HomeGoods,Q5887941
10144,tjx,Midlothian,9748 Midlothian Tpk,Midlothian,VA,,US,+1 804-272-7234,,Mo-Sa 09:30-21:30; Su 10:00-20:00,Marshalls,Q15903261
261E,tmobile_us,Chesterfield Town Center,,Richmond,VA,,US,+1 804-794-9075,https://www.t-mobile.com/store-locator/va/richmond/chesterfield-town-center,,T-Mobile,Q3511885
4SDI,tmobile_us,Midlothian Tpke & Moorefield Park Dr,,Richmond,VA,,US,+1 804-327-8990,https://www.t-mobile.com/store-locator/va/richmond/midlothian-tpke-moorefield-park-dr,,T-Mobile,Q3511885
206,total_wine_and_more_us,Richmond (Robious Hall),,Richmond,VA,,US,+1 804-323-5866,https://www.totalwine.com/store-info/206,Mo-Sa 09:00-21:00; Su 09:00-20:00,Total Wine & More,Q7828084
786,trader_joes_us,Trader Joe's Richmond (786),,Richmond,VA,,US,+1 804-323-4292,https://locations.traderjoes.com/va/richmond/786/,Mo-Su 08:00-21:00,Trader Joe's,Q688825
824041,uhaul,U-Haul Storage of Arboretum,8610 Midlothian Tpke,Richmond,VA,,US,+1 804-272-6427,,,U-Haul,Q7862902
016411,uhaul,Arch Village Exxon,9211 Midlothian Tpke,Midlothian,VA,,US,+1 804-330-1388,,Mo-Sa 30:00-21:00; Su 00:00-20:00,U-Haul,Q7862902
019725,uhaul,Quick Shop,8130 Midlothian Tpke,North Chesterfield,VA,,US,+1 804-222-1298,,Mo-Sa 00:00-19:00,U-Haul,Q7862902
034789,uhaul,Bon Air BP,8806 Forest Hill Ave,North Chesterfield,VA,,US,+1 804-414-8837,,Mo-Fr 00:00-18:00; Sa 00:00-16:00; Su 00:00-16:00,U-Haul,Q7862902
045065,uhaul,Grease Monkey,8600 Midlothian Tpke,North Chesterfield,VA,,US,+1 804-325-4985,,Mo-Fr 00:00-18:00; Sa 00:00-17:00,U-Haul,Q7862902
005255,uhaul,Huguenot Robious Mini Storage,11480 Robious Rd,North Chesterfield,VA,,US,+1 804-482-7060,,Mo-Fr 30:00-17:00; Sa 00:00-16:00; Su 00:00-17:00,U-Haul,Q7862902
2989,upsstore,Bon Air,2711 Buford Rd,Bon Air,VA,,US,+1 804-560-5560,https://locations.theupsstore.com/va/bon-air/2711-buford-rd,,UPS Store,Q7771029
1384893,usps,TOWNE CENTER,,NORTH CHESTERFIELD,VA,,US,+1 804-675-4068,,Mo-Fr 09:00-17:00; Sa 10:00-14:00,United States Postal Service,Q668687
1437266,usps,BON AIR,,NORTH CHESTERFIELD,VA,,US,+1 804-675-4064,,Mo-Fr 08:00-17:00; Sa 09:00-13:00,United States Postal Service,Q668687
2323500002,usps_collection_boxes,USPS COLLECTION BOX - BLUE BOX,1915 ALLECINGIE PKWY,N CHESTERFLD,VA,,US,,,,United States Postal Service,Q668687
2323500013,usps_collection_boxes,USPS COLLECTION BOX - BLUE BOX,9111 MIDLOTHIAN TNPK,N CHESTERFLD,VA,,US,,,,United States Postal Service,Q668687
2323500015,usps_collection_boxes,USPS COLLECTION BOX - BLUE BOX,9325 MIDLOTHIAN TNPK,N CHESTERFLD,VA,,US,,,,United States Postal Service,Q668687
2323500065,usps_collection_boxes,USPS COLLECTION BOX - APC,101 N PINETTA DR,N CHESTERFLD,VA,,US,,,,United States Postal Service,Q668687
2323500066,usps_collection_boxes,USPS COLLECTION BOX - PO LOBBY,101 N PINETTA DR,N CHESTERFLD,VA,,US,,,,United States Postal Service,Q668687
2323500078,usps_collection_boxes,USPS COLLECTION BOX - PO LOBBY,101 N PINETTA DR,N CHESTERFLD,VA,,US,,,,United States Postal Service,Q668687
2323500025,usps_collection_boxes,USPS COLLECTION BOX - BLUE BOX,9030 STONY POINT PKWY,N CHESTERFLD,VA,,US,,,,United States Postal Service,Q668687
2323500057,usps_collection_boxes,USPS COLLECTION BOX - BLUE BOX,9030 STONY POINT PKWY,N CHESTERFLD,VA,,US,,,,United States Postal Service,Q668687
2323500055,usps_collection_boxes,USPS COLLECTION BOX - BLUE BOX,9211 FOREST HILL AVE,N CHESTERFLD,VA,,US,,,,United States Postal Service,Q668687
2323500037,usps_collection_boxes,USPS COLLECTION BOX - BLUE BOX,3088 STONY POINT RD,N CHESTERFLD,VA,,US,,,,United States Postal Service,Q668687
2323500026,usps_collection_boxes,USPS COLLECTION BOX - BLUE BOX,3088 STONY POINT RD,N CHESTERFLD,VA,,US,,,,United States Postal Service,Q668687
2323500036,usps_collection_boxes,USPS COLLECTION BOX - BLUE BOX,3088 STONY POINT RD,N CHESTERFLD,VA,,US,,,,United States Postal Service,Q668687
2323500004,usps_collection_boxes,USPS COLLECTION BOX - BLUE BOX,2604 BUFORD RD,N CHESTERFLD,VA,,US,,,,United States Postal Service,Q668687
2323500038,usps_collection_boxes,USPS COLLECTION BOX - BLUE BOX,2604 BUFORD RD,N CHESTERFLD,VA,,US,,,,United States Postal Service,Q668687
2323500023,usps_collection_boxes,USPS COLLECTION BOX - BLUE BOX,8154 PROFESSIONAL,N CHESTERFLD,VA,,US,,,,United States Postal Service,Q668687
2323500028,usps_collection_boxes,USPS COLLECTION BOX - BLUE BOX,601 TWINRIDGE LN,N CHESTERFLD,VA,,US,,,,United States Postal Service,Q668687
2323500061,usps_collection_boxes,USPS COLLECTION BOX - BLUE BOX,1121 MALL DR,N CHESTERFLD,VA,,US,,,,United States Postal Service,Q668687
2323500062,usps_collection_boxes,USPS COLLECTION BOX - BLUE BOX,1121 MALL DR,N CHESTERFLD,VA,,US,,,,United States Postal Service,Q668687
2323500063,usps_collection_boxes,USPS COLLECTION BOX - BLUE BOX,1121 MALL DR,N CHESTERFLD,VA,,US,,,,United States Postal Service,Q668687
2323500077,usps_collection_boxes,USPS COLLECTION BOX - PO LOBBY,1121 MALL DR,N CHESTERFLD,VA,,US,,,,United States Postal Service,Q668687
richmond_oil-change-080015,valvoline_instant_oil_change,Valvoline,11441 Midlothian Turnpike ,Richmond,VA,,US,+1 804-893-8187,https://store.vioc.com/va/richmond/oil-change-080015.html,,Valvoline Instant Oil Change,Q7912852
R00000178798,verizon_us,Midlothian Turnpike,,Richmond,VA,,US,+1 804-897-9408,https://www.verizon.com/stores/details/virginia/richmond/midlothian-turnpike-331601/,Mo-Fr 10:00-20:00; Sa 09:00-19:00; Su 11:00-18:00,Verizon,Q919641
,visa,,,RICHMOND,VA,,US,,,,,
,visa,,,RICHMOND,VA,,US,,,,,
,visa,,,RICHMOND,VA,,US,,,,,
,visa,,,RICHMOND,VA,,US,,,,,
,visa,,,RICHMOND,VA,,US,,,,,
,visa,,,RICHMOND,VA,,US,,,,,
,visa,,,NORTH CHESTERFIELD,VA,,US,,,,,
,visa,,,RICHMOND,VA,,US,,,,,
,visa,,,RICHMOND,VA,,US,,,,,
,visa,,,RICHMOND,VA,,US,,,,,
,visa,,,RICHMOND,VA,,US,,,,,
,visa,,,RICHMOND,VA,,US,,,,,
,visa,,,RICHMOND,VA,,US,,,,,
,visa,,,RICHMOND,VA,,US,,,,,
,visa,,,CHESTERFIELD,VA,,US,,,,,
,visa,,,CHESTERFIELD,VA,,US,,,,,
,visa,,,RICHMOND,VA,,US,,,,,
,visa,,,RICHMOND,VA,,US,,,,,
,visa,,,RICHMOND,VA,,US,,,,,
,visa,,,RICHMOND,VA,,US,,,,,
,visa,,,RICHMOND,VA,,US,,,,,
,visa,,,RICHMOND,VA,,US,,,,,
,visa,,,RICHMOND,VA,,US,,,,,
,visa,,,RICHMOND,VA,,US,,,,,
,visa,,,RICHMOND,VA,,US,,,,,
,visa,,,RICHMOND,VA,,US,,,,,
,visa,,,RICHMOND,VA,,US,,,,,
,visa,,,N. CHESTERFIELD,VA,,US,,,,,
,visa,,,RICHMOND,VA,,US,,,,,
,visa,,,RICHMOND,VA,,US,,,,,
,visa,,,RICHMOND,VA,,US,,,,,
,visa,,,RICHMOND,VA,,US,,,,,
,visa,,,RICHMOND,VA,,US,,,,,
,visa,,,RICHMOND,VA,,US,,,,,
,visa,,,RICHMOND,VA,,US,,,,,
,visa,,,RICHMOND,VA,,US,,,,,
,visa,,,RICHMOND,VA,,US,,,,,
,visa,,,RICHMOND,VA,,US,,,,,
,visa,,,RICHMOND,VA,,US,,,,,
,visa,,,RICHMOND,VA,,US,,,,,
,visa,,,RICHMOND,VA,,US,,,,,
,visa,,,RICHMOND,VA,,US,,,,,
,visa,,,RICHMOND,VA,,US,,,,,
,visa,,,RICHMOND,VA,,US,,,,,
,visa,,,MIDLOTHIAN,VA,,US,,,,,
,visa,,,RICHMOND,VA,,US,,,,,
,visa,,,RICHOMOND,VA,,US,,,,,
,visa,,,RICHMOND,VA,,US,,,,,
,visa,,,RICHMOND,VA,,US,,,,,
,visa,,,RICHMOND,VA,,US,,,,,
,visa,,,RICHMOND,VA,,US,,,,,
,visa,,,RICHMOND,VA,,US,,,,,
,visa,,,RICHMOND,VA,,US,,,,,
,visa,,,RICHMOND,VA,,US,,,,,
,visa,,,N. CHESTERFIELD,VA,,US,,,,,
,visa,,,RICHMOND,VA,,US,,,,,
,visa,,,NORTH CHESTERFIELD,VA,,US,,,,,
,visa,,,RICHMOND,VA,,US,,,,,
,visa,,,RICHMOND,VA,,US,,,,,
,visa,,,NORTH CHESTERFIELD,VA,,US,,,,,
,visa,,,RICHMOND,VA,,US,,,,,
,visa,,,RICHMOND,VA,,US,,,,,
,visa,,,CHESTERFIELD,VA,,US,,,,,
,visa,,,RICHMOND,VA,,US,,,,,
,visa,,,RICHMOND,VA,,US,,,,,
,visa,,,RICHMOND,VA,,US,,,,,
,visa,,,RICHMOND,VA,,US,,,,,
,visa,,,RICHMOND,VA,,US,,,,,
,visa,,,RICHMOND,VA,,US,,,,,
,visa,,,RICHMOND,VA,,US,,,,,
,visa,,,RICHMOND,VA,,US,,,,,
https://locations.vitaminshoppe.com/va/richmond/vitamins-supplements-richmond-va-330.html,vitamin_shoppe,The Vitamin ShoppeÂ® Chesterfield ,11440 Midlothian Turnpike Suite A,Richmond,VA,,US,+1 804-379-6259,https://locations.vitaminshoppe.com/va/richmond/vitamins-supplements-richmond-va-330.html,Su 10:00-19:00; Mo 09:30-21:00; Tu 09:30-21:00; We 09:30-21:00; Th 09:30-21:00; Fr 09:30-21:00; Sa 09:30-20:30,The Vitamin Shoppe,Q7772938
2134,waffle_house_us,Waffle House #2134,,NORTH CHESTERFIELD,VA,,US,+1 804-276-2192,https://locations.wafflehouse.com/northchesterfield-va-2134,24/7,Waffle House,Q1701206
2367,waffle_house_us,Waffle House #2367,,RICHMOND,VA,,US,+1 804-938-4359,https://locations.wafflehouse.com/richmond-va-2367,24/7,Waffle House,Q1701206
https://www.walgreens.com/locator/walgreens-20+buford+rd-north+chesterfield-va-23235/id=4250,walgreens,Walgreens,,North Chesterfield,VA,,US,+1 804-320-9752,https://www.walgreens.com/locator/walgreens-20+buford+rd-north+chesterfield-va-23235/id=4250,Mo-Su 07:00-23:00,Walgreens,Q1591889
https://www.walgreens.com/locator/walgreens-1401+johnston+willis+dr-north+chesterfield-va-23235/id=11388,walgreens,Walgreens,,North Chesterfield,VA,,US,+1 804-560-8000,https://www.walgreens.com/locator/walgreens-1401+johnston+willis+dr-north+chesterfield-va-23235/id=11388,Mo-Fr 08:00-18:00; Sa 08:00-16:00; Su 00:00-24:00,Walgreens,Q1591889
9201__MIDLOTHIAN__TURNPIKE_RICHMOND_VA_23235,wellsfargo,,9201 MIDLOTHIAN TURNPIKE,RICHMOND,VA,,US,+1 800-869-3557,https://www.wellsfargo.com/locator/bank/9201__MIDLOTHIAN__TURNPIKE_RICHMOND_VA_23235/,,Wells Fargo,Q744149
9026__FOREST__HILL__AVE_RICHMOND_VA_23235,wellsfargo,Wells Fargo,9026 FOREST HILL AVE,RICHMOND,VA,,US,+1 804-560-4560,https://www.wellsfargo.com/locator/bank/9026__FOREST__HILL__AVE_RICHMOND_VA_23235/,Mo-Fr 09:00-17:00,Wells Fargo,Q744149
8300__HULL__STREET__RD_NORTH__CHESTERFIELD_VA_23235,wellsfargo,Wells Fargo,8300 HULL STREET RD,NORTH CHESTERFIELD,VA,,US,+1 804-745-6672,https://www.wellsfargo.com/locator/bank/8300__HULL__STREET__RD_NORTH__CHESTERFIELD_VA_23235/,Mo-Fr 09:00-17:00,Wells Fargo,Q744149
10831__MIDLOTHIAN__TPKE_RICHMOND_VA_23235,wellsfargo,Wells Fargo,10831 MIDLOTHIAN TPKE,RICHMOND,VA,,US,+1 804-378-9690,https://www.wellsfargo.com/locator/bank/10831__MIDLOTHIAN__TPKE_RICHMOND_VA_23235/,Mo-Fr 09:00-17:00,Wells Fargo,Q744149
https://locations.wendys.com/#9255245,wendys,"Wendy's Cloverleaf in Richmond, VA",,Richmond,VA,,US,+1 804-482-3626,https://locations.wendys.com/united-states/va/richmond/7802-midlothian-turnpike,"Mo-Su 06:30-10:30,06:30-22:00",Wendy's,Q550258
https://locations.wendys.com/#9255225,wendys,"Wendy's Chesterfield in Richmond, VA",,Richmond,VA,,US,+1 804-404-2134,https://locations.wendys.com/united-states/va/richmond/11235-midlothian-turnpike,"Mo-Su 06:30-10:30,06:30-22:00",Wendy's,Q550258
47d5712c6d87ca4fe98ea1cad275130d,western_union,7 ELEVEN #40008,,Richmond,VA,,US,+1 804-560-4325,https://location.westernunion.com/us/va/richmond/47d5712c6d87ca4fe98ea1cad275130d,,Western Union,Q861042
5a8976aa1fb6995dcae0cd9eda0a0fe4,western_union,PUBLIX #1679,,North Chesterfield,VA,,US,+1 804-330-3704,https://location.westernunion.com/us/va/north-chesterfield/5a8976aa1fb6995dcae0cd9eda0a0fe4,Mo-Su 07:00-21:00,Western Union,Q861042
c633e381597bbe6e33f99fb80579207a,western_union,BELLO AMANECER LATINO MARKET,,North Chesterfield,VA,,US,+1 804-562-5092,https://location.westernunion.com/us/va/north-chesterfield/c633e381597bbe6e33f99fb80579207a,Mo-Su 08:30-22:00,Western Union,Q861042
