Ref,Spider,Name,Address,City,State,Zipcode,Country,Phone,Website,Hours,Brand,WikiData
12850,asics_us,Hanson's Running Shop - Royal Oak,3407 Rochester Rd,Royal Oak,MI,,US,+1 248-616-9665,,Mo-Fr 11:00-20:00; Sa 10:00-18:00; Su 11:00-17:00,asics,Q327247
19561,asics_us,The Tennis & Golf Company,30211 Woodward Ave,Royal Oak,MI,,US,+1 248-435-6800,,,asics,Q327247
https://locations.atipt.com/royal-oak-mi,ati_physical_therapy,ATI Physical Therapy Royal Oak 736,,Royal Oak,MI,,US,+1 248-591-4229,https://locations.atipt.com/royal-oak-mi,,ATI Physical Therapy,Q50039703
81551,att_us,ROYAL OAK STORE,,Royal Oak,MI,,US,+1 248-549-2245,https://www.att.com/stores/michigan/royal-oak/81551,Mo-Fr 10:00-20:00; Sa 10:00-19:00; Su 11:00-18:00,AT&T,Q298594
https://locations.auntieannes.com/#1419762646605904694,auntie_annes,Auntie Anne's Royal Oak,,Royal Oak,MI,,US,+1 313-304-8808,https://locations.auntieannes.com/mi/royal-oak/5150-coolidge-hwy,Mo-Su 10:00-21:00,Auntie Anne's,Q4822010
https://locators.bankofamerica.com/mi/royaloak/atm-royal-oak-110922.html,bankofamerica,Bank of America Walk-Up ATM | Thirteen And Rochester,,Royal Oak,MI,,US,+1 844-401-8500,https://locators.bankofamerica.com/mi/royaloak/atm-royal-oak-110922.html,,Bank of America,Q487907
Shrine Catholic Schools,barnesnoblecollege,Shrine Catholic Schools,,Oak,MI,,US,,https://www.bncollege.com/campus-stores/,,Barnes & Noble College,Q4861508
https://locations.baskinrobbins.com/mi/royal-oak/1700-w-14-mile-rd-340661-br,baskin_robbins_us,Baskin-Robbins™,,Royal Oak,MI,,US,+1 248-838-8221,https://locations.baskinrobbins.com/mi/royal-oak/1700-w-14-mile-rd-340661-br,Mo-Su 04:00-22:00,Baskin-Robbins,Q584601
154412,bluerhino,Walgreens #04748,,Royal Oak,MI,,US,+1 248-549-2628,,,Blue Rhino,Q65681213
155912,bluerhino,Walgreens #5426,,Royal Oak,MI,,US,+1 248-546-6572,,,Blue Rhino,Q65681213
161166,bluerhino,Kroger #743 - Michigan - Fuel Site,,Royal Oak,MI,,US,+1 248-397-1535,,,Blue Rhino,Q65681213
121245,bp,BP,,Royal Oak,MI,,US,+1 248-549-2660,,,BP,Q152057
mi_royal-oak_32824-woodward-ave,chipotle, ,,Royal Oak,MI,,US,+1 248-658-3100,https://locations.chipotle.com/mi/royal-oak/32824-woodward-ave,,Chipotle,Q465751
77129,citi,ATM Speedway,,Royal Oak,MI,,US,,,,Citibank,Q857063
48968,citi,ATM CVS,,Royal Oak,MI,,US,,,,Citibank,Q857063
26351,citi,ATM 7ELEVEN-FCTI,,Royal Oak,MI,,US,,,,Citibank,Q857063
79672,citi,ATM SPEEDWAY #8840,,Royal Oak,MI,,US,,,,Citibank,Q857063
29197,citi,ATM 7ELEVEN-FCTI,,Royal Oak,MI,,US,,,,Citibank,Q857063
88340,citi,ATM Walgreens,,Royal Oak,MI,,US,,,,Citibank,Q857063
78413,citi,ATM Speedway,,Royal Oak,MI,,US,,,,Citibank,Q857063
79673,citi,ATM SPEEDWAY #8841,,Royal Oak,MI,,US,,,,Citibank,Q857063
30471,citi,ATM 7ELEVEN-FCTI,,Royal Oak,MI,,US,,,,Citibank,Q857063
90019,citi,ATM Walgreens,,Royal Oak,MI,,US,,,,Citibank,Q857063
50134,citi,ATM CVS,,Royal Oak,MI,,US,,,,Citibank,Q857063
29263,citi,ATM 7ELEVEN-FCTI,,Royal Oak,MI,,US,,,,Citibank,Q857063
ATM-2420,citizens_us,,,Royal Oak,MI,,US,,,,Citizens,Q5122694
ATM-2352,citizens_us,,,Royal Oak,MI,,US,,,,Citizens,Q5122694
,credit_union_us,Cornerstone Comm Financial CU,,Royal Oak,MI,,US,+1 248-340-9310,,Mo-Fr 10:00-04:00,,
,credit_union_us,OUR CU,,Royal Oak,MI,,US,+1 248-549-3838,,Mo-Th 09:00-05:00; Fr 09:00-06:00; Sa 09:00-01:00,,
1150,cvs_us,CVS Pharmacy,,Royal Oak,MI,,US,+1 248-549-4377,https://www.cvs.com/store-locator/royal-oak-mi-pharmacies/30900-woodward-royal-oak-mi-48073/storeid=1150,24/7,CVS Pharmacy,Q2078880
8127,cvs_us,CVS Pharmacy,,Royal Oak,MI,,US,+1 248-548-6180,https://www.cvs.com/store-locator/royal-oak-mi-pharmacies/209-e-12-mile-rd-royal-oak-mi-48073/storeid=8127,Mo-Su 08:00-22:00,CVS Pharmacy,Q2078880
340661,dunkin_us,Dunkin',,Royal Oak,MI,,US,+1 248-838-8221,https://locations.dunkindonuts.com/en/mi/royal-oak/1700-w-14-mile-rd/340661,Mo-Su 04:00-22:00,Dunkin',Q847743
https://www.edwardjones.com/us-en/financial-advisor/chad-blackstone,edwardjones,Chad C Blackstone,,Royal Oak,MI,,US,+1 248-549-1208,https://www.edwardjones.com/us-en/financial-advisor/chad-blackstone,Mo-Fr 08:30-17:00,Edward Jones,Q5343830
E120H4,enterprise,Royal Oak Woodward Ave.,,Royal Oak,MI,,US,+1 248-554-6720,,,Enterprise Rent-A-Car,Q17085454
0932,european_wax_center_us,European Wax Center,,Royal Oak,MI,,US,+1 947-941-2500,https://locations.waxcenter.com/mi/royaloak/royal-oak-woodward-corners-0932.html,Mo-Fr 08:00-20:00; Sa 09:00-18:00; Su 10:00-18:00,European Wax Center,Q5413426
200315778,exxonmobil,ROYAL FUEL MART INC.,,ROYAL OAK,MI,,US,+1 248-545-3777,https://www.exxon.com/en/find-station/mobil-royaloak-mi-royalfuelmartinc-200315778,Mo-Su 05:00-01:00,Mobil,Q109676002
200314452,exxonmobil,13 MILE & WOODWARD,,ROYAL OAK,MI,,US,+1 248-549-8782,https://www.exxon.com/en/find-station/mobil-royaloak-mi-13milewoodward-200314452,24/7,Mobil,Q109676002
200314092,exxonmobil,"ROYAL OAK FUELS, LLC",,ROYAL OAK,MI,,US,+1 248-549-4444,https://www.exxon.com/en/find-station/exxon-royaloak-mi-royaloakfuelsllc-200314092,24/7,Exxon,Q109675651
https://locations.53.com/#3034090,fifththirdbank,Fifth Third Bank Royal Oak Woodward,,Royal Oak,MI,,US,+1 248-336-2888,https://locations.53.com/mi/royal-oak/29710-woodward-avenue.html,Mo-Th 09:00-17:00; Fr 09:00-18:00; Sa 09:00-13:00,Fifth Third Bank,Q1411810
101062,fresenius_kidney_care_us,Fresenius Kidney Care Royal Oak,,Royal Oak,MI,,US,+1 800-881-5101,https://www.freseniuskidneycare.com/dialysis-centers/michigan/101062,Mo 06:30-16:00; We 06:30-16:00; Fr 06:30-16:00,,
https://www.goodyearautoservice.com/en_US/location/Royal-Oak-MI-48073-US-000906551,goodyear_us,"Goodyear Auto Service - Royal Oak, Royal Oak, MI | Oil, Brakes & Repairs | #000906551",,Royal Oak,MI,,US,+1 248-336-0135,https://www.goodyearautoservice.com/en_US/location/Royal-Oak-MI-48073-US-000906551,Mo-Sa 08:00-18:00; Su 08:00-17:00,Goodyear,Q620875
30054,huntingtonbank,Royal Oak Crooks Rd,,Royal Oak,MI,,US,+1 248-740-2108,https://www.huntington.com/Community/branch-info?locationId=30054,Mo-Fr 09:00-17:00; Sa-Su 00:00-00:00,Huntington Bank,Q798819
23678,huntingtonbank,Crooks Road,,Royal Oak,MI,,US,+1 248-549-6554,https://www.huntington.com/Community/branch-info?locationId=23678,Mo-Fr 09:00-17:00; Sa-Su 00:00-00:00,Huntington Bank,Q798819
https://www.blockadvisors.com/local-tax-offices/michigan/royal-oak/29484-woodward-ave/21687/,h_r_block,H&R Block,,Royal Oak,MI,,US,+1 248-543-2008,https://www.blockadvisors.com/local-tax-offices/michigan/royal-oak/29484-woodward-ave/21687/,,H&R Block,Q5627799
mi_royal-oak_breakfast-29202-woodward-ave-1233,ihop,IHOP Breakfast Restaurants Near You at 29202 Woodward Ave,,Royal Oak,MI,,US,+1 248-544-0908,https://restaurants.ihop.com/en-us/mi/royal-oak/breakfast-29202-woodward-ave-1233,,IHOP,Q1185675
https://locations.modpizza.com/#28261044,modpizza,MOD Pizza Woodward Avenue - Royal Oaks,,Royal Oak,MI,,US,+1 248-965-9002,https://locations.modpizza.com/usa/mi/royal-oak/30955-woodward-ave,Mo-Su 11:00-23:00,MOD Pizza,Q19903469
74769856,moneygram,LIQUOR SUPPLY,,ROYAL OAK,MI,,US,+1 586-805-5502,,Mo-Fr 09:00-22:00; Sa 09:00-23:00; Su 09:00-22:00,MoneyGram,Q1944412
48059,orangetheory_fitness,"Royal Oak Woodward, MI",,Royal Oak,MI,,US,+1 248-257-5877,,,Orangetheory Fitness,Q25005163
112769,pandaexpress,Woodward & 13 Mile,,Royal Oak,MI,,US,+1 248-549-0786,https://www.pandaexpress.com/locations/mi/royal-oak/30766-woodward-ave,Mo-Th 10:00-21:30; Fr-Sa 10:00-22:00; Su 10:30-21:30,Panda Express,Q1358690
136736,potbelly_sandwich,Royal Oak,,Royal Oak,MI,,US,+1 248-549-9565,,Mo-Su 10:00-21:00,Potbelly Sandwich Shop,Q7234777
https://www.publicstorage.com/self-storage-mi-royal-oak/1406.html,public_storage_us,Public Storage,,Royal Oak,MI,,US,+1 248-397-5302,https://www.publicstorage.com/self-storage-mi-royal-oak/1406.html,,Public Storage,Q1156045
https://locations.qdoba.com/us/mi/royal-oak/30754-woodward-ave.html,qdoba,QDOBA 13 & Woodward,,Royal Oak,MI,,US,+1 248-549-0784,https://locations.qdoba.com/us/mi/royal-oak/30754-woodward-ave.html,Mo-Su 10:30-22:00,Qdoba,Q1363885
https://restaurants.subway.com/#14912412,subway,Subway,,Royal Oak Oakland,MI,,US,+1 248-589-1052,https://restaurants.subway.com/united-states/mi/royal-oak/718-e-14-mile-rd,Mo-Su 08:00-21:00,Subway,Q244457
https://restaurants.subway.com/#14916109,subway,Subway,,Royal Oak Oakland,MI,,US,+1 248-549-0780,https://restaurants.subway.com/united-states/mi/royal-oak/4703-crooks-rd,Mo-Su 09:00-22:00,Subway,Q244457
https://restaurants.subway.com/#14911259,subway,Subway Meijers #34,,Royal Oak Oakland,MI,,US,+1 248-677-3899,https://restaurants.subway.com/united-states/mi/royal-oak/5150-coolidge-highway,Mo-Su 09:00-22:00,Subway,Q244457
https://restaurants.subway.com/#14908860,subway,Subway,,Royal Oak Oakland,MI,,US,+1 248-268-2584,https://restaurants.subway.com/united-states/mi/royal-oak/32755-woodward-ave,Mo-Su 08:00-21:00,Subway,Q244457
0302996400,sunoco_us,Sunoco,,ROYAL OAK,MI,,US,+1 248-585-1924,,,Sunoco,Q1423218
0281197400,sunoco_us,Sunoco,,ROYAL OAK,MI,,US,+1 248-577-9115,,24/7,Sunoco,Q1423218
0273355800,sunoco_us,Sunoco,,ROYAL OAK,MI,,US,+1 248-288-3050,,Mo-Su 06:00-23:00,Sunoco,Q1423218
126,the_exercise_coach_us,The Exercise Coach,,Royal Oak,MI,,US,+1 248-291-5365,https://exercisecoach.com/royal-oak/,,The Exercise Coach,Q121502262
https://www.trekbikes.com/us/en_US/retail/royal_oak/,trekbikes,Trek Bicycle Royal Oak,,Royal Oak,MI,,US,+1 248-226-5887,https://www.trekbikes.com/us/en_US/retail/royal_oak/,Mo-Sa 10:00-18:00,Trek,Q1067617
https://www.ubreakifix.com/locations/royaloak,ubreakifix,uBreakiFix Royal Oak,,Royal Oak,MI,,US,+1 248-607-3427,https://www.ubreakifix.com/locations/royaloak,Mo-Sa 10:00-19:00; Su 12:00-17:00,uBreakiFix,Q53685733
4708,upsstore,Royal Oak,29488 Woodward Ave,Royal Oak,MI,,US,+1 248-548-8178,https://locations.theupsstore.com/mi/royal-oak/29488-woodward-ave,,UPS Store,Q7771029
4807300027,usps_collection_boxes,USPS COLLECTION BOX - BLUE BOX,4104 COLONIAL DR,ROYAL OAK,MI,,US,,,,United States Postal Service,Q668687
4807300000,usps_collection_boxes,USPS COLLECTION BOX - BLUE BOX,32302 WOODWARD AVE,ROYAL OAK,MI,,US,,,,United States Postal Service,Q668687
4807300017,usps_collection_boxes,USPS COLLECTION BOX - BLUE BOX,29350 WOODWARD AVE,ROYAL OAK,MI,,US,,,,United States Postal Service,Q668687
4807300019,usps_collection_boxes,USPS COLLECTION BOX - BLUE BOX,30606 WOODWARD AVE,ROYAL OAK,MI,,US,,,,United States Postal Service,Q668687
4807300038,usps_collection_boxes,USPS COLLECTION BOX - BLUE BOX,3009 W 13 MILE RD,ROYAL OAK,MI,,US,,,,United States Postal Service,Q668687
4807300025,usps_collection_boxes,USPS COLLECTION BOX - BLUE BOX,4209 COOLIDGE HWY,ROYAL OAK,MI,,US,,,,United States Postal Service,Q668687
4807300036,usps_collection_boxes,USPS COLLECTION BOX - BLUE BOX,2600 W WEBSTER RD,ROYAL OAK,MI,,US,,,,United States Postal Service,Q668687
4807300024,usps_collection_boxes,USPS COLLECTION BOX - BLUE BOX,4500 DELEMERE BLVD,ROYAL OAK,MI,,US,,,,United States Postal Service,Q668687
4807300022,usps_collection_boxes,USPS COLLECTION BOX - BLUE BOX,5150 COOLIDGE HWY,ROYAL OAK,MI,,US,,,,United States Postal Service,Q668687
4807300026,usps_collection_boxes,USPS COLLECTION BOX - BLUE BOX,1902 NORTHWOOD BLVD,ROYAL OAK,MI,,US,,,,United States Postal Service,Q668687
4807300006,usps_collection_boxes,USPS COLLECTION BOX - BLUE BOX,4326 ROCHESTER RD,ROYAL OAK,MI,,US,,,,United States Postal Service,Q668687
4807300035,usps_collection_boxes,USPS COLLECTION BOX - BLUE BOX,3403 N CAMPBELL RD,ROYAL OAK,MI,,US,,,,United States Postal Service,Q668687
4807300007,usps_collection_boxes,USPS COLLECTION BOX - BLUE BOX,3309 ROCHESTER RD,ROYAL OAK,MI,,US,,,,United States Postal Service,Q668687
4807300005,usps_collection_boxes,USPS COLLECTION BOX - BLUE BOX,1990 TORQUAY AVE,ROYAL OAK,MI,,US,,,,United States Postal Service,Q668687
4807300034,usps_collection_boxes,USPS COLLECTION BOX - BLUE BOX,4609 CROOKS RD,ROYAL OAK,MI,,US,,,,United States Postal Service,Q668687
4807300033,usps_collection_boxes,USPS COLLECTION BOX - BLUE BOX,209 E 12 MILE RD,ROYAL OAK,MI,,US,,,,United States Postal Service,Q668687
4807300008,usps_collection_boxes,USPS COLLECTION BOX - BLUE BOX,3321 VINSETTA BLVD,ROYAL OAK,MI,,US,,,,United States Postal Service,Q668687
4807300009,usps_collection_boxes,USPS COLLECTION BOX - BLUE BOX,2554 CROOKS RD,ROYAL OAK,MI,,US,,,,United States Postal Service,Q668687
4807300003,usps_collection_boxes,USPS COLLECTION BOX - BLUE BOX,4000 CROOKS RD,ROYAL OAK,MI,,US,,,,United States Postal Service,Q668687
4807300002,usps_collection_boxes,USPS COLLECTION BOX - BLUE BOX,4000 CROOKS RD,ROYAL OAK,MI,,US,,,,United States Postal Service,Q668687
R00000169049,verizon_us,Royal Oak Woodward,,Royal Oak,MI,,US,+1 248-549-4177,https://www.verizon.com/stores/details/michigan/royal-oak/royal-oak-woodward-326520/,Mo-Fr 10:00-20:00; Sa 09:00-19:00; Su 10:00-17:00,Verizon,Q919641
,visa,,,WARREN,MI,,US,,,,,
,visa,,,SOUTHFIELD,MI,,US,,,,,
,visa,,,ROYAL OAK,MI,,US,,,,,
,visa,,,ROYAL OAK,MI,,US,,,,,
,visa,,,ROYAL OAK,MI,,US,,,,,
,visa,,,ROYAL OAK,MI,,US,,,,,
,visa,,,ROYAL OAK,MI,,US,,,,,
,visa,,,ROYAL OAK,MI,,US,,,,,
,visa,,,ROYAL OAK,MI,,US,,,,,
,visa,,,ROYAL OAK,MI,,US,,,,,
,visa,,,ROYAL OAK,MI,,US,,,,,
,visa,,,ROYAL OAK,MI,,US,,,,,
,visa,,,ROYAL OAK,MI,,US,,,,,
,visa,,,ROYAL OAK,MI,,US,,,,,
,visa,,,ROYAL OAK,MI,,US,,,,,
,visa,,,ROYAL OAK,MI,,US,,,,,
,visa,,,ROYAL OAK,MI,,US,,,,,
,visa,,,ROYAL OAK,MI,,US,,,,,
,visa,,,ROYAL OAK,MI,,US,,,,,
,visa,,,ROYAL OAK,MI,,US,,,,,
,visa,,,TRENTON,MI,,US,,,,,
,visa,,,ROYAL OAK,MI,,US,,,,,
,visa,,,ROYAL OAK,MI,,US,,,,,
,visa,,,ROYAL OAK,MI,,US,,,,,
,visa,,,ROYAL OAK,MI,,US,,,,,
,visa,,,ROYAL OAK,MI,,US,,,,,
,visa,,,ROYAL OAK,MI,,US,,,,,
,visa,,,ROYAL OAK,MI,,US,,,,,
,visa,,,ROYAL OAK,MI,,US,,,,,
,visa,,,ROYAL OAKS,MI,,US,,,,,
,visa,,,ROYAL OAK,MI,,US,,,,,
,visa,,,ROYAL OAK,MI,,US,,,,,
,visa,,,ROYAL OAK,MI,,US,,,,,
,visa,,,ROYAL OAK,MI,,US,,,,,
,visa,,,ROYAL OAK,MI,,US,,,,,
,visa,,,ROYAL OAK,MI,,US,,,,,
,visa,,,ROYAL OAK,MI,,US,,,,,
,visa,,,ROYAL OAK,MI,,US,,,,,
,visa,,,ROYAL OAK,MI,,US,,,,,
,visa,,,ROYAL OAK,MI,,US,,,,,
,visa,,,ROYAL OAK,MI,,US,,,,,
,visa,,,ROYAL OAK,MI,,US,,,,,
,visa,,,ROYAL OAK,MI,,US,,,,,
,visa,,,ROYAL OAK,MI,,US,,,,,
,visa,,,ROYAL OAK,MI,,US,,,,,
,visa,,,ROYAL OAK,MI,,US,,,,,
,visa,,,ROYAL OAK,MI,,US,,,,,
,visa,,,ROYAL OAK,MI,,US,,,,,
,visa,,,ROYAL OAK,MI,,US,,,,,
,visa,,,ROYAL OAK,MI,,US,,,,,
,visa,,,ROYAL OAK,MI,,US,,,,,
,visa,,,ROYAL OAK,MI,,US,,,,,
,visa,,,ROYAL OAK,MI,,US,,,,,
,visa,,,ROYAL OAK,MI,,US,,,,,
,visa,,,ROYAL OAK,MI,,US,,,,,
,visa,,,ROYAL OAK,MI,,US,,,,,
,visa,,,ROYAL OAK,MI,,US,,,,,
,visa,,,ROYAL OAK,MI,,US,,,,,
,visa,,,ROYAL OAK,MI,,US,,,,,
,visa,,,ROYAL OAK,MI,,US,,,,,
,visa,,,ROYAL OAK,MI,,US,,,,,
,visa,,,ROYAL OAK,MI,,US,,,,,
,visa,,,ROYAL OAK,MI,,US,,,,,
,visa,,,ROYAL OAK,MI,,US,,,,,
1423,visionworks,Visionworks Woodward Corners,,Royal Oak,MI,,US,+1 248-873-0069,https://locations.visionworks.com/ll/US/MI/Royal-Oak/30955-Woodward-Ave,Mo-Sa 10:00-18:30,Visionworks,Q5422607
https://locations.vitaminshoppe.com/mi/royaloak/vitamins-supplements-royal-oak-mi-388.html,vitamin_shoppe,The Vitamin Shoppe® Royal Oak ,31753 Woodward Ave. ,Royal Oak,MI,,US,+1 248-549-8927,https://locations.vitaminshoppe.com/mi/royaloak/vitamins-supplements-royal-oak-mi-388.html,Su 10:00-19:00; Mo 10:00-21:00; Tu 10:00-21:00; We 10:00-21:00; Th 10:00-21:00; Fr 10:00-21:00; Sa 09:30-20:30,The Vitamin Shoppe,Q7772938
https://www.walgreens.com/locator/walgreens-30852+woodward+ave-royal+oak-mi-48073/id=4748,walgreens,Walgreens,,Royal Oak,MI,,US,+1 248-549-2628,https://www.walgreens.com/locator/walgreens-30852+woodward+ave-royal+oak-mi-48073/id=4748,Mo-Su 07:00-22:00,Walgreens,Q1591889
https://www.walgreens.com/locator/walgreens-1815+rochester+rd-royal+oak-mi-48073/id=5426,walgreens,Walgreens,,Royal Oak,MI,,US,+1 248-546-6572,https://www.walgreens.com/locator/walgreens-1815+rochester+rd-royal+oak-mi-48073/id=5426,Mo-Sa 07:00-22:00; Su 08:00-22:00,Walgreens,Q1591889
16cefaf901f450fa644e19ee09973977,western_union,7-ELEVEN #17629,,Royal Oak,MI,,US,+1 248-585-2855,https://location.westernunion.com/us/mi/royal-oak/16cefaf901f450fa644e19ee09973977,,Western Union,Q861042
da333283a9a40e1ce138801ee6f5fc7e,western_union,WALGREENS #4748,,Royal Oak,MI,,US,+1 248-549-2628,https://location.westernunion.com/us/mi/royal-oak/da333283a9a40e1ce138801ee6f5fc7e,Mo-Su 08:00-21:00,Western Union,Q861042
5266903eba4e4a03432947326672a0d3,western_union,7-ELEVEN #21124,,Royal Oak,MI,,US,+1 248-549-7869,https://location.westernunion.com/us/mi/royal-oak/5266903eba4e4a03432947326672a0d3,,Western Union,Q861042
72598,wingstop,Wingstop Royal Oak Woodward Ave,32980 Woodward Ave.,Royal Oak,MI,,US,+1 248-985-7867,,,Wingstop,Q8025339
