Ref,Spider,Name,Address,City,State,Zipcode,Country,Phone,Website,Hours,Brand,WikiData
https://local.pharmacy.jewelosco.com/#5672884,albertsons,Jewel-Osco Pharmacy,,Munster,IN,,US,+1 219-836-7978,https://local.pharmacy.jewelosco.com/in/munster/716-ridge-rd.html,Mo-Fr 08:00-22:00; Sa 09:00-18:00; Su 09:00-17:00,Jewel-Osco,Q3178470
https://local.jewelosco.com/#5603679,albertsons,Jewel-Osco,,Munster,IN,,US,+1 219-836-1118,https://local.jewelosco.com/in/munster/716-ridge-rd.html,"Mo-Fr 06:00-24:00,08:00-22:00; Sa 06:00-24:00,09:00-18:00; Su 06:00-24:00,09:00-17:00",Jewel-Osco,Q3178470
4195,anytime_fitness,Anytime Fitness,,Munster,IN,,US,+1 219-315-8828,https://www.anytimefitness.com/gyms/4195/munster-in-46321/,,Anytime Fitness,Q4778364
22615,asics_us,Running or Not...Shoes,1842 45th St,Munster,IN,,US,+1 219-513-8801,,,asics,Q327247
https://locations.atipt.com/munster,ati_physical_therapy,ATI Physical Therapy Munster 200,,Munster,IN,,US,+1 219-836-0027,https://locations.atipt.com/munster,,ATI Physical Therapy,Q50039703
https://locations.baskinrobbins.com/in/munster/8235-calumet-ave-341449-br,baskin_robbins_us,Baskin-Robbinsâ„¢,,Munster,IN,,US,+1 219-836-8525,https://locations.baskinrobbins.com/in/munster/8235-calumet-ave-341449-br,24/7,Baskin-Robbins,Q584601
199338,bluerhino,SVT Munster #8789 - AWG #1971,,Munster,IN,,US,+1 219-836-8414,,,Blue Rhino,Q65681213
41417,bluerhino,Speedway #7680,,Munster,IN,,US,+1 219-836-9578,,,Blue Rhino,Q65681213
73672,bluerhino,Speedway #6687,,Munster,IN,,US,+1 219-922-4874,,,Blue Rhino,Q65681213
151059,bluerhino,Walgreens #7708,,Munster,IN,,US,+1 219-513-0894,,,Blue Rhino,Q65681213
176867,bluerhino,Gus Bock's Ace Hardware #11896,,Munster,IN,,US,+1 219-934-9500,,,Blue Rhino,Q65681213
68649999507474632100100000000000,bp,BP,,Munster,IN,,US,+1 219-836-9512,,24/7,BP,Q152057
55903531654444632100100000000000,bp,BP,,Munster,IN,,US,+1 219-922-9390,,Mo-Sa 04:00-24:00; Su 07:00-12:00,BP,Q152057
2038604,chase_us,White Oak - New branch,,Munster,IN,,US,+1 219-924-8106,https://locator.chase.com/in/munster/1600-w-45th-ave,Mo-Fr 09:00-17:00; Sa 09:00-14:00,Chase,Q524629
in_munster_8201-calumet-ave,chipotle, ,,Munster,IN,,US,+1 219-836-2426,https://locations.chipotle.com/in/munster/8201-calumet-ave,,Chipotle,Q465751
56148,citi,ATM FIRST MERCHANTS BANK,,Munster,IN,,US,,,,Citibank,Q857063
52912,citi,ATM CVS,,Munster,IN,,US,,,,Citibank,Q857063
59712,citi,ATM HORIZON BANK,,Munster,IN,,US,,,,Citibank,Q857063
79356,citi,ATM Speedway,,Munster,IN,,US,,,,Citibank,Q857063
93291,citi,ATM Walgreens,,Munster,IN,,US,,,,Citibank,Q857063
56207,citi,ATM FIRST MERCHANTS BANK,,Munster,IN,,US,,,,Citibank,Q857063
56208,citi,ATM FIRST MERCHANTS BANK,,Munster,IN,,US,,,,Citibank,Q857063
83067,citi,ATM Target,,Munster,IN,,US,,,,Citibank,Q857063
78366,citi,ATM Speedway,,Munster,IN,,US,,,,Citibank,Q857063
4368,cvs_us,CVS Pharmacy,,Munster,IN,,US,+1 219-924-2491,https://www.cvs.com/store-locator/munster-in-pharmacies/801-main-st-munster-in-46321/storeid=4368,Mo-Su 08:00-22:00,CVS Pharmacy,Q2078880
17031,cvs_us,CVS Pharmacy,,Munster,IN,,US,+1 219-836-2697,https://www.cvs.com/store-locator/munster-in-pharmacies/8005-calumet-ave-munster-in-46321/storeid=17031,"Mo-Fr 09:00-13:30,14:00-20:00; Sa-Su 09:00-13:30,14:00-17:00",CVS Pharmacy,Q2078880
2646,dominos_pizza_us,Domino's Pizza,,Munster,IN,,US,+1 219-315-0350,https://pizza.dominos.com/indiana/munster/841-main-st,Mo-Th 10:30-24:00; Fr-Sa 10:30-01:00; Su 10:30-24:00,Domino's,Q839466
341449,dunkin_us,Dunkin',,Munster,IN,,US,+1 219-836-8525,https://locations.dunkindonuts.com/en/in/munster/8235-calumet-ave/341449,24/7,Dunkin',Q847743
355445,dunkin_us,Dunkin',,Munster,IN,,US,+1 219-595-0609,https://locations.dunkindonuts.com/en/in/munster/10411-calumet-ave/355445,Mo-Su 05:00-19:00,Dunkin',Q847743
https://www.edwardjones.com/us-en/financial-advisor/bill-cundiff,edwardjones,Bill Cundiff,,Munster,IN,,US,+1 219-513-2157,https://www.edwardjones.com/us-en/financial-advisor/bill-cundiff,Mo-Fr 08:00-17:00,Edward Jones,Q5343830
901-macarthur-blvd,einsteinbros,Community Hospital Munster Einstein Bros. Bagels,,Munster,IN,,US,+1 800-224-3563,https://locations.einsteinbros.com/us/in/munster/901-macarthur-blvd,Mo-Fr 06:00-16:00,Einstein Bros. Bagels,Q5349788
200328942,exxonmobil,MUNSTER FOOD MART,,MUNSTER,IN,,US,+1 219-836-9544,https://www.exxon.com/en/find-station/mobil-munster-in-munsterfoodmart-200328942,24/7,Mobil,Q109676002
https://locations.53.com/#3033829,fifththirdbank,Fifth Third Bank Munster,,Munster,IN,,US,+1 219-836-3700,https://locations.53.com/in/munster/8007-calumet-avenue.html,Mo-Th 09:00-17:30; Fr 09:00-18:00; Sa 09:00-14:00,Fifth Third Bank,Q1411810
https://restaurants.fiveguys.com/#15552442,five_guys_us,Five Guys Munster,,Munster,IN,,US,+1 219-961-4419,https://restaurants.fiveguys.com/8231-calumet-ave,"Mo-Su 10:00-21:30,10:00-22:00",Five Guys,Q1131810
9035,fresenius_kidney_care_us,Fresenius Kidney Care Neomedica Munster,,Munster,IN,,US,+1 800-881-5101,https://www.freseniuskidneycare.com/dialysis-centers/indiana/9035,Mo 05:00-17:30; Tu 06:00-13:30; We 05:00-17:30; Th 06:00-13:30; Fr 05:00-17:30; Sa 06:00-13:30,,
5356,gamestop_us,Calumet Center,,MUNSTER,IN,,US,+1 219-836-6059,https://www.gamestop.com/search/?store=5356,Mo-Th 12:00-19:00; Fr-Sa 11:00-21:00; Su 12:00-20:00,GameStop,Q202210
https://salons.greatclips.com/us/in/munster/7963-calumet-ave,greatclips,Great Clips,,Munster,IN,,US,+1 219-513-9088,https://salons.greatclips.com/us/in/munster/7963-calumet-ave,Mo-Fr 09:00-19:00; Sa 09:00-18:00; Su 09:00-16:00,Great Clips,Q5598967
ordmuhw-homewood-suites-munster,hilton,Homewood Suites by Hilton Munster,,,IN,,US,+1 219-836-5320,https://www.hilton.com/ar/hotels/ordmuhw-homewood-suites-munster/,,Homewood Suites by Hilton,Q5890701
https://www.blockadvisors.com/local-tax-offices/indiana/munster/1950-45th-st-ste-203/14544/,h_r_block,H&R Block,,Munster,IN,,US,+1 219-836-0553,https://www.blockadvisors.com/local-tax-offices/indiana/munster/1950-45th-st-ste-203/14544/,,H&R Block,Q5627799
https://locations.jimmyjohns.com/in/munster/sandwiches-639.html,jimmy_johns,Jimmy John's,,Munster,IN,,US,+1 219-836-0099,https://locations.jimmyjohns.com/in/munster/sandwiches-639.html,,Jimmy John's,Q1689380
https://locations.kfc.com/#11247348,kfc,Chicken Nuggets Near Munster,,Munster,IN,,US,,https://locations.kfc.com/in/munster/428-ridge-road/chickennugget,Mo-Su 10:30-22:00,KFC,Q524757
160027,marathon_petroleum_us,DB Petroleum,,MUNSTER,IN,,US,+1 219-836-6082,,,Marathon,Q458363
155734,marathon_petroleum_us,DJ MARATHON,,MUNSTER,IN,,US,+1 219-836-5113,,,Marathon,Q458363
MDWMU,marriott,"SpringHill Suites Chicago Southeast/Munster, IN",,Munster,IN,,US,+1 219-924-2700,https://www.marriott.com/MDWMU,,SpringHill Suites,Q7580351
17942,mattress_firm_us,Mattress Firm Munster,,Munster,IN,,US,+1 219-836-5872,https://www.mattressfirm.com/en-us/stores/in/munster/119051/,,Mattress Firm,Q6791878
2065,mightyflame,HOWARD & SONS,,MUNSTER,IN,,US,+1 219-836-8000,,,Mighty Flame,
https://locations.noodles.com/in/munster/9140-calumet-ave.html,noodles_and_company_us,Noodles & Company Munster,,Munster,IN,,US,+1 219-836-6018,https://locations.noodles.com/in/munster/9140-calumet-ave.html,Mo-We 10:30-21:00; Th-Sa 10:30-22:00; Su 10:30-21:00,Noodles and Company,Q7049673
https://locations.papajohns.com/#10690917,papa_johns,Papa John's,,Munster,IN,,US,+1 219-836-0202,https://locations.papajohns.com/united-states/in/46321/munster/8241-a-hohman-ave,Mo-Th 09:30-24:00; Fr-Sa 09:30-01:00; Su 10:00-24:00,Papa John's Pizza,Q2759586
in_munster_815-ridge-rd,pizza_hut_us,815 Ridge Rd,,Munster,IN,,US,+1 219-836-0920,https://locations.pizzahut.com/in/munster/815-ridge-rd,,Pizza Hut,Q191615
in_munster_8005-calumet-avenue,pizza_hut_us,8005 Calumet Avenue,,Munster,IN,,US,,https://locations.pizzahut.com/in/munster/8005-calumet-avenue,,Pizza Hut,Q191615
137002,potbelly_sandwich,Munster,,Munster,IN,,US,+1 219-525-3500,,Mo-Su 08:00-22:00,Potbelly Sandwich Shop,Q7234777
https://www.publicstorage.com/self-storage-in-munster/5909.html,public_storage_us,Public Storage,,Munster,IN,,US,+1 219-883-2301,https://www.publicstorage.com/self-storage-in-munster/5909.html,,Public Storage,Q1156045
7951-calumet-ave,staples,"Staples Munster, IN",,Munster,IN,,US,,https://stores.staples.com/in/munster/7951-calumet-ave,Mo-Fr 08:00-20:00; Sa 09:00-18:00; Su 10:00-18:00,Staples,Q785943
https://restaurants.subway.com/#14901595,subway,Subway,,Munster Lake,IN,,US,+1 219-836-5252,https://restaurants.subway.com/united-states/in/munster/822-ridge-rd,Mo-Su 09:00-22:00,Subway,Q244457
82790,supercuts,Ridgewood Plaza,308 Ridge Rd,Munster,IN,,US,+1 219-836-1396,https://www.supercuts.com/checkin/82790,Mo-Fr 09:00-21:00; Sa 09:00-18:00; Su 10:00-17:00,Supercuts,Q7643239
https://locations.tacobell.com/#6142146,taco_bell,Taco Bell,,Munster,IN,,US,+1 219-836-4102,https://locations.tacobell.com/in/munster/7949-calumet-ave.html,Mo-Tu 07:00-02:00; We 07:00-23:30; Th 07:00-02:00; Fr-Sa 07:00-03:00; Su 07:00-02:00,Taco Bell,Q752941
https://locations.tccrocks.com/in/munster/822-ridge-rd-.html,tcc_us,TCC Munster,,Munster,IN,,US,+1 708-933-9690,https://locations.tccrocks.com/in/munster/822-ridge-rd-.html,Mo-Sa 10:00-18:00; Su 11:00-18:00,Verizon,Q919641
1891,tmobile_us,Calumet Ave & Broadmoor Ave,,Munster,IN,,US,+1 219-836-1077,https://www.t-mobile.com/store-locator/in/munster/calumet-ave-broadmoor-ave,,T-Mobile,Q3511885
"Great Lakes Surgical Suites, Munster, Indiana",united_surgical_partners_international,Great Lakes Surgical Suites,9200 Calumet Ave. N 500 ,Munster,IN,,US,+1 219-513-9955,na,,United Surgical Partners International,Q7893575
"Munster Specialty Surgery Center, Munster, Indiana",united_surgical_partners_international,Munster Specialty Surgery Center,9200 Calumet Avenue Suite S-100,Munster,IN,,US,+1 219-595-0789,na,,United Surgical Partners International,Q7893575
"South Suburban Surgical Suites, Munster, Indiana",united_surgical_partners_international,South Suburban Surgical Suites,9200 Calumet Avenue Suite E100,Munster,IN,,US,+1 219-595-0601,na,,United Surgical Partners International,Q7893575
7569,upsstore,Munster,609 Ridge Rd,Munster,IN,,US,+1 219-516-0009,https://locations.theupsstore.com/in/munster/609-ridge-rd,,UPS Store,Q7771029
1436204,usps,MUNSTER,,MUNSTER,IN,,US,+1 219-836-8225,,Mo-Fr 08:00-18:00; Sa 08:30-15:00,United States Postal Service,Q668687
1444697,usps,MUNSTER,,MUNSTER,IN,,US,+1 219-836-8005,,,United States Postal Service,Q668687
4632100017,usps_collection_boxes,USPS COLLECTION BOX - BLUE BOX,1100 FRAN LIN PKWY,HAMMOND,IN,,US,,,,United States Postal Service,Q668687
4632100020,usps_collection_boxes,USPS COLLECTION BOX - BLUE BOX,1730 45TH AVE,HAMMOND,IN,,US,,,,United States Postal Service,Q668687
4632100008,usps_collection_boxes,USPS COLLECTION BOX - BLUE BOX,901 MACARTHUR BLVD,HAMMOND,IN,,US,,,,United States Postal Service,Q668687
4632100013,usps_collection_boxes,USPS COLLECTION BOX - BLUE BOX,1830 45TH AVE,HAMMOND,IN,,US,,,,United States Postal Service,Q668687
4632100011,usps_collection_boxes,USPS COLLECTION BOX - BLUE BOX,8700 MONROE AVE,HAMMOND,IN,,US,,,,United States Postal Service,Q668687
4632100014,usps_collection_boxes,USPS COLLECTION BOX - BLUE BOX,9529 FRAN LIN PKWY,HAMMOND,IN,,US,,,,United States Postal Service,Q668687
4632100006,usps_collection_boxes,USPS COLLECTION BOX - BLUE BOX,12 RIDGE RD,HAMMOND,IN,,US,,,,United States Postal Service,Q668687
4632100025,usps_collection_boxes,USPS COLLECTION BOX - BLUE BOX,8241 HOHMAN AVE,HAMMOND,IN,,US,,,,United States Postal Service,Q668687
4632100003,usps_collection_boxes,USPS COLLECTION BOX - BLUE BOX,716 RIDGE RD,HAMMOND,IN,,US,,,,United States Postal Service,Q668687
4632100000,usps_collection_boxes,USPS COLLECTION BOX - BLUE BOX,8932 WHITE OAK AVE,HAMMOND,IN,,US,,,,United States Postal Service,Q668687
4632100032,usps_collection_boxes,USPS COLLECTION BOX - PO LOBBY,915 RIDGE RD BLDG 2,HAMMOND,IN,,US,,,,United States Postal Service,Q668687
4632100033,usps_collection_boxes,USPS COLLECTION BOX - PO LOBBY,917 RIDGE RD,HAMMOND,IN,,US,,,,United States Postal Service,Q668687
4632100024,usps_collection_boxes,USPS COLLECTION BOX - BLUE BOX,917 RIDGE RD,HAMMOND,IN,,US,,,,United States Postal Service,Q668687
4632100023,usps_collection_boxes,USPS COLLECTION BOX - BLUE BOX,917 RIDGE RD,HAMMOND,IN,,US,,,,United States Postal Service,Q668687
4632100021,usps_collection_boxes,USPS COLLECTION BOX - PO LOBBY,917 RIDGE RD,HAMMOND,IN,,US,,,,United States Postal Service,Q668687
4632100009,usps_collection_boxes,USPS COLLECTION BOX - BLUE BOX,7550 HOHMAN AVE,HAMMOND,IN,,US,,,,United States Postal Service,Q668687
munster_oil-change-hb0007,valvoline_instant_oil_change,Valvoline,9616 Calumet Ave ,Munster,IN,,US,+1 219-922-1288,https://store.vioc.com/in/munster/oil-change-hb0007.html,,Valvoline Instant Oil Change,Q7912852
A00000205821,verizon_us,TCC Munster,,MUNSTER,IN,,US,+1 219-836-2895,https://www.verizon.com/stores/details/indiana/munster/tcc-munster-1348222/,Mo-Sa 10:00-18:00; Su 11:00-18:00,Verizon,Q919641
,visa,,,MUNSTER,IN,,US,,,,,
,visa,,,MUNSTER,IN,,US,,,,,
,visa,,,MUNSTER,IN,,US,,,,,
,visa,,,MUNSTER,IN,,US,,,,,
,visa,,,MUNSTER,IN,,US,,,,,
,visa,,,MUNSTER,IN,,US,,,,,
,visa,,,MUNSTER,IN,,US,,,,,
,visa,,,MUNSTER,IN,,US,,,,,
,visa,,,MUNSTER,IN,,US,,,,,
,visa,,,MUNSTER,IN,,US,,,,,
,visa,,,MUNSTER,IN,,US,,,,,
,visa,,,MUNSTER,IN,,US,,,,,
,visa,,,MUNSTER,IN,,US,,,,,
,visa,,,MUNSTER,IN,,US,,,,,
,visa,,,MUNSTER,IN,,US,,,,,
,visa,,,MUNSTER,IN,,US,,,,,
,visa,,,MUNSTER,IN,,US,,,,,
,visa,,,MUNSTER,IN,,US,,,,,
,visa,,,MUNSTER,IN,,US,,,,,
,visa,,,MUNSTER,IN,,US,,,,,
,visa,,,MUNSTER,IN,,US,,,,,
,visa,,,MUNSTER,IN,,US,,,,,
,visa,,,MUNSTER,IN,,US,,,,,
,visa,,,MUNSTER,IN,,US,,,,,
,visa,,,MUNSTER,IN,,US,,,,,
,visa,,,MUNSTER,IN,,US,,,,,
,visa,,,MUNSTER,IN,,US,,,,,
,visa,,,MUNSTER,IN,,US,,,,,
,visa,,,MUNSTER,IN,,US,,,,,
,visa,,,MUNSTER,IN,,US,,,,,
,visa,,,MUNSTER,IN,,US,,,,,
,visa,,,MUNSTER,IN,,US,,,,,
,visa,,,MUNSTER,IN,,US,,,,,
,visa,,,MUNSTER,IN,,US,,,,,
,visa,,,MUNSTER,IN,,US,,,,,
,visa,,,MUNSTER,IN,,US,,,,,
,visa,,,MUNSTER,IN,,US,,,,,
,visa,,,MUNSTER,IN,,US,,,,,
,visa,,,MUNSTER,IN,,US,,,,,
,visa,,,MUNSTER,IN,,US,,,,,
https://www.walgreens.com/locator/walgreens-8930+calumet+ave-munster-in-46321/id=7708,walgreens,Walgreens,,Munster,IN,,US,+1 219-513-0894,https://www.walgreens.com/locator/walgreens-8930+calumet+ave-munster-in-46321/id=7708,Mo-Su 07:00-22:00,Walgreens,Q1591889
https://locations.wendys.com/#9254296,wendys,"Wendy's 8003 Calumet Avenue in Munster, IN",,Munster,IN,,US,+1 219-836-4810,https://locations.wendys.com/united-states/in/munster/8003-calumet-avenue,"Mo-Su 06:30-10:30,09:00-22:00",Wendy's,Q550258
d72bc515e96e121a9151ab75c8ad97cb,western_union,JEWEL #3096,,Munster,IN,,US,+1 219-836-1118,https://location.westernunion.com/us/in/munster/d72bc515e96e121a9151ab75c8ad97cb,Mo-Su 08:00-22:00,Western Union,Q861042
