Ref,Spider,Name,Address,City,State,Zipcode,Country,Phone,Website,Hours,Brand,WikiData
https://stores.advanceautoparts.com/va/purcellville/609-e-main-st,advance_auto_parts_us,Advance Auto Parts,,Purcellville,VA,,US,+1 540-338-4585,https://stores.advanceautoparts.com/va/purcellville/609-e-main-st,Mo-Sa 07:30-21:00; Su 08:00-20:00,Advance Auto Parts,Q4686051
3520,anytime_fitness,Anytime Fitness,,Purcellville,VA,,US,+1 540-441-3930,https://www.anytimefitness.com/gyms/3520/purcellville-va-20132/,,Anytime Fitness,Q4778364
6425,autozone_us,AutoZone Auto Parts Purcellville,,Purcellville,VA,,US,+1 540-338-7372,https://www.autozone.com/locations/va/purcellville/711-e-main-st.html,Mo-Sa 07:30-21:00; Su 08:00-19:00,AutoZone,Q4826087
https://locators.bankofamerica.com/va/purcellville/financial-centers-purcellville-16927.html,bankofamerica,Bank of America Financial Center & Drive-Thru ATM | Purcellville,,Purcellville,VA,,US,+1 540-751-7288,https://locators.bankofamerica.com/va/purcellville/financial-centers-purcellville-16927.html,Mo-Fr 10:00-16:00,Bank of America,Q487907
178742,bluerhino,Loudoun Lumber #231852,,Purcellville,VA,,US,+1 540-338-1840,,,Blue Rhino,Q65681213
109640,bluerhino,Giant Food #252 - GL,,Purcellville,VA,,US,+1 703-443-6360,,,Blue Rhino,Q65681213
156608,bluerhino,Walgreens #13682,,Purcellville,VA,,US,+1 540-751-0962,,,Blue Rhino,Q65681213
209933,bluerhino,Harris Teeter #388,,Purcellville,VA,,US,+1 540-338-8995,,,Blue Rhino,Q65681213
1021516449,chase_us,Purcellville - New branch,,Purcellville,VA,,US,+1 540-441-5983,https://locator.chase.com/va/purcellville/120-n-maple-ave,Mo-Fr 09:00-17:00; Sa 09:00-13:00,Chase,Q524629
va_purcellville_1200-wolf-rock-dr,chipotle, ,,Purcellville,VA,,US,+1 540-441-3952,https://locations.chipotle.com/va/purcellville/1200-wolf-rock-dr,,Chipotle,Q465751
31669,citi,ATM 7ELEVEN-FCTI,,Purcellville,VA,,US,,,,Citibank,Q857063
92833,citi,ATM Walgreens,,Purcellville,VA,,US,,,,Citibank,Q857063
32183,citi,ATM 7ELEVEN-FCTI,,Purcellville,VA,,US,,,,Citibank,Q857063
58767,citi,ATM Harris Teeter,,Purcellville,VA,,US,,,,Citibank,Q857063
58017,citi,ATM Giant Food,,Purcellville,VA,,US,,,,Citibank,Q857063
ATM-2050,citizens_us,,,Purcellville,VA,,US,,,,Citizens,Q5122694
6048,dominos_pizza_us,Domino's Pizza,,Purcellville,VA,,US,+1 540-338-1188,https://pizza.dominos.com/virginia/purcellville/748-e-main-st,Mo-Th 10:00-23:00; Fr-Sa 10:00-01:00; Su 10:00-23:00,Domino's,Q839466
353459,dunkin_us,Dunkin',,Purcellville,VA,,US,+1 540-441-3806,https://locations.dunkindonuts.com/en/va/purcellville/1200-wolf-rock-dr/353459,Mo-Su 05:00-20:00,Dunkin',Q847743
https://www.edwardjones.com/us-en/financial-advisor/mark-brooke,edwardjones,Mark J Brooke,,Purcellville,VA,,US,+1 540-338-4380,https://www.edwardjones.com/us-en/financial-advisor/mark-brooke,Mo-Fr 09:00-16:00,Edward Jones,Q5343830
E1164F,enterprise,Purcellville Terry's Body Shop,,Purcellville,VA,,US,+1 540-751-1000,,,Enterprise Rent-A-Car,Q17085454
200315211,exxonmobil,PURCELLVILLE EXXON,,PURCELLVILLE,VA,,US,+1 540-338-2547,https://www.exxon.com/en/find-station/exxon-purcellville-va-purcellvilleexxon-200315211,Mo-Sa 05:00-00:00; Su 07:00-00:00,Exxon,Q109675651
https://local.fedex.com/#27760375,fedex,FedEx Authorized ShipCenter,,Purcellville,VA,,US,+1 800-463-3339,https://local.fedex.com/en-us/va/purcellville/bofae,,FedEx,Q459477
https://local.fedex.com/#25200990,fedex,,,Purcellville,VA,,US,+1 800-463-3339,https://local.fedex.com/en-us/va/purcellville/abkmm,,FedEx,Q459477
https://local.fedex.com/#27764903,fedex,FedEx Authorized ShipCenter,,Purcellville,VA,,US,+1 540-338-3266,https://local.fedex.com/en-us/va/purcellville/88268,,FedEx,Q459477
0252,giantfood,Giant Food Main Street Station,,Purcellville,VA,,US,+1 703-443-6360,https://stores.giantfood.com/va/purcellville/1000-east-main-street,Mo-Su 06:00-23:00,Giant Food,Q5558336
https://locations.kfc.com/#11247468,kfc,Chicken Nuggets Near Purcellville,,Purcellville,VA,,US,,https://locations.kfc.com/va/purcellville/201-e-hirst-road/chickennugget,,KFC,Q524757
0239,mattress_warehouse_us,Mattress Warehouse,,Purcellville,VA,,US,+1 540-441-1845,https://mattresswarehouse.com/store-locator/mattress-warehouse-of-purcellville-0239-purcellville-va,Mo-Fr 10:00-21:00; Sa 10:00-20:00; Su 11:00-18:00,Mattress Warehouse,Q61995079
https://locations.modpizza.com/#23558130,modpizza,MOD Pizza Purcellville Gateway,,Purcellville,VA,,US,+1 540-208-2090,https://locations.modpizza.com/usa/va/purcellville/150-purcellville-gateway-dr,Mo-Th 10:30-22:00; Fr-Sa 10:30-23:00; Su 10:30-22:00,MOD Pizza,Q19903469
https://locations.papajohns.com/#10692049,papa_johns,Papa John's,,Purcellville,VA,,US,+1 540-338-7272,https://locations.papajohns.com/united-states/va/20132/purcellville/1020-e-main-street-d,Mo-Su 10:00-23:00,Papa John's Pizza,Q2759586
10674,seven_eleven_ca_us,7-11 Str   610 W Main St,,Purcellville,VA,,US,+1 540-338-5031,https://www.7-eleven.com/locations/va/purcellville/610-w-main-st-10674,,7-Eleven,Q259340
24539,seven_eleven_ca_us,7-11 Str   700 E. Main Street,,Purcellville,VA,,US,+1 540-338-9200,https://www.7-eleven.com/locations/va/purcellville/700-e.-main-street-24539,,7-Eleven,Q259340
39977,seven_eleven_ca_us,Bcp Str    1230 Wolf Rock Dr,,Purcellville,VA,,US,+1 800-255-0711,https://www.7-eleven.com/locations/va/purcellville/1230-wolf-rock-dr-39977,,7-Eleven,Q259340
https://restaurants.subway.com/#14915340,subway,Subway,,Purcellville Loudoun,VA,,US,+1 540-338-7646,https://restaurants.subway.com/united-states/va/purcellville/101-maple-ave,Mo-Fr 08:00-22:00; Sa-Su 09:00-21:00,Subway,Q244457
35221,sweetfrog_us,sweetFrog Store 35221,,Purcellville,VA,,US,+1 540-751-9565,https://www.sweetfrog.com/stores/frozen-yogurt-purcellville/35221,Mo-Su 12:00-21:00,sweetFrog,Q16952110
284G,tmobile_us,Purcellville Gateway,,Purcellville,VA,,US,+1 540-441-1760,https://www.t-mobile.com/store-locator/va/purcellville/purcellville-gateway,,T-Mobile,Q3511885
008779,uhaul,Shea Enterprises,37221 E Richardson Ln,Purcellville,VA,,US,+1 540-751-4233,,Mo-Fr 00:00-17:00; Sa 00:00-14:00,U-Haul,Q7862902
6632,upsstore,Purcellville Gateway Shopping Center,140 B Purcellville Gateway Dr,Purcellville,VA,,US,+1 540-338-3790,https://locations.theupsstore.com/va/purcellville/140-b-purcellville-gateway-dr,,UPS Store,Q7771029
1378545,usps,PURCELLVILLE,,PURCELLVILLE,VA,,US,+1 540-338-4808,,Mo-Fr 08:30-17:00; Sa 08:30-12:00,United States Postal Service,Q668687
2013200009,usps_collection_boxes,USPS COLLECTION BOX - PO LOBBY,220 N HATCHER AVE,PURCELLVILLE,VA,,US,,,,United States Postal Service,Q668687
2013200000,usps_collection_boxes,USPS COLLECTION BOX - BLUE BOX,220 N HATCHER AVE,PURCELLVILLE,VA,,US,,,,United States Postal Service,Q668687
2013200003,usps_collection_boxes,USPS COLLECTION BOX - BLUE BOX,609 E MAIN ST,PURCELLVILLE,VA,,US,,,,United States Postal Service,Q668687
2013200002,usps_collection_boxes,USPS COLLECTION BOX - BLUE BOX,715 E MAIN ST,PURCELLVILLE,VA,,US,,,,United States Postal Service,Q668687
,visa,,,PURCELLVILLE,VA,,US,,,,,
,visa,,,PURCELLVILLE,VA,,US,,,,,
,visa,,,PURCELLVILLE,VA,,US,,,,,
,visa,,,PURCELLVILLE,VA,,US,,,,,
,visa,,,PURCELLVILLE,VA,,US,,,,,
,visa,,,PURCELLVILLE,VA,,US,,,,,
,visa,,,PURCELLVILLE,VA,,US,,,,,
,visa,,,PURCELLVILLE,VA,,US,,,,,
,visa,,,PURCELLVILLE,VA,,US,,,,,
,visa,,,PURCELLVILLE,VA,,US,,,,,
,visa,,,PURCELLVILLE,VA,,US,,,,,
,visa,,,PURCELLVILLE,VA,,US,,,,,
,visa,,,PURCELLVILLE,VA,,US,,,,,
,visa,,,PURCELLVILLE,VA,,US,,,,,
,visa,,,PURCELLVILLE,VA,,US,,,,,
,visa,,,PURCELLVILLE,VA,,US,,,,,
,visa,,,PURCELLVILLE,VA,,US,,,,,
,visa,,,HILLSBORO,VA,,US,,,,,
,visa,,,PURCELLVILLE,VA,,US,,,,,
,visa,,,PURCELLVILLE,VA,,US,,,,,
,visa,,,PURCELLVILLE 20132,VA,,US,,,,,
,visa,,,PURCELLVILLE,VA,,US,,,,,
https://www.vocellipizza.com/purcellville_va,vocelli_pizza_us,Purcellville/ Hamilton/ Round Hill,,Purcellville,VA,,US,,https://www.vocellipizza.com/purcellville_va,,Vocelli Pizza,Q7939247
https://www.walgreens.com/locator/walgreens-761+e+main+st-purcellville-va-20132/id=13682,walgreens,Walgreens,,Purcellville,VA,,US,+1 540-751-0962,https://www.walgreens.com/locator/walgreens-761+e+main+st-purcellville-va-20132/id=13682,Mo-Su 07:00-22:00,Walgreens,Q1591889
611__E__MAIN__ST_PURCELLVILLE_VA_20132,wellsfargo,Wells Fargo,611 E MAIN ST,PURCELLVILLE,VA,,US,+1 540-338-4101,https://www.wellsfargo.com/locator/bank/611__E__MAIN__ST_PURCELLVILLE_VA_20132/,Mo-Fr 09:00-17:00,Wells Fargo,Q744149
af82fd2752a8319d33bbefb683da491a,western_union,7-ELEVEN #10674,,Purcellville,VA,,US,+1 540-338-5031,https://location.westernunion.com/us/va/purcellville/af82fd2752a8319d33bbefb683da491a,,Western Union,Q861042
