Ref,Spider,Name,Address,City,State,Zipcode,Country,Phone,Website,Hours,Brand,WikiData
https://local.pharmacy.albertsons.com/#5672469,albertsons,Albertsons Pharmacy,,Emmett,ID,,US,+1 208-365-4128,https://local.pharmacy.albertsons.com/id/emmett/640-hwy-16.html,Mo-Fr 08:00-20:00; Sa 09:00-18:00; Su 10:00-16:00,Albertsons,Q2831861
https://local.albertsons.com/#5603156,albertsons,Albertsons,,Emmett,ID,,US,+1 208-365-4420,https://local.albertsons.com/id/emmett/640-hwy-16.html,"Mo-Fr 06:00-23:00,08:00-20:00; Sa 06:00-23:00,09:00-18:00; Su 06:00-23:00,10:00-16:00",Albertsons,Q2831861
535,arctic_circle_us,Emmett,,Emmett,ID,,US,+1 208-365-1172,,,Arctic Circle,Q4787501
2294,autozone_us,AutoZone Auto Parts Emmett,,Emmett,ID,,US,+1 208-365-5272,https://www.autozone.com/locations/id/emmett/145-s-washington.html,Mo-Th 08:00-21:00; Fr-Sa 08:00-20:00; Su 09:00-20:00,AutoZone,Q4826087
155234,bluerhino,Walgreens #13105,,Emmett,ID,,US,+1 208-319-0967,,,Blue Rhino,Q65681213
147272,bluerhino,Bi-Mart - Emmett #681 - Ace #: 28703,,Emmett,ID,,US,+1 208-272-9451,,,Blue Rhino,Q65681213
206663,chevron,Chevron Station #206663,1580 SOUTH WASHINGTON,EMMETT,ID,,US,+1 208-398-7603,,,Chevron,Q319642
88380,citi,ATM Walgreens,,Emmett,ID,,US,,,,Citibank,Q857063
55997,citi,ATM FIRST INTERSTATE BANK 09,,Emmett,ID,,US,,,,Citibank,Q857063
15642525,commercial_tire_us,Emmett,"309 N. Washington Ave., Emmett, ID, 83617, US",Emmett,ID,,US,+1 208-369-2116,https://commercialtire.com/locations/emmett,Mo-Fr 08:00-17:30; Sa 08:00-16:00,Commercial Tire,Q28403810
,credit_union_us,Clarity CU,,Emmett,ID,,US,+1 208-467-6583,,Mo-Th 09:00-05:30; Fr 09:00-06:00,,
7373,dominos_pizza_us,Domino's Pizza,,Emmett,ID,,US,+1 208-963-4733,https://pizza.dominos.com/idaho/emmett/1103-s-washington,Mo-Th 10:30-24:00; Fr-Sa 10:30-01:00; Su 10:30-24:00,Domino's,Q839466
https://www.edwardjones.com/us-en/financial-advisor/jared-welsh,edwardjones,Jared Welsh,,Emmett,ID,,US,+1 208-365-3177,https://www.edwardjones.com/us-en/financial-advisor/jared-welsh,Mo-Fr 08:00-17:00,Edward Jones,Q5343830
32120,family_dollar_us,FAMILY DOLLAR #12120,,Emmett,ID,,US,+1 986-212-0986,https://www.familydollar.com/locations/id/emmett/32120/,Mo-Su 08:00-22:00,Family Dollar,Q5433101
https://local.fedex.com/#25206174,fedex,,,Emmett,ID,,US,+1 800-463-3339,https://local.fedex.com/en-us/id/emmett/mvmhs,,FedEx,Q459477
48973,h_r_block,H&R Block,,Emmett,ID,,US,+1 208-365-6221,https://www.hrblock.com/local-tax-offices/idaho/emmett/288-hwy-16/48973/,,H&R Block,Q5627799
https://locations.jimmyjohns.com/id/emmett/sandwiches-4158.html,jimmy_johns,Jimmy John's,,Emmett,ID,,US,+1 208-365-0626,https://locations.jimmyjohns.com/id/emmett/sandwiches-4158.html,,Jimmy John's,Q1689380
42840,little_free_library,Kalyssa Montoya #42840 Emmett ID,,Emmett,ID,,US,,,,Little Free Library,Q6650101
73373,little_free_library,Blaser Park Little Free LIbrary #73373 Emmett ID,,Emmett,ID,,US,,,,Little Free Library,Q6650101
91146,little_free_library,Buzzy's Book Box #91146 Emmett ID,,Emmett,ID,,US,,,,Little Free Library,Q6650101
https://locations.oreillyauto.com/id/emmett/check-engine-light-testing-4464.html,oreilly,Your Emmett O'Reilly Auto Parts Store,,Emmett,ID,,US,+1 208-365-4255,https://locations.oreillyauto.com/id/emmett/check-engine-light-testing-4464.html,Mo-Sa 07:30-21:00; Su 08:00-20:00,O'Reilly Auto Parts,Q7071951
https://locations.oreillyauto.com/id/emmett/wiper-installation-4464.html,oreilly,Your Emmett O'Reilly Auto Parts Store,,Emmett,ID,,US,+1 208-365-4255,https://locations.oreillyauto.com/id/emmett/wiper-installation-4464.html,Mo-Sa 07:30-21:00; Su 08:00-20:00,O'Reilly Auto Parts,Q7071951
https://locations.oreillyauto.com/id/emmett/autopartes-4464.html,oreilly,Tu tienda O'Reilly Auto Parts en Emmett,,Emmett,ID,,US,+1 208-365-4255,https://locations.oreillyauto.com/id/emmett/autopartes-4464.html,Mo-Sa 07:30-21:00; Su 08:00-20:00,O'Reilly Auto Parts,Q7071951
https://locations.oreillyauto.com/id/emmett/battery-testing-4464.html,oreilly,Your Emmett O'Reilly Auto Parts Store,,Emmett,ID,,US,+1 208-365-4255,https://locations.oreillyauto.com/id/emmett/battery-testing-4464.html,Mo-Sa 07:30-21:00; Su 08:00-20:00,O'Reilly Auto Parts,Q7071951
https://locations.papamurphys.com/#15430649,papamurphys,Pizza Takeout & Delivery,,Emmett,ID,,US,+1 208-398-8811,https://locations.papamurphys.com/id/emmett/620-highway-16-106,Mo-Th 11:00-20:00; Fr-Sa 10:00-21:00; Su 11:00-20:00,Papa Murphy's,Q7132349
https://stations.sinclairoil.com/id/emmett/1900-n-washington-ave,sinclair_us,Sinclair Gas Station,,Emmett,ID,,US,+1 208-365-2291,https://stations.sinclairoil.com/id/emmett/1900-n-washington-ave,Mo-Sa 06:00-22:00; Su 06:00-21:00,Sinclair,Q1290900
https://stations.sinclairoil.com/id/emmett/630-highway-16,sinclair_us,Sinclair Gas Station,,Emmett,ID,,US,+1 208-365-7700,https://stations.sinclairoil.com/id/emmett/630-highway-16,24/7,Sinclair,Q1290900
https://stations.sinclairoil.com/id/emmett/317-s-washington-ave,sinclair_us,Sinclair Gas Station,,Emmett,ID,,US,+1 208-365-4071,https://stations.sinclairoil.com/id/emmett/317-s-washington-ave,Mo-Th 06:00-23:00; Fr-Sa 06:00-24:00; Su 06:00-23:00,Sinclair,Q1290900
https://stations.sinclairoil.com/id/emmett/1515-e-main-st,sinclair_us,Sinclair Gas Station,,Emmett,ID,,US,+1 208-398-7761,https://stations.sinclairoil.com/id/emmett/1515-e-main-st,Mo-Su 06:00-22:00,Sinclair,Q1290900
https://restaurants.subway.com/#14911768,subway,Subway,,Emmett Gem,ID,,US,+1 208-365-1100,https://restaurants.subway.com/united-states/id/emmett/620-highway-16,Mo-Th 08:00-21:00; Fr-Sa 08:00-22:00; Su 08:00-20:00,Subway,Q244457
https://locations.tacobell.com/#17283476,taco_bell,Taco Bell,,Emmett,ID,,US,+1 208-365-5933,https://locations.tacobell.com/id/emmett/1340-s--washington-avenue.html,Mo-We 07:00-22:00; Th-Sa 07:00-23:00; Su 07:00-22:00,Taco Bell,Q752941
770F,tmobile_us,Highway 16 & N Washington Ave,,Emmett,ID,,US,+1 208-817-7571,https://www.t-mobile.com/store-locator/id/emmett/highway-16-n-washington-ave,,T-Mobile,Q3511885
19700,true_value_us,Rocky Mountain True Value,,EMMETT,ID,,US,+1 208-365-3135,http://www.truevalue.com/rockymtn,,True Value,Q7847545
1362569,usps,EMMETT,,EMMETT,ID,,US,+1 208-365-2181,,"Mo-Fr 08:00-10:30,11:00-17:00; Sa 08:00-11:00",United States Postal Service,Q668687
8361700000,usps_collection_boxes,USPS COLLECTION BOX - BLUE BOX,1017 S WASHINGTON AVE,EMMETT,ID,,US,,,,United States Postal Service,Q668687
8361700004,usps_collection_boxes,USPS COLLECTION BOX - BLUE BOX,1900 N WASHINGTON AVE,EMMETT,ID,,US,,,,United States Postal Service,Q668687
8361700002,usps_collection_boxes,USPS COLLECTION BOX - PO LOBBY,521 E MAIN ST,EMMETT,ID,,US,,,,United States Postal Service,Q668687
8361700005,usps_collection_boxes,USPS COLLECTION BOX - PO LOBBY,521 E MAIN ST,EMMETT,ID,,US,,,,United States Postal Service,Q668687
8361700006,usps_collection_boxes,USPS COLLECTION BOX - PO LOBBY,521 E MAIN ST,EMMETT,ID,,US,,,,United States Postal Service,Q668687
8361700001,usps_collection_boxes,USPS COLLECTION BOX - BLUE BOX,521 E MAIN ST,EMMETT,ID,,US,,,,United States Postal Service,Q668687
A00000035929,verizon_us,Victra Emmett,,EMMETT,ID,,US,+1 208-365-5001,https://www.verizon.com/stores/details/idaho/emmett/gowireless-emmett-1830422/,Mo-Sa 10:00-19:00; Su 12:00-17:00,Verizon,Q919641
,visa,,,EMMETT,ID,,US,,,,,
,visa,,,EMMETT,ID,,US,,,,,
,visa,,,EMMETT,ID,,US,,,,,
,visa,,,EMMETT,ID,,US,,,,,
,visa,,,EMMETT,ID,,US,,,,,
,visa,,,EMMETT,ID,,US,,,,,
,visa,,,EMMETT,ID,,US,,,,,
,visa,,,EMMETT,ID,,US,,,,,
,visa,,,EMMETT,ID,,US,,,,,
,visa,,,EMMETT,ID,,US,,,,,
,visa,,,EMMETT,ID,,US,,,,,
,visa,,,EMMETT,ID,,US,,,,,
,visa,,,EMMETT,ID,,US,,,,,
,visa,,,EMMETT,ID,,US,,,,,
,visa,,,EMMETT,ID,,US,,,,,
,visa,,,EMMETT,ID,,US,,,,,
,visa,,,EMMETT,ID,,US,,,,,
,visa,,,EMMETT,ID,,US,,,,,
,visa,,,EMMETT,ID,,US,,,,,
,visa,,,EMMETT,ID,,US,,,,,
,visa,,,EMMETT,ID,,US,,,,,
,visa,,,EMMETT,ID,,US,,,,,
https://www.walgreens.com/locator/walgreens-184+w+highway+52-emmett-id-83617/id=13105,walgreens,Walgreens,,Emmett,ID,,US,+1 208-365-4327,https://www.walgreens.com/locator/walgreens-184+w+highway+52-emmett-id-83617/id=13105,Mo-Su 08:00-22:00,Walgreens,Q1591889
102__W__MAIN__ST_EMMETT_ID_83617,wellsfargo,Wells Fargo,102 W MAIN ST,EMMETT,ID,,US,+1 208-365-4422,https://www.wellsfargo.com/locator/bank/102__W__MAIN__ST_EMMETT_ID_83617/,Mo-Fr 09:00-17:00,Wells Fargo,Q744149
2213,world_finance_us,,"817 S Washington Ave, Emmett, ID, 83617",Emmett,ID,,US,+1 208-365-1682,https://www.loansbyworld.com/branches/branch-2213,Mo-Fr 09:00-17:30; Sa 09:00-12:00,World Finance,Q3569971
