Ref,Spider,Name,Address,City,State,Zipcode,Country,Phone,Website,Hours,Brand,WikiData
6595,aaa,St Charles Insurance Office,,St. Charles,MO,,US,+1 636-946-2229,,,American Automobile Association,Q463436
https://stores.aldi.us/#68022496,aldi_sud_us,ALDI  1095 Regency Parkway,,St. Charles,MO,,US,+1 855-955-2534,https://stores.aldi.us/mo/st.-charles/1095-regency-parkway,"Mo-Su 08:30-20:00,09:00-20:00",ALDI,Q41171672
https://restaurants.applebees.com/en-us/mo/saint-charles/2921-s.-service-road-81000,applebees,Connect with this Applebee's,,Saint Charles,MO,,US,+1 636-946-7705,https://restaurants.applebees.com/en-us/mo/saint-charles/2921-s.-service-road-81000,Mo-Su 11:00-23:00,Applebees,Q621532
19077,asics_us,Fleet Feet St. Charles,3813 Mexico Rd,St Charles,MO,,US,+1 855-588-2786,,Mo-Fr 11:00-19:00; Sa 10:00-17:00; Su 12:00-17:00,asics,Q327247
4412,autozone_us,AutoZone Auto Parts Saint Charles,,Saint Charles,MO,,US,+1 636-447-0736,https://www.autozone.com/locations/mo/saint-charles/2660-muegge-rd.html,Mo-Sa 07:30-20:00; Su 09:00-20:00,AutoZone,Q4826087
https://www.banfield.com/locations/veterinarians/mo/st--charles/stc,banfield_pet_hospital,St. Charles,,St. Charles,MO,,US,+1 636-947-4141,https://www.banfield.com/locations/veterinarians/mo/st--charles/stc,Mo-Sa 07:00-18:00; Su 00:00-24:00,Banfield Pet Hospital,Q2882416
https://www.barlouie.com/locations/us/mo/st.-charles/streets-of-st.-charles,barlouie,Streets of St. Charles,,St. Charles,MO,,US,+1 636-206-2600,https://www.barlouie.com/locations/us/mo/st.-charles/streets-of-st.-charles,Mo-Fr 11:00-01:30; Sa 10:00-01:30; Su 10:00-24:00,Barlouie,Q16935493
151558,bluerhino,Walgreens #4970,,Saint Charles,MO,,US,+1 636-477-7702,,,Blue Rhino,Q65681213
150760,bluerhino,Walgreens #6801,,Saint Charles,MO,,US,+1 636-723-2813,,,Blue Rhino,Q65681213
212463,bluerhino,Alta Convenience #6567,,St. Charles,MO,,US,+1 636-947-3144,,,Blue Rhino,Q65681213
46955,bobevans_us,St Charles,,St. Charles,MO,,US,+1 636-949-0900,https://www.bobevans.com/locations/st-charles,Mo-Su 07:00-21:00,Bob Evans,Q4932386
4040,burgerking,Burger King,,St. Peters,MO,,US,6969284549,https://www.bk.com/store-locator/store/restaurant_2244,Mo-Sa 06:00-22:00; Su 07:00-22:00,Burger King,Q177054
15122,camp_bow_wow,Camp Bow Wow St. Charles,,St. Charles,MO,,US,+1 636-925-2275,,,Camp Bow Wow,Q121322343
3333,captaind,Captain D's,,St Charles,MO,,US,+1 636-949-5830,https://locations.captainds.com/ll/US/MO/St-Charles/2951-Service-Rd,Tu-Su 10:30-20:00,Captain D's,Q5036616
23873978,chase_us,St Charles - New branch,,Saint Charles,MO,,US,+1 636-688-1369,https://locator.chase.com/mo/saint-charles/1990-zumbehl-rd,Mo-Fr 09:00-17:00; Sa 09:00-13:00,Chase,Q524629
mo_saint-charles_2014-zumbehl-rd,chipotle, ,,Saint Charles,MO,,US,+1 636-723-9288,https://locations.chipotle.com/mo/saint-charles/2014-zumbehl-rd,,Chipotle,Q465751
https://locations.chuckecheese.com/us/mo/st-charles/2669-veterans-memorial-pkwy.,chuckecheese,Chuck E. Cheese,,St. Charles,MO,,US,+1 636-946-3444,https://locations.chuckecheese.com/us/mo/st-charles/2669-veterans-memorial-pkwy.,Mo-Th 11:00-21:00; Fr 11:00-22:00; Sa 10:00-22:00; Su 11:00-21:00,Chuck E. Cheese,Q2438391
89168,citi,ATM Walgreens,,Saint Charles,MO,,US,,,,Citibank,Q857063
44966,citi,ATM CNB St. Louis Bank,,St. Charles,MO,,US,,,,Citibank,Q857063
65418,citi,ATM MIDWEST BANKCENTR,,Saint Charles,MO,,US,,,,Citibank,Q857063
82471,citi,ATM Target,,Saint Charles,MO,,US,,,,Citibank,Q857063
66195,citi,ATM New Frontier Bank,,Saint Charles,MO,,US,,,,Citibank,Q857063
66196,citi,ATM New Frontier Bank,,Saint Charles,MO,,US,,,,Citibank,Q857063
88255,citi,ATM Walgreens,,Saint Charles,MO,,US,,,,Citibank,Q857063
37353,citi,ATM BUSEY BANK,,St Charles,MO,,US,,,,Citibank,Q857063
56581,citi,ATM FIRST ST BK ST CHARLES,,St Charles,MO,,US,,,,Citibank,Q857063
59851,citi,ATM Hucks,,Saint Charles,MO,,US,,,,Citibank,Q857063
,credit_union_us,Alltru CU,,St Charles,MO,,US,+1 636-916-8300,,Mo-Tu 09:00-05:00; We 10:00-05:00; Th 09:00-05:00; Fr 09:00-06:00; Sa 09:00-12:00,,
137,culvers_us,"Culver's of St. Charles, MO - Muegge Rd",,St. Charles,MO,,US,+1 636-922-7537,http://www.culvers.com/restaurants/st-charles,Mo-Th 10:30-22:00; Fr 10:30-23:00; Su 10:30-22:00,Culver's,Q1143589
18007,cvs_us,CVS Pharmacy,,Saint Charles,MO,,US,+1 636-947-0311,https://www.cvs.com/store-locator/saint-charles-mo-pharmacies/1950-zumbehl-rd-saint-charles-mo-63303/storeid=18007,"Mo-Fr 09:00-13:30,14:00-19:00; Sa 10:00-13:30,14:00-18:00; Su 11:00-13:30,14:00-17:00",CVS Pharmacy,Q2078880
18058,cvs_us,CVS Pharmacy,,Saint Charles,MO,,US,+1 636-441-3300,https://www.cvs.com/store-locator/saint-charles-mo-pharmacies/60-harvester-sq-saint-charles-mo-63303/storeid=18058,"Mo-Fr 09:00-13:30,14:00-19:00; Sa 10:00-13:30,14:00-18:00; Su 11:00-13:30,14:00-17:00",CVS Pharmacy,Q2078880
16625,cvs_us,CVS Pharmacy,,Saint Charles,MO,,US,+1 636-922-3064,https://www.cvs.com/store-locator/saint-charles-mo-pharmacies/3881-mexico-rd-saint-charles-mo-63303/storeid=16625,"Mo-Fr 09:00-13:30,14:00-19:00; Sa 09:00-13:30,14:00-17:00; Su 11:00-13:30,14:00-17:00",CVS Pharmacy,Q2078880
TG9jYXRpb246MTQ=,dierbergs,Bogey Hills Plaza,,St. Charles,MO,,US,+1 636-947-0900,,Mo-Su 06:00-22:00,Dierberg's,Q5274978
1618,dominos_pizza_us,Domino's Pizza,,Saint Charles,MO,,US,+1 636-724-6060,https://pizza.dominos.com/missouri/saint-charles/1966-s-old-highway-94,Mo-Th 10:30-24:00; Fr-Sa 10:30-01:00; Su 10:30-24:00,Domino's,Q839466
https://www.edwardjones.com/us-en/financial-advisor/josh-elliott,edwardjones,Josh Elliott,,St Charles,MO,,US,+1 636-946-6143,https://www.edwardjones.com/us-en/financial-advisor/josh-elliott,Mo-Fr 08:00-16:30,Edward Jones,Q5343830
E10108,enterprise,St. Charles,,Saint Charles,MO,,US,+1 636-946-3010,,,Enterprise Rent-A-Car,Q17085454
501810,extra_space_storage,St Charles Self Storage at 1500 S 1st Capitol Dr,,St Charles,MO,,US,+1 636-723-0093,https://www.extraspace.com/storage/facilities/us/missouri/st_charles/501810/,Mo-Su 06:00-22:00,Extra Space Storage,Q5422162
https://locations.fivebelow.com/mo/st-charles/2133-zumbehl-road,five_below,Five Below Bogey Hills Plaza,,St. Charles,MO,,US,,https://locations.fivebelow.com/mo/st-charles/2133-zumbehl-road,Mo-Sa 10:00-20:00; Su 11:00-18:00,Five Below,Q5455836
https://restaurants.fiveguys.com/#15553238,five_guys_us,Five Guys Streets of St. Charles,,St. Charles,MO,,US,+1 636-493-6017,https://restaurants.fiveguys.com/1520-s-fifth-st,"Mo-Su 11:00-21:30,11:00-22:00",Five Guys,Q1131810
0436,gamestop_us,Bogey Hills Plaza,,Saint Charles,MO,,US,+1 636-925-0009,https://www.gamestop.com/search/?store=0436,Mo-Th 12:00-20:00; Fr-Sa 11:00-21:00; Su 11:00-19:00,GameStop,Q202210
st-louis_ray-dinkins,geico,Ray Dinkins,,St. Charles,MO,,US,+1 636-946-9500,https://www.geico.com/insurance-agents/missouri/st-louis/ray-dinkins/,,GEICO,Q1498689
454ff56c-3c24-e711-923d-005056890337,goodwill,Harvester2 Store,,St. Peters,MO,,US,+1 636-498-0566,https://www.goodwill.org/locator/location/?store=NDU0ZmY1NmMtM2MyNC1lNzExLTkyM2QtMDA1MDU2ODkwMzM3&lat=MzguNzQ3NjY=&lng=LTkwLjU3ODg5,,Goodwill,Q5583655
https://salons.greatclips.com/us/mo/harvester/36-b-1-harvester-sq,greatclips,Great Clips,,Harvester,MO,,US,+1 636-939-0717,https://salons.greatclips.com/us/mo/harvester/36-b-1-harvester-sq,Mo-Fr 10:00-19:00; Sa 08:00-17:00; Su 09:00-17:00,Great Clips,Q5598967
https://salons.greatclips.com/us/mo/st-charles/2651-muegge-rd,greatclips,Great Clips,,St Charles,MO,,US,+1 636-939-6855,https://salons.greatclips.com/us/mo/st-charles/2651-muegge-rd,Mo-Fr 10:00-18:00; Sa 09:00-18:00; Su 10:00-17:00,Great Clips,Q5598967
https://www.harborfreight.com/storelocator/3803-mexico-rd-saint-charles-63303?number=304,harborfreight,"Harbor Freight Tools St. Charles, MO",,Saint Charles,MO,,US,+1 636-447-7634,https://www.harborfreight.com/storelocator/3803-mexico-rd-saint-charles-63303?number=304,Mo-Sa 08:00-20:00; Su 09:00-18:00,Harbor Freight Tools,Q5654601
stlmoru-tru-st-charles-st-louis,hilton,Tru by Hilton St. Charles St. Louis,,,MO,,US,+1 636-669-2500,https://www.hilton.com/ar/hotels/stlmoru-tru-st-charles-st-louis/,,Tru by Hilton,Q24907770
24136,h_r_block,H&R Block,,Saint Charles,MO,,US,+1 636-916-4255,https://www.hrblock.com/local-tax-offices/missouri/saint-charles/country-club-place-shop-ctr/24136/,,H&R Block,Q5627799
https://locations.jimmyjohns.com/mo/st-charles/sandwiches-2801.html,jimmy_johns,Jimmy John's,,St. Charles,MO,,US,+1 636-724-0500,https://locations.jimmyjohns.com/mo/st-charles/sandwiches-2801.html,,Jimmy John's,Q1689380
301450,kindercare,Zumbehl Road KinderCare,,Saint Charles,MO,,US,,https://www.kindercare.com/our-centers/saint-charles/mo/301450,,KinderCare Learning Centers,Q6410551
STLSC,marriott,Fairfield Inn & Suites St. Louis St. Charles,,St. Charles,MO,,US,+1 636-946-1900,https://www.marriott.com/STLSC,,Fairfield by Marriott,Q5430314
https://www.mercy.net/content/mercy/us/en/practice/st-charles/mercy-clinic-primary-care-zumbehl-road.html,mercy,Mercy Clinic Primary Care - Zumbehl Road,,St. Charles,MO,,US,+1 636-947-2334,https://www.mercy.net/practice/mercy-clinic-primary-care-zumbehl-road,Mo-Fr 08:00-16:30,Mercy,Q30289045
https://www.mercy.net/content/mercy/us/en/practice/st-charles/mercy-clinic-gastroenterology-zumbehl-road.html,mercy,Mercy Clinic Gastroenterology - Zumbehl Road,,St. Charles,MO,,US,+1 636-561-9020,https://www.mercy.net/practice/mercy-clinic-gastroenterology-zumbehl-road,,Mercy,Q30289045
https://www.mercy.net/content/mercy/us/en/practice/st-charles/mercy-clinic-urology-zumbehl-road.html,mercy,Mercy Clinic Urology - Zumbehl Road,,St. Charles,MO,,US,+1 314-251-8850,https://www.mercy.net/practice/mercy-clinic-urology-zumbehl-road,Tu 08:00-12:00,Mercy,Q30289045
https://www.mercy.net/content/mercy/us/en/practice/st-charles/mercy-clinic-surgical-specialists-zumbehl-road.html,mercy,Mercy Clinic Surgical Specialists - Zumbehl Road,,St. Charles,MO,,US,+1 314-251-6840,https://www.mercy.net/practice/mercy-clinic-surgical-specialists-zumbehl-road,,Mercy,Q30289045
https://www.mercy.net/content/mercy/us/en/practice/st-charles/mercy-diagnostic-cardiology-services-zumbehl-road.html,mercy,Mercy Diagnostic Cardiology Services - Zumbehl Road,,St. Charles,MO,,US,+1 855-637-2900,https://www.mercy.net/practice/mercy-diagnostic-cardiology-services-zumbehl-road,,Mercy,Q30289045
https://www.mercy.net/content/mercy/us/en/practice/st-charles/mercy-clinic-heart-and-vascular-zumbehl-road.html,mercy,Mercy Clinic Heart and Vascular - Zumbehl Road,,St. Charles,MO,,US,+1 636-447-1827,https://www.mercy.net/practice/mercy-clinic-heart-and-vascular-zumbehl-road,Mo-Fr 08:00-16:30,Mercy,Q30289045
https://www.mercy.net/content/mercy/us/en/practice/st-charles/mercy-imaging-services-zumbehl-road.html,mercy,Mercy Imaging Services - Zumbehl Road,,St. Charles,MO,,US,+1 636-866-2327,https://www.mercy.net/practice/mercy-imaging-services-zumbehl-road,Mo-Fr 08:30-16:00,Mercy,Q30289045
https://www.mercy.net/content/mercy/us/en/practice/st-charles/mercy-clinic-neurosurgery-zumbehl-road.html,mercy,Mercy Clinic Neurosurgery - Zumbehl Road,,St. Charles,MO,,US,+1 314-251-6364,https://www.mercy.net/practice/mercy-clinic-neurosurgery-zumbehl-road,We 13:00-16:00,Mercy,Q30289045
https://www.mercy.net/content/mercy/us/en/practice/st-charles/mercy-pharmacy-dierbergs-bogey-hills.html,mercy,Mercy Pharmacy - Dierbergs Bogey Hills,,St. Charles,MO,,US,+1 636-947-0929,https://www.mercy.net/practice/mercy-pharmacy-dierbergs-bogey-hills,"Mo-Fr 08:00-13:30,14:00-20:00; Sa 08:00-13:30,14:00-18:00; Su 10:00-16:00",Mercy,Q30289045
https://www.mercy.net/content/mercy/us/en/practice/st-charles/mercy-gohealth-urgent-care-saint-charles.html,mercy,Mercy-GoHealth Urgent Care - Saint Charles,,St. Charles,MO,,US,+1 636-206-2690,https://www.mercy.nethttps://www.gohealthuc.com/mercy-st-louis/locations/st-charles,Mo-Fr 08:00-20:00; Sa-Su 09:00-17:00,Mercy,Q30289045
71447236,moneygram,WAL-MART - #1161,,SAINT CHARLES,MO,,US,+1 636-947-8732,,Mo-Sa 08:00-20:00; Su 10:00-18:00,MoneyGram,Q1944412
2299,orangetheory_fitness,"St Charles, MO",,St. Charles,MO,,US,+1 314-250-1037,,,Orangetheory Fitness,Q25005163
113101,pandaexpress,Veterans Memorial Pkwy & Zumbehl Rd,,Saint Charles,MO,,US,+1 636-724-1076,https://www.pandaexpress.com/locations/mo/saint-charles/2919-veterans-memorial-pkwy,Mo-Th 10:00-21:00; Fr-Sa 10:00-21:30; Su 10:00-21:00,Panda Express,Q1358690
https://www.pfchangs.com/locations/#5265407,pf_changs,"P.F. Chang's St Charles, MO",,Saint Charles,MO,,US,+1 636-410-7800,https://www.pfchangs.com/locations/us/mo/saint-charles/400-lombard-street/9888-st-charles-mo.html,"Mo-Th 11:00-22:00,15:00-17:00; Fr 11:00-23:00,15:00-17:00; Sa 11:00-23:00; Su 11:00-22:00",P. F. Chang's China Bistro,Q5360181
mo_saint-charles_1608-country-club-place-dr,pizza_hut_us,1608 Country Club Place Dr.,,Saint Charles,MO,,US,+1 636-724-1500,https://locations.pizzahut.com/mo/saint-charles/1608-country-club-place-dr,,Pizza Hut,Q191615
restaurant_239399,popeyes_us_fr,Popeyes,"1041 Regency Pkwy St. Charles, Missouri 63303 - USA",St. Charles,MO,,US,+1 636-925-3007,https://www.popeyes.com/store-locator/store/restaurant_239399,Mo-We 10:00-23:00; Th-Sa 10:00-00:00; Su 10:00-23:00,Popeyes,Q1330910
home-depot-3009-13669,ppgpaints,HOME DEPOT 3009,,"Saint Charles, ",MO,,US,+1 636-936-9494,https://www.ppgpaints.com/store-locator/us/missouri/saint-charles-paint-stores/home-depot-3009-13669,,PPG Paints,Q83891559
406,primrose_schools,Primrose School of St. Charles at Heritage,,St. Peters,MO,,US,+1 636-317-6200,https://www.primroseschools.com/schools/st-charles-at-heritage/,,Primrose Schools,Q7243677
https://www.publicstorage.com/self-storage-mo-st-charles/1007.html,public_storage_us,Public Storage,,St Charles,MO,,US,+1 636-373-7058,https://www.publicstorage.com/self-storage-mo-st-charles/1007.html,,Public Storage,Q1156045
https://www.publicstorage.com/self-storage-mo-st-charles/918.html,public_storage_us,Public Storage,,St Charles,MO,,US,+1 636-373-7753,https://www.publicstorage.com/self-storage-mo-st-charles/918.html,,Public Storage,Q1156045
https://locations.quiktrip.com/#16004501,quiktrip_us,QuikTrip Store #623 3889 Mexico Rd,,St Charles,MO,,US,+1 636-939-2665,https://locations.quiktrip.com/mo/st-charles/3889-mexico-rd,24/7,QuikTrip,Q7271953
https://locations.quiktrip.com/#16004302,quiktrip_us,QuikTrip Store #602 1640 S 5th St,,St Charles,MO,,US,+1 636-946-8141,https://locations.quiktrip.com/mo/st-charles/1640-s-5th-st,24/7,QuikTrip,Q7271953
https://locations.quiktrip.com/#16004410,quiktrip_us,QuikTrip Store #660 1500 Zumbehl Rd,,St Charles,MO,,US,+1 636-255-0527,https://locations.quiktrip.com/mo/st-charles/1500-zumbehl-rd,24/7,QuikTrip,Q7271953
1730,rentacenter,Rent-A-Center,,Saint Charles,MO,,US,+1 636-723-1811,https://locations.rentacenter.com/missouri/saint-charles/1051-regency-pkwy/,Mo-Sa 10:00-18:00,Rent-A-Center,Q7313497
8251,sams_club,St. Charles Sam's Club,,St. Charles,MO,,US,+1 636-946-7002,https://www.samsclub.com/club/st-charles-mo-sams-club/8251,Mo 10:00-20:00; Sa 09:00-20:00; Su 10:00-18:00,Sam's Club,Q1972120
111,schnucks_us,Schnucks Zumbehl,,St. Charles,MO,,US,+1 636-947-8422,https:/locations.schnucks.com/mo-st-charles-111,Mo-Su 06:00-22:00,Schnuck's,Q7431920
228,schnucks_us,Schnucks Harvester Square,,St. Charles,MO,,US,+1 636-441-5900,https:/locations.schnucks.com/mo-st-charles-228,Mo-Su 06:00-22:00,Schnuck's,Q7431920
483,shoe_carnival_us,Shoe Carnival,,Saint Charles,MO,,US,+1 636-922-7172,https://stores.shoecarnival.com/mo/saintcharles/shoe-store-saint-charles-mo-483.html,Mo-Sa 10:00-21:00; Su 11:00-19:00,Shoe Carnival,Q7500007
https://smashburger.com/locations/#64506850,smashburger,Smashburger,,St. Charles,MO,,US,+1 636-724-6777,https://smashburger.com/locations/us/mo/st.-charles/1981-zumbehl-rd,Mo-We 10:00-21:00; Th-Sa 10:00-22:00; Su 10:00-21:00,Smashburger,Q17061332
https://restaurants.subway.com/#14898082,subway,Subway,,St Charles Saint Charles,MO,,US,+1 636-949-2681,https://restaurants.subway.com/united-states/mo/st-charles/1064-regency-pkwy,Mo-Su 09:00-22:00,Subway,Q244457
https://restaurants.subway.com/#14902016,subway,Subway Wal-Mart #1161,,St Charles Saint Charles,MO,,US,+1 636-925-1088,https://restaurants.subway.com/united-states/mo/st-charles/2897-veteran's-memorial-pkwy,Mo-Su 08:00-22:00,Subway,Q244457
https://locations.tacobell.com/#6145416,taco_bell,Taco Bell,,Saint Charles,MO,,US,+1 636-947-6263,https://locations.tacobell.com/mo/saint-charles/2003-zumbehl-rd.html,Mo-Su 08:00-01:00,Taco Bell,Q752941
8226,tmobile_us,Veterans Meml Pkwy & Zumbehl,,St. Charles,MO,,US,+1 636-724-5466,https://www.t-mobile.com/store-locator/mo/st-charles/veterans-meml-pkwy-zumbehl,,T-Mobile,Q3511885
5B65,tmobile_us,Sam's Club St Charles MO,,St. Charles,MO,,US,+1 636-735-0088,https://www.t-mobile.com/store-locator/mo/st-charles/sams-club-st-charles-mo,,T-Mobile,Q3511885
100017,two_men_and_truck,St. Charles,2081 Exchange Dr,St Charles,MO,,US,+1 314-963-7766,https://twomenandatruck.com/movers/mo/st-charles,,Two Men and a Truck,Q7859087
1470904,usps,SAINT CHARLES SOUTH,,SAINT CHARLES,MO,,US,+1 636-922-2077,,Mo-Fr 09:00-17:00; Sa 09:00-13:30,United States Postal Service,Q668687
6330300041,usps_collection_boxes,USPS COLLECTION BOX - BLUE BOX,1003 WOLFRUM RD,SAINT CHARLES,MO,,US,,,,United States Postal Service,Q668687
6330300019,usps_collection_boxes,USPS COLLECTION BOX - BLUE BOX,6211 MID RIVERS MALL DR,SAINT CHARLES,MO,,US,,,,United States Postal Service,Q668687
6330300014,usps_collection_boxes,USPS COLLECTION BOX - BLUE BOX,4646 S SAINT PETERS PARKWAY,SAINT CHARLES,MO,,US,,,,United States Postal Service,Q668687
6330300018,usps_collection_boxes,USPS COLLECTION BOX - BLUE BOX,5988 MID RIVERS MALL DR,SAINT CHARLES,MO,,US,,,,United States Postal Service,Q668687
6330300051,usps_collection_boxes,USPS COLLECTION BOX - PO LOBBY,1600 WOODSTONE DR,SAINT CHARLES,MO,,US,,,,United States Postal Service,Q668687
6330300056,usps_collection_boxes,USPS COLLECTION BOX - PO LOBBY,1600 WOODSTONE DR,SAINT CHARLES,MO,,US,,,,United States Postal Service,Q668687
6330300033,usps_collection_boxes,USPS COLLECTION BOX - BLUE BOX,1600 WOODSTONE DR,SAINT CHARLES,MO,,US,,,,United States Postal Service,Q668687
6330300034,usps_collection_boxes,USPS COLLECTION BOX - BLUE BOX,1600 WOODSTONE DR,SAINT CHARLES,MO,,US,,,,United States Postal Service,Q668687
6330300045,usps_collection_boxes,USPS COLLECTION BOX - BLUE BOX,1600 HERITAGE LNDG,SAINT CHARLES,MO,,US,,,,United States Postal Service,Q668687
6330300037,usps_collection_boxes,USPS COLLECTION BOX - BLUE BOX,2480 EXECUTIVE DR,SAINT CHARLES,MO,,US,,,,United States Postal Service,Q668687
6330300010,usps_collection_boxes,USPS COLLECTION BOX - BLUE BOX,2172 BLUESTONE DR,SAINT CHARLES,MO,,US,,,,United States Postal Service,Q668687
6330300023,usps_collection_boxes,USPS COLLECTION BOX - BLUE BOX,2050 S OLD HIGHWAY 94,SAINT CHARLES,MO,,US,,,,United States Postal Service,Q668687
6330300004,usps_collection_boxes,USPS COLLECTION BOX - BLUE BOX,1550 COUNTRY CLUB PLAZA DR,SAINT CHARLES,MO,,US,,,,United States Postal Service,Q668687
6330300032,usps_collection_boxes,USPS COLLECTION BOX - BLUE BOX,1950 ZUMBEHL RD,SAINT CHARLES,MO,,US,,,,United States Postal Service,Q668687
6330300043,usps_collection_boxes,USPS COLLECTION BOX - BLUE BOX,1550 WALL ST,SAINT CHARLES,MO,,US,,,,United States Postal Service,Q668687
6330300000,usps_collection_boxes,USPS COLLECTION BOX - BLUE BOX,2021 ZUMBEHL RD,SAINT CHARLES,MO,,US,,,,United States Postal Service,Q668687
,visa,,,SAINT CHARLES,MO,,US,,,,,
,visa,,,SAINT CHARLES,MO,,US,,,,,
,visa,,,SAINT CHARLES,MO,,US,,,,,
,visa,,,SAINT CHARLES,MO,,US,,,,,
,visa,,,SAINT CHARLES,MO,,US,,,,,
,visa,,,ST CHARLES,MO,,US,,,,,
,visa,,,ST CHARLES,MO,,US,,,,,
,visa,,,ST CHARLES,MO,,US,,,,,
,visa,,,ST CHARLES,MO,,US,,,,,
,visa,,,ST. CHARLES,MO,,US,,,,,
,visa,,,ST CHARLES,MO,,US,,,,,
,visa,,,ST CHARLES,MO,,US,,,,,
,visa,,,ST CHARLES,MO,,US,,,,,
,visa,,,SAINT CHARLES,MO,,US,,,,,
,visa,,,ST. CHARLES,MO,,US,,,,,
,visa,,,ST CHARLES,MO,,US,,,,,
,visa,,,SAINT CHARLES,MO,,US,,,,,
,visa,,,ST CHARLES,MO,,US,,,,,
,visa,,,ST CHARLES,MO,,US,,,,,
,visa,,,ST CHARLES,MO,,US,,,,,
,visa,,,ST CHARLES,MO,,US,,,,,
,visa,,,ST. CHARLES,MO,,US,,,,,
,visa,,,ST CHARLES,MO,,US,,,,,
,visa,,,SAINT CHARLES,MO,,US,,,,,
,visa,,,ST. CHARLES,MO,,US,,,,,
,visa,,,ST CHARLES,MO,,US,,,,,
,visa,,,ST CHARLES,MO,,US,,,,,
,visa,,,ST CHARLES,MO,,US,,,,,
,visa,,,ST. CHARLES,MO,,US,,,,,
,visa,,,ST CHARLES,MO,,US,,,,,
,visa,,,ST CHARLES,MO,,US,,,,,
,visa,,,ST CHARLES,MO,,US,,,,,
,visa,,,ST CHARLES,MO,,US,,,,,
,visa,,,ST. CHARLES,MO,,US,,,,,
,visa,,,SAINT CHARLES,MO,,US,,,,,
,visa,,,ST. CHARLES,MO,,US,,,,,
,visa,,,ST PETERS,MO,,US,,,,,
,visa,,,ST CHARLES,MO,,US,,,,,
,visa,,,ST CHARLES,MO,,US,,,,,
,visa,,,ST.CHARLES,MO,,US,,,,,
,visa,,,ST CHARLES,MO,,US,,,,,
,visa,,,SAINT CHARLES,MO,,US,,,,,
,visa,,,ST PETERS,MO,,US,,,,,
,visa,,,ST PETERS,MO,,US,,,,,
,visa,,,ST.PETERS,MO,,US,,,,,
,visa,,,ST CHARLES,MO,,US,,,,,
,visa,,,SAINT CHARLES,MO,,US,,,,,
,visa,,,SAINT CHARLES,MO,,US,,,,,
,visa,,,SAINT CHARLES,MO,,US,,,,,
https://www.walgreens.com/locator/walgreens-1780+zumbehl+rd-saint+charles-mo-63303/id=6801,walgreens,Walgreens,,Saint Charles,MO,,US,+1 636-723-1134,https://www.walgreens.com/locator/walgreens-1780+zumbehl+rd-saint+charles-mo-63303/id=6801,Mo-Su 07:00-22:00,Walgreens,Q1591889
https://www.walgreens.com/locator/walgreens-2310+s+old+highway+94-saint+charles-mo-63303/id=4970,walgreens,Walgreens,,Saint Charles,MO,,US,+1 636-477-7996,https://www.walgreens.com/locator/walgreens-2310+s+old+highway+94-saint+charles-mo-63303/id=4970,Mo-Su 07:00-23:00,Walgreens,Q1591889
https://locations.wendys.com/#9255777,wendys,"Wendy's 2760 Muegge Road in Saint Charles, MO",,Saint Charles,MO,,US,+1 636-447-5946,https://locations.wendys.com/united-states/mo/saint-charles/2760-muegge-road,"Mo-Su 06:00-10:30,06:00-22:00",Wendy's,Q550258
7b2f33d4b6e8563b7d4856f8dd68be65,western_union,WALMART #001161,,Saint Charles,MO,,US,+1 636-947-8732,https://location.westernunion.com/us/mo/saint-charles/7b2f33d4b6e8563b7d4856f8dd68be65,Mo-Sa 08:00-20:00; Su 10:00-18:00,Western Union,Q861042
1127,world_finance_us,,"1803 Zumbehl Rd, St. Charles, MO, 63303",St. Charles,MO,,US,+1 636-724-5376,https://www.loansbyworld.com/branches/branch-1127,Mo-Fr 09:00-17:30; Sa 09:00-12:00,World Finance,Q3569971
