Ref,Spider,Name,Address,City,State,Zipcode,Country,Phone,Website,Hours,Brand,WikiData
https://stores.advanceautoparts.com/ga/acworth/5741-bells-ferry-rd,advance_auto_parts_us,Advance Auto Parts,,Acworth,GA,,US,+1 770-592-1129,https://stores.advanceautoparts.com/ga/acworth/5741-bells-ferry-rd,Mo-Sa 07:30-21:00; Su 08:30-20:30,Advance Auto Parts,Q4686051
2036,autozone_us,AutoZone Auto Parts Acworth,,Acworth,GA,,US,+1 770-517-2670,https://www.autozone.com/locations/ga/acworth/6400-highway-92.html,Mo-Sa 07:30-21:00; Su 09:00-20:00,AutoZone,Q4826087
https://locators.bankofamerica.com/ga/acworth/atm-acworth-100617.html,bankofamerica,Bank of America Drive-Thru ATM | Bells Ferry,,Acworth,GA,,US,+1 844-401-8500,https://locators.bankofamerica.com/ga/acworth/atm-acworth-100617.html,,Bank of America,Q487907
https://stores.basspro.com/us/ga/acworth/152-northpoint-parkway.html,bassproshops,"Bass Pro Shops Acworth, GA",,Acworth,GA,,US,+1 470-315-7500,https://stores.basspro.com/us/ga/acworth/152-northpoint-parkway.html,Mo-Sa 09:00-20:00; Su 10:00-19:00,Bass Pro Shops,Q4867953
182847,bluerhino,Shell Food Mart - ARA #3055,,Acworth,GA,,US,+1 770-529-1661,,,Blue Rhino,Q65681213
184158,bluerhino,Kroger #291 - Atlanta - Fuel Site,,Acwoth,GA,,US,+1 770-924-9102,,,Blue Rhino,Q65681213
13067,bluerhino,Kroger #291 - Atlanta,,Acworth,GA,,US,+1 770-924-9102,,,Blue Rhino,Q65681213
220248,bluerhino,Smart Food Mart #1 - ARA #4162,,Acworth,GA,,US,+1 770-693-1041,,,Blue Rhino,Q65681213
167425,bluerhino,Food Depot #39 Acworth - #622218,,Acworth,GA,,US,+1 770-926-2267,,,Blue Rhino,Q65681213
23553618342653010200100000000000,bp,BP,,ACWORTH,GA,,US,+1 770-529-5081,,24/7,BP,Q152057
ACWOGAYD,builders_firstsource_us,Acworth GA Yard,,Acworth,GA,,US,+1 678-439-3300,https://www.bldr.com/location/cherokee/ACWOGAYD,Mo-Fr 07:00-16:00,Builders FirstSource,Q27686100
308514,chevron,Texaco Station #308514,5634 BELLS FERRY RD,ACWORTH,GA,,US,+1 770-924-4722,,,Chevron,Q319642
61529,citi,ATM Kroger,,Acworth,GA,,US,,,,Citibank,Q857063
51227,citi,ATM CVS,,Acworth,GA,,US,,,,Citibank,Q857063
80193508,cricket_wireless,Cricket Wireless Authorized Retailer,,Acworth,GA,,US,+1 678-503-2662,https://www.cricketwireless.com/stores/ll/US/GA/Acworth/5570-Bells-Ferry-Rd,Mo-Sa 10:00-20:00; Su 12:00-18:00,Cricket Wireless,Q5184987
763,culvers_us,"Culver's of Acworth, GA - Hwy 92",,Acworth,GA,,US,+1 678-540-5043,http://www.culvers.com/restaurants/acworth-ga-hwy-92,Mo-Fr 10:30-22:00; Su 10:30-22:00,Culver's,Q1143589
353268,dunkin_us,Dunkin',,Acworth,GA,,US,+1 678-503-8388,https://locations.dunkindonuts.com/en/ga/acworth/130-northpoint-pkwy/353268,Mo-Fr 05:00-21:00; Sa 05:00-19:00; Su 05:00-21:00,Dunkin',Q847743
3775,first_cash,Big Deal Pawn & Shop,,Acworth,GA,,US,+1 678-445-5455,,,,
ga_acworth_breakfast-1129-hwy-92-3762,ihop,IHOP Breakfast Restaurants Near You at 1129 Hwy 92,,Acworth,GA,,US,,https://restaurants.ihop.com/en-us/ga/acworth/breakfast-1129-hwy-92-3762,,IHOP,Q1185675
https://office.jacksonhewitt.com/#27578189,jackson_hewitt,Jackson Hewitt,,Acworth,GA,,US,+1 470-508-4107,https://office.jacksonhewitt.com/tax-preparation-services-locations/en/ga/acworth/6199-highway-92/14500,Mo-Sa 11:00-19:00; Su 12:00-16:00,Jackson Hewitt,Q6117132
https://locations.kfc.com/#11249397,kfc,Chicken Nuggets Near Acworth,,Acworth,GA,,US,,https://locations.kfc.com/ga/acworth/6760-highway-92/chickennugget,Mo-Th 10:30-23:00; Fr-Sa 10:30-24:00; Su 10:30-23:00,KFC,Q524757
000889,kindercare,Wade Green KinderCare,,Acworth,GA,,US,,https://www.kindercare.com/our-centers/acworth/ga/000889,,KinderCare Learning Centers,Q6410551
74644227,moneygram,ACWORTH CHEQUE EXPRESS - ACWORTH - CHEQU,,ACWORTH,GA,,US,+1 770-638-4060,,Mo-Su 09:00-21:00,MoneyGram,Q1944412
70950928,moneygram,A+ FINANCIAL SERVICES INC. - #3 - ACWOR,,ACWORTH,GA,,US,+1 770-591-3585,,Mo-Su 08:00-20:00,MoneyGram,Q1944412
66009689,moneygram,CVS - #2105,,ACWORTH,GA,,US,+1 770-770-6563,,Mo-Su 08:00-22:00,MoneyGram,Q1944412
https://locations.oreillyauto.com/ga/acworth/check-engine-light-testing-1969.html,oreilly,Your Acworth O'Reilly Auto Parts Store,,Acworth,GA,,US,+1 770-924-5227,https://locations.oreillyauto.com/ga/acworth/check-engine-light-testing-1969.html,Mo-Sa 07:30-21:00; Su 09:00-20:00,O'Reilly Auto Parts,Q7071951
https://locations.oreillyauto.com/ga/acworth/battery-testing-1969.html,oreilly,Your Acworth O'Reilly Auto Parts Store,,Acworth,GA,,US,+1 770-924-5227,https://locations.oreillyauto.com/ga/acworth/battery-testing-1969.html,Mo-Sa 07:30-21:00; Su 09:00-20:00,O'Reilly Auto Parts,Q7071951
https://locations.oreillyauto.com/ga/acworth/wiper-installation-1969.html,oreilly,Your Acworth O'Reilly Auto Parts Store,,Acworth,GA,,US,+1 770-924-5227,https://locations.oreillyauto.com/ga/acworth/wiper-installation-1969.html,Mo-Sa 07:30-21:00; Su 09:00-20:00,O'Reilly Auto Parts,Q7071951
https://locations.oreillyauto.com/ga/acworth/autopartes-1969.html,oreilly,Tu tienda O'Reilly Auto Parts en Acworth,,Acworth,GA,,US,+1 770-924-5227,https://locations.oreillyauto.com/ga/acworth/autopartes-1969.html,Mo-Sa 07:30-21:00; Su 09:00-20:00,O'Reilly Auto Parts,Q7071951
0000890050,phillips_66_conoco_76,RUT BHARTI INC,,ACWORTH,GA,,US,+1 770-928-2654,,,U76,Q1658320
https://locations.quiktrip.com/#16004116,quiktrip_us,QuikTrip Store #793 6090 Hwy 92,,Acworth,GA,,US,+1 678-445-8111,https://locations.quiktrip.com/ga/acworth/6090-hwy-92,24/7,QuikTrip,Q7271953
https://www.racetrac.com/locations/georgia/acworth/acworth,racetrac_us,RaceTrac,,Acworth,GA,,US,+1 678-574-5985,https://www.racetrac.com/locations/georgia/acworth/acworth,,RaceTrac,Q735942
955,rentacenter,Rent-A-Center,,Acworth,GA,,US,+1 770-924-0499,https://locations.rentacenter.com/georgia/acworth/5546-bells-ferry-rd/,Mo-Sa 10:00-18:00,Rent-A-Center,Q7313497
https://restaurants.subway.com/#14906260,subway,Subway,,Acworth Cherokee,GA,,US,+1 770-926-6294,https://restaurants.subway.com/united-states/ga/acworth/6161-hwy-92,Mo-Su 08:30-21:30,Subway,Q244457
0850187600,sunoco_us,Sunoco,,ACWORTH,GA,,US,+1 770-973-7824,,Mo-Sa 06:00-23:00; Su 06:00-22:00,Sunoco,Q1423218
https://locations.tacobell.com/#6142530,taco_bell,Taco Bell,,Acworth,GA,,US,+1 770-926-0160,https://locations.tacobell.com/ga/acworth/6760-highway-92.html,Mo-Th 10:30-24:00; Fr-Sa 10:30-01:00; Su 10:30-24:00,Taco Bell,Q752941
1436820,usps,OAK GROVE,,ACWORTH,GA,,US,+1 770-592-2800,,Mo-Fr 08:30-17:00; Sa 08:30-12:00,United States Postal Service,Q668687
3010200003,usps_collection_boxes,USPS COLLECTION BOX - PO LOBBY,5944 HIGHWAY 92 STE 100,ACWORTH,GA,,US,,,,United States Postal Service,Q668687
,visa,,,LAWERENCEVILLE,GA,,US,,,,,
,visa,,,ACWORTH,GA,,US,,,,,
,visa,,,ACWORTH,GA,,US,,,,,
,visa,,,ACWORTH,GA,,US,,,,,
,visa,,,ACWORTH,GA,,US,,,,,
,visa,,,ACWORTH,GA,,US,,,,,
,visa,,,ACWORTH,GA,,US,,,,,
,visa,,,ACWORTH,GA,,US,,,,,
,visa,,,ACWORTH,GA,,US,,,,,
,visa,,,ACWORTH,GA,,US,,,,,
,visa,,,ACWORTH,GA,,US,,,,,
,visa,,,ACWORTH,GA,,US,,,,,
,visa,,,ACWORTH,GA,,US,,,,,
,visa,,,ACWORTH,GA,,US,,,,,
,visa,,,ACWORTH,GA,,US,,,,,
,visa,,,ACWORTH,GA,,US,,,,,
,visa,,,ACWORTH,GA,,US,,,,,
,visa,,,ACWORTH,GA,,US,,,,,
,visa,,,ACWORTH,GA,,US,,,,,
,visa,,,ACWORTH,GA,,US,,,,,
,visa,,,ACWORTH,GA,,US,,,,,
,visa,,,ACWORTH,GA,,US,,,,,
,visa,,,ACWORTH,GA,,US,,,,,
,visa,,,ACWORTH,GA,,US,,,,,
,visa,,,ACWORTH,GA,,US,,,,,
,visa,,,ACWORTH,GA,,US,,,,,
,visa,,,ACWORTH,GA,,US,,,,,
,visa,,,ACWORTH,GA,,US,,,,,
,visa,,,ACWORTH,GA,,US,,,,,
,visa,,,ACWORTH,GA,,US,,,,,
1309,waffle_house_us,Waffle House #1309,,ACWORTH,GA,,US,+1 678-574-6997,https://locations.wafflehouse.com/acworth-ga-1309,24/7,Waffle House,Q1701206
924,waffle_house_us,Waffle House #924,,ACWORTH,GA,,US,+1 770-928-6422,https://locations.wafflehouse.com/acworth-ga-924,24/7,Waffle House,Q1701206
6090__HIGHWAY__92_ACWORTH_GA_30102,wellsfargo,,6090 HIGHWAY 92,ACWORTH,GA,,US,+1 800-869-3557,https://www.wellsfargo.com/locator/bank/6090__HIGHWAY__92_ACWORTH_GA_30102/,,Wells Fargo,Q744149
https://locations.wendys.com/#9250481,wendys,"Wendy's 6205 Hwy 92 in Acworth, GA",,Acworth,GA,,US,+1 770-926-0786,https://locations.wendys.com/united-states/ga/acworth/6205-hwy-92,Mo-Su 11:00-18:00,Wendy's,Q550258
3671f19590e41f7d04cf8bf24578cabb,western_union,CELL CITY,,Acworth,GA,,US,+1 678-831-0928,https://location.westernunion.com/us/ga/acworth/3671f19590e41f7d04cf8bf24578cabb,Mo-Su 11:00-20:00,Western Union,Q861042
999ab23cfd298e88a3391a2cd2468180,western_union,SERVICIOS HISPANOS UNIDOS ATL,,Acworth,GA,,US,+1 770-675-7932,https://location.westernunion.com/us/ga/acworth/999ab23cfd298e88a3391a2cd2468180,Mo-Su 09:00-22:00,Western Union,Q861042
359d4f5f711cbb9f1f2527a4c6664168,western_union,ALL CHECKS SOLUTIONS LLC,,Acworth,GA,,US,+1 404-824-4911,https://location.westernunion.com/us/ga/acworth/359d4f5f711cbb9f1f2527a4c6664168,Mo-Su 09:00-21:00,Western Union,Q861042
8fbbdc0c6d40ffd6096f05f5e679443b,western_union,A+ FINANLCIAL SERVICES #03,,Acworth,GA,,US,+1 770-591-3585,https://location.westernunion.com/us/ga/acworth/8fbbdc0c6d40ffd6096f05f5e679443b,Mo-Th 09:00-19:00; Fr-Su 09:00-20:00,Western Union,Q861042
b5a39bdf3e4c631bb5e01b51841616b4,western_union,A+ FINANLCIAL SERVICES #03,,Acworth,GA,,US,+1 770-591-3585,https://location.westernunion.com/us/ga/acworth/b5a39bdf3e4c631bb5e01b51841616b4,Mo-Th 09:00-19:00; Fr-Su 09:00-20:00,Western Union,Q861042
ff84de11dd4f36a8346985ede94e7927,western_union,GABBY'S BOUTIQUE,,Acworth,GA,,US,+1 678-653-8259,https://location.westernunion.com/us/ga/acworth/ff84de11dd4f36a8346985ede94e7927,Mo-Su 09:00-21:00,Western Union,Q861042
