Ref,Spider,Name,Address,City,State,Zipcode,Country,Phone,Website,Hours,Brand,WikiData
2306,anytime_fitness,Anytime Fitness,,Haughton,LA,,US,+1 318-949-4004,https://www.anytimefitness.com/gyms/2306/haughton-la-71037/,,Anytime Fitness,Q4778364
6141,autozone_us,AutoZone Auto Parts Haughton,,Haughton,LA,,US,+1 318-390-8900,https://www.autozone.com/locations/la/haughton/1071-hwy-80.html,Mo-Sa 07:30-21:00; Su 08:00-20:00,AutoZone,Q4826087
210952,bluerhino,Dollar General #21925,,Haughton,LA,,US,+1 318-390-3388,,,Blue Rhino,Q65681213
240922,bluerhino,Brookshire Grocery #057,,Haughton,LA,,US,+1 318-949-4131,,,Blue Rhino,Q65681213
141422,bluerhino,Ivey Building Materials - DIB #4965,,Haughton,LA,,US,+1 318-949-4000,,,Blue Rhino,Q65681213
187800,bluerhino,Family Dollar #03931,,Haughton,LA,,US,+1 318-390-5131,,,Blue Rhino,Q65681213
237190,bluerhino,Circle K #2708161,,Haughton,LA,,US,+1 318-949-9282,,,Blue Rhino,Q65681213
64759,bluerhino,Pilot Travel #199,,Haughton,LA,,US,+1 318-390-9709,,,Blue Rhino,Q65681213
240847,bluerhino,Spring Market (Brookshire) #729,,Haughton,LA,,US,+1 318-615-7008,,,Blue Rhino,Q65681213
160366,bluerhino,"Neighbor's Exxon (Vicky 1, LLC)",,Haughton,LA,,US,+1 318-987-3022,,,Blue Rhino,Q65681213
53572,citi,ATM CVS,,Haughton,LA,,US,,,,Citibank,Q857063
37175,citi,ATM Brookshires,,Haughton,LA,,US,,,,Citibank,Q857063
43132,citi,ATM Circle K,,Haughton,LA,,US,,,,Citibank,Q857063
37223,citi,ATM Brookshires,,Haughton,LA,,US,,,,Citibank,Q857063
21925,dollar_general,Dollar General,,Haughton,LA,,US,+1 318-390-3388,https://www.dollargeneral.com/store-directory/la/haughton/21925,Mo-Su 08:00-22:00,Dollar General,Q145168
3059,dominos_pizza_us,Domino's Pizza,,Haughton,LA,,US,+1 318-949-2000,https://pizza.dominos.com/louisiana/haughton/1000-e-hwy-80-ste-a,Mo-Th 10:30-24:00; Fr-Sa 10:30-01:00; Su 10:30-24:00,Domino's,Q839466
358208,dunkin_us,Dunkin',,Haughton,LA,,US,+1 318-390-9709,https://locations.dunkindonuts.com/en/la/haughton/490-n-elm-st/358208,24/7,Dunkin',Q847743
200318272,exxonmobil,NEIGHBORS TRAVEL PLAZA,,HAUGHTON,LA,,US,+1 318-987-3022,https://www.exxon.com/en/find-station/exxon-haughton-la-neighborstravelplaza-200318272,Mo-Su 05:00-00:00,Exxon,Q109675651
200311319,exxonmobil,Dixie Mart #277,,HAUGHTON,LA,,US,+1 318-949-2600,https://www.exxon.com/en/find-station/exxon-haughton-la-dixiemart277-200311319,Mo-Sa 05:00-22:00; Su 06:00-22:00,Exxon,Q109675651
1531f951-458a-e111-8dde-005056934050,goodwill,Haughton Store,,Haughton,LA,,US,+1 318-949-6330,https://www.goodwill.org/locator/location/?store=MTUzMWY5NTEtNDU4YS1lMTExLThkZGUtMDA1MDU2OTM0MDUw&lat=MzIuNTU3MDI=&lng=LTkzLjYxMTUz,,Goodwill,Q5583655
1983,mightyflame,HAUGHTON COUNTRY STORE,,HOUGHTON,LA,,US,+1 318-949-8186,,,Mighty Flame,
https://locations.oreillyauto.com/la/haughton/check-engine-light-testing-6580.html,oreilly,Your Haughton O'Reilly Auto Parts Store,,Haughton,LA,,US,+1 318-706-0990,https://locations.oreillyauto.com/la/haughton/check-engine-light-testing-6580.html,Mo-Sa 07:30-21:00; Su 08:00-20:00,O'Reilly Auto Parts,Q7071951
https://locations.oreillyauto.com/la/haughton/wiper-installation-6580.html,oreilly,Your Haughton O'Reilly Auto Parts Store,,Haughton,LA,,US,+1 318-706-0990,https://locations.oreillyauto.com/la/haughton/wiper-installation-6580.html,Mo-Sa 07:30-21:00; Su 08:00-20:00,O'Reilly Auto Parts,Q7071951
https://locations.oreillyauto.com/la/haughton/battery-testing-6580.html,oreilly,Your Haughton O'Reilly Auto Parts Store,,Haughton,LA,,US,+1 318-706-0990,https://locations.oreillyauto.com/la/haughton/battery-testing-6580.html,Mo-Sa 07:30-21:00; Su 08:00-20:00,O'Reilly Auto Parts,Q7071951
https://locations.oreillyauto.com/la/haughton/autopartes-6580.html,oreilly,O'Reilly Auto Parts,,Haughton,LA,,US,+1 318-706-0990,https://locations.oreillyauto.com/la/haughton/autopartes-6580.html,Mo-Sa 07:30-21:00; Su 08:00-20:00,O'Reilly Auto Parts,Q7071951
199,pilot_flyingj,Pilot Travel Center,,Haughton,LA,,US,+1 318-390-9709,https://locations.pilotflyingj.com/us/la/haughton/490-north-elm-street,,Pilot,Q7194412
la_haughton_153-s-elm-st,pizza_hut_us,153 S Elm St,,Haughton,LA,,US,+1 318-390-5555,https://locations.pizzahut.com/la/haughton/153-s-elm-st,,Pizza Hut,Q191615
la0144,pjs_coffee_us,PJ's Coffee of New Orleans,,Haughton,LA,,US,+1 318-497-7243,https://locations.pjscoffee.com/la/haughton/coffee-shop-la0144.html,Mo-Fr 06:00-20:00; Sa-Su 07:00-20:00,PJ's Coffee of New Orleans,Q7119454
ivey-building-material-23553,ppgpaints,IVEY BUILDING MATERIAL,,"Haughton, ",LA,,US,318-949-74000,https://www.ppgpaints.com/store-locator/us/louisiana/haughton-paint-stores/ivey-building-material-23553,,PPG Paints,Q83891559
https://restaurants.subway.com/#14901159,subway,Subway,,Haughton Bossier,LA,,US,+1 318-949-0233,https://restaurants.subway.com/united-states/la/haughton/1106-highway-80-east,Mo-Th 09:00-22:00; Fr-Sa 09:00-23:30; Su 09:00-22:00,Subway,Q244457
1366479,usps,HAUGHTON,,HAUGHTON,LA,,US,+1 318-949-5140,,Mo-Fr 08:00-16:00,United States Postal Service,Q668687
7103700007,usps_collection_boxes,USPS COLLECTION BOX - BLUE BOX,1075 HIGHWAY 80,HAUGHTON,LA,,US,,,,United States Postal Service,Q668687
7103700002,usps_collection_boxes,USPS COLLECTION BOX - BLUE BOX,399 W MCKINLEY AVE,HAUGHTON,LA,,US,,,,United States Postal Service,Q668687
7103700004,usps_collection_boxes,USPS COLLECTION BOX - PO LOBBY,399 W MCKINLEY AVE,HAUGHTON,LA,,US,,,,United States Postal Service,Q668687
7103700010,usps_collection_boxes,USPS COLLECTION BOX - PO LOBBY,399 W MCKINLEY AVE,HAUGHTON,LA,,US,,,,United States Postal Service,Q668687
haughton_oil-change-070010,valvoline_instant_oil_change,Valvoline,980 Hwy 80 ,Haughton,LA,,US,+1 318-949-6940,https://store.vioc.com/la/haughton/oil-change-070010.html,,Valvoline Instant Oil Change,Q7912852
,visa,,,HAUGHTON,LA,,US,,,,,
,visa,,,HAUGHTON,LA,,US,,,,,
,visa,,,HAUGHTON,LA,,US,,,,,
,visa,,,HAUGHTON,LA,,US,,,,,
,visa,,,HAUGHTON,LA,,US,,,,,
,visa,,,HAUGHTON,LA,,US,,,,,
,visa,,,HAUGHTON,LA,,US,,,,,
,visa,,,HAUGHTON,LA,,US,,,,,
,visa,,,HAUGHTON,LA,,US,,,,,
,visa,,,HAUGHTON,LA,,US,,,,,
,visa,,,HAUGHTON,LA,,US,,,,,
,visa,,,HAUGHTON,LA,,US,,,,,
,visa,,,HAUGHTON,LA,,US,,,,,
,visa,,,HAUGHTON,LA,,US,,,,,
,visa,,,HAUGHTON,LA,,US,,,,,
,visa,,,HAUGHTON,LA,,US,,,,,
,visa,,,HAUGHTON,LA,,US,,,,,
,visa,,,HAUGHTON,LA,,US,,,,,
,visa,,,HAUGHTON,LA,,US,,,,,
,visa,,,HAUGHTON,LA,,US,,,,,
1658,waffle_house_us,Waffle House #1658,,HAUGHTON,LA,,US,+1 318-949-2693,https://locations.wafflehouse.com/haughton-la-1658,24/7,Waffle House,Q1701206
https://www.walgreens.com/locator/walgreens-1125+highway+80-haughton-la-71037/id=21495,walgreens,Walgreens,,Haughton,LA,,US,+1 318-949-8476,https://www.walgreens.com/locator/walgreens-1125+highway+80-haughton-la-71037/id=21495,Mo-Fr 09:00-19:00; Sa 09:00-16:00; Su 00:00-24:00,Walgreens,Q1591889
