Ref,Spider,Name,Address,City,State,Zipcode,Country,Phone,Website,Hours,Brand,WikiData
https://locators.bankofamerica.com/md/mechanicsville/financial-centers-mechanicsville-9272.html,bankofamerica,Bank of America Financial Center & Drive-Thru ATM | Mechanicsville,,Mechanicsville,MD,,US,+1 301-884-3181,https://locators.bankofamerica.com/md/mechanicsville/financial-centers-mechanicsville-9272.html,Mo-Fr 10:00-16:00; Sa 10:00-14:00,Bank of America,Q487907
140670,bluerhino,Orgill #304782 - Mechanicsville Building Supply Inc.,,Mechanicsville,MD,,US,+1 301-884-3111,,,Blue Rhino,Q65681213
74394,bluerhino,Boatman's Mini Mart,,Mechanicsville,MD,,US,+1 301-373-8994,,,Blue Rhino,Q65681213
69606,citi,ATM PNC AT WAWA,,Mechanicsville,MD,,US,,,,Citibank,Q857063
28498,citi,ATM 7ELEVEN-FCTI,,Mechanicsville,MD,,US,,,,Citibank,Q857063
28499,citi,ATM 7ELEVEN-FCTI,,Mechanicsville,MD,,US,,,,Citibank,Q857063
49874,citi,ATM CVS,,Mechanicsville,MD,,US,,,,Citibank,Q857063
11398,cvs_us,CVS Pharmacy,,Mechanicsville,MD,,US,+1 301-290-5668,https://www.cvs.com/store-locator/mechanicsville-md-pharmacies/28948-three-notch-rd-mechanicsville-md-20659/storeid=11398,Mo-Fr 09:00-21:00; Sa 09:00-18:00; Su 10:00-18:00,CVS Pharmacy,Q2078880
6084,dominos_pizza_us,Domino's Pizza,,Mechanicsville,MD,,US,+1 301-884-3055,https://pizza.dominos.com/maryland/mechanicsville/30195-triangle-drive,Mo-Th 10:30-24:00; Fr-Sa 10:30-01:00; Su 10:30-24:00,Domino's,Q839466
https://www.edwardjones.com/us-en/financial-advisor/john-loving,edwardjones,John S Loving,,Mechanicsville,MD,,US,+1 240-249-8340,https://www.edwardjones.com/us-en/financial-advisor/john-loving,Mo-Fr 08:00-16:00,Edward Jones,Q5343830
927,eightyfour_lumber_us,MECHANICSVILLE,,MECHANICSVILLE,MD,,US,+1 301-884-2600,https://www.84lumber.com/store-locator/store-detail/?storeId=927,Mo-Fr 07:00-18:00; Sa 08:00-16:00; Su 09:00-16:00,84 Lumber,Q4644779
100558,fresenius_kidney_care_us,Fresenius Kidney Care Southern Maryland Home,,Mechanicsville,MD,,US,+1 800-881-5101,https://www.freseniuskidneycare.com/dialysis-centers/maryland/100558,Mo-Fr 09:00-17:00,,
23612,h_r_block,H&R Block,,Mechanicsville,MD,,US,+1 301-884-8110,https://www.hrblock.com/local-tax-offices/maryland/mechanicsville/29190-three-notch-rd/23612/,,H&R Block,Q5627799
https://locations.mtb.com/#25082453,mt_bank_us,,,,MD,,US,+1 800-724-2440,https://locations.mtb.com/md/mechanicsville/bank-branches-and-atms-mechanicsville-md-pm2306.html,24/7,M&T Bank,Q3272257
29015-three-notch-rd,my_eye_dr,,,Mechanicsville,MD,,US,+1 301-884-4774,https://locations.myeyedr.com/md/mechanicsville/29015-three-notch-rd,,MyEyeDr.,Q117864710
3560,shellrecharge,SMECO - The Barns at New Market,,Mechanicsville,MD,,US,,,,Shell Recharge,Q105883058
3345,shellrecharge,SMECO - Baggett Park,,Mechanicsville,MD,,US,,,,Shell Recharge,Q105883058
https://restaurants.subway.com/#14904905,subway,Subway Amoco Burch Mart,,Mechanicsville Saint Marys,MD,,US,+1 301-884-8900,https://restaurants.subway.com/united-states/md/mechanicsville/28270-three-notch-rd,Mo-Sa 04:00-22:30; Su 05:00-22:30,Subway,Q244457
0268501400,sunoco_us,Sunoco,,MECHANICSVILLE,MD,,US,+1 301-884-5001,,Mo-Sa 05:00-23:00; Su 00:00-00:00,Sunoco,Q1423218
1372506,usps,MECHANICSVILLE,,MECHANICSVILLE,MD,,US,+1 301-884-3013,,Mo-Fr 09:00-17:00; Sa 09:00-12:00,United States Postal Service,Q668687
2065900001,usps_collection_boxes,USPS COLLECTION BOX - PO LOBBY,28948 THREE NOTCH RD,MECHANICSVILLE,MD,,US,,,,United States Postal Service,Q668687
2065900002,usps_collection_boxes,USPS COLLECTION BOX - PO LOBBY,28948 THREE NOTCH RD,MECHANICSVILLE,MD,,US,,,,United States Postal Service,Q668687
2065900004,usps_collection_boxes,USPS COLLECTION BOX - PO LOBBY,28948 THREE NOTCH RD,MECHANICSVILLE,MD,,US,,,,United States Postal Service,Q668687
2065900000,usps_collection_boxes,USPS COLLECTION BOX - BLUE BOX,28948 THREE NOTCH RD,MECHANICSVILLE,MD,,US,,,,United States Postal Service,Q668687
,visa,,,MECHANICSVILLE,MD,,US,,,,,
,visa,,,MECHANICSVILLE,MD,,US,,,,,
,visa,,,MECHANICSVILLE,MD,,US,,,,,
,visa,,,MECHANISVILLE,MD,,US,,,,,
,visa,,,MECHANICSVILLE,MD,,US,,,,,
,visa,,,MECHANICSVILLE,MD,,US,,,,,
,visa,,,MECHANICSVILLE,MD,,US,,,,,
,visa,,,MECHANICSVILLE,MD,,US,,,,,
,visa,,,MECHANICSVILLE,MD,,US,,,,,
,visa,,,MECHANICSVILLE,MD,,US,,,,,
,visa,,,MECHANICSVILLE,MD,,US,,,,,
,visa,,,MECHANICSVILLE,MD,,US,,,,,
,visa,,,MECHANICSVILLE,MD,,US,,,,,
,visa,,,MECHANICSVILLE,MD,,US,,,,,
,visa,,,MECHANICSVILLE,MD,,US,,,,,
,visa,,,MECHANICSVILLE,MD,,US,,,,,
,visa,,,MECHANICSVILLE,MD,,US,,,,,
,visa,,,MECHANICSVILLE,MD,,US,,,,,
,visa,,,MECHANICSVILLE,MD,,US,,,,,
,visa,,,MECHANICSVILLE,MD,,US,,,,,
,visa,,,MECHANICSVILLE,MD,,US,,,,,
,visa,,,"MECHANICSVILLE,",MD,,US,,,,,
,visa,,,MECHANICSVILLE,MD,,US,,,,,
,visa,,,MECHANICSVILLE,MD,,US,,,,,
,visa,,,MECHANICSVILLE,MD,,US,,,,,
,visa,,,MECHANICSVILLE,MD,,US,,,,,
,visa,,,MECHANICSVILLE,MD,,US,,,,,
,visa,,,MECHANICSVILLE,MD,,US,,,,,
,visa,,,CHARLOTTE HALL,MD,,US,,,,,
,visa,,,MECHANICSVILLE,MD,,US,,,,,
,visa,,,MECHANICSVILLE,MD,,US,,,,,
,visa,,,MECHANICSVILLE,MD,,US,,,,,
,visa,,,MECHANICSVILLE,MD,,US,,,,,
