Ref,Spider,Name,Address,City,State,Zipcode,Country,Phone,Website,Hours,Brand,WikiData
146482,bluerhino,Speedway #6776,,Leola,PA,,US,+1 717-656-6434,,,Blue Rhino,Q65681213
174728,bluerhino,Rutter's #34,,Leola,PA,,US,+1 717-556-8635,,,Blue Rhino,Q65681213
20232,bluerhino,Giant Food #6117 - GC,,Leola,PA,,US,+1 717-656-9983,,,Blue Rhino,Q65681213
177786,bluerhino,Turkey Hill #074,,Leola,PA,,US,+1 717-656-8604,,,Blue Rhino,Q65681213
77913,citi,ATM Speedway,,Brownstown,PA,,US,,,,Citibank,Q857063
64241,citi,ATM M&T Bank,,Leola,PA,,US,,,,Citibank,Q857063
75229,citi,ATM Rutters #34 - 1,,Leola,PA,,US,,,,Citibank,Q857063
75230,citi,ATM Rutters #34 - 2,,Leola,PA,,US,,,,Citibank,Q857063
521281,eg_america_us,Turkey Hill,,Leola,PA,,US,+1 717-656-8604,https://www.turkeyhillcstores.com/find-us/generic-store-page/?id=950074,,Turkey Hill,Q42376970
#6117,giantfoodstores,GIANT Leola,,Leola,PA,,US,+1 717-656-9983,https://stores.giantfoodstores.com/pa/leola/10-newport-rd,"Mo-Fr 06:00-22:00,09:00-20:00; Sa 06:00-22:00,09:00-17:00; Su 06:00-22:00,10:00-17:00",Giant,Q5558332
https://locations.mtb.com/#25082895,mt_bank_us,,,,PA,,US,+1 800-724-2440,https://locations.mtb.com/pa/brownstown/bank-branches-and-atms-brownstown-pa-ah170114.html,24/7,M&T Bank,Q3272257
restaurant_882914,popeyes_us_fr,Popeyes,"26 Quarry Ridge Rd Ephrata, Pennsylvania 17540 - USA",Ephrata,PA,,US,+1 717-807-4129,https://www.popeyes.com/store-locator/store/restaurant_882914,Mo 10:30-22:00; Tu-We 10:30-21:00; Th-Sa 10:30-22:00; Su 10:30-21:00,Popeyes,Q1330910
hamilton-distribution-25344,ppgpaints,HAMILTON DISTRIBUTION,,"Leola, ",PA,,US,+1 717-656-8994,https://www.ppgpaints.com/store-locator/us/pennsylvania/leola-paint-stores/hamilton-distribution-25344,,PPG Paints,Q83891559
flor-haus-3950-39318,ppgpaints,FLOR HAUS 3950,,"Leola, ",PA,,US,,https://www.ppgpaints.com/store-locator/us/pennsylvania/leola-paint-stores/flor-haus-3950-39318,,PPG Paints,Q83891559
https://restaurants.subway.com/#14897597,subway,Subway,,Leola Lancaster,PA,,US,+1 717-661-3846,https://restaurants.subway.com/united-states/pa/leola/135-west-main-street,Mo-Sa 08:30-22:00; Su 09:30-20:30,Subway,Q244457
1370231,usps,LEOLA,,LEOLA,PA,,US,+1 717-656-2401,,"Mo-Fr 09:00-11:00,12:00-16:30; Sa 08:30-11:30",United States Postal Service,Q668687
1754000016,usps_collection_boxes,USPS COLLECTION BOX - BLUE BOX,1 HOLLY DR,LEOLA,PA,,US,,,,United States Postal Service,Q668687
1754000015,usps_collection_boxes,USPS COLLECTION BOX - BLUE BOX,10 NEWPORT RD,LEOLA,PA,,US,,,,United States Postal Service,Q668687
1754000003,usps_collection_boxes,USPS COLLECTION BOX - BLUE BOX,10 E MAIN ST,LEOLA,PA,,US,,,,United States Postal Service,Q668687
1754000026,usps_collection_boxes,USPS COLLECTION BOX - PO LOBBY,10 E MAIN ST,LEOLA,PA,,US,,,,United States Postal Service,Q668687
1754000024,usps_collection_boxes,USPS COLLECTION BOX - PO LOBBY,10 E MAIN ST,LEOLA,PA,,US,,,,United States Postal Service,Q668687
1754000014,usps_collection_boxes,USPS COLLECTION BOX - BLUE BOX,27 MAGNOLIA DR,LEOLA,PA,,US,,,,United States Postal Service,Q668687
,visa,,,LEOLA,PA,,US,,,,,
,visa,,,LEOLA,PA,,US,,,,,
,visa,,,LEOLA,PA,,US,,,,,
,visa,,,LEOLA,PA,,US,,,,,
,visa,,,LEOLA,PA,,US,,,,,
,visa,,,LEOLA,PA,,US,,,,,
,visa,,,LEOLA,PA,,US,,,,,
,visa,,,LEOLA,PA,,US,,,,,
,visa,,,LEOLA,PA,,US,,,,,
,visa,,,LEOLA,PA,,US,,,,,
,visa,,,BROWNSTOWN,PA,,US,,,,,
c53db705d41769df6a2e9047a99b25a4,western_union,TURKEY HILL #74,,Leola,PA,,US,+1 717-656-8604,https://location.westernunion.com/us/pa/leola/c53db705d41769df6a2e9047a99b25a4,Mo-Su 06:00-21:00,Western Union,Q861042
