Ref,Spider,Name,Address,City,State,Zipcode,Country,Phone,Website,Hours,Brand,WikiData
616a684357b95e31600d18132d58ffb9,western_union,FAMA RIO BLANCO,,Rio Blanco,MATAGALPA,,NI,+505 2266 8126,https://location.westernunion.com/ni/matagalpa/rio-blanco/616a684357b95e31600d18132d58ffb9,Mo-Fr 08:00-17:00; Sa 08:00-12:00,Western Union,Q861042
2289bd0882b57846ea603b65be2859ad,western_union,FAMA RIO BLANCO,,Rio Blanco,MATAGALPA,,NI,+505 2266 8126,https://location.westernunion.com/ni/matagalpa/rio-blanco/2289bd0882b57846ea603b65be2859ad,Mo-Fr 08:00-16:30; Sa 08:00-12:00,Western Union,Q861042
4002465d75e36a6a482144ae729f8075,western_union,SEBACO IV,,Sebaco,MATAGALPA,,NI,+505 2266 8126,https://location.westernunion.com/ni/matagalpa/sebaco/4002465d75e36a6a482144ae729f8075,Mo-Sa 08:00-17:00,Western Union,Q861042
9f5c4a3261ff0766453e46f114bf4220,western_union,SEBACO IV,,Sebaco,MATAGALPA,,NI,+505 2266 8126,https://location.westernunion.com/ni/matagalpa/sebaco/9f5c4a3261ff0766453e46f114bf4220,Mo-Sa 08:00-17:00,Western Union,Q861042
cd45e3d9d27f8e5adf0581a0fa970db6,western_union,WALMART PALI SEBACO,,Sebaco,MATAGALPA,,NI,+505 2264 9370,https://location.westernunion.com/ni/matagalpa/sebaco/cd45e3d9d27f8e5adf0581a0fa970db6,Mo-Fr 09:00-18:00; Sa 09:00-17:00,Western Union,Q861042
9c132743867995198581344420baa9cc,western_union,CREDILEASING LAS MANGAS,,San Isidro,MATAGALPA,,NI,+505 2266 8126,https://location.westernunion.com/ni/matagalpa/san-isidro/9c132743867995198581344420baa9cc,Mo-Fr 08:00-17:00; Sa 08:00-13:00,Western Union,Q861042
fd00f1f545196a415285f3db517a6417,western_union,FAMA SEBACO,,Sebaco,MATAGALPA,,NI,+505 2266 8126,https://location.westernunion.com/ni/matagalpa/sebaco/fd00f1f545196a415285f3db517a6417,Mo-Fr 08:00-16:30; Sa 08:00-12:00,Western Union,Q861042
cb2a30eb06a48348f3aa24333ab3c963,western_union,FAMA SEBACO,,Sebaco,MATAGALPA,,NI,+505 2266 8126,https://location.westernunion.com/ni/matagalpa/sebaco/cb2a30eb06a48348f3aa24333ab3c963,Mo-Fr 08:00-14:30; Sa 08:00-12:00,Western Union,Q861042
24a2ece44b0577db74b758ee9bd75c5d,western_union,AMPM SEBACO I,,Sebaco,MATAGALPA,,NI,+505 2266 8126,https://location.westernunion.com/ni/matagalpa/sebaco/24a2ece44b0577db74b758ee9bd75c5d,Mo-Su 00:01-24:00,Western Union,Q861042
b1d16b58c6c81dab0e7638bcb8f5fb93,western_union,AMPM SEBACO I,,Sebaco,MATAGALPA,,NI,+505 2266 8126,https://location.westernunion.com/ni/matagalpa/sebaco/b1d16b58c6c81dab0e7638bcb8f5fb93,Mo-Su 00:01-24:00,Western Union,Q861042
f8ddd1a8fe36588c0c3e063aec54f984,western_union,CREDILEASING SEBACO,,Sebaco,MATAGALPA,,NI,+505 2266 8126,https://location.westernunion.com/ni/matagalpa/sebaco/f8ddd1a8fe36588c0c3e063aec54f984,Mo-Sa 08:00-17:00,Western Union,Q861042
f14e7575e30e4b094cdb4a7d9dce570e,western_union,CREDILEASING SEBACO,,Sebaco,MATAGALPA,,NI,+505 2266 8126,https://location.westernunion.com/ni/matagalpa/sebaco/f14e7575e30e4b094cdb4a7d9dce570e,Mo-Sa 08:00-17:00,Western Union,Q861042
e1a4746e4d672eed67cf5f92059666bd,western_union,CREDILEASING SAN ISIDRO,,San Isidro,MATAGALPA,,NI,+505 2266 8126,https://location.westernunion.com/ni/matagalpa/san-isidro/e1a4746e4d672eed67cf5f92059666bd,Mo-Fr 08:00-17:00; Sa 08:00-12:00,Western Union,Q861042
18e816cbfeaf32f54ab37a232a8f6bae,western_union,CREDILEASING SAN ISIDRO,,San Isidro,MATAGALPA,,NI,+505 2266 8126,https://location.westernunion.com/ni/matagalpa/san-isidro/18e816cbfeaf32f54ab37a232a8f6bae,Mo-Su 08:00-20:00,Western Union,Q861042
6a1cdef918c11582c359f07c600ed802,western_union,SAN ISIDRO I,,San Isidro,MATAGALPA,,NI,+505 2266 8126,https://location.westernunion.com/ni/matagalpa/san-isidro/6a1cdef918c11582c359f07c600ed802,Mo-Sa 09:00-17:00,Western Union,Q861042
2a65d9063aaa4ccba28864cc6c426958,western_union,SAN ISIDRO I,,San Isidro,MATAGALPA,,NI,+505 2266 8126,https://location.westernunion.com/ni/matagalpa/san-isidro/2a65d9063aaa4ccba28864cc6c426958,Mo-Sa 09:00-17:00,Western Union,Q861042
c2744b457d685181b6e8575156fa243f,western_union,CIUDAD DARIO II,,Ciudad Dario,MATAGALPA,,NI,+505 2266 8126,https://location.westernunion.com/ni/matagalpa/ciudad-dario/c2744b457d685181b6e8575156fa243f,Mo-Sa 08:00-17:00; Su 08:00-12:00,Western Union,Q861042
fae232681fd5e90ec91b5bca3bd1d932,western_union,CIUDAD DARIO II,,Ciudad Dario,MATAGALPA,,NI,+505 2266 8126,https://location.westernunion.com/ni/matagalpa/ciudad-dario/fae232681fd5e90ec91b5bca3bd1d932,Mo-Sa 08:00-17:00,Western Union,Q861042
78f366664d45e163c56fcb05b21b8be3,western_union,CIUDAD DARIO IV,,Ciudad Dario,MATAGALPA,,NI,+505 2266 8126,https://location.westernunion.com/ni/matagalpa/ciudad-dario/78f366664d45e163c56fcb05b21b8be3,Mo-Sa 08:00-17:00,Western Union,Q861042
e5221ccff220a73ab9f4a2d6d14f9560,western_union,CIUDAD DARIO IV,,Ciudad Dario,MATAGALPA,,NI,+505 2266 8126,https://location.westernunion.com/ni/matagalpa/ciudad-dario/e5221ccff220a73ab9f4a2d6d14f9560,Mo-Sa 08:00-17:00,Western Union,Q861042
8e564359b658ea2e0e83f4cd8ba544b1,western_union,CIUDAD DARIO,,Ciudad Dario,MATAGALPA,,NI,+505 2266 8126,https://location.westernunion.com/ni/matagalpa/ciudad-dario/8e564359b658ea2e0e83f4cd8ba544b1,Mo-Sa 08:00-17:00,Western Union,Q861042
c1b0eb4fe637d90fb76060e0991e6ba5,western_union,CIUDAD DARIO,,Ciudad Dario,MATAGALPA,,NI,+505 2266 8126,https://location.westernunion.com/ni/matagalpa/ciudad-dario/c1b0eb4fe637d90fb76060e0991e6ba5,Mo-Fr 08:00-17:00; Sa 08:00-13:00,Western Union,Q861042
ec59b732faa4f42773d37f91b5bc73be,western_union,TERRABONA III,,Terrabona,MATAGALPA,,NI,+505 2266 8126,https://location.westernunion.com/ni/matagalpa/terrabona/ec59b732faa4f42773d37f91b5bc73be,Mo-Sa 08:00-17:00,Western Union,Q861042
68fe119517f9efda132489e6be3dcd2d,western_union,TERRABONA III,,Terrabona,MATAGALPA,,NI,+505 2266 8126,https://location.westernunion.com/ni/matagalpa/terrabona/68fe119517f9efda132489e6be3dcd2d,Mo-Sa 08:00-17:00,Western Union,Q861042
ac0010d6c2decff815ac16680a7bec44,western_union,MATAGALPA X,,Matagalpa,MATAGALPA,,NI,+505 2266 8126,https://location.westernunion.com/ni/matagalpa/matagalpa/ac0010d6c2decff815ac16680a7bec44,Mo-Sa 08:00-17:00; Su 08:00-12:00,Western Union,Q861042
320fa41ad1c45ea73d960c9e4b0d264b,western_union,MATAGALPA X,,Matagalpa,MATAGALPA,,NI,+505 2266 8126,https://location.westernunion.com/ni/matagalpa/matagalpa/320fa41ad1c45ea73d960c9e4b0d264b,Mo-Sa 08:00-17:00; Su 08:00-12:00,Western Union,Q861042
2e8be5a80385b3ca1cff57f297b728ec,western_union,MATAGALPA XI,,Matagalpa,MATAGALPA,,NI,+505 2266 8126,https://location.westernunion.com/ni/matagalpa/matagalpa/2e8be5a80385b3ca1cff57f297b728ec,Mo-Sa 08:00-17:00,Western Union,Q861042
d79b0ace395e689c4fe35bb3db0cb613,western_union,MATAGALPA XI,,Matagalpa,MATAGALPA,,NI,+505 2266 8126,https://location.westernunion.com/ni/matagalpa/matagalpa/d79b0ace395e689c4fe35bb3db0cb613,Mo-Sa 08:00-17:00,Western Union,Q861042
ac46cff58f3435e07dae1b1441621b5e,western_union,ESQUIPULAS II,,Esquipulas,MATAGALPA,,NI,+505 2266 8126,https://location.westernunion.com/ni/matagalpa/esquipulas/ac46cff58f3435e07dae1b1441621b5e,Mo-Fr 07:00-17:00; Su 07:00-17:00,Western Union,Q861042
8e4250cf031e16d3c95cbbcaca24e62a,western_union,ESQUIPULAS II,,Esquipulas,MATAGALPA,,NI,+505 2266 8126,https://location.westernunion.com/ni/matagalpa/esquipulas/8e4250cf031e16d3c95cbbcaca24e62a,Mo-Fr 07:00-17:00; Su 07:00-17:00,Western Union,Q861042
e88dac96984dc9576d7a288ef5b8c385,western_union,FDL MATAGALPA I,,Matagalpa,MATAGALPA,,NI,+505 2266 8126,https://location.westernunion.com/ni/matagalpa/matagalpa/e88dac96984dc9576d7a288ef5b8c385,Mo-Fr 08:00-17:00; Sa 08:00-12:00,Western Union,Q861042
cb0c5433747199aa2b17c54914a931c5,western_union,FDL MATAGALPA I,,Matagalpa,MATAGALPA,,NI,+505 2266 8126,https://location.westernunion.com/ni/matagalpa/matagalpa/cb0c5433747199aa2b17c54914a931c5,Mo-Fr 08:00-17:00; Sa 08:00-12:00,Western Union,Q861042
476848ae30052081d558407a368cf464,western_union,AHORRA MAS MATAGALPA,,Matagalpa,MATAGALPA,,NI,+505 2253 8740,https://location.westernunion.com/ni/matagalpa/matagalpa/476848ae30052081d558407a368cf464,Mo-Su 10:00-19:00,Western Union,Q861042
5b79668d2b67681cd1f93174b6abcba5,western_union,COOPERATIVA UCA SAN RAMON,,San Ramon,MATAGALPA,,NI,+505 2266 8126,https://location.westernunion.com/ni/matagalpa/san-ramon/5b79668d2b67681cd1f93174b6abcba5,Mo-Fr 08:00-17:00,Western Union,Q861042
dc49cf22efd416ee637d9b71050303e8,western_union,MICREDITO MATAGALPA,,Matagalpa,MATAGALPA,,NI,+505 2266 8126,https://location.westernunion.com/ni/matagalpa/matagalpa/dc49cf22efd416ee637d9b71050303e8,Mo-Su 08:00-16:30,Western Union,Q861042
9b33b1781aa47bba80a8a4c46b1fd440,western_union,MICREDITO MATAGALPA,,Matagalpa,MATAGALPA,,NI,+505 2266 8126,https://location.westernunion.com/ni/matagalpa/matagalpa/9b33b1781aa47bba80a8a4c46b1fd440,Mo-Su 08:00-16:30,Western Union,Q861042
19883f6fdb35bc0185afd6e1cff733fc,western_union,WALMART PALI MATAGALPA,,Matagalpa,MATAGALPA,,NI,+505 2264 9370,https://location.westernunion.com/ni/matagalpa/matagalpa/19883f6fdb35bc0185afd6e1cff733fc,Mo-Fr 09:00-18:00; Sa 09:00-17:00,Western Union,Q861042
ed50e373a30a32bee29bdc5c3f0ee105,western_union,MATAGALPA XII,,Matagalpa,MATAGALPA,,NI,+505 2266 8126,https://location.westernunion.com/ni/matagalpa/matagalpa/ed50e373a30a32bee29bdc5c3f0ee105,Mo-Sa 08:00-17:00; Su 08:00-16:00,Western Union,Q861042
2c856b915aa3fe98b741ef71635b70dd,western_union,MATAGALPA XII,,Matagalpa,MATAGALPA,,NI,+505 2266 8126,https://location.westernunion.com/ni/matagalpa/matagalpa/2c856b915aa3fe98b741ef71635b70dd,Mo-Sa 08:00-17:00; Su 08:00-16:00,Western Union,Q861042
76bab462d37aa71a13b95e3b7ca3c02c,western_union,AMPM MATAGALPA I,,Matagalpa,MATAGALPA,,NI,+505 2253 8740,https://location.westernunion.com/ni/matagalpa/matagalpa/76bab462d37aa71a13b95e3b7ca3c02c,Mo-Su 00:01-24:00,Western Union,Q861042
ef307cd578c013c5a5bdb4a40f5c3faa,western_union,AMPM MATAGALPA I,,Matagalpa,MATAGALPA,,NI,+505 2253 8740,https://location.westernunion.com/ni/matagalpa/matagalpa/ef307cd578c013c5a5bdb4a40f5c3faa,Mo-Su 00:01-24:00,Western Union,Q861042
0fb39f7bda6ef56d0d8767bd87d6ace0,western_union,FICOHSA MATAGALPA,,Matagalpa,MATAGALPA,,NI,+505 2255 8000,https://location.westernunion.com/ni/matagalpa/matagalpa/0fb39f7bda6ef56d0d8767bd87d6ace0,Mo-Fr 08:30-16:30; Sa 08:30-12:30,Western Union,Q861042
3a601391ca77ad1b89077270ce13510a,western_union,FICOHSA MATAGALPA,,Matagalpa,MATAGALPA,,NI,+505 2255 8000,https://location.westernunion.com/ni/matagalpa/matagalpa/3a601391ca77ad1b89077270ce13510a,Mo-Fr 08:30-16:30; Sa 08:30-12:30,Western Union,Q861042
d15d3815da3b62c4decf34e741ec0a94,western_union,LA DALIA II,,El Tuma La Dalia,MATAGALPA,,NI,+505 2266 8126,https://location.westernunion.com/ni/matagalpa/el-tuma-la-dalia/d15d3815da3b62c4decf34e741ec0a94,Mo-Fr 08:00-17:00; Sa 08:00-13:00,Western Union,Q861042
ffbfb98c511b601cc4f476a59815db77,western_union,LA DALIA II,,El Tuma La Dalia,MATAGALPA,,NI,+505 2266 8126,https://location.westernunion.com/ni/matagalpa/el-tuma-la-dalia/ffbfb98c511b601cc4f476a59815db77,Mo-Fr 08:00-17:00; Sa 08:00-13:00,Western Union,Q861042
daf79ac180d337d7b363ae001caa883e,western_union,FDL LA DALIA I,,El Tuma La Dalia,MATAGALPA,,NI,+505 2266 8126,https://location.westernunion.com/ni/matagalpa/el-tuma-la-dalia/daf79ac180d337d7b363ae001caa883e,Mo-Fr 08:00-17:00; Sa 08:00-12:00,Western Union,Q861042
b38ea8ee9dfd250d56ed1f786e047df0,western_union,FDL LA DALIA I,,El Tuma La Dalia,MATAGALPA,,NI,+505 2266 8126,https://location.westernunion.com/ni/matagalpa/el-tuma-la-dalia/b38ea8ee9dfd250d56ed1f786e047df0,Mo-Fr 08:00-17:00; Sa 08:00-12:00,Western Union,Q861042
6f2be02fb63f1a057ad838c80b8c410c,western_union,MUY MUY II,,Muy Muy,MATAGALPA,,NI,+505 2266 8126,https://location.westernunion.com/ni/matagalpa/muy-muy/6f2be02fb63f1a057ad838c80b8c410c,Mo-Su 08:00-17:00,Western Union,Q861042
9d59b1e69ce6db88d4d1915d7d929292,western_union,MUY MUY II,,Muy Muy,MATAGALPA,,NI,+505 2266 8126,https://location.westernunion.com/ni/matagalpa/muy-muy/9d59b1e69ce6db88d4d1915d7d929292,Mo-Su 08:00-17:00,Western Union,Q861042
90b4b6642fdee73ba2b47bfe4064aa01,western_union,FDL MUY MUY I,,Muy Muy,MATAGALPA,,NI,+505 2266 8126,https://location.westernunion.com/ni/matagalpa/muy-muy/90b4b6642fdee73ba2b47bfe4064aa01,Mo-Fr 08:00-17:00; Sa 08:00-12:00,Western Union,Q861042
9e01612ade0bf8afc02a4812a3d38a0c,western_union,FDL MUY MUY I,,Muy Muy,MATAGALPA,,NI,+505 2266 8126,https://location.westernunion.com/ni/matagalpa/muy-muy/9e01612ade0bf8afc02a4812a3d38a0c,Mo-Fr 08:00-17:00; Sa 08:00-12:00,Western Union,Q861042
ca256a99e0147a3514a4a149f4bbb647,western_union,FUNDESER MATIGUAS,,Matiguas,MATAGALPA,,NI,+505 2266 8126,https://location.westernunion.com/ni/matagalpa/matiguas/ca256a99e0147a3514a4a149f4bbb647,Mo-Fr 08:00-17:30; Sa 08:00-12:30,Western Union,Q861042
b1f076aace266aad66006c5c08b99ff4,western_union,FUNDESER MATIGUAS,,Matiguas,MATAGALPA,,NI,+505 2266 8126,https://location.westernunion.com/ni/matagalpa/matiguas/b1f076aace266aad66006c5c08b99ff4,Mo-Fr 08:00-17:30; Sa 08:00-12:30,Western Union,Q861042
c2152630642d299fe674316fff0f9697,western_union,AMPM MATIGUAS I,,Matiguas,MATAGALPA,,NI,+505 5502 3415,https://location.westernunion.com/ni/matagalpa/matiguas/c2152630642d299fe674316fff0f9697,Mo-Su 00:01-24:00,Western Union,Q861042
468ce06ad0697496ddfb44660c11b954,western_union,AMPM MATIGUAS I,,Matiguas,MATAGALPA,,NI,+505 5502 3415,https://location.westernunion.com/ni/matagalpa/matiguas/468ce06ad0697496ddfb44660c11b954,Mo-Su 00:01-24:00,Western Union,Q861042
c534ccd4b3039c7a0a49cc5132e03bcd,western_union,FDL MATIGUAS I,,Matiguas,MATAGALPA,,NI,+505 2266 8126,https://location.westernunion.com/ni/matagalpa/matiguas/c534ccd4b3039c7a0a49cc5132e03bcd,Mo-Fr 08:00-17:00; Sa 08:00-12:00,Western Union,Q861042
dc9f75cc7d002a8f05840aacaf629967,western_union,FDL MATIGUAS I,,Matiguas,MATAGALPA,,NI,+505 2266 8126,https://location.westernunion.com/ni/matagalpa/matiguas/dc9f75cc7d002a8f05840aacaf629967,Mo-Fr 08:00-17:00; Sa 08:00-12:00,Western Union,Q861042
3534eef5127e80b021e63fcf65d46948,western_union,MATIGUAS II,,Matiguas,MATAGALPA,,NI,+505 2266 8126,https://location.westernunion.com/ni/matagalpa/matiguas/3534eef5127e80b021e63fcf65d46948,Mo-Fr 08:00-17:00; Sa 08:00-12:00,Western Union,Q861042
ad2cebaf8f35dad6a829e94939911eb1,western_union,MATIGUAS II,,Matiguas,MATAGALPA,,NI,+505 2266 8126,https://location.westernunion.com/ni/matagalpa/matiguas/ad2cebaf8f35dad6a829e94939911eb1,Mo-Fr 08:00-17:00; Sa 08:00-16:00,Western Union,Q861042
2e1f5968800118c37cc18b86587fc551,western_union,AIRPAK PALI MATIGUAS,,Matiguas,MATAGALPA,,NI,+505 2266 8126,https://location.westernunion.com/ni/matagalpa/matiguas/2e1f5968800118c37cc18b86587fc551,Mo-Su 09:00-18:00,Western Union,Q861042
2ad4eaba1b8b8c7c250f02bdb74b48b3,western_union,AIRPAK PALI MATIGUAS,,Matiguas,MATAGALPA,,NI,+505 2266 8126,https://location.westernunion.com/ni/matagalpa/matiguas/2ad4eaba1b8b8c7c250f02bdb74b48b3,Mo-Su 09:00-18:00,Western Union,Q861042
8c0dd95364390bb22fa8db69b1f60c41,western_union,FDL RIO BLANCO I,,Rio Blanco,MATAGALPA,,NI,+505 2266 8126,https://location.westernunion.com/ni/matagalpa/rio-blanco/8c0dd95364390bb22fa8db69b1f60c41,Mo-Fr 08:00-17:00; Sa 08:00-12:00,Western Union,Q861042
ddecd20ed5470ef4bd606f62bebc3025,western_union,FDL RIO BLANCO I,,Rio Blanco,MATAGALPA,,NI,+505 2266 8126,https://location.westernunion.com/ni/matagalpa/rio-blanco/ddecd20ed5470ef4bd606f62bebc3025,Mo-Fr 08:00-17:00; Sa 08:00-12:00,Western Union,Q861042
2a864165d7c38a8242553ee19d6953d9,western_union,RIO BLANCO III,,Rio Blanco,MATAGALPA,,NI,+505 2778 0031,https://location.westernunion.com/ni/matagalpa/rio-blanco/2a864165d7c38a8242553ee19d6953d9,Mo-Fr 08:00-17:00; Sa 08:00-13:00,Western Union,Q861042
b430ab08e4c9cd6142d48c6e68d4e4cb,western_union,RIO BLANCO III,,Rio Blanco,MATAGALPA,,NI,+505 2778 0031,https://location.westernunion.com/ni/matagalpa/rio-blanco/b430ab08e4c9cd6142d48c6e68d4e4cb,Mo-Fr 08:00-17:00; Sa 08:00-13:00,Western Union,Q861042
93483d10faa34b0cfbf60f610d2b7649,western_union,AMPM RIO BLANCO I,,Rio Blanco,MATAGALPA,,NI,+505 2266 8123,https://location.westernunion.com/ni/matagalpa/rio-blanco/93483d10faa34b0cfbf60f610d2b7649,Mo-Su 00:01-24:00,Western Union,Q861042
7e5dc24e254ac1e856dc883152c6fcf7,western_union,AMPM RIO BLANCO I,,Rio Blanco,MATAGALPA,,NI,+505 2266 8123,https://location.westernunion.com/ni/matagalpa/rio-blanco/7e5dc24e254ac1e856dc883152c6fcf7,Mo-Su 00:01-24:00,Western Union,Q861042
8f23e06838ba88c6f0469e15545fd6a1,western_union,WALMART MAXI PALI MATAGALPA,,Matagalpa,MATAGALPA,,NI,+505 2264 9370,https://location.westernunion.com/ni/matagalpa/matagalpa/8f23e06838ba88c6f0469e15545fd6a1,Mo-Fr 09:00-18:00; Sa 09:00-17:00,Western Union,Q861042
f83f5bec1c265f9afe3ae7f6ebfa1af6,western_union,MATAGALPA XIII,,Matagalpa,MATAGALPA,,NI,+505 8716 4151,https://location.westernunion.com/ni/matagalpa/matagalpa/f83f5bec1c265f9afe3ae7f6ebfa1af6,Mo-Sa 09:00-17:00,Western Union,Q861042
690f540710422fc081ac9fe5ae489f59,western_union,MATAGALPA XIII,,Matagalpa,MATAGALPA,,NI,+505 8716 4151,https://location.westernunion.com/ni/matagalpa/matagalpa/690f540710422fc081ac9fe5ae489f59,Mo-Sa 09:00-17:00,Western Union,Q861042
79b63675872f84d93ce998915c37b13b,western_union,MATAGALPA IX,,Matagalpa,MATAGALPA,,NI,+505 2266 8126,https://location.westernunion.com/ni/matagalpa/matagalpa/79b63675872f84d93ce998915c37b13b,Mo-Fr 08:00-17:00; Sa 08:00-12:00,Western Union,Q861042
bbfbee28ca4a16dd3d46d277543f61f6,western_union,MATAGALPA IX,,Matagalpa,MATAGALPA,,NI,+505 2266 8126,https://location.westernunion.com/ni/matagalpa/matagalpa/bbfbee28ca4a16dd3d46d277543f61f6,Mo-Fr 08:00-17:00; Sa 08:00-12:00,Western Union,Q861042
ca1a6269d262ad66b1d33de16279069f,western_union,FUNDESER MATAGALPA,,Matagalpa,MATAGALPA,,NI,+505 2266 8126,https://location.westernunion.com/ni/matagalpa/matagalpa/ca1a6269d262ad66b1d33de16279069f,Mo-Fr 08:00-17:30; Sa 08:00-12:30,Western Union,Q861042
adce5eb40a75b736e795cb77e7c01078,western_union,FUNDESER MATAGALPA,,Matagalpa,MATAGALPA,,NI,+505 2266 8126,https://location.westernunion.com/ni/matagalpa/matagalpa/adce5eb40a75b736e795cb77e7c01078,Mo-Fr 08:00-17:30; Sa 08:00-12:30,Western Union,Q861042
edf0ba8f0fda138832d7af9d86db9546,western_union,AMPM MATAGALPA II,,Matagalpa,MATAGALPA,,NI,+505 5502 4533,https://location.westernunion.com/ni/matagalpa/matagalpa/edf0ba8f0fda138832d7af9d86db9546,Mo-Su 00:01-24:00,Western Union,Q861042
c61e960e2cdaf6f17f69095725c45703,western_union,AMPM MATAGALPA II,,Matagalpa,MATAGALPA,,NI,+505 5502 4533,https://location.westernunion.com/ni/matagalpa/matagalpa/c61e960e2cdaf6f17f69095725c45703,Mo-Su 00:01-24:00,Western Union,Q861042
