Ref,Spider,Name,Address,City,State,Zipcode,Country,Phone,Website,Hours,Brand,WikiData
https://stores.aldi.us/#4420377,aldi_sud_us,ALDI  30960 Lake Shore Blvd,,Willowick,OH,,US,+1 833-463-7056,https://stores.aldi.us/oh/willowick/30960-lake-shore-blvd,Mo-Su 09:00-20:00,ALDI,Q41171672
1759,autozone_us,AutoZone Auto Parts Willowick,,Willowick,OH,,US,+1 440-585-4735,https://www.autozone.com/locations/oh/willowick/32508-vine-st.html,Mo-Sa 07:30-21:00; Su 09:00-19:00,AutoZone,Q4826087
239906,bluerhino,Circle K #4705252,,Eastlake,OH,,US,+1 440-975-4350,,,Blue Rhino,Q65681213
73079,bluerhino,Speedway #3060,,Willowick,OH,,US,+1 440-944-7386,,,Blue Rhino,Q65681213
100280,bluerhino,T & J Market,,Eastlake,OH,,US,+1 440-944-1910,,,Blue Rhino,Q65681213
188812,bluerhino,J&A Hdw dba Willowick Ace #16520,,Willowick,OH,,US,+1 440-833-4545,,,Blue Rhino,Q65681213
160498,bluerhino,Giant Eagle #216,,Willowick,OH,,US,+1 440-944-8900,,,Blue Rhino,Q65681213
193578,bluerhino,A and Z Brothers,,Willowick,OH,,US,+1 216-632-4103,,,Blue Rhino,Q65681213
108567,bluerhino,Discount Drug Mart #36,,Eastlake,OH,,US,+1 440-942-3330,,,Blue Rhino,Q65681213
3978,bluerhino,Walmart #1863,,Eastlake,OH,,US,+1 440-269-8827,,,Blue Rhino,Q65681213
239907,bluerhino,Circle K #4705712,,Eastlake,OH,,US,+1 440-269-8242,,,Blue Rhino,Q65681213
128571,bp,Amoco,,Willowick,OH,,US,+1 440-944-9119,,Mo-Sa 07:30-22:00; Su 07:30-21:00,BP,Q152057
8759108,chase_us,Shoregate - New branch,,Willowick,OH,,US,+1 440-943-6262,https://locator.chase.com/oh/willowick/30160-lakeshore-blvd,Mo-Fr 09:00-17:00; Sa 09:00-14:00,Chase,Q524629
2040016,chase_us,Eastlake Vine - New branch,,Eastlake,OH,,US,+1 440-951-3211,https://locator.chase.com/oh/eastlake/35400-vine-st,Mo-Fr 09:00-17:00; Sa 09:00-14:00,Chase,Q524629
oh_willowick_30482-lakeshore-blvd,chipotle, ,,Willowick,OH,,US,+1 440-373-1157,https://locations.chipotle.com/oh/willowick/30482-lakeshore-blvd,,Chipotle,Q465751
42521,citi,ATM Circle K,,Eastlake,OH,,US,,,,Citibank,Q857063
42490,citi,ATM Circle K,,Eastlake,OH,,US,,,,Citibank,Q857063
90451,citi,ATM Walgreens,,Eastlake,OH,,US,,,,Citibank,Q857063
77881,citi,ATM Speedway,,Willowick,OH,,US,,,,Citibank,Q857063
79720,citi,ATM SPEEDWAY#3060,,Willowick,OH,,US,,,,Citibank,Q857063
57906,citi,ATM Getgo,,Willowick,OH,,US,,,,Citibank,Q857063
64718,citi,ATM Marcs,,Willowick,OH,,US,,,,Citibank,Q857063
800485,citizens_us,Citizens Eastlake,,Eastlake,OH,,US,+1 440-953-0387,,Mo-Fr 09:00-16:00; Sa 09:00-12:00,Citizens,Q5122694
ATM-389,citizens_us,,,Eastlake,OH,,US,+1 440-953-0387,,24/7,Citizens,Q5122694
869,culvers_us,"Culver's of Eastlake, OH - Vine St",,Eastlake,OH,,US,+1 440-710-6060,http://www.culvers.com/restaurants/eastlake-oh,Mo-Fr 10:30-22:00; Su 10:30-22:00,Culver's,Q1143589
16073,dollar_general,Dollar General,,Eastlake,OH,,US,+1 440-306-5646,https://www.dollargeneral.com/store-directory/oh/eastlake/16073,Mo-Su 08:00-22:00,Dollar General,Q145168
363609,dunkin_us,Dunkin',,Eastlake,OH,,US,+1 440-510-8877,https://locations.dunkindonuts.com/en/oh/eastlake/36005-lake-shore-blvd/363609,Mo-Su 05:00-20:00,Dunkin',Q847743
358717,dunkin_us,Dunkin',,Willowick,OH,,US,+1 440-833-4382,https://locations.dunkindonuts.com/en/oh/willowick/32400-vine-st/358717,Mo-Su 05:00-20:00,Dunkin',Q847743
E13925,enterprise,Wickliffe Excaliber,,Willowick,OH,,US,+1 440-516-5326,,,Enterprise Rent-A-Car,Q17085454
https://locations.53.com/#3034287,fifththirdbank,Fifth Third Bank Eastlake,,Eastlake,OH,,US,+1 440-951-7676,https://locations.53.com/oh/eastlake/33464-vine-street.html,Mo-Th 09:00-17:00; Fr 09:00-18:00; Sa 09:00-13:00,Fifth Third Bank,Q1411810
3216,gianteagle,Willowick,,Willowick,OH,,US,+1 440-516-0854,,Mo-Su 06:00-21:00,Giant Eagle,Q1522721
216,gianteagle,Willowick Giant Eagle,,Willowick,OH,,US,+1 440-944-8900,,Mo-Su 07:00-21:00,Giant Eagle,Q1522721
https://salons.greatclips.com/us/oh/willowick/30140-lakeshore-blvd,greatclips,Great Clips,,Willowick,OH,,US,+1 440-944-5555,https://salons.greatclips.com/us/oh/willowick/30140-lakeshore-blvd,Mo-Fr 09:00-19:00; Sa 09:00-18:00; Su 10:00-16:00,Great Clips,Q5598967
https://www.harborfreight.com/storelocator/34600-vine-st-eastlake-44095?number=202,harborfreight,"Harbor Freight Tools Eastlake, OH",,Eastlake,OH,,US,+1 440-918-1780,https://www.harborfreight.com/storelocator/34600-vine-st-eastlake-44095?number=202,Mo-Sa 08:00-20:00; Su 09:00-18:00,Harbor Freight Tools,Q5654601
34109,h_r_block,H&R Block,,Willowick,OH,,US,+1 440-944-5822,https://www.hrblock.com/local-tax-offices/ohio/willowick/shoregate-shopping-center/34109/,,H&R Block,Q5627799
https://office.jacksonhewitt.com/#27577320,jackson_hewitt,Jackson Hewitt,,Eastlake,OH,,US,+1 440-715-7013,https://office.jacksonhewitt.com/tax-preparation-services-locations/en/oh/eastlake/33752-vine-street/51863,,Jackson Hewitt,Q6117132
https://locations.kfc.com/#11249811,kfc,Chicken Nuggets Near Willowick,,Willowick,OH,,US,,https://locations.kfc.com/oh/willowick/29050-lake-shore-boulevard/chickennugget,Mo-Th 10:00-23:00; Fr-Sa 10:00-24:00; Su 10:00-23:00,KFC,Q524757
CLEEL,marriott,Four Points by Sheraton Cleveland-Eastlake,,Eastlake,OH,,US,+1 440-953-8000,https://www.marriott.com/CLEEL,,Four Points by Sheraton,Q1439966
https://locations.oreillyauto.com/oh/eastlake/check-engine-light-testing-3310.html,oreilly,Your Eastlake O'Reilly Auto Parts Store,,Eastlake,OH,,US,+1 440-951-9696,https://locations.oreillyauto.com/oh/eastlake/check-engine-light-testing-3310.html,Mo-Sa 07:30-21:00; Su 09:00-20:00,O'Reilly Auto Parts,Q7071951
https://locations.oreillyauto.com/oh/eastlake/wiper-installation-3310.html,oreilly,Your Eastlake O'Reilly Auto Parts Store,,Eastlake,OH,,US,+1 440-951-9696,https://locations.oreillyauto.com/oh/eastlake/wiper-installation-3310.html,Mo-Sa 07:30-21:00; Su 09:00-20:00,O'Reilly Auto Parts,Q7071951
https://locations.oreillyauto.com/oh/eastlake/battery-testing-3310.html,oreilly,Your Eastlake O'Reilly Auto Parts Store,,Eastlake,OH,,US,+1 440-951-9696,https://locations.oreillyauto.com/oh/eastlake/battery-testing-3310.html,Mo-Sa 07:30-21:00; Su 09:00-20:00,O'Reilly Auto Parts,Q7071951
https://locations.oreillyauto.com/oh/eastlake/autopartes-3310.html,oreilly,Tu tienda O'Reilly Auto Parts en Eastlake,,Eastlake,OH,,US,+1 440-951-9696,https://locations.oreillyauto.com/oh/eastlake/autopartes-3310.html,Mo-Sa 07:30-21:00; Su 09:00-20:00,O'Reilly Auto Parts,Q7071951
8015,savers,Willowick,,Willowick,OH,,US,+1 440-347-0200,https://stores.savers.com/oh/willowick/savers-thrift-store-8015.html,Mo 09:00-21:00; Tu-Sa 10:00-21:00; Su 10:00-19:00,Savers,Q7428188
https://restaurants.subway.com/#14894152,subway,Subway Shoregate Shopping Center,,Willowick Lake,OH,,US,+1 440-943-7980,https://restaurants.subway.com/united-states/oh/willowick/30348-lakeshore-blvd,Mo-Su 09:00-21:00,Subway,Q244457
https://restaurants.subway.com/#14905761,subway,Subway,,Eastlake Lake,OH,,US,+1 440-951-0979,https://restaurants.subway.com/united-states/oh/eastlake/36081-lakeshore-blvd,Mo-Sa 10:00-21:00; Su 10:00-20:00,Subway,Q244457
https://restaurants.subway.com/#14911136,subway,Subway Wal-Mart #1863,,Eastlake Lake,OH,,US,+1 440-946-3190,https://restaurants.subway.com/united-states/oh/eastlake/33752-vine-street,Mo-Fr 09:30-21:00; Sa-Su 10:00-21:00,Subway,Q244457
https://restaurants.subway.com/#14894375,subway,Subway,,Eastlake Lake,OH,,US,+1 440-946-6133,https://restaurants.subway.com/united-states/oh/eastlake/33333-vine-st,Mo-Th 08:30-21:30; Fr 08:30-22:00; Sa 09:00-22:00; Su 08:30-21:30,Subway,Q244457
0802928200,sunoco_us,Sunoco,,WILLOWICK,OH,,US,+1 440-585-9101,,Mo-Su 06:00-00:00,Sunoco,Q1423218
0457584100,sunoco_us,Sunoco,,EASTLAKE,OH,,US,+1 440-954-9366,,Mo-Su 06:00-00:00,Sunoco,Q1423218
0079918900,sunoco_us,Sunoco,,EASTLAKE,OH,,US,+1 440-953-1871,,Mo-Su 06:00-00:00,Sunoco,Q1423218
3BSB,tmobile_us,Lake Shore Blvd & Larimar Dr,,Willowick,OH,,US,+1 440-549-4330,https://www.t-mobile.com/store-locator/oh/willowick/lake-shore-blvd-larimar-dr,,T-Mobile,Q3511885
1437102,usps,WILLOWICK,,WILLOWICK,OH,,US,+1 440-943-1260,,Mo-Fr 08:30-17:00; Sa 08:00-14:00,United States Postal Service,Q668687
4409500028,usps_collection_boxes,USPS COLLECTION BOX - BLUE BOX,115 SAINT LAWRENCE BLVD,WILLOWICK,OH,,US,,,,United States Postal Service,Q668687
4409500031,usps_collection_boxes,USPS COLLECTION BOX - BLUE BOX,36201 LAKESHORE BLVD,WILLOWICK,OH,,US,,,,United States Postal Service,Q668687
4409500012,usps_collection_boxes,USPS COLLECTION BOX - BLUE BOX,218 E 288TH ST,WILLOWICK,OH,,US,,,,United States Postal Service,Q668687
4409500002,usps_collection_boxes,USPS COLLECTION BOX - BLUE BOX,29720 LAKESHORE BLVD,WILLOWICK,OH,,US,,,,United States Postal Service,Q668687
4409500000,usps_collection_boxes,USPS COLLECTION BOX - BLUE BOX,30500 LAKESHORE BLVD,WILLOWICK,OH,,US,,,,United States Postal Service,Q668687
4409500001,usps_collection_boxes,USPS COLLECTION BOX - BLUE BOX,30400 LAKESHORE BLVD,WILLOWICK,OH,,US,,,,United States Postal Service,Q668687
4409500048,usps_collection_boxes,USPS COLLECTION BOX - PO LOBBY,260 E 312TH ST,WILLOWICK,OH,,US,,,,United States Postal Service,Q668687
4409500047,usps_collection_boxes,USPS COLLECTION BOX - PO LOBBY,260 E 312TH ST,WILLOWICK,OH,,US,,,,United States Postal Service,Q668687
4409500022,usps_collection_boxes,USPS COLLECTION BOX - BLUE BOX,411 FAIRWAY BLVD,WILLOWICK,OH,,US,,,,United States Postal Service,Q668687
4409500032,usps_collection_boxes,USPS COLLECTION BOX - BLUE BOX,260 E 312TH ST,WILLOWICK,OH,,US,,,,United States Postal Service,Q668687
4409500061,usps_collection_boxes,USPS COLLECTION BOX - BLUE BOX,260 E 312TH ST,WILLOWICK,OH,,US,,,,United States Postal Service,Q668687
4409500062,usps_collection_boxes,USPS COLLECTION BOX - PO LOBBY,260 E 312TH ST,WILLOWICK,OH,,US,,,,United States Postal Service,Q668687
4409500021,usps_collection_boxes,USPS COLLECTION BOX - BLUE BOX,35475 VINE ST,WILLOWICK,OH,,US,,,,United States Postal Service,Q668687
4409500017,usps_collection_boxes,USPS COLLECTION BOX - BLUE BOX,30201 BARJODE RD,WILLOWICK,OH,,US,,,,United States Postal Service,Q668687
4409500024,usps_collection_boxes,USPS COLLECTION BOX - BLUE BOX,33963 ROBERTS RD,WILLOWICK,OH,,US,,,,United States Postal Service,Q668687
4409500007,usps_collection_boxes,USPS COLLECTION BOX - BLUE BOX,839 PENDLEY RD,WILLOWICK,OH,,US,,,,United States Postal Service,Q668687
4409500036,usps_collection_boxes,USPS COLLECTION BOX - BLUE BOX,33400 VINE ST,WILLOWICK,OH,,US,,,,United States Postal Service,Q668687
4409500023,usps_collection_boxes,USPS COLLECTION BOX - BLUE BOX,31729 DANIEL DR,WILLOWICK,OH,,US,,,,United States Postal Service,Q668687
4409500038,usps_collection_boxes,USPS COLLECTION BOX - BLUE BOX,34854 LAKE SHORE BLVD APT J,WILLOWICK,OH,,US,,,,United States Postal Service,Q668687
4409500044,usps_collection_boxes,USPS COLLECTION BOX - BLUE BOX,34440 VINE ST,WILLOWICK,OH,,US,,,,United States Postal Service,Q668687
4409500035,usps_collection_boxes,USPS COLLECTION BOX - BLUE BOX,34100 VINE ST,WILLOWICK,OH,,US,,,,United States Postal Service,Q668687
4409500054,usps_collection_boxes,USPS COLLECTION BOX - BLUE BOX,35350 LAKE SHORE BLVD,WILLOWICK,OH,,US,,,,United States Postal Service,Q668687
4409500027,usps_collection_boxes,USPS COLLECTION BOX - BLUE BOX,35314 GLEN DR,WILLOWICK,OH,,US,,,,United States Postal Service,Q668687
4409500056,usps_collection_boxes,USPS COLLECTION BOX - BLUE BOX,34525 MELINZ PKWY,WILLOWICK,OH,,US,,,,United States Postal Service,Q668687
4409500058,usps_collection_boxes,USPS COLLECTION BOX - BLUE BOX,35353 CURTIS BLVD,WILLOWICK,OH,,US,,,,United States Postal Service,Q668687
4409500053,usps_collection_boxes,USPS COLLECTION BOX - BLUE BOX,35585 CURTIS BLVD,WILLOWICK,OH,,US,,,,United States Postal Service,Q668687
4409500059,usps_collection_boxes,USPS COLLECTION BOX - BLUE BOX,3936 E 365 TH ST,WILLOWICK,OH,,US,,,,United States Postal Service,Q668687
A00000246476,verizon_us,Victra Willowick,,WILLOWICK,OH,,US,+1 440-287-7386,https://www.verizon.com/stores/details/ohio/willowick/victra-willowick-1639122/,Mo-Fr 10:00-19:00; Sa 10:00-18:00,Verizon,Q919641
,visa,,,KIRTLAND,OH,,US,,,,,
,visa,,,WILLOUGHBY,OH,,US,,,,,
,visa,,,WILLOUGHBY,OH,,US,,,,,
,visa,,,WILLOUGHBY,OH,,US,,,,,
,visa,,,EASTLAKE,OH,,US,,,,,
,visa,,,EASTLAKE,OH,,US,,,,,
,visa,,,EASTLAKE,OH,,US,,,,,
,visa,,,EASTLAKE,OH,,US,,,,,
,visa,,,EASTLAKE,OH,,US,,,,,
,visa,,,EASTLAKE,OH,,US,,,,,
,visa,,,EASTLAKE,OH,,US,,,,,
,visa,,,EASTLAKE,OH,,US,,,,,
,visa,,,EASTLAKE,OH,,US,,,,,
,visa,,,WILLOWICK,OH,,US,,,,,
,visa,,,EASTLAKE,OH,,US,,,,,
,visa,,,EASTLAKE,OH,,US,,,,,
,visa,,,EASTLAKE,OH,,US,,,,,
,visa,,,EASTLAKE,OH,,US,,,,,
,visa,,,EASTLAKE,OH,,US,,,,,
,visa,,,EASTLAKE,OH,,US,,,,,
,visa,,,EASTLAKE,OH,,US,,,,,
,visa,,,EASTLAKE,OH,,US,,,,,
,visa,,,EASTLAKE,OH,,US,,,,,
,visa,,,EASTLAKE,OH,,US,,,,,
,visa,,,EASTLAKE,OH,,US,,,,,
,visa,,,EASTLAKE,OH,,US,,,,,
,visa,,,EASTLAKE,OH,,US,,,,,
,visa,,,EASTLAKE,OH,,US,,,,,
,visa,,,EASTLAKE,OH,,US,,,,,
,visa,,,EASTLAKE,OH,,US,,,,,
,visa,,,EASTLAKE,OH,,US,,,,,
,visa,,,EASTLAKE,OH,,US,,,,,
,visa,,,EASTLAKE,OH,,US,,,,,
,visa,,,EASTLAKE,OH,,US,,,,,
,visa,,,EASTLAKE,OH,,US,,,,,
,visa,,,EASTLAKE,OH,,US,,,,,
,visa,,,EASTLAKE,OH,,US,,,,,
,visa,,,EASTLAKE,OH,,US,,,,,
,visa,,,EASTLAKE,OH,,US,,,,,
,visa,,,WILLOWICK,OH,,US,,,,,
,visa,,,EASTLAKE,OH,,US,,,,,
,visa,,,EASTLAKE,OH,,US,,,,,
,visa,,,EASTLAKE,OH,,US,,,,,
,visa,,,EAST LAKE,OH,,US,,,,,
,visa,,,EASTLAKE,OH,,US,,,,,
,visa,,,EASTLAKE,OH,,US,,,,,
,visa,,,EASTLAKE,OH,,US,,,,,
,visa,,,WILLOWICK,OH,,US,,,,,
,visa,,,WILLOWICK,OH,,US,,,,,
,visa,,,WILLOWICK,OH,,US,,,,,
,visa,,,WILLOWICK,OH,,US,,,,,
,visa,,,WILLOWIEK,OH,,US,,,,,
,visa,,,WILOWICK,OH,,US,,,,,
,visa,,,WILLOWICK,OH,,US,,,,,
,visa,,,WILLOWICK,OH,,US,,,,,
,visa,,,WILLOWICK,OH,,US,,,,,
,visa,,,WILLOWICK,OH,,US,,,,,
,visa,,,WILLOWICK,OH,,US,,,,,
,visa,,,WILLOWICK,OH,,US,,,,,
,visa,,,WILLOWICK,OH,,US,,,,,
,visa,,,WILLOWICK,OH,,US,,,,,
,visa,,,WILLOWICK,OH,,US,,,,,
,visa,,,WILLOWICK,OH,,US,,,,,
,visa,,,WILLOWICK,OH,,US,,,,,
,visa,,,WILLOWICK,OH,,US,,,,,
,visa,,,WILLOWICK,OH,,US,,,,,
,visa,,,WILLOWICK,OH,,US,,,,,
,visa,,,WILLOWICK,OH,,US,,,,,
,visa,,,WILLOWICK,OH,,US,,,,,
,visa,,,WILLOWICK,OH,,US,,,,,
,visa,,,WILLOWICK,OH,,US,,,,,
,visa,,,WILLOWICK,OH,,US,,,,,
,visa,,,WILLOWICK,OH,,US,,,,,
,visa,,,WILLOWICK,OH,,US,,,,,
,visa,,,WILLOWICK,OH,,US,,,,,
,visa,,,WILLOWICK,OH,,US,,,,,
,visa,,,WILLOWICK,OH,,US,,,,,
,visa,,,MANSFIELD,OH,,US,,,,,
,visa,,,TOLEDO,OH,,US,,,,,
https://www.walgreens.com/locator/walgreens-35279+vine+st-willowick-oh-44095/id=13058,walgreens,Walgreens,,Willowick,OH,,US,+1 440-918-0700,https://www.walgreens.com/locator/walgreens-35279+vine+st-willowick-oh-44095/id=13058,Mo-Su 08:00-22:00,Walgreens,Q1591889
https://locations.wendys.com/#9256489,wendys,"Wendy's Vine Street in Willowick, OH",,Willowick,OH,,US,+1 440-585-4300,https://locations.wendys.com/united-states/oh/willowick/32601-vine-st,"Mo-Su 06:00-10:30,07:00-22:00",Wendy's,Q550258
43f80c0d4c57440786e22dec2a0940bd,western_union,WALMART #001863,,Eastlake,OH,,US,+1 440-269-8827,https://location.westernunion.com/us/oh/eastlake/43f80c0d4c57440786e22dec2a0940bd,Mo-Sa 08:00-20:00; Su 10:00-18:00,Western Union,Q861042
