Ref,Spider,Name,Address,City,State,Zipcode,Country,Phone,Website,Hours,Brand,WikiData
,visa,,,QUERETARO,QUERETARO,,MX,,,,,
,visa,,,QUERETARO,QUERETARO,,MX,,,,,
,visa,,,SANTIAGO DE QUERETARO,QUERETARO,,MX,,,,,
,visa,,,QUERETARO,QUERETARO,,MX,,,,,
,visa,,,QUERETARO,QUERETARO,,MX,,,,,
,visa,,,SANTIAGO DE QUERETARO,QUERETARO,,MX,,,,,
,visa,,,SANTIAGO DE QUERETARO,QUERETARO,,MX,,,,,
,visa,,,QUERETARO,QUERETARO,,MX,,,,,
,visa,,,QUERETARO,QUERETARO,,MX,,,,,
,visa,,,QUERETARO,QUERETARO,,MX,,,,,
,visa,,,QUERETARO,QUERETARO,,MX,,,,,
,visa,,,SANTIAGO DE QUERETARO,QUERETARO,,MX,,,,,
,visa,,,SANTIAGO DE QUERETARO,QUERETARO,,MX,,,,,
,visa,,,SANTIAGO DE QUERETARO,QUERETARO,,MX,,,,,
,visa,,,QUERETARO,QUERETARO,,MX,,,,,
,visa,,,QUERETARO,QUERETARO,,MX,,,,,
,visa,,,QUERETARO,QUERETARO,,MX,,,,,
,visa,,,QUERETARO,QUERETARO,,MX,,,,,
,visa,,,QUERETARO,QUERETARO,,MX,,,,,
,visa,,,QUERETARO,QUERETARO,,MX,,,,,
0672fb313d87642ae3d9e31417d5a57c,western_union,SUPER Q T237 TELEVISA,,Queretaro,QUERETARO,,MX,+52 442 192 9800,https://location.westernunion.com/mx/queretaro/queretaro/0672fb313d87642ae3d9e31417d5a57c,Mo-Su 08:00-20:00,Western Union,Q861042
f0549a35d0138708f18208bb1f15567a,western_union,OXXO DEPOSITO QRF,,Queretaro,QUERETARO,,MX,+52 81 8389 2121,https://location.westernunion.com/mx/queretaro/queretaro/f0549a35d0138708f18208bb1f15567a,Mo-Su 08:00-22:00,Western Union,Q861042
0ad2ef1a5f4f3d5bfaa553cf65fd6a21,western_union,OXXO DEPOSITO QRF,,Queretaro,QUERETARO,,MX,+52 81 8389 2121,https://location.westernunion.com/mx/queretaro/queretaro/0ad2ef1a5f4f3d5bfaa553cf65fd6a21,Mo-Su 08:00-22:00,Western Union,Q861042
defd279734413418975f36ed553f02cf,western_union,OXXO DEPOSITO QRF,,Queretaro,QUERETARO,,MX,+52 81 8389 2121,https://location.westernunion.com/mx/queretaro/queretaro/defd279734413418975f36ed553f02cf,Mo-Su 08:00-22:00,Western Union,Q861042
df17071f52504b3762da62368b333dc5,western_union,OXXO MAT IX QRF,,Queretaro,QUERETARO,,MX,+52 81 8389 2121,https://location.westernunion.com/mx/queretaro/queretaro/df17071f52504b3762da62368b333dc5,Mo-Su 08:00-22:00,Western Union,Q861042
ff926f81e04178552ca683f901304329,western_union,OXXO MAT IX QRF,,Queretaro,QUERETARO,,MX,+52 81 8389 2121,https://location.westernunion.com/mx/queretaro/queretaro/ff926f81e04178552ca683f901304329,Mo-Su 08:00-22:00,Western Union,Q861042
942174c8c9bb7f4f99f7c27f547220de,western_union,OXXO TORRE 57 QRF,,Santiago De Queretaro,QUERETARO,,MX,+52 81 8389 2121,https://location.westernunion.com/mx/queretaro/santiago-de-queretaro/942174c8c9bb7f4f99f7c27f547220de,Mo-Su 08:00-22:00,Western Union,Q861042
2db43717eeb0c561e2e360fdad83c202,western_union,OXXO TORRE 57 QRF,,Santiago De Queretaro,QUERETARO,,MX,+52 81 8389 2121,https://location.westernunion.com/mx/queretaro/santiago-de-queretaro/2db43717eeb0c561e2e360fdad83c202,Mo-Su 08:00-22:00,Western Union,Q861042
3caea01bb988b7993f2c64fe0531f479,western_union,SUPER Q LUIS VEGA Y MONROY,,Queretaro,QUERETARO,,MX,+52 442 223 8267,https://location.westernunion.com/mx/queretaro/queretaro/3caea01bb988b7993f2c64fe0531f479,Mo-Su 08:00-24:00,Western Union,Q861042
f7e42038a01bc94134c1d1dc3630353d,western_union,SUPER Q LUIS VEGA Y MONROY,,Queretaro,QUERETARO,,MX,+52 442 223 8267,https://location.westernunion.com/mx/queretaro/queretaro/f7e42038a01bc94134c1d1dc3630353d,Mo-Su 08:00-24:00,Western Union,Q861042
e79c8287866cdd096feb346182f69a78,western_union,OXXO CERRO BLANCO QRF,,Queretaro,QUERETARO,,MX,+52 81 8389 2121,https://location.westernunion.com/mx/queretaro/queretaro/e79c8287866cdd096feb346182f69a78,Mo-Su 08:00-22:00,Western Union,Q861042
ad3440ebd7fb16e00395c0f5e030bb65,western_union,OXXO CERRO BLANCO QRF,,Queretaro,QUERETARO,,MX,+52 81 8389 2121,https://location.westernunion.com/mx/queretaro/queretaro/ad3440ebd7fb16e00395c0f5e030bb65,Mo-Su 08:00-22:00,Western Union,Q861042
9a54e54d2cf6f2f97378aaec0f3b9951,western_union,OXXO CERRO BLANCO QRF,,Queretaro,QUERETARO,,MX,+52 81 8389 2121,https://location.westernunion.com/mx/queretaro/queretaro/9a54e54d2cf6f2f97378aaec0f3b9951,Mo-Su 08:00-22:00,Western Union,Q861042
f1b20217a068370e396aa45dd9468d28,western_union,OXXO Q7001,,Santiago De Queretaro,QUERETARO,,MX,+52 81 8389 2121,https://location.westernunion.com/mx/queretaro/santiago-de-queretaro/f1b20217a068370e396aa45dd9468d28,Mo-Su 08:00-22:00,Western Union,Q861042
da9daaa331b04c71b649b8bb0071cc4b,western_union,OXXO Q7001,,Santiago De Queretaro,QUERETARO,,MX,+52 81 8389 2121,https://location.westernunion.com/mx/queretaro/santiago-de-queretaro/da9daaa331b04c71b649b8bb0071cc4b,Mo-Su 08:00-22:00,Western Union,Q861042
3bd900286e2664db9d6c8ec9e11ca0b8,western_union,OXXO Q7001,,Santiago De Queretaro,QUERETARO,,MX,+52 81 8389 2121,https://location.westernunion.com/mx/queretaro/santiago-de-queretaro/3bd900286e2664db9d6c8ec9e11ca0b8,Mo-Su 08:00-22:00,Western Union,Q861042
6314c3be8b273701a270fd08718aecec,western_union,SUPER Q  MOISES SOLANA,,Queretaro,QUERETARO,,MX,+52 442 248 3744,https://location.westernunion.com/mx/queretaro/queretaro/6314c3be8b273701a270fd08718aecec,Mo-Su 08:00-24:00,Western Union,Q861042
26cda126fa7b029cf15a80351a7a1601,western_union,SUPER Q  MOISES SOLANA,,Queretaro,QUERETARO,,MX,+52 442 248 3744,https://location.westernunion.com/mx/queretaro/queretaro/26cda126fa7b029cf15a80351a7a1601,Mo-Su 08:00-24:00,Western Union,Q861042
7bca39c5c8ac4795d205cb0732f2bfa4,western_union,FARM GUAD COLINAS DEL CIMATARIO,,Queretaro,QUERETARO,,MX,+52 800 833 4700,https://location.westernunion.com/mx/queretaro/queretaro/7bca39c5c8ac4795d205cb0732f2bfa4,Mo-Su 08:00-20:00,Western Union,Q861042
3215dfffccf088b059db18e50c6b1fd5,western_union,FARM GUAD COLINAS DEL CIMATARIO,,Queretaro,QUERETARO,,MX,+52 800 833 4700,https://location.westernunion.com/mx/queretaro/queretaro/3215dfffccf088b059db18e50c6b1fd5,Mo-Su 08:00-20:00,Western Union,Q861042
c88721dca967025887d8ece37a50a2f9,western_union,FARM GUAD COLINAS DEL CIMATARIO,,Queretaro,QUERETARO,,MX,+52 800 833 4700,https://location.westernunion.com/mx/queretaro/queretaro/c88721dca967025887d8ece37a50a2f9,Mo-Su 08:00-20:00,Western Union,Q861042
62b4e7bc2142a96aabcf2ffc8e15f03d,western_union,OXXO CLAUSTROS QRF,,Queretaro,QUERETARO,,MX,+52 81 8389 2121,https://location.westernunion.com/mx/queretaro/queretaro/62b4e7bc2142a96aabcf2ffc8e15f03d,Mo-Su 08:00-22:00,Western Union,Q861042
ecfd068c72ee14f986618eabc8629cc9,western_union,OXXO CLAUSTROS QRF,,Queretaro,QUERETARO,,MX,+52 81 8389 2121,https://location.westernunion.com/mx/queretaro/queretaro/ecfd068c72ee14f986618eabc8629cc9,Mo-Su 08:00-22:00,Western Union,Q861042
6823efcb82c214e1e8cdaf91ccc8e2eb,western_union,OXXO CLAUSTROS QRF,,Queretaro,QUERETARO,,MX,+52 81 8389 2121,https://location.westernunion.com/mx/queretaro/queretaro/6823efcb82c214e1e8cdaf91ccc8e2eb,Mo-Su 08:00-22:00,Western Union,Q861042
f8c37fda3ee919e79db0eca0f9f0e2b6,western_union,OXXO MAT HUIMILPAN QRF,,Queretaro,QUERETARO,,MX,+52 81 8389 2121,https://location.westernunion.com/mx/queretaro/queretaro/f8c37fda3ee919e79db0eca0f9f0e2b6,Mo-Su 08:00-22:00,Western Union,Q861042
c910dcb4318320121a746f2cb7e8f671,western_union,OXXO MAT HUIMILPAN QRF,,Queretaro,QUERETARO,,MX,+52 81 8389 2121,https://location.westernunion.com/mx/queretaro/queretaro/c910dcb4318320121a746f2cb7e8f671,Mo-Su 08:00-22:00,Western Union,Q861042
a172bfbeab1555cee9d223397cf09f71,western_union,OXXO MAT HUIMILPAN QRF,,Queretaro,QUERETARO,,MX,+52 81 8389 2121,https://location.westernunion.com/mx/queretaro/queretaro/a172bfbeab1555cee9d223397cf09f71,Mo-Su 08:00-22:00,Western Union,Q861042
5241a7fe753beb9b3bd4a66bdb7237c1,western_union,OXXO HUIMILPAN QRF,,Queretaro,QUERETARO,,MX,+52 81 8389 2121,https://location.westernunion.com/mx/queretaro/queretaro/5241a7fe753beb9b3bd4a66bdb7237c1,Mo-Su 08:00-22:00,Western Union,Q861042
6e7310fb119e98c2ceca14e82ccd8c56,western_union,OXXO HUIMILPAN QRF,,Queretaro,QUERETARO,,MX,+52 81 8389 2121,https://location.westernunion.com/mx/queretaro/queretaro/6e7310fb119e98c2ceca14e82ccd8c56,Mo-Su 08:00-22:00,Western Union,Q861042
d1e4944df5c142512974581e7e2db7e7,western_union,SUPER Q CIMATARIO T204,,Queretaro,QUERETARO,,MX,+52 81 2133 2160,https://location.westernunion.com/mx/queretaro/queretaro/d1e4944df5c142512974581e7e2db7e7,Mo-Su 08:00-23:00,Western Union,Q861042
b28c9ccfdf5233760704155477ed1859,western_union,SUPER Q CIMATARIO T204,,Queretaro,QUERETARO,,MX,+52 81 2133 2160,https://location.westernunion.com/mx/queretaro/queretaro/b28c9ccfdf5233760704155477ed1859,Mo-Su 08:00-23:00,Western Union,Q861042
7cdc6a0e5d2a4aea81781578040524b1,western_union,SUPER Q CARRETERA HUIMILPAN,,Queretaro,QUERETARO,,MX,+52 442 222 8366,https://location.westernunion.com/mx/queretaro/queretaro/7cdc6a0e5d2a4aea81781578040524b1,Mo-Su 08:00-24:00,Western Union,Q861042
afc6e2121b97f88e3b25c14de8eed767,western_union,OXXO QUINTANA SUR QRF,,Santiago De Queretaro,QUERETARO,,MX,+52 81 8389 2121,https://location.westernunion.com/mx/queretaro/santiago-de-queretaro/afc6e2121b97f88e3b25c14de8eed767,Mo-Su 06:00-22:00,Western Union,Q861042
c598f396e54eb7de5d32eadcda95e8aa,western_union,OXXO CENTRO SUR QRF,,Queretaro,QUERETARO,,MX,+52 81 8389 2121,https://location.westernunion.com/mx/queretaro/queretaro/c598f396e54eb7de5d32eadcda95e8aa,Mo-Su 08:00-22:00,Western Union,Q861042
0ded9a9de9e891ef52b18a915b284a90,western_union,OXXO CENTRO SUR QRF,,Queretaro,QUERETARO,,MX,+52 81 8389 2121,https://location.westernunion.com/mx/queretaro/queretaro/0ded9a9de9e891ef52b18a915b284a90,Mo-Su 08:00-22:00,Western Union,Q861042
316b0fcd71f082f1c68cb69b55b25616,western_union,OXXO CENTRO SUR QRF,,Queretaro,QUERETARO,,MX,+52 81 8389 2121,https://location.westernunion.com/mx/queretaro/queretaro/316b0fcd71f082f1c68cb69b55b25616,Mo-Su 08:00-22:00,Western Union,Q861042
461a1b5d9dbaa832c028f1c198b80284,western_union,SUPER Q CARRETERA HUIMILPAN,,Queretaro,QUERETARO,,MX,+52 442 222 8366,https://location.westernunion.com/mx/queretaro/queretaro/461a1b5d9dbaa832c028f1c198b80284,Mo-Su 08:00-24:00,Western Union,Q861042
dc32261e68b88cf0644fed9fdad88a4a,western_union,SUPER Q  CENTRO CIVICO,,Queretaro,QUERETARO,,MX,+52 442 199 5156,https://location.westernunion.com/mx/queretaro/queretaro/dc32261e68b88cf0644fed9fdad88a4a,Mo-Su 08:00-24:00,Western Union,Q861042
a4e5b924f7a470732b658a813d4233d8,western_union,SUPER Q  CENTRO CIVICO,,Queretaro,QUERETARO,,MX,+52 442 199 5156,https://location.westernunion.com/mx/queretaro/queretaro/a4e5b924f7a470732b658a813d4233d8,Mo-Su 08:00-24:00,Western Union,Q861042
b2996af786cda1b8700fdcfd401fdd64,western_union,SUPER Q ALIA T251,,Queretaro,QUERETARO,,MX,+52 81 2133 2160,https://location.westernunion.com/mx/queretaro/queretaro/b2996af786cda1b8700fdcfd401fdd64,Mo-Su 08:00-23:00,Western Union,Q861042
6635cf2afa479938a5cdcf755e5a820b,western_union,SUPER Q ALIA T251,,Queretaro,QUERETARO,,MX,+52 81 2133 2160,https://location.westernunion.com/mx/queretaro/queretaro/6635cf2afa479938a5cdcf755e5a820b,Mo-Su 08:00-23:00,Western Union,Q861042
438278baeaf4fe266b58036a20e71825,western_union,SUPER Q T244 PLAZA BELEA,,Queretaro,QUERETARO,,MX,+52 442 192 9800,https://location.westernunion.com/mx/queretaro/queretaro/438278baeaf4fe266b58036a20e71825,Mo-Su 08:00-20:00,Western Union,Q861042
f6eceb7720aff71120af758cd920c3b7,western_union,OXXO INTERSUR QRF,,Santiago De Queretaro,QUERETARO,,MX,+52 81 8389 2121,https://location.westernunion.com/mx/queretaro/santiago-de-queretaro/f6eceb7720aff71120af758cd920c3b7,Mo-Su 08:00-22:00,Western Union,Q861042
555fad08032baec359d8afb357e31139,western_union,OXXO INTERSUR QRF,,Santiago De Queretaro,QUERETARO,,MX,+52 81 8389 2121,https://location.westernunion.com/mx/queretaro/santiago-de-queretaro/555fad08032baec359d8afb357e31139,Mo-Su 08:00-22:00,Western Union,Q861042
cfe1eb142e68ca8de845f23cc9b88394,western_union,BANORTE 01500 QRO CENTRO SUR,,Queretaro,QUERETARO,,MX,+52 800 833 4700,https://location.westernunion.com/mx/queretaro/queretaro/cfe1eb142e68ca8de845f23cc9b88394,Mo-Fr 09:00-17:00,Western Union,Q861042
55c0b110d51698cce1fdece38f047f79,western_union,OXXO SUR PONIENTE QRF,,Queretaro,QUERETARO,,MX,+52 81 8389 2121,https://location.westernunion.com/mx/queretaro/queretaro/55c0b110d51698cce1fdece38f047f79,Mo-Su 08:00-22:00,Western Union,Q861042
3e9b4322d582954d74daccbbdc544ba8,western_union,OXXO SUR PONIENTE QRF,,Queretaro,QUERETARO,,MX,+52 81 8389 2121,https://location.westernunion.com/mx/queretaro/queretaro/3e9b4322d582954d74daccbbdc544ba8,Mo-Su 08:00-22:00,Western Union,Q861042
363f3dce92652bf9d605102f2d3193ba,western_union,OXXO SUR PONIENTE QRF,,Queretaro,QUERETARO,,MX,+52 81 8389 2121,https://location.westernunion.com/mx/queretaro/queretaro/363f3dce92652bf9d605102f2d3193ba,Mo-Su 08:00-22:00,Western Union,Q861042
ee6de91b0242de3845e5c26125a89c4f,western_union,OXXO HUIMILPAN QRF,,Queretaro,QUERETARO,,MX,+52 81 8389 2121,https://location.westernunion.com/mx/queretaro/queretaro/ee6de91b0242de3845e5c26125a89c4f,Mo-Su 08:00-22:00,Western Union,Q861042
948ff9098a2d0ad1701e2af896a2a400,western_union,SUPER Q T237 TELEVISA,,Queretaro,QUERETARO,,MX,+52 442 192 9800,https://location.westernunion.com/mx/queretaro/queretaro/948ff9098a2d0ad1701e2af896a2a400,Mo-Su 08:00-20:00,Western Union,Q861042
02cfcfaeeeb12ea2573ed8c8d89bc9f0,western_union,SUPER Q T244 PLAZA BELEA,,Queretaro,QUERETARO,,MX,+52 442 192 9800,https://location.westernunion.com/mx/queretaro/queretaro/02cfcfaeeeb12ea2573ed8c8d89bc9f0,Mo-Su 08:00-20:00,Western Union,Q861042
