Ref,Spider,Name,Address,City,State,Zipcode,Country,Phone,Website,Hours,Brand,WikiData
RED0008701,australia_post_au,,,MOORABBIN,VIC,,AU,,,,Australia Post,Q1142936
RED0008695,australia_post_au,,,MOORABBIN,VIC,,AU,,,,Australia Post,Q1142936
RED0008692,australia_post_au,,,MOORABBIN,VIC,,AU,,,,Australia Post,Q1142936
RED0008696,australia_post_au,,,MOORABBIN,VIC,,AU,,,,Australia Post,Q1142936
RED0008691,australia_post_au,,,MOORABBIN,VIC,,AU,,,,Australia Post,Q1142936
74278923_UPL,australia_post_au,Moorabbin Parcel Locker,,MOORABBIN,VIC,,AU,,,24/7,Australia Post,Q1142936
330747_PO,australia_post_au,MOORABBIN BUSINESS CENTRE,,MOORABBIN,VIC,,AU,+61 131318,,,Australia Post,Q1142936
RED0008699,australia_post_au,,,MOORABBIN,VIC,,AU,,,,Australia Post,Q1142936
RED0008697,australia_post_au,,,MOORABBIN,VIC,,AU,,,,Australia Post,Q1142936
RED0008698,australia_post_au,,,MOORABBIN,VIC,,AU,,,,Australia Post,Q1142936
RED0008689,australia_post_au,,,MOORABBIN,VIC,,AU,,,,Australia Post,Q1142936
347602_PO,australia_post_au,WISHART LPO,,MOORABBIN,VIC,,AU,+61 3 9555 8396,,,Australia Post,Q1142936
RED0008694,australia_post_au,,,MOORABBIN,VIC,,AU,,,,Australia Post,Q1142936
RED0008693,australia_post_au,,,MOORABBIN,VIC,,AU,,,,Australia Post,Q1142936
RED0008690,australia_post_au,,,MOORABBIN,VIC,,AU,,,,Australia Post,Q1142936
346239_PO,australia_post_au,MOORABBIN LPO,,MOORABBIN,VIC,,AU,+61 3 9555 1194,,,Australia Post,Q1142936
76,barbeques_galore_au,Moorabbin,,Moorabbin,VIC,,AU,+61 3 9555 5866,https://www.barbequesgalore.com.au/stores/moorabbin,Mo-Th 09:00-17:00; Fr 09:00-18:00; Sa 09:00-17:00; Su 10:00-17:00,Barbeques Galore,Q4859570
https://www.bedshed.com.au/find-a-store/bedshed-moorabbin,bedshed_au,Bedshed Moorabbin,,Moorabbin,VIC,,AU,+61 3 9555 5770,https://www.bedshed.com.au/find-a-store/bedshed-moorabbin,Mo-Fr 09:00-17:30; Sa 09:00-17:00; Su 10:00-17:00,Bedshed,Q84452962
4444,bp,BP MOORABBIN,,MOORABBIN,VIC,,AU,+61 3 8597 3604,,Mo-Sa 06:00-23:00; Su 06:00-20:00,BP,Q152057
https://www.bridgestone.com.au/stores/vic/bridgestone-select-moorabbin,bridgestone_select,Bridgestone Select Moorabbin,,Moorabbin,VIC,,AU,+61 3 9563 2844,https://www.bridgestone.com.au/stores/vic/bridgestone-select-moorabbin/,Mo-Tu 08:00-17:00; Sa 08:00-24:00,Bridgestone Select Tyre & Auto,Q122420123
822,burson_auto_parts_au,MOORABBIN,"2/92-102 KEYS ROAD, MOORABBIN VIC 3189, Australia",MOORABBIN,VIC,,AU,+61 3 9553 1611,,Mo-Fr 08:00-17:00; Sa 08:00-12:00,Burson Auto Parts,Q117075930
6879,coles_au,Coles Express Moorabbin Warrigal Rd,,Moorabbin,VIC,,AU,+61 3 9075 1472,,,Coles Express,Q5144653
60,early_settler,Moorabbin,,Moorabbin,VIC,,AU,+61 3 9555 8796,https://earlysettler.com.au/pages/early-settler-moorabbin,Mo-Fr 09:00-17:30; Sa 09:00-17:00; Su 10:00-17:00,Early Settler,Q111080173
35,focus_on_furniture_au,Moorabbin,,Moorabbin,VIC,,AU,+61 3 9553 5670,,Mo-Fr 09:00-17:30; Sa 09:00-17:00; Su 10:00-17:00,Focus on Furniture,Q117746060
8327,hungry_jacks,Heatherton,,Moorabbin,VIC,,AU,+61 3 9558 2209,,,Hungry Jack's,Q3036373
5416,hungry_jacks,Moorabbin,,Moorabbin,VIC,,AU,99643703,,,Hungry Jack's,Q3036373
303,rsea_safety_au,RSEA Safety Moorabbin,,Moorabbin,VIC,,AU,+61 3 9552 7910,https://www.rsea.com.au/store-locator/vic/moorabbin,Mo-Fr 07:30-17:30; Sa 09:00-17:00; Su 10:00-17:00,RSEA Safety,Q122418895
10110861,shell,SHELL COLES EXPRESS MOORABBIN WARRIGAL RD,,MOORABBIN,VIC,,AU,+61 3 9075 1472,https://find.shell.com/au/fuel/10110861-shell-coles-express-moorabbin-warrigal-rd,24/7,Shell,Q110716465
10111383,shell,SHELL COLES EXPRESS MOORABBIN,,MOORABBIN,VIC,,AU,+61 3 9075 1224,https://find.shell.com/au/fuel/10111383-shell-coles-express-moorabbin,24/7,Shell,Q110716465
U3RvcmU6MzU=,sydney_tools_au,Moorabbin,,Moorabbin,VIC,,AU,+61 3 9223 1990,https://sydneytools.com.au/stores/vic/moorabbin,Mo-We 07:00-17:30; Th 07:00-20:00; Fr 07:00-17:30; Sa-Su 08:00-16:00,Sydney Tools,Q116779309
https://www.thegoodguys.com.au/moorabbin,the_good_guys_au,The Good Guys Moorabbin,,Moorabbin,VIC,,AU,+61 3 9581 1900,https://www.thegoodguys.com.au/moorabbin,Mo-Th 09:00-17:30; Fr 09:00-18:00; Sa 09:00-17:00; Su 10:00-17:00,The Good Guys,Q7737217
,tyrepower_au,Tyrepower Moorabbin,,Moorabbin,VIC,,AU,+61 3 9553 1855,https://tyrepowermoorabbin.com.au/,,Tyrepower,Q108855867
,visa,,,MOORABBIN,VIC,,AU,,,,,
,visa,,,MOORABBIN,VIC,,AU,,,,,
,visa,,,MOORABBIN,VIC,,AU,,,,,
,visa,,,MOORABIN,VIC,,AU,,,,,
,visa,,,MOORABBIN,VIC,,AU,,,,,
,visa,,,MOORABBIN,VIC,,AU,,,,,
,visa,,,MOORABBIN,VIC,,AU,,,,,
,visa,,,MOORABBIN,VIC,,AU,,,,,
c5e8de479ad28d2b92a8a6ae628cbd14,western_union,AUSTRALIA POST,,Moorabbin,VIC,,AU,+61 1800 501 500,https://location.westernunion.com/au/vic/moorabbin/c5e8de479ad28d2b92a8a6ae628cbd14,Mo-Fr 09:00-17:00; Sa 09:00-12:00,Western Union,Q861042
f5f398669ec673460c86d96f9eddcf33,western_union,AUSTRALIA POST,,Moorabbin,VIC,,AU,+61 1800 501 500,https://location.westernunion.com/au/vic/moorabbin/f5f398669ec673460c86d96f9eddcf33,Mo-Fr 09:00-17:00; Sa 09:00-12:00,Western Union,Q861042
f056e06512e84da8db19ac1c33f805a3,western_union,AUSTRALIA POST,,Moorabbin,VIC,,AU,+61 1800 501 500,https://location.westernunion.com/au/vic/moorabbin/f056e06512e84da8db19ac1c33f805a3,Mo-Fr 09:00-17:00,Western Union,Q861042
f7a24eb946ad565d610ba1ba179b9c16,western_union,AUSTRALIA POST,,Moorabbin,VIC,,AU,+61 1800 501 500,https://location.westernunion.com/au/vic/moorabbin/f7a24eb946ad565d610ba1ba179b9c16,Mo-Fr 08:30-18:00,Western Union,Q861042
