Ref,Spider,Name,Address,City,State,Zipcode,Country,Phone,Website,Hours,Brand,WikiData
https://stores.advanceautoparts.com/wv/philippi/46-daycon-dr,advance_auto_parts_us,Advance Auto Parts,,Philippi,WV,,US,+1 304-457-2040,https://stores.advanceautoparts.com/wv/philippi/46-daycon-dr,Mo-Sa 07:30-21:00; Su 09:00-20:00,Advance Auto Parts,Q4686051
198429,bluerhino,Mountaineer Mart #139,,Philippi,WV,,US,+1 304-457-3687,,,Blue Rhino,Q65681213
192052,bluerhino,Walgreens #19307,,Philippi,WV,,US,+1 304-457-4911,,,Blue Rhino,Q65681213
111036,bluerhino,Philippi Shop n Save Express #211112,,Philippi,WV,,US,+1 304-457-1890,,,Blue Rhino,Q65681213
44250,bluerhino,Speedway #3949,,Philippi,WV,,US,+1 304-457-2502,,,Blue Rhino,Q65681213
55300589181112641600100000000000,bp,BP,,Philippi,WV,,US,+1 304-457-3687,,24/7,BP,Q152057
36503,citi,ATM BCBank,,Philippi,WV,,US,,,,Citibank,Q857063
68119,citi,ATM PNC AT SHEETZ,,Philippi,WV,,US,,,,Citibank,Q857063
67525,citi,ATM PEOPLES BANK,,Philippi,WV,,US,,,,Citibank,Q857063
67526,citi,ATM PEOPLES BANK,,Philippi,WV,,US,,,,Citibank,Q857063
86849,citi,ATM Walgreens,,Philippi,WV,,US,,,,Citibank,Q857063
77915,citi,ATM Speedway,,Philippi,WV,,US,,,,Citibank,Q857063
21993,family_dollar_us,FAMILY DOLLAR #1993,,Philippi,WV,,US,+1 304-609-6031,https://www.familydollar.com/locations/wv/philippi/21993/,Mo-Su 09:00-21:00,Family Dollar,Q5433101
https://local.fedex.com/#25198100,fedex,,,Philippi,WV,,US,+1 800-463-3339,https://local.fedex.com/en-us/wv/philippi/ckblh,,FedEx,Q459477
1503012,hardees_us,Hardee's,,Philippi,WV,,US,+1 304-457-4766,https://locations.hardees.com/wv/philippi/130-south-main-street,,Hardee's,Q1585088
27179,h_r_block,H&R Block,,Philippi,WV,,US,+1 304-457-4098,https://www.hrblock.com/local-tax-offices/west-virginia/philippi/42-s-main-st/27179/,,H&R Block,Q5627799
https://restaurants.subway.com/#14908299,subway,Subway,,Phillipi Barbour,WV,,US,+1 304-457-2099,https://restaurants.subway.com/united-states/wv/phillipi/271-s-main-street,Mo-Sa 08:30-22:00; Su 09:00-21:00,Subway,Q244457
032105,uhaul,Ralphs Country Store,Rte 250 S,Philippi,WV,,US,+1 304-457-1096,,Mo-Fr 00:00-17:00; Sa 00:00-14:00,U-Haul,Q7862902
1377377,usps,PHILIPPI,,PHILIPPI,WV,,US,+1 304-457-2676,,Mo-Fr 08:30-16:30; Sa 10:00-12:00,United States Postal Service,Q668687
2641600002,usps_collection_boxes,USPS COLLECTION BOX - BLUE BOX,105 S RAILROAD ST,PHILIPPI,WV,,US,,,,United States Postal Service,Q668687
2641600011,usps_collection_boxes,USPS COLLECTION BOX - PO LOBBY,105 S RAILROAD ST,PHILIPPI,WV,,US,,,,United States Postal Service,Q668687
2641600015,usps_collection_boxes,USPS COLLECTION BOX - PO LOBBY,105 S RAILROAD ST,PHILIPPI,WV,,US,,,,United States Postal Service,Q668687
,visa,,,PHILIPPI,WV,,US,,,,,
,visa,,,PHILIPPI,WV,,US,,,,,
,visa,,,PHILIPPI,WV,,US,,,,,
,visa,,,PHILIPPI,WV,,US,,,,,
,visa,,,PHILIPPI,WV,,US,,,,,
,visa,,,PHILIPPI,WV,,US,,,,,
,visa,,,PHILIPPI,WV,,US,,,,,
,visa,,,PHILIPPI,WV,,US,,,,,
,visa,,,PHILIPPI,WV,,US,,,,,
,visa,,,PHILIPPI,WV,,US,,,,,
,visa,,,PHILIPPI,WV,,US,,,,,
,visa,,,PHILLIPPI,WV,,US,,,,,
https://www.walgreens.com/locator/walgreens-114+s+main+st-philippi-wv-26416/id=19307,walgreens,Walgreens,,Philippi,WV,,US,+1 304-457-4911,https://www.walgreens.com/locator/walgreens-114+s+main+st-philippi-wv-26416/id=19307,Mo-Su 09:00-21:00,Walgreens,Q1591889
