Ref,Spider,Name,Address,City,State,Zipcode,Country,Phone,Website,Hours,Brand,WikiData
,visa,,,TLALNEPANTLA,ESTADO DE MEXICO,,MX,,,,,
,visa,,,TLALNEPANTLA DE BAZ,ESTADO DE MEXICO,,MX,,,,,
,visa,,,TLALNEPANTLA,ESTADO DE MEXICO,,MX,,,,,
,visa,,,TLALNEPANTLA,ESTADO DE MEXICO,,MX,,,,,
,visa,,,TLALNEPANTLA,ESTADO DE MEXICO,,MX,,,,,
,visa,,,TLALNEPANTLA DE BAZ,ESTADO DE MEXICO,,MX,,,,,
,visa,,,TLALNEPANTLA DE BAZ,ESTADO DE MEXICO,,MX,,,,,
,visa,,,TLALNEPANTLA,ESTADO DE MEXICO,,MX,,,,,
,visa,,,TLALNEPANTLA,ESTADO DE MEXICO,,MX,,,,,
,visa,,,TLALNEPANTLA,ESTADO DE MEXICO,,MX,,,,,
,visa,,,TLALNEPANTLA,ESTADO DE MEXICO,,MX,,,,,
,visa,,,TLALNEPANTLA,ESTADO DE MEXICO,,MX,,,,,
,visa,,,TLALNEPANTLA DE BAZ,ESTADO DE MEXICO,,MX,,,,,
,visa,,,TLALNEPANTLA DE BAZ,ESTADO DE MEXICO,,MX,,,,,
,visa,,,TLALNEPANTLA,ESTADO DE MEXICO,,MX,,,,,
,visa,,,TLALNEPANTLA,ESTADO DE MEXICO,,MX,,,,,
,visa,,,MEXICO,ESTADO DE MEXICO,,MX,,,,,
,visa,,,TLALNEPANTLA,ESTADO DE MEXICO,,MX,,,,,
,visa,,,TLALNEPANTLA,ESTADO DE MEXICO,,MX,,,,,
,visa,,,TLALNEPANTLA DE BAZ,ESTADO DE MEXICO,,MX,,,,,
,visa,,,TLALNEPANTLA DE BAZ,ESTADO DE MEXICO,,MX,,,,,
,visa,,,TLALNEPANTLA,ESTADO DE MEXICO,,MX,,,,,
,visa,,,TLALNEPANTLA DE BAZ,ESTADO DE MEXICO,,MX,,,,,
9c6d257fd673d2e9e0f431ff9536b34e,western_union,OXXO ALBARRAN MEX,,Tlalnepantla,ESTADO DE MEXICO,,MX,+52 81 8389 2121,https://location.westernunion.com/mx/estado-de-mexico/tlalnepantla/9c6d257fd673d2e9e0f431ff9536b34e,Mo-Su 08:00-22:00,Western Union,Q861042
44e36e2432f483df270bc2915889dc3e,western_union,OXXO ALBARRAN MEX,,Tlalnepantla,ESTADO DE MEXICO,,MX,+52 81 8389 2121,https://location.westernunion.com/mx/estado-de-mexico/tlalnepantla/44e36e2432f483df270bc2915889dc3e,Mo-Su 08:00-22:00,Western Union,Q861042
8dc0bc74c0356e01513dfa1874819553,western_union,OXXO ALBARRAN MEX,,Tlalnepantla,ESTADO DE MEXICO,,MX,+52 81 8389 2121,https://location.westernunion.com/mx/estado-de-mexico/tlalnepantla/8dc0bc74c0356e01513dfa1874819553,Mo-Su 08:00-22:00,Western Union,Q861042
fbdd45f3a6a20963e3fc1004225acfe7,western_union,OXXO LA AZTECA PAC,,Tlalnepantla,ESTADO DE MEXICO,,MX,+52 81 8389 2121,https://location.westernunion.com/mx/estado-de-mexico/tlalnepantla/fbdd45f3a6a20963e3fc1004225acfe7,Mo-Su 06:00-22:00,Western Union,Q861042
049da610c2a50aa6ef4dd877d08ecdf3,western_union,OXXO BARRIENTOS MEX,,Tlalnepantla,ESTADO DE MEXICO,,MX,+52 81 8389 2121,https://location.westernunion.com/mx/estado-de-mexico/tlalnepantla/049da610c2a50aa6ef4dd877d08ecdf3,Mo-Su 08:00-22:00,Western Union,Q861042
4e0ed556bdb358b7eb9be06e6ddc0be2,western_union,OXXO BARRIENTOS MEX,,Tlalnepantla,ESTADO DE MEXICO,,MX,+52 81 8389 2121,https://location.westernunion.com/mx/estado-de-mexico/tlalnepantla/4e0ed556bdb358b7eb9be06e6ddc0be2,Mo-Su 08:00-22:00,Western Union,Q861042
cf3496eb8444a7302730001604d2cd72,western_union,OXXO BARRIENTOS MEX,,Tlalnepantla,ESTADO DE MEXICO,,MX,+52 81 8389 2121,https://location.westernunion.com/mx/estado-de-mexico/tlalnepantla/cf3496eb8444a7302730001604d2cd72,Mo-Su 08:00-22:00,Western Union,Q861042
9ec77b05d1ff3a575863bd869dfd839d,western_union,SUBURBIA 621 LAGO DE GUADALUPE,,Tlalnepantla,ESTADO DE MEXICO,,MX,+52 800 733 3300,https://location.westernunion.com/mx/estado-de-mexico/tlalnepantla/9ec77b05d1ff3a575863bd869dfd839d,Mo-Su 11:00-21:00,Western Union,Q861042
4778adb24697bdb3ec42fb4245dddd60,western_union,SUBURBIA 621 LAGO DE GUADALUPE,,Tlalnepantla,ESTADO DE MEXICO,,MX,+52 800 733 3300,https://location.westernunion.com/mx/estado-de-mexico/tlalnepantla/4778adb24697bdb3ec42fb4245dddd60,Mo-Su 11:00-21:00,Western Union,Q861042
bf9d4decbdc74d5dd705ebf2e5355a0a,western_union,SUBURBIA 621 LAGO DE GUADALUPE,,Tlalnepantla,ESTADO DE MEXICO,,MX,+52 800 733 3300,https://location.westernunion.com/mx/estado-de-mexico/tlalnepantla/bf9d4decbdc74d5dd705ebf2e5355a0a,Mo-Su 11:00-21:00,Western Union,Q861042
be188b200931f04fea905acbbbc70677,western_union,WALMART LAGO DE GUADALUPE 4191,,Tlalnepantla,ESTADO DE MEXICO,,MX,+52 800 833 4700,https://location.westernunion.com/mx/estado-de-mexico/tlalnepantla/be188b200931f04fea905acbbbc70677,Mo-Su 07:00-23:00,Western Union,Q861042
f9c7ef9fbffd53f1349ef585939596db,western_union,WALMART LAGO DE GUADALUPE 4191,,Tlalnepantla,ESTADO DE MEXICO,,MX,+52 800 833 4700,https://location.westernunion.com/mx/estado-de-mexico/tlalnepantla/f9c7ef9fbffd53f1349ef585939596db,Mo-Su 07:00-23:00,Western Union,Q861042
88df4976c03860ae8c55b1e4089e6db5,western_union,WALMART LAGO DE GUADALUPE 4191,,Tlalnepantla,ESTADO DE MEXICO,,MX,+52 800 833 4700,https://location.westernunion.com/mx/estado-de-mexico/tlalnepantla/88df4976c03860ae8c55b1e4089e6db5,Mo-Su 07:00-23:00,Western Union,Q861042
700d77b0f9ef130cf6d011b3e3998905,western_union,OXXO VAINILLA MEX,,Tlalnepantla,ESTADO DE MEXICO,,MX,+52 81 8389 2121,https://location.westernunion.com/mx/estado-de-mexico/tlalnepantla/700d77b0f9ef130cf6d011b3e3998905,Mo-Su 08:00-22:00,Western Union,Q861042
7b1648458939a4aae63d7c5789184632,western_union,OXXO VAINILLA MEX,,Tlalnepantla,ESTADO DE MEXICO,,MX,+52 81 8389 2121,https://location.westernunion.com/mx/estado-de-mexico/tlalnepantla/7b1648458939a4aae63d7c5789184632,Mo-Su 08:00-22:00,Western Union,Q861042
916a9964c22d80741df6f919481985d6,western_union,OXXO VAINILLA MEX,,Tlalnepantla,ESTADO DE MEXICO,,MX,+52 81 8389 2121,https://location.westernunion.com/mx/estado-de-mexico/tlalnepantla/916a9964c22d80741df6f919481985d6,Mo-Su 08:00-22:00,Western Union,Q861042
