Ref,Spider,Name,Address,City,State,Zipcode,Country,Phone,Website,Hours,Brand,WikiData
211868,bluerhino,Karns Duncannon #14 - #45-3314,,Duncannon,PA,,US,+1 717-834-3121,,,Blue Rhino,Q65681213
179701,bluerhino,Rutter's #77,,Duncannon,PA,,US,+1 717-904-2250,,,Blue Rhino,Q65681213
20485,burgerking,Burger King,,Duncannon,PA,,US,+1 717-834-9000,https://www.bk.com/store-locator/store/restaurant_14075,Mo-Sa 06:00-23:00; Su 07:00-23:00,Burger King,Q177054
75306,citi,ATM Rutters #77 - 2,,Duncannon,PA,,US,,,,Citibank,Q857063
75305,citi,ATM Rutters #77 - 1,,Duncannon,PA,,US,,,,Citibank,Q857063
68569,citi,ATM PNC AT SHEETZ,,Duncannon,PA,,US,,,,Citibank,Q857063
32533,citi,ATM 7ELEVEN-FCTI,,Duncannon,PA,,US,,,,Citibank,Q857063
73419,citi,ATM Rite Aid,,Duncannon,PA,,US,,,,Citibank,Q857063
68200,citi,ATM PNC AT SHEETZ,,Duncannon,PA,,US,,,,Citibank,Q857063
200320248,exxonmobil,ONVO TRAVEL PLAZA - DUNCANNON,,DUNCANNON,PA,,US,+1 717-834-4000,https://www.exxon.com/en/find-station/exxon-duncannon-pa-onvotravelplazaduncannon-200320248,24/7,Exxon,Q109675651
Motorcraft3157USAEnglish,ford,"Maguire's Ford, Inc.",,Pennsylvania,PA,,US,+1 717-834-3111,,,Ford,Q44294
https://www.ford.com/dealerships/dealer-details/pa/duncannon/maguire%27s-ford-inc/,ford_dealers_us,"Maguire's Ford, Inc.",,Duncannon,PA,,US,+1 223-321-2006,https://www.ford.com/dealerships/dealer-details/pa/duncannon/maguire's-ford-inc/,Mo-Fr 09:00-19:00; Sa 09:00-16:00,Ford Motor Company,Q44294
37529,h_r_block,H&R Block,,Duncannon,PA,,US,+1 717-957-9940,https://www.hrblock.com/local-tax-offices/pennsylvania/duncannon/1609-state-rd/37529/,,H&R Block,Q5627799
517,pilot_flyingj,Pilot Travel Center,,Duncannon,PA,,US,+1 717-834-3156,https://locations.pilotflyingj.com/us/pa/duncannon/30-benvenue-road,,Pilot,Q7194412
04293,rite_aid_us,Rite Aid #04293 Duncannon,,Duncannon,PA,,US,+1 717-834-6303,https://locations2.riteaid.com.yext-cdn.com/pa/duncannon/5-friendly-drive.html,Mo-Fr 09:00-21:00; Sa-Su 09:00-19:00,Rite Aid,Q3433273
40454,seven_eleven_ca_us,7-Eleven,,DUNCANNON,PA,,US,+1 717-834-4890,https://www.7-eleven.com/locations/pa/duncannon/75-south-main-st-40454,,7-Eleven,Q259340
288,sheetz,Sheetz,,Duncannon,PA,,US,+1 717-957-0188,https://orders.sheetz.com/findASheetz/store/288,24/7,Sheetz,Q7492551
461,sheetz,Sheetz,,DUNCANNON,PA,,US,+1 717-834-0168,https://orders.sheetz.com/findASheetz/store/461,24/7,Sheetz,Q7492551
https://restaurants.subway.com/#14983872,subway,Subway Pilot Travel Center #517,,Duncannon Perry,PA,,US,+1 717-834-3156,https://restaurants.subway.com/united-states/pa/duncannon/us-rt-22-&-322y,Mo-Su 09:00-22:00,Subway,Q244457
0196897300,sunoco_us,Sunoco,,DUNCANNON,PA,,US,+1 717-834-4890,,,Sunoco,Q1423218
1361439,usps,DUNCANNON,,DUNCANNON,PA,,US,+1 717-834-3332,,"Mo-Fr 08:00-11:00,12:00-16:30; Sa 08:30-12:30",United States Postal Service,Q668687
1702000007,usps_collection_boxes,USPS COLLECTION BOX - BLUE BOX,PFAUTZ RD,DUNCANNON,PA,,US,,,,United States Postal Service,Q668687
1702000021,usps_collection_boxes,USPS COLLECTION BOX - PO LOBBY,203 N MARKET ST,DUNCANNON,PA,,US,,,,United States Postal Service,Q668687
1702000012,usps_collection_boxes,USPS COLLECTION BOX - BLUE BOX,203 N MARKET ST,DUNCANNON,PA,,US,,,,United States Postal Service,Q668687
1702000013,usps_collection_boxes,USPS COLLECTION BOX - BLUE BOX,203 N MARKET ST,DUNCANNON,PA,,US,,,,United States Postal Service,Q668687
1702000017,usps_collection_boxes,USPS COLLECTION BOX - PO LOBBY,203 N MARKET ST,DUNCANNON,PA,,US,,,,United States Postal Service,Q668687
1702000002,usps_collection_boxes,USPS COLLECTION BOX - BLUE BOX,1 S MARKET ST,DUNCANNON,PA,,US,,,,United States Postal Service,Q668687
,visa,,,DUNCANNON,PA,,US,,,,,
,visa,,,DUNCANNON,PA,,US,,,,,
,visa,,,DUNCANNON,PA,,US,,,,,
,visa,,,DUNCANNON,PA,,US,,,,,
,visa,,,DUNCANNON,PA,,US,,,,,
,visa,,,DUNCANNON,PA,,US,,,,,
,visa,,,DUNCANNON,PA,,US,,,,,
,visa,,,DUNCANNON,PA,,US,,,,,
,visa,,,DUNCANNON,PA,,US,,,,,
,visa,,,DUCANNON,PA,,US,,,,,
,visa,,,DUCANNON,PA,,US,,,,,
,visa,,,DUCANNON,PA,,US,,,,,
,visa,,,DUNCANNON,PA,,US,,,,,
,visa,,,DUNCANNON,PA,,US,,,,,
,visa,,,DUNCANNON,PA,,US,,,,,
,visa,,,DUNCANNON,PA,,US,,,,,
,visa,,,DUNCANNON,PA,,US,,,,,
,visa,,,DUNCANNON,PA,,US,,,,,
,visa,,,DUNCANNON,PA,,US,,,,,
,visa,,,DUNCANNON,PA,,US,,,,,
,visa,,,DUNCANNON,PA,,US,,,,,
,visa,,,DUNCANNON,PA,,US,,,,,
,visa,,,DUNCANNON,PA,,US,,,,,
,visa,,,DUNCANNON,PA,,US,,,,,
,visa,,,DUNCANNON,PA,,US,,,,,
,visa,,,DUNCANNON,PA,,US,,,,,
,visa,,,DUNCANNON,PA,,US,,,,,
,visa,,,DUNCANNON,PA,,US,,,,,
,visa,,,DUNCANNON,PA,,US,,,,,
,visa,,,DUNCANNON,PA,,US,,,,,
,visa,,,DUNCANNON,PA,,US,,,,,
,visa,,,DUNCANNON,PA,,US,,,,,
e85db8532d5d6f7ec70a2af3cd25cdfa,western_union,RITE AID #4293,,Duncannon,PA,,US,+1 717-834-6460,https://location.westernunion.com/us/pa/duncannon/e85db8532d5d6f7ec70a2af3cd25cdfa,Mo-Su 09:00-21:00,Western Union,Q861042
