Ref,Spider,Name,Address,City,State,Zipcode,Country,Phone,Website,Hours,Brand,WikiData
72283156,moneygram,KONNECTIONS - JAUNPUR - JAUNPUR,,JAUNPUR,,,IN,+91 97929 25959,,Mo-Su 08:00-22:00,MoneyGram,Q1944412
72284168,moneygram,SHAN TRAVEL - JAUNPUR - JAUNPUR,,JAUNPUR,,,IN,+91 90447 27641,,Mo-Su 08:00-22:00,MoneyGram,Q1944412
72326398,moneygram,GRAHAK SEWA KENDRA - JAUNPUR - JAUNPUR,,JAUNPUR,,,IN,+91 99562 12360,,Mo-Su 08:00-22:00,MoneyGram,Q1944412
72372054,moneygram,PRADHAN WORLD TRAVEL - JAUNPUR - JAUNPUR,,JAUNPUR,,,IN,+91 98890 79215,,Mo-Su 08:00-22:00,MoneyGram,Q1944412
72477221,moneygram,NATIONAL TOUR AND TRAVELS - JAUNPUR - JA,,JAUNPUR,,,IN,+91 82995 66433,,Mo-Su 08:00-22:00,MoneyGram,Q1944412
72489316,moneygram,PANJATAN TRAVELS - JAUNPUR - MAU,,JAUNPUR,,,IN,+91 95982 22262,,Mo-Su 08:00-22:00,MoneyGram,Q1944412
72483419,moneygram,YAMIN TRAVELS - JAUNPUR - JAUNPUR,,JAUNPUR,,,IN,+91 98385 81796,,Mo-Su 08:00-22:00,MoneyGram,Q1944412
72526745,moneygram,KAVYA INFOSOLUTIONS,,JAUNPUR,,,IN,+91 94554 89222,,Mo-Su 08:00-21:00,MoneyGram,Q1944412
72615533,moneygram,FAISAL TOUR TRAVELS,,JAUNPUR,,,IN,+91 97948 04252,,Mo-Su 08:00-21:00,MoneyGram,Q1944412
72612756,moneygram,RAHMAN TOUR TRAVELS,,JAUNPUR,,,IN,+91 94554 49919,,Mo-Su 08:00-21:00,MoneyGram,Q1944412
72608317,moneygram,SHUBH TOUR AND TRAVELS,,JAUNPUR,,,IN,+91 99356 54417,,Mo-Su 08:00-21:00,MoneyGram,Q1944412
72612167,moneygram,SHUBHAM PUSTAKALAYA,,JAUNPUR,,,IN,+91 79051 96244,,Mo-Su 08:00-21:00,MoneyGram,Q1944412
72609031,moneygram,SUBHASH TRADERS,,JAUNPUR,,,IN,+91 74080 91545,,Mo-Su 08:00-21:00,MoneyGram,Q1944412
72591275,moneygram,AL SAFAR TRAVELS,,JAUNPUR,,,IN,+91 95982 22262,,Mo-Su 08:00-21:00,MoneyGram,Q1944412
72584266,moneygram,SARFARAJ TOUR AND TRAVELS,,JAUNPUR,,,IN,+91 97213 85143,,Mo-Su 08:00-21:00,MoneyGram,Q1944412
72667316,moneygram,GRAHAK SEWA KENDRA - JAUNPUR,,JAUNPUR,,,IN,+91 89578 00613,,Mo-Su 08:00-20:00,MoneyGram,Q1944412
72677513,moneygram,ZAMIN TOUR AND TRAVELS - JAUNPUR,,JAUNPUR,,,IN,+91 83184 25410,,Mo-Su 08:00-20:00,MoneyGram,Q1944412
72680416,moneygram,AL HAFIZ TOUR AND TRAVELS - JAUNPUR,,JAUNPUR,,,IN,+91 99848 09894,,Mo-Su 08:00-20:00,MoneyGram,Q1944412
72686850,moneygram,HARSHITA ENTERPRISES - JAUNPUR,,JAUNPUR,,,IN,+91 97928 12001,,Mo-Su 08:00-20:00,MoneyGram,Q1944412
72708990,moneygram,GRAHAK SEWA KENDRA - JAUNPUR,,JAUNPUR,,,IN,+91 87076 71233,,Mo-Su 08:00-20:00,MoneyGram,Q1944412
72587425,moneygram,M M KUSHA TOUR AND TRAVELS,,JAUNPUR,,,IN,+91 98891 23981,,Mo-Su 08:00-21:00,MoneyGram,Q1944412
72796708,moneygram,KHAN E TRAVELS - JAUNPUR,,JAUNPUR,,,IN,+91 90050 99240,,Mo-Su 08:00-20:00,MoneyGram,Q1944412
72800490,moneygram,SUNSHINE COMMON SERVICE CENTRE - JAUNPUR,,JAUNPUR,,,IN,+91 97951 86968,,Mo-Su 08:00-20:00,MoneyGram,Q1944412
72832468,moneygram,NOOR TRAVELS - JAUNPUR,,JAUNPUR,,,IN,+91 70070 82038,,Mo-Su 08:00-20:00,MoneyGram,Q1944412
72890992,moneygram,A K ENTERPRISES - JAUNPUR,,JAUNPUR,,,IN,+91 79050 75020,,Mo-Su 08:00-20:00,MoneyGram,Q1944412
73281487,moneygram,MUTHOOT FINANCE LTD - #3205 - JAUNPUR -,,JAUNPUR,,,IN,+91 5452 220 015,,Mo-Su 09:00-19:00,MoneyGram,Q1944412
73038999,moneygram,SHAN TRAVEL,,JAUNPUR,,,IN,+91 90447 27641,,Mo-Su 08:00-21:00,MoneyGram,Q1944412
73421852,moneygram,ABBAS TOUR TRAVELS,,JAUNPUR,,,IN,+91 99844 02161,,Mo-Su 08:00-21:00,MoneyGram,Q1944412
73439420,moneygram,DEEWAN TRAVELS,,JAUNPUR,,,IN,+91 93365 62595,,Mo-Su 08:00-21:00,MoneyGram,Q1944412
73438434,moneygram,SATYAM COMPUTERS,,JAUNPUR,,,IN,+91 90053 61361,,Mo-Su 08:00-21:00,MoneyGram,Q1944412
73438528,moneygram,SIDDIQUI TRAVELS SERVISES,,JAUNPUR,,,IN,+91 99186 33347,,Mo-Su 08:00-21:00,MoneyGram,Q1944412
73422819,moneygram,AKBAR TRAVELS,,JAUNPUR,,,IN,+91 90447 28781,,Mo-Su 08:00-21:00,MoneyGram,Q1944412
73446785,moneygram,JAIS CITY SHOPPE,,JAUNPUR,,,IN,+91 83181 80098,,Mo-Su 08:00-21:00,MoneyGram,Q1944412
73446769,moneygram,ONLINE SERVICE CENTER,,JAUNPUR,,,IN,+91 95321 49023,,Mo-Su 08:00-21:00,MoneyGram,Q1944412
73446837,moneygram,SADIK TOUR AND TRAVELS,,JAUNPUR,,,IN,+91 97397 36516,,Mo-Su 08:00-21:00,MoneyGram,Q1944412
73540364,moneygram,SAHAJ JAN SEVA KENDRA,,JAUNPUR,,,IN,+91 93362 63032,,Mo-Su 08:00-21:00,MoneyGram,Q1944412
73552792,moneygram,YUSUF TOUR AND TRAVEL,,JAUNPUR,,,IN,+91 96484 47996,,Mo-Su 08:00-21:00,MoneyGram,Q1944412
73615561,moneygram,GUPTA CONSULTANTS,,JAUNPUR,,,IN,+91 92361 61755,,Mo-Su 08:00-21:00,MoneyGram,Q1944412
73698601,moneygram,RK ENTERPRISES,,JAUNPUR,,,IN,+91 87658 56767,,Mo-Su 08:00-21:00,MoneyGram,Q1944412
73930097,moneygram,TARANNUM READYMENT,,JAUNPUR,,,IN,+91 94554 49919,,Mo-Su 08:00-21:00,MoneyGram,Q1944412
74114061,moneygram,GOMTI GOLD,,JAUNPUR,,,IN,+91 96964 74748,,Mo-Su 08:00-21:00,MoneyGram,Q1944412
74239852,moneygram,GHAZANFAR TRAVELS,,JAUNPUR,,,IN,+91 78602 84484,,Mo-Su 08:00-21:00,MoneyGram,Q1944412
74336658,moneygram,PHALAK COMMUNICATION AND STATIONARY CENT,,JAUNPUR,,,IN,+91 91512 33381,,Mo-Su 08:00-21:00,MoneyGram,Q1944412
74282582,moneygram,RAHUL PCO,,JAUNPUR,,,IN,+91 98386 16218,,Mo-Su 08:00-21:00,MoneyGram,Q1944412
69531413,moneygram,YUSUF TOUR & TRAVELS - JAUNPUR,,JAUNPUR,,,IN,+91 96484 47996,,Mo-Su 07:00-21:00,MoneyGram,Q1944412
74393523,moneygram,AL-HAFIZ TOUR AND TRAVELS,,COLLAGE KE PASS JAUNPUR,,,IN,+91 99848 09894,,Mo-Su 08:00-21:00,MoneyGram,Q1944412
74529478,moneygram,ROSAN COMPUTERS,,JAUNPUR,,,IN,+91 85284 66500,,Mo-Su 08:00-21:00,MoneyGram,Q1944412
74560165,moneygram,VS ONLINE SERVICE CENTER AND SAHAJ JAN S,,JAUNPUR,,,IN,+91 81890 01114,,Mo-Su 08:00-21:00,MoneyGram,Q1944412
74599851,moneygram,ANUJ DRESSES,,JAUNPUR,,,IN,+91 94516 08940,,Mo-Su 08:00-21:00,MoneyGram,Q1944412
74599848,moneygram,RUDRA TRAVEL,,JAUNPUR,,,IN,+91 99843 90333,,Mo-Su 08:00-21:00,MoneyGram,Q1944412
74689059,moneygram,J B TELECOM,,JAUNPUR,,,IN,+91 91252 47451,,Mo-Su 08:00-21:00,MoneyGram,Q1944412
72305144,moneygram,EBIX MONEY EXPRESS PVT LTD - JAUNPUR - J,,JAUNPUR,,,IN,+91 77058 01159,,Mo-Su 08:00-22:00,MoneyGram,Q1944412
71679402,moneygram,YES COURIER SERVICE - JAUNPUR - JAUNPUR,,JAUNPUR,,,IN,+91 93365 07751,,Mo-Su 09:00-20:00,MoneyGram,Q1944412
71625605,moneygram,HAIDER COMMUNICATION GARMENT - JAUNPUR -,,JAUNPUR,,,IN,+91 87389 77921,,Mo-Su 10:00-20:00,MoneyGram,Q1944412
71718622,moneygram,BANK MITRA ADAMPUR - JAUNPUR - JAUNPUR,,JAUNPUR,,,IN,+91 80818 41078,,Mo-Su 08:00-20:00,MoneyGram,Q1944412
71699945,moneygram,VIJAY TELECOMMUNICATION - JAUNPUR - JAUN,,JAUNPUR,,,IN,+91 87380 10216,,Mo-Su 09:00-21:00,MoneyGram,Q1944412
71671895,moneygram,ADVANCE COMPUTER INFORMATION TECHNOLOGY,,JAUNPUR,,,IN,+91 98891 97500,,Mo-Su 08:00-20:00,MoneyGram,Q1944412
