Ref,Spider,Name,Address,City,State,Zipcode,Country,Phone,Website,Hours,Brand,WikiData
4200,anytime_fitness,Anytime Fitness,,Cleveland,TX,,US,+1 832-966-0366,https://www.anytimefitness.com/gyms/4200/cleveland-tx-77327/,,Anytime Fitness,Q4778364
12478,asics_us,Hibbett Sports,1707 E Houston St,Cleveland,TX,,US,+1 281-659-1395,,,asics,Q327247
3117,autozone_us,AutoZone Auto Parts Cleveland,,Cleveland,TX,,US,+1 281-592-4941,https://www.autozone.com/locations/tx/cleveland/1217-e-houston-st.html,Mo-Sa 07:30-22:00; Su 08:00-21:00,AutoZone,Q4826087
275,bealls_us,Bealls,,Cleveland,TX,,US,+1 281-593-1445,https://stores.bealls.com/tx/cleveland/clothing-store-275.html,Mo-Th 09:00-21:00; Fr-Sa 09:00-21:30; Su 10:00-20:00,Bealls,Q4876153
214961,bluerhino,"Hercules Store, LLC (Roadster #24)",,Cleveland,TX,,US,+1 512-767-3192,,,Blue Rhino,Q65681213
190537,bluerhino,Family Dollar  #12210,,Cleveland,TX,,US,+1 346-299-1793,,,Blue Rhino,Q65681213
193335,bluerhino,Easy Lane Food Mart #12 (A & B Business Investments Inc.),,Cleveland,TX,,US,+1 281-689-5710,,,Blue Rhino,Q65681213
175160,bluerhino,Easy Lane Food Mart #11 (W&J BUS)),,Cleveland,TX,,US,+1 281-689-9484,,,Blue Rhino,Q65681213
223113,bluerhino,Lets Go Market- TX17473,,Cleveland,TX,,US,+1 281-813-4767,,,Blue Rhino,Q65681213
197062,bluerhino,Easy lane Food Mart #13 (A&D C -Store Investments Inc.),,Cleveland,TX,,US,+1 281-593-1686,,,Blue Rhino,Q65681213
192908,bluerhino,Family Dollar #12369,,Cleveland,TX,,US,+1 832-210-2852,,,Blue Rhino,Q65681213
10226,bluerhino,Walmart #0249 - Supercenter,,Cleveland,TX,,US,+1 281-592-2654,,,Blue Rhino,Q65681213
237765,bluerhino,Circle K #2742394,,Cleveland,TX,,US,+1 281-592-2609,,,Blue Rhino,Q65681213
196625,bluerhino,H-E-B #257,,CLEVELAND,TX,,US,+1 281-592-0466,,,Blue Rhino,Q65681213
183226,bluerhino,Kausar Enterprises Inc DBA Ruby Food Mart #2,,Cleveland,TX,,US,+1 832-480-5399,,,Blue Rhino,Q65681213
155606,bluerhino,Walgreens #11814,,Cleveland,TX,,US,+1 281-592-0491,,,Blue Rhino,Q65681213
193371,bluerhino,Brookshire Brothers #16,,Cleveland,TX,,US,+1 281-592-6421,,,Blue Rhino,Q65681213
164272,bluerhino,Family Dollar #04714,,Cleveland,TX,,US,+1 281-432-1123,,,Blue Rhino,Q65681213
226361,bluerhino,TX0323-9013,,Cleveland,TX,,US,+1 346-988-4220,,,Blue Rhino,Q65681213
187454,bluerhino,Fuel Max #46 (Genius Business Inc.),,Cleveland,TX,,US,+1 281-806-7721,,,Blue Rhino,Q65681213
30414,chevrolet,MARTIN CHEVROLET BUICK GMC,,Cleveland,TX,,US,+1 281-761-7029,https://www.martinchevroletbuickgmc.com,Mo-Th 08:00-20:00; Fr 08:00-19:00; Sa 08:00-17:00,Chevrolet,Q29570
379631,chevron,Chevron Station #379631,814 US 59 & TX 105,CLEVELAND,TX,,US,+1 281-924-8676,,,Chevron,Q319642
377494,chevron,Chevron Station #377494,23128 TX 321,CLEVELAND,TX,,US,+1 832-248-4355,,,Chevron,Q319642
86347,citi,ATM Walgreens,,Cleveland,TX,,US,,,,Citibank,Q857063
59161,citi,ATM Heb,,Cleveland,TX,,US,,,,Citibank,Q857063
70205106,cricket_wireless,Cricket Wireless Authorized Retailer,,Cleveland,TX,,US,+1 281-432-2570,https://www.cricketwireless.com/stores/ll/US/TX/Cleveland/104-Truly-Plz,Mo-Sa 10:00-18:00; Su 12:00-17:00,Cricket Wireless,Q5184987
1788,dickeys_barbecue_pit_us,Cleveland - Hwy 105,,Cleveland,TX,,US,+1 281-806-7721,https://www.dickeys.com/locations/texas/cleveland/tarkington,Mo-Su 11:00-21:00,Dickey's Barbecue Pit,Q19880747
1694,dickeys_barbecue_pit_us,Cleveland - Houston St,,Cleveland,TX,,US,+1 832-480-5267,https://www.dickeys.com/locations/texas/cleveland/cleveland,Mo-Su 11:00-21:00,Dickey's Barbecue Pit,Q19880747
21311,dollar_general,Dollar General,,Cleveland,TX,,US,+1 346-414-8640,https://www.dollargeneral.com/store-directory/tx/cleveland/21311,Mo-Su 08:00-22:00,Dollar General,Q145168
20793,dollar_general,Dollar General,,Cleveland,TX,,US,+1 346-414-8010,https://www.dollargeneral.com/store-directory/tx/cleveland/20793,Mo-Su 08:00-22:00,Dollar General,Q145168
20271,dollar_general,Dollar General,,Cleveland,TX,,US,+1 346-414-8589,https://www.dollargeneral.com/store-directory/tx/cleveland/20271,Mo-Su 08:00-22:00,Dollar General,Q145168
19413,dollar_general,Dollar General,,Cleveland,TX,,US,+1 832-318-0785,https://www.dollargeneral.com/store-directory/tx/cleveland/19413,Mo-Su 08:00-22:00,Dollar General,Q145168
6561,dominos_pizza_us,Domino's Pizza,,Cleveland,TX,,US,+1 281-659-1000,https://pizza.dominos.com/texas/cleveland/426-w-southline-st-suite-f,Mo-Th 10:30-24:00; Fr-Sa 10:30-01:00; Su 10:30-24:00,Domino's,Q839466
8787,dominos_pizza_us,Domino's Pizza,,Cleveland,TX,,US,+1 832-793-5351,https://pizza.dominos.com/texas/cleveland/1460-county-rd-3549,Mo-Th 09:00-24:00; Fr-Sa 09:00-01:00; Su 09:00-24:00,Domino's,Q839466
https://www.edwardjones.com/us-en/financial-advisor/kari-duggar,edwardjones,Kari B Duggar,,Cleveland,TX,,US,+1 281-761-6687,https://www.edwardjones.com/us-en/financial-advisor/kari-duggar,Mo-Th 07:30-16:00; Fr 08:00-15:00,Edward Jones,Q5343830
E10664,enterprise,Cleveland,,Cleveland,TX,,US,+1 281-593-0950,,,Enterprise Rent-A-Car,Q17085454
200327660,exxonmobil,TX0323,,CLEVELAND,TX,,US,+1 832-480-5092,https://www.exxon.com/en/find-station/mobil-cleveland-tx-tx0323-200327660,24/7,Mobil,Q109676002
32369,family_dollar_us,FAMILY DOLLAR #12369,,Cleveland,TX,,US,+1 346-414-8965,https://www.familydollar.com/locations/tx/cleveland/32369/,Mo-Sa 09:00-22:00; Su 09:00-21:00,Family Dollar,Q5433101
32210,family_dollar_us,FAMILY DOLLAR #12210,,Plum Grove,TX,,US,+1 346-299-1793,https://www.familydollar.com/locations/tx/plum-grove/32210/,Mo-Su 08:00-22:00,Family Dollar,Q5433101
https://local.fedex.com/#25202935,fedex,,,Cleveland,TX,,US,+1 800-463-3339,https://local.fedex.com/en-us/tx/cleveland/i6ypk,,FedEx,Q459477
https://local.fedex.com/#25234670,fedex,,,Cleveland,TX,,US,+1 800-463-3339,https://local.fedex.com/en-us/tx/cleveland/cxojb,,FedEx,Q459477
https://local.fedex.com/#25231401,fedex,,,Cleveland,TX,,US,+1 800-463-3339,https://local.fedex.com/en-us/tx/cleveland/cxoha,,FedEx,Q459477
https://local.fedex.com/#27759163,fedex,FedEx Authorized ShipCenter,,Cleveland,TX,,US,+1 281-592-7447,https://local.fedex.com/en-us/tx/cleveland/41296,,FedEx,Q459477
2254,first_cash,Cash America Pawn,,Cleveland,TX,,US,+1 281-593-3333,,,Cash America,Q5048636
Motorcraft879USAEnglish,ford,Anderson Ford,,Texas,TX,,US,+1 281-592-2611,,,Ford,Q44294
https://salons.greatclips.com/us/tx/cleveland/429-w-southline-st,greatclips,Great Clips,,Cleveland,TX,,US,+1 832-480-5053,https://salons.greatclips.com/us/tx/cleveland/429-w-southline-st,Mo-Fr 08:00-19:00; Sa 08:00-18:00; Su 09:00-18:00,Great Clips,Q5598967
42810,h_r_block,H&R Block,,Cleveland,TX,,US,+1 281-592-5223,https://www.hrblock.com/local-tax-offices/texas/cleveland/126-truly-plaza/42810/,,H&R Block,Q5627799
https://locations.jackinthebox.com/us/tx/cleveland/419-s-washington-ave,jackinthebox,Jack in the Box,,Cleveland,TX,,US,+1 281-592-9683,https://locations.jackinthebox.com/us/tx/cleveland/419-s-washington-ave,Mo-Su 04:00-04:00,Jack in the Box,Q1538507
https://office.jacksonhewitt.com/#27576423,jackson_hewitt,Jackson Hewitt,,Cleveland,TX,,US,+1 281-375-3275,https://office.jacksonhewitt.com/tax-preparation-services-locations/en/tx/cleveland/831-us-hwy-59-s/50249,Mo-Sa 11:00-19:00; Su 12:00-16:00,Jackson Hewitt,Q6117132
5226,mightyflame,CASA DEL PUEBLO FRUTERIA #6,,CLEVELAND,TX,,US,+1 281-592-6900,,,Mighty Flame,
6616,murphy_usa_us,,,Cleveland,TX,,US,+1 281-432-2560,,Mo-Sa 04:30-00:00; Su 06:00-00:30,Murphy USA,Q19604459
451,ollies_bargain_outlet,Ollie's Bargain Outlet,,Cleveland,TX,,US,+1 281-761-6447,https://www.ollies.us/locations/1711-east-houston-street-cleveland-tx/,Mo-Sa 09:00-21:00; Su 10:00-19:00,Ollie's Bargain Outlet,Q7088304
https://locations.oreillyauto.com/tx/cleveland/check-engine-light-testing-6142.html,oreilly,Your Cleveland O'Reilly Auto Parts Store,,Cleveland,TX,,US,+1 346-799-5987,https://locations.oreillyauto.com/tx/cleveland/check-engine-light-testing-6142.html,Mo-Sa 07:30-22:00; Su 08:00-21:00,O'Reilly Auto Parts,Q7071951
https://locations.oreillyauto.com/tx/cleveland/wiper-installation-6142.html,oreilly,Your Cleveland O'Reilly Auto Parts Store,,Cleveland,TX,,US,+1 346-799-5987,https://locations.oreillyauto.com/tx/cleveland/wiper-installation-6142.html,Mo-Sa 07:30-22:00; Su 08:00-21:00,O'Reilly Auto Parts,Q7071951
https://locations.oreillyauto.com/tx/cleveland/battery-testing-6142.html,oreilly,Your Cleveland O'Reilly Auto Parts Store,,Cleveland,TX,,US,+1 346-799-5987,https://locations.oreillyauto.com/tx/cleveland/battery-testing-6142.html,Mo-Sa 07:30-22:00; Su 08:00-21:00,O'Reilly Auto Parts,Q7071951
https://locations.oreillyauto.com/tx/cleveland/autopartes-6142.html,oreilly,O'Reilly Auto Parts,,Cleveland,TX,,US,+1 346-799-5987,https://locations.oreillyauto.com/tx/cleveland/autopartes-6142.html,Mo-Sa 07:30-22:00; Su 08:00-21:00,O'Reilly Auto Parts,Q7071951
https://locations.oreillyauto.com/tx/cleveland/check-engine-light-testing-504.html,oreilly,Your Cleveland O'Reilly Auto Parts Store,,Cleveland,TX,,US,+1 281-592-8701,https://locations.oreillyauto.com/tx/cleveland/check-engine-light-testing-504.html,Mo-Sa 07:30-22:00; Su 08:00-21:00,O'Reilly Auto Parts,Q7071951
https://locations.oreillyauto.com/tx/cleveland/wiper-installation-504.html,oreilly,Your Cleveland O'Reilly Auto Parts Store,,Cleveland,TX,,US,+1 281-592-8701,https://locations.oreillyauto.com/tx/cleveland/wiper-installation-504.html,Mo-Sa 07:30-22:00; Su 08:00-21:00,O'Reilly Auto Parts,Q7071951
https://locations.oreillyauto.com/tx/cleveland/battery-testing-504.html,oreilly,Your Cleveland O'Reilly Auto Parts Store,,Cleveland,TX,,US,+1 281-592-8701,https://locations.oreillyauto.com/tx/cleveland/battery-testing-504.html,Mo-Sa 07:30-22:00; Su 08:00-21:00,O'Reilly Auto Parts,Q7071951
https://locations.oreillyauto.com/tx/cleveland/autopartes-504.html,oreilly,Tu tienda O'Reilly Auto Parts en Cleveland,,Cleveland,TX,,US,+1 281-592-8701,https://locations.oreillyauto.com/tx/cleveland/autopartes-504.html,Mo-Sa 07:30-22:00; Su 08:00-21:00,O'Reilly Auto Parts,Q7071951
tx_cleveland_7940-b-plum-grove-road,pizza_hut_us,7940-b Plum Grove Road,,Cleveland,TX,,US,+1 936-866-0507,https://locations.pizzahut.com/tx/cleveland/7940-b-plum-grove-road,,Pizza Hut,Q191615
tx_cleveland_502-s-washington-ave,pizza_hut_us,502 S. Washington Ave.,,Cleveland,TX,,US,+1 281-593-1761,https://locations.pizzahut.com/tx/cleveland/502-s-washington-ave,,Pizza Hut,Q191615
tx_cleveland_1017-cr-5270,pizza_hut_us,1017 Cr 5270,,Cleveland,TX,,US,+1 346-447-9621,https://locations.pizzahut.com/tx/cleveland/1017-cr-5270,,Pizza Hut,Q191615
restaurant_83417,popeyes_us_fr,Popeyes,"710 Highway Cleveland, Texas 77327 - USA",Cleveland,TX,,US,+1 281-593-1231,https://www.popeyes.com/store-locator/store/restaurant_83417,Mo-Th 10:00-21:00; Fr-Sa 10:00-22:00; Su 10:00-21:00,Popeyes,Q1330910
potetz-home-center-65428,ppgpaints,POTETZ HOME CENTER,,"Cleveland, ",TX,,US,+1 281-592-8777,https://www.ppgpaints.com/store-locator/us/texas/cleveland-paint-stores/potetz-home-center-65428,,PPG Paints,Q83891559
mccoys-bldg-supply-ctr-098-33526,ppgpaints,MCCOYS BLDG SUPPLY CTR 098,,"Cleveland, ",TX,,US,+1 281-592-2465,https://www.ppgpaints.com/store-locator/us/texas/cleveland-paint-stores/mccoys-bldg-supply-ctr-098-33526,,PPG Paints,Q83891559
https://locations.quiktrip.com/#35924608,quiktrip_us,QuikTrip Store #7947 411 Belcher St,,Cleveland,TX,,US,+1 281-806-7261,https://locations.quiktrip.com/tx/cleveland/411-belcher-st,24/7,QuikTrip,Q7271953
41013,seven_eleven_ca_us,Stripes,,Cleveland,TX,,US,+1 281-432-0733,,,7-Eleven,Q259340
3250,snap_fitness,"Cleveland, TX",1715 E Houston St,Cleveland,TX,,US,+1 281-761-2668,https://www.snapfitness.com/us/gyms/cleveland-tx,24/7,Snap Fitness,Q7547254
https://restaurants.subway.com/#14912034,subway,Subway Gas Station/C-Store,,Cleveland Liberty,TX,,US,+1 281-592-6626,https://restaurants.subway.com/united-states/tx/cleveland/23128-hwy-321-street,Mo-Sa 08:00-23:00; Su 09:00-22:00,Subway,Q244457
https://restaurants.subway.com/#14897378,subway,Subway Eastwood Shopping Center,,Cleveland Liberty,TX,,US,+1 281-659-2500,https://restaurants.subway.com/united-states/tx/cleveland/1709-east-houston-street,Mo-Sa 08:00-22:00; Su 09:00-21:00,Subway,Q244457
https://restaurants.subway.com/#14915927,subway,Subway Durler Cleveland Center,,Cleveland Liberty,TX,,US,+1 281-592-1400,https://restaurants.subway.com/united-states/tx/cleveland/429-w-southline,,Subway,Q244457
0754643500,sunoco_us,Sunoco,,CLEVELAND,TX,,US,+1 281-432-0733,,,Sunoco,Q1423218
https://locations.tacobell.com/#3917088,taco_bell,Taco Bell,,Cleveland,TX,,US,+1 281-593-1305,https://locations.tacobell.com/tx/cleveland/435-w--south-line.html,Mo-Th 09:00-01:00; Fr-Sa 09:00-02:00; Su 09:00-01:00,Taco Bell,Q752941
614F,tmobile_us,W Southline St & S Washington,,Cleveland,TX,,US,+1 346-447-6973,https://www.t-mobile.com/store-locator/tx/cleveland/w-southline-st-s-washington,,T-Mobile,Q3511885
1358329,usps,CLEVELAND,,CLEVELAND,TX,,US,+1 281-592-3951,,Mo-Fr 09:00-17:00; Sa 09:00-12:00,United States Postal Service,Q668687
7732700001,usps_collection_boxes,USPS COLLECTION BOX - BLUE BOX,1213 E HOUSTON ST,CLEVELAND,TX,,US,,,,United States Postal Service,Q668687
7732700004,usps_collection_boxes,USPS COLLECTION BOX - BLUE BOX,610 E HOUSTON ST,CLEVELAND,TX,,US,,,,United States Postal Service,Q668687
7732700006,usps_collection_boxes,USPS COLLECTION BOX - BLUE BOX,300 E CROCKETT ST,CLEVELAND,TX,,US,,,,United States Postal Service,Q668687
7732700007,usps_collection_boxes,USPS COLLECTION BOX - BLUE BOX,100 W CROCKETT ST,CLEVELAND,TX,,US,,,,United States Postal Service,Q668687
7732700008,usps_collection_boxes,USPS COLLECTION BOX - BLUE BOX,146 TRULY PLZ,CLEVELAND,TX,,US,,,,United States Postal Service,Q668687
7732700013,usps_collection_boxes,USPS COLLECTION BOX - PO LOBBY,1213 E HOUSTON ST,CLEVELAND,TX,,US,,,,United States Postal Service,Q668687
7732700009,usps_collection_boxes,USPS COLLECTION BOX - PO LOBBY,1213 E HOUSTON ST,CLEVELAND,TX,,US,,,,United States Postal Service,Q668687
7732700010,usps_collection_boxes,USPS COLLECTION BOX - PO LOBBY,1213 E HOUSTON ST,CLEVELAND,TX,,US,,,,United States Postal Service,Q668687
R00000002177,verizon_us,Cleveland TX,,Cleveland,TX,,US,+1 281-659-6433,https://www.verizon.com/stores/details/texas/cleveland/cleveland-store-289390/,Mo-Sa 10:00-18:00; Su 11:00-18:00,Verizon,Q919641
,visa,,,NEDERLAND,TX,,US,,,,,
,visa,,,CLEVELAND,TX,,US,,,,,
,visa,,,CLEVELAND,TX,,US,,,,,
,visa,,,CLEVELAND,TX,,US,,,,,
,visa,,,CLEVELAND,TX,,US,,,,,
,visa,,,CLEVELAND,TX,,US,,,,,
,visa,,,CLEVELAND,TX,,US,,,,,
,visa,,,CLEVELAND,TX,,US,,,,,
,visa,,,CLEVELAND,TX,,US,,,,,
,visa,,,CLEVELAND,TX,,US,,,,,
,visa,,,CLEVELAND,TX,,US,,,,,
,visa,,,CLEVELAND,TX,,US,,,,,
,visa,,,CLEVELAND,TX,,US,,,,,
,visa,,,CLEVELAND,TX,,US,,,,,
,visa,,,CLEVELAND,TX,,US,,,,,
,visa,,,CLEVELAND,TX,,US,,,,,
,visa,,,CLEVELAND,TX,,US,,,,,
,visa,,,CLEVELAND,TX,,US,,,,,
,visa,,,CLEVELAND,TX,,US,,,,,
,visa,,,CLEVELAND,TX,,US,,,,,
,visa,,,CLEVELAND,TX,,US,,,,,
,visa,,,CLEVELAND,TX,,US,,,,,
,visa,,,CLEVELAND,TX,,US,,,,,
,visa,,,CLEVELAND,TX,,US,,,,,
,visa,,,CLEVELAND,TX,,US,,,,,
,visa,,,CLEVELAND,TX,,US,,,,,
,visa,,,CLEVELAND,TX,,US,,,,,
,visa,,,CLEVELAND,TX,,US,,,,,
,visa,,,CLEVELAND,TX,,US,,,,,
,visa,,,CLEVELAND,TX,,US,,,,,
,visa,,,CLEVELAND,TX,,US,,,,,
,visa,,,CLEVELAND,TX,,US,,,,,
,visa,,,CLEVELAND,TX,,US,,,,,
,visa,,,CLEVELAND,TX,,US,,,,,
,visa,,,CLEVELAND,TX,,US,,,,,
,visa,,,CLEVELAND,TX,,US,,,,,
,visa,,,CLEVELAND,TX,,US,,,,,
,visa,,,CLEVELAND,TX,,US,,,,,
,visa,,,CLEVELAND,TX,,US,,,,,
,visa,,,CLEVELAND,TX,,US,,,,,
,visa,,,CLEVELAND,TX,,US,,,,,
,visa,,,CLEVELAND,TX,,US,,,,,
,visa,,,CLEVELAND,TX,,US,,,,,
,visa,,,CLEVELAND,TX,,US,,,,,
,visa,,,CLEVELAND,TX,,US,,,,,
,visa,,,CLEVELAND,TX,,US,,,,,
,visa,,,CLEVELAND,TX,,US,,,,,
https://www.walgreens.com/locator/walgreens-101+s+washington+ave-cleveland-tx-77327/id=11814,walgreens,Walgreens,,Cleveland,TX,,US,+1 281-592-0491,https://www.walgreens.com/locator/walgreens-101+s+washington+ave-cleveland-tx-77327/id=11814,Mo-Su 07:00-23:00,Walgreens,Q1591889
1408__E__HOUSTON__ST_CLEVELAND_TX_77327,wellsfargo,Wells Fargo,1408 E HOUSTON ST,CLEVELAND,TX,,US,+1 281-592-4626,https://www.wellsfargo.com/locator/bank/1408__E__HOUSTON__ST_CLEVELAND_TX_77327/,Mo-Fr 09:00-17:00,Wells Fargo,Q744149
ca682f6b255e782a3ec48ba8e42d5b15,western_union,DOLLAR GENERAL #21312,,Cleveland,TX,,US,+1 346-414-8640,https://location.westernunion.com/us/tx/cleveland/ca682f6b255e782a3ec48ba8e42d5b15,Mo-Su 08:00-20:00,Western Union,Q861042
204104867f97ccf5de3af63868b45b12,western_union,DOLLAR GENERAL #21311,,Cleveland,TX,,US,+1 346-414-8640,https://location.westernunion.com/us/tx/cleveland/204104867f97ccf5de3af63868b45b12,Mo-Su 08:00-22:00,Western Union,Q861042
4fe0607e1894958b334f3c67229013a7,western_union,WALMART #000249,,Cleveland,TX,,US,+1 281-592-2654,https://location.westernunion.com/us/tx/cleveland/4fe0607e1894958b334f3c67229013a7,Mo-Sa 08:00-20:00; Su 10:00-18:00,Western Union,Q861042
0b427e526ea61aad57a4a2b5f603bfb2,western_union,ADVANCE AMERICA #03022,,Cleveland,TX,,US,+1 281-432-7850,https://location.westernunion.com/us/tx/cleveland/0b427e526ea61aad57a4a2b5f603bfb2,Mo-Fr 10:00-18:00; Sa 10:00-15:00,Western Union,Q861042
6ac432967bfe34515cf3673ca6bfc269,western_union,ORDER EXPRESS- TX120,,Cleveland,TX,,US,+1 832-480-5006,https://location.westernunion.com/us/tx/cleveland/6ac432967bfe34515cf3673ca6bfc269,Mo-Fr 10:00-20:30; Sa-Su 10:00-20:00,Western Union,Q861042
efb0589c03acbf7320794437724d7e88,western_union,ORDER EXPRESS- TX120,,Cleveland,TX,,US,+1 832-480-5006,https://location.westernunion.com/us/tx/cleveland/efb0589c03acbf7320794437724d7e88,Mo-Sa 10:00-19:30; Su 10:00-18:00,Western Union,Q861042
15c986a58c6b804960aa8a8b927f543d,western_union,QUIKTRIP #7947,,Cleveland,TX,,US,+1 210-580-8390,https://location.westernunion.com/us/tx/cleveland/15c986a58c6b804960aa8a8b927f543d,,Western Union,Q861042
https://locations.whataburger.com/tx/cleveland/806-us-59-north-bypass.html,whataburger,Hwy 59 - Cleveland,806 U.S. 59 North Bypass,Cleveland,TX,,US,,https://locations.whataburger.com/tx/cleveland/806-us-59-north-bypass.html,,Whataburger,Q376627
453,world_finance_us,,"1212 E Houston St, Cleveland, TX, 77327",Cleveland,TX,,US,+1 281-432-2800,https://www.loansbyworld.com/branches/branch-453,Mo-Fr 09:00-17:30; Sa 09:00-12:00,World Finance,Q3569971
