Ref,Spider,Name,Address,City,State,Zipcode,Country,Phone,Website,Hours,Brand,WikiData
72008506,moneygram,PBL - #4932 - GAZIPUR - KAPASIA BRANCH,,GAZIPUR,,,BD,+880 1713-072864,,Mo-Th 09:00-18:00; Fr 00:00-24:00; Sa-Su 09:00-18:00,MoneyGram,Q1944412
72065549,moneygram,BANGLADESH KRISHI BANK - #776 - GAZIPUR,,GAZIPUR,,,BD,+880 1730-708389,,24/7,MoneyGram,Q1944412
72065552,moneygram,BANGLADESH KRISHI BANK - #777 - GAZIPUR,,GAZIPUR,,,BD,+880 1730-708396,,24/7,MoneyGram,Q1944412
72065565,moneygram,BANGLADESH KRISHI BANK - #778 - GAZIPUR,,GAZIPUR,,,BD,+880 1730-708382,,24/7,MoneyGram,Q1944412
72065578,moneygram,BANGLADESH KRISHI BANK - #779 - GAZIPUR,,GAZIPUR,,,BD,+880 1730-708392,,24/7,MoneyGram,Q1944412
72065691,moneygram,BANGLADESH KRISHI BANK - #791 - GAZIPUR,,GAZIPUR,,,BD,+880 1730-708390,,24/7,MoneyGram,Q1944412
73694980,moneygram,MUTUAL TRUST BANK LTD - MTB-KAPASIA BRAN,,GAZIPUR,,,BD,0088029209222,,Mo-Th 10:00-16:00; Fr-Sa 00:00-24:00; Su 10:00-16:00,MoneyGram,Q1944412
73995281,moneygram,IFIC BANK - #451240 - KAPASHIA BRANCH-IF,,GAZIPUR,,,BD,+880 9666-716250,,Mo-Th 10:00-18:00; Fr-Sa 00:00-24:00; Su 10:00-17:00,MoneyGram,Q1944412
74021235,moneygram,GLOBAL ISLAMI BANK LIMITED - #BD0010059,,GAZIPUR,,,BD,+880 1736-423640,,Mo-Th 10:00-16:30; Fr-Sa 00:00-24:00; Su 10:00-16:30,MoneyGram,Q1944412
74272929,moneygram,PREMIER BANK - #66177 - KAPASIA-PBL,,GAZIPUR,,,BD,880029208188,,Mo-Th 10:00-18:00; Fr 00:00-24:00; Sa 10:00-13:00; Su 10:00-18:00,MoneyGram,Q1944412
70140107,moneygram,DUTCH-BANGLA BANK LIMITED - GAZIPUR - KA,,GAZIPUR,,,BD,+880 1938-801711,,24/7,MoneyGram,Q1944412
74377730,moneygram,GHAGOTIA UNION DIGITAL CENTER - GAZIPUR,,GAZIPUR,,,BD,+880 1710-904457,,Mo-Th 09:30-17:00; Fr-Sa 00:00-24:00; Su 09:30-17:00,MoneyGram,Q1944412
74436529,moneygram,VAWYAL NARAYANPUR POST E CENTRE - GAZIPU,,GAZIPUR,,,BD,+880 1674-592524,,Mo-Th 09:30-17:00; Fr-Sa 00:00-24:00; Su 09:30-17:00,MoneyGram,Q1944412
74450110,moneygram,EKURIYA DPO BANK ASIA OUTLET - GAZIPUR -,,GAZIPUR,,,BD,+880 1715-898038,,Mo-Th 09:30-17:00; Fr-Sa 00:00-24:00; Su 09:30-17:00,MoneyGram,Q1944412
74443017,moneygram,JBL - #994 - KAPASIA BRANCH,,GAZIPUR,,,BD,+880 1715-026545,,Mo-Th 10:00-18:00; Fr-Sa 00:00-24:00; Su 10:00-18:00,MoneyGram,Q1944412
74480038,moneygram,BHAI BHAI VARIETIES STORE - #3290 - GAZI,,GAZIPUR,,,BD,+880 1716-019375,,Mo-Su 08:00-20:00,MoneyGram,Q1944412
74480672,moneygram,UNIQUE BOOK HOUSE AND MULTIMEDIA CENTER,,GAZIPUR,,,BD,+880 1712-806604,,Mo-Su 08:00-20:00,MoneyGram,Q1944412
74535132,moneygram,BHAI BHAI VARIETIES STORE - #3290 - GAZI,,GAZIPUR,,,BD,+880 1716-019375,,Mo-Su 08:00-20:00,MoneyGram,Q1944412
74689622,moneygram,PUBALI BANK LIMITED - #49321 - GAZIPUR -,,GAZIPUR,,,BD,+880 1329-667473,,Mo-Th 10:00-18:00; Fr-Sa 00:00-24:00; Su 10:00-18:00,MoneyGram,Q1944412
74829547,moneygram,SHOHEL TRADERS - #2897 - GAZIPUR,,GAZIPUR,,,BD,922334496,,Mo-Su 08:00-20:00,MoneyGram,Q1944412
