Ref,Spider,Name,Address,City,State,Zipcode,Country,Phone,Website,Hours,Brand,WikiData
1334,aaa,Muskogee OK,,Muskogee,OK,,US,+1 918-683-0341,,,American Automobile Association,Q463436
https://stores.aldi.us/#4420721,aldi_sud_us,ALDI  436 W. Shawnee Street,,Muskogee,OK,,US,+1 855-955-2534,https://stores.aldi.us/ok/muskogee/436-w-shawnee-street,Mo-Su 09:00-20:00,ALDI,Q41171672
https://locations.arbys.com/ok/muskogee/503-s-32-st.html,arbys_us,"Arby's Fast-Food Drive Through Near You in Muskogee, OK",,Muskogee,OK,,US,+1 918-683-9549,https://locations.arbys.com/ok/muskogee/503-s-32-st.html,Mo-Su 09:30-23:00,Arby's,Q630866
https://locations.arbys.com/ok/muskogee/1901-n-main-st.html,arbys_us,"Arby's Fast-Food Drive Through Near You in Muskogee, OK",,Muskogee,OK,,US,+1 918-687-4341,https://locations.arbys.com/ok/muskogee/1901-n-main-st.html,Mo-Su 09:30-23:30,Arby's,Q630866
15887,asics_us,Hibbett Sports,501 N Main,Muskogee,OK,,US,+1 918-686-8148,,,asics,Q327247
510,autozone_us,AutoZone Auto Parts Muskogee,,Muskogee,OK,,US,+1 918-683-3141,https://www.autozone.com/locations/ok/muskogee/1900-n-main.html,Mo-Sa 07:30-21:00; Su 09:00-20:00,AutoZone,Q4826087
BBW02672,bathandbodyworks_us,RIVER CITY PLAZA,,MUSKOGEE,OK,,US,+1 918-913-3021,,Mo-Sa 10:00-20:00; Su 11:00-18:00,Bath & Body Works,Q810773
https://stores.bestbuy.com/ok/muskogee/900-w-shawnee-st-2511.html,bestbuy,Best Buy Muskogee,,Muskogee,OK,,US,,https://stores.bestbuy.com/ok/muskogee/900-w-shawnee-st-2511.html,,Best Buy,Q533415
87153,bluerhino,Pilot Travel #259,,Muskogee,OK,,US,+1 918-686-7856,,,Blue Rhino,Q65681213
211804,bluerhino,CASEY'S GENERAL STORE #4235,,Muskogee,OK,,US,+1 918-682-2681,,,Blue Rhino,Q65681213
155875,bluerhino,Walgreens #10223,,Muskogee,OK,,US,+1 918-687-1319,,,Blue Rhino,Q65681213
211802,bluerhino,CASEY'S GENERAL STORE #4233,,Muskogee,OK,,US,+1 918-683-1692,,,Blue Rhino,Q65681213
200789,bluerhino,Murphy's #7736,,Muskogee,OK,,US,+1 918-684-1793,,,Blue Rhino,Q65681213
228341,bluerhino,Bomgaar's #161,,Muskogee,OK,,US,+1 918-687-6500,,,Blue Rhino,Q65681213
https://child-care-preschool.brighthorizons.com/OK/Muskogee/saintfrancis,brighthorizons,Saint Francis Child Development Center ,,Muskogee,OK,,US,+1 918-684-2448,https://child-care-preschool.brighthorizons.com/ok/muskogee/saintfrancis,Mo-Fr 05:45-19:30,Bright Horizons,Q4967421
https://local.buckle.com/ok/muskogee/clothing-54.html,buckle_us,Muskogee Men’s & Women’s Clothing,,Muskogee,OK,,US,+1 918-687-3784,https://local.buckle.com/ok/muskogee/clothing-54.html,Mo-Sa 10:00-20:00; Su 11:00-18:00,Buckle,Q4983306
3062,bueno,Taco Bueno - 3062,"301 W Shawnee,  , Muskogee, OK, 74401, US",Muskogee,OK,,US,+1 918-683-0460,,Mo-Su 10:30-22:00,Taco Bueno,Q7673958
3510,buffalo_wild_wings_us,"Muskogee, OK",,Muskogee,OK,,US,+1 918-682-9464,https://www.buffalowildwings.com/locations/us/ok/muskogee/1130-west-shawnee-street/sports-bar-713,Mo-Th 11:00-23:00; Fr-Sa 11:00-24:00; Su 11:00-23:00,Buffalo Wild Wings,Q509255
https://stores.catofashions.com/#26560759,cato_us,Cato,,,OK,,US,+1 918-681-4339,https://stores.catofashions.com/ok/muskogee/924-west-shawnee,Mo-Sa 10:00-20:00; Su 13:00-18:00,Cato,Q16956136
05288,chevrolet,JAY HODGE CHEVROLET,,MUSKOGEE,OK,,US,+1 918-683-0311,https://www.jayhodgechevroletmuskogee.com,Mo-Sa 09:00-19:00,Chevrolet,Q29570
001.005.1157,chilis,Muskogee,,Muskogee,OK,,US,+1 918-682-1652,https://www.chilis.com/locations/us/oklahoma/muskogee/muskogee/,Mo-Th 10:45-21:30; Fr-Sa 10:45-22:00; Su 10:45-21:30,Chili's,Q1072948
419-e-okmulgee-street,churchs_chicken,E. Okmulgee Street,,Muskogee,OK,,US,+1 918-683-3981,https://locations.churchs.com/ok/muskogee/419-e-okmulgee-street,,Church's Chicken,Q1089932
86213,citi,ATM Walgreens,,Muskogee,OK,,US,,,,Citibank,Q857063
https://www.chghospitals.com/location/cornerstone-specialty-hospitals-muskogee/,cornerstone_healthcare_group_us,Cornerstone Specialty Hospitals Muskogee,351 South 40th Street,Muskogee,OK,,US,+1 918-682-6161,https://www.chghospitals.com/location/cornerstone-specialty-hospitals-muskogee/,,Cornerstone Healthcare Group,
,credit_union_us,Muskogee FCU,,Muskogee,OK,,US,+1 918-683-3460,,Mo-Fr 09:00-04:30,,
,credit_union_us,TTCU Federal Credit Union,,Muskogee,OK,,US,+1 918-749-8828,,Mo-Fr 09:00-06:00,,
70161299,cricket_wireless,Cricket Wireless Authorized Retailer,,Muskogee,OK,,US,+1 918-577-6064,https://www.cricketwireless.com/stores/ll/US/OK/Muskogee/3616-W-Okmulgee-St,Mo-Sa 10:00-19:00; Su 12:00-18:00,Cricket Wireless,Q5184987
vba_351,department_veterans_affairs,Muskogee VA Regional Benefit Office,,Muskogee,OK,,US,+1 800-827-1000,https://www.benefits.va.gov/muskogee/,,Department Veterans Affairs,Q592576
932,dollartree,DollarTree,,Muskogee,OK,,US,+1 918-709-7203,,Mo-Sa 09:00-21:00; Su 09:00-20:00,Dollar Tree,Q5289230
25769,dollar_general,Dollar General,,Muskogee,OK,,US,+1 539-239-0680,https://www.dollargeneral.com/store-directory/ok/muskogee/25769,Mo-Su 08:00-22:00,Dollar General,Q145168
https://www.edwardjones.com/us-en/financial-advisor/melissa-goodman-nissley,edwardjones,Melissa Goodman-Nissley,,Muskogee,OK,,US,+1 918-687-4786,https://www.edwardjones.com/us-en/financial-advisor/melissa-goodman-nissley,Mo 08:30-19:30; Tu 08:30-16:30; We 08:30-19:30; Th 08:30-16:30; Fr 08:30-15:30,Edward Jones,Q5343830
E15154,enterprise,Muskogee,,Muskogee,OK,,US,+1 918-682-3737,,,Enterprise Rent-A-Car,Q17085454
25200,family_dollar_us,FAMILY DOLLAR #5200,,Muskogee,OK,,US,+1 918-709-7237,https://www.familydollar.com/locations/ok/muskogee/25200/,Mo-Su 09:00-21:00,Family Dollar,Q5433101
2605,first_cash,Cash America Pawn,,Muskogee,OK,,US,+1 918-683-2646,,,Cash America,Q5048636
https://locations.fivebelow.com/ok/muskogee/687-w-shawnee-bypass,five_below,Five Below Three Rivers Plaza,,Muskogee,OK,,US,,https://locations.fivebelow.com/ok/muskogee/687-w-shawnee-bypass,Mo-Sa 10:00-20:00; Su 11:00-18:00,Five Below,Q5455836
https://branches.fleetpride.com/ok/muskogee/truckparts-msk.html,fleet_pride_us,FleetPride,,Muskogee,OK,,US,+1 918-682-8281,https://branches.fleetpride.com/ok/muskogee/truckparts-msk.html,Mo-Fr 08:00-17:00; Sa 08:00-12:00,FleetPride,Q121436710
Motorcraft1932USAEnglish,ford,"James Hodge Ford Lincoln, Inc.",,Oklahoma,OK,,US,+1 918-682-1345,,,Ford,Q44294
https://www.ford.com/dealerships/dealer-details/ok/muskogee/james-hodge-ford-muskogee/,ford_dealers_us,James Hodge Ford Muskogee,,Muskogee,OK,,US,+1 833-888-3822,https://www.ford.com/dealerships/dealer-details/ok/muskogee/james-hodge-ford-muskogee/,Mo-Sa 08:30-19:00,Ford Motor Company,Q44294
9016,fresenius_kidney_care_us,Fresenius Kidney Care - Muskogee,,Muskogee,OK,,US,+1 800-881-5101,https://www.freseniuskidneycare.com/dialysis-centers/oklahoma/9016,Mo-Sa 07:00-17:00,,
3109,gamestop_us,River City Plaza,,Muskogee,OK,,US,+1 918-682-8256,https://www.gamestop.com/search/?store=3109,Mo-Th 12:00-20:00; Fr-Sa 11:00-21:00; Su 11:00-20:00,GameStop,Q202210
https://stores.gnc.com/#24058836,gnc,GNC Three Rivers Plaza,,,OK,,US,+1 918-681-4537,https://stores.gnc.com/all-stores-oklahoma/muskogee/805-w-shawnee-bypass,Mo-Sa 10:00-19:00; Su 11:00-18:00,GNC,Q4808595
https://www.goldencorral.com/locations/location-detail/641/golden-corral-west-shawnee-ave/,golden_corral,"Golden Corral 641, Muskogee, OK",,Muskogee,OK,,US,+1 918-682-4660,https://www.goldencorral.com/locations/location-detail/641/golden-corral-west-shawnee-ave/,,Golden Corral,Q4039560
msgokhx-hampton-muskogee,hilton,Hampton Inn Muskogee,,,OK,,US,+1 918-682-2587,https://www.hilton.com/ar/hotels/msgokhx-hampton-muskogee/,,Hampton by Hilton,Q5646230
19156,h_r_block,H&R Block,,Muskogee,OK,,US,+1 918-687-4012,https://www.hrblock.com/local-tax-offices/oklahoma/muskogee/3333-arline/19156/,,H&R Block,Q5627799
ok_muskogee_breakfast-1600-north-32nd-st-3228,ihop,IHOP Breakfast Restaurants Near You at 1600 North 32Nd St,,Muskogee,OK,,US,+1 918-683-0500,https://restaurants.ihop.com/en-us/ok/muskogee/breakfast-1600-north-32nd-st-3228,,IHOP,Q1185675
https://office.jacksonhewitt.com/#27576048,jackson_hewitt,Jackson Hewitt,,Muskogee,OK,,US,+1 918-686-6800,https://office.jacksonhewitt.com/tax-preparation-services-locations/en/ok/muskogee/1000-w-shawnee-street/50130,Mo-Th 11:00-19:00; Fr 11:00-18:00; Sa 10:00-18:00; Su 13:00-17:00,Jackson Hewitt,Q6117132
https://locations.kfc.com/#11247007,kfc,Chicken Nuggets Near Muskogee,,Muskogee,OK,,US,,https://locations.kfc.com/ok/muskogee/2006-north-main/chickennugget,Mo-Su 10:00-24:00,KFC,Q524757
1210,loves,Site 166,,Muskogee,OK,,US,+1 918-683-4821,,,Love's,Q1872496
TULMK,marriott,Fairfield Inn & Suites Muskogee,,Muskogee,OK,,US,+1 918-683-6700,https://www.marriott.com/TULMK,,Fairfield by Marriott,Q5430314
17634,mattress_firm_us,Mattress Firm Muskogee,,Muskogee,OK,,US,+1 918-770-9205,https://www.mattressfirm.com/en-us/stores/ok/muskogee/005014/,,Mattress Firm,Q6791878
https://locations.maurices.com/#11688732,maurices,maurices Three Rivers Plaza,,Muskogee,OK,,US,+1 918-687-9556,https://locations.maurices.com/us/ok/muskogee/715-w-shawnee-bypass,Mo-Sa 10:00-20:00; Su 12:00-18:00,maurices,Q6793571
605-w-shawnee-bypass,mcalisters_deli,McAlister's Deli Muskogee ,,Muskogee,OK,,US,+1 918-816-4003,https://locations.mcalistersdeli.com/ok/muskogee/605-w-shawnee-bypass,Mo-Su 10:00-21:00,McAlister's Deli,Q17020829
7736,murphy_usa_us,,,Muskogee,OK,,US,+1 918-684-1793,,Mo-Sa 05:00-00:00; Su 06:00-00:00,Murphy USA,Q19604459
NNA5379,nissan_europe,NISSAN OF MUSKOGEE,,MUSKOGEE,OK,,US,+1 918-683-6605,https://www.nissanofmuskogee.com,Mo-Fr 08:30-20:00; Sa 08:30-19:00,Nissan,Q20165
112958,pandaexpress,Shawnee & 11th,,Muskogee,OK,,US,+1 918-682-2009,https://www.pandaexpress.com/locations/ok/muskogee/1102-w-shawnee,Mo-Su 10:00-22:00,Panda Express,Q1358690
0000882973,phillips_66_conoco_76,MUSKOGEE TRAVEL PLAZA,,MUSKOGEE,OK,,US,+1 918-687-3650,,,Phillips 66,Q1656230
259,pilot_flyingj,Pilot Travel Center,,Muskogee,OK,,US,+1 918-686-7856,https://locations.pilotflyingj.com/us/ok/muskogee/3000-north-32nd-street,,Pilot,Q7194412
https://locations.quiktrip.com/#16003876,quiktrip_us,QuikTrip Store #72 1919 N 32nd St,,Muskogee,OK,,US,+1 918-681-7507,https://locations.quiktrip.com/ok/muskogee/1919-n-32nd-st,24/7,QuikTrip,Q7271953
1485862,ribcrib_us,Muskogee,"150 West Shawnee, Muskogee, OK, 74401",Muskogee,OK,,US,+1 918-686-0991,https://ribcrib.com/locations/?location=muskogee,Mo-Th 11:00-21:00; Fr-Sa 11:00-22:00; Su 11:00-21:00,RibCrib,Q7322197
16847571,ribcrib_us,Muskogee,"150 West Shawnee, Muskogee, OK, 74401",Muskogee,OK,,US,+1 918-686-0991,https://ribcrib.com/locations/?location=muskogee-muskogee-ok,Mo-Th 11:00-21:00; Fr-Sa 11:00-22:00; Su 11:00-21:00,RibCrib,Q7322197
1106,ross_dress_for_less_us,Muskogee,,Muskogee,OK,,US,+1 918-687-1444,,Mo-Th 10:00-21:00; Fr-Sa 09:30-22:00; Su 10:00-21:00,Ross Dress for Less,Q3442791
908-w-shawnee-street,rue21,River City Plaza Shopping Center,,Muskogee,OK,,US,,https://stores.rue21.com/ok/muskogee/908-w-shawnee-street.html,Mo-Th 12:00-19:00; Fr-Sa 11:00-20:00; Su 12:00-18:00,rue21,Q7377762
https://stations.sinclairoil.com/ok/muskogee/550-n-main-st,sinclair_us,Sinclair Gas Station,,Muskogee,OK,,US,+1 918-686-8353,https://stations.sinclairoil.com/ok/muskogee/550-n-main-st,Mo-Fr 06:00-24:00; Sa 08:00-24:00; Su 08:00-23:00,Sinclair,Q1290900
https://restaurants.subway.com/#14895562,subway,Subway,,Muskogee Muskogee,OK,,US,+1 918-687-1611,https://restaurants.subway.com/united-states/ok/muskogee/719-south-32nd-street,Mo-Su 09:00-22:00,Subway,Q244457
https://restaurants.subway.com/#14909806,subway,Subway Pilot Travel Center #259,,Muskogee Muskogee,OK,,US,+1 918-686-0590,https://restaurants.subway.com/united-states/ok/muskogee/3006-north-32nd-street,Mo-Su 09:00-22:00,Subway,Q244457
https://restaurants.subway.com/#14902189,subway,Subway Arrowhead Mall,,Muskogee Muskogee,OK,,US,+1 918-687-3870,https://restaurants.subway.com/united-states/ok/muskogee/501-n-main-street,Mo-We 10:00-20:00; Th 10:00-21:00; Fr-Sa 10:00-20:00; Su 11:00-18:00,Subway,Q244457
80907,supercuts,River City Center,948 W Shawnee Rd,Muskogee,OK,,US,+1 918-683-5235,https://www.supercuts.com/checkin/80907,Mo-Su 09:00-18:00,Supercuts,Q7643239
https://locations.tacobell.com/#8486716,taco_bell,Taco Bell,,Muskogee,OK,,US,+1 918-684-2014,https://locations.tacobell.com/ok/muskogee/3200-west-okmulgee-ave.html,Mo-Th 08:00-03:00; Fr-Sa 08:00-04:00; Su 08:00-03:00,Taco Bell,Q752941
https://locations.tacobell.com/#23789465,taco_bell,Taco Bell,,Muskogee,OK,,US,+1 918-608-8842,https://locations.tacobell.com/ok/muskogee/1000-west-shawnee-street.html,,Taco Bell,Q752941
081444,tjx,Muskogee,713 W Shawnee Ave,Muskogee,OK,,US,+1 918-683-1619,,Mo-Sa 09:30-21:30; Su 10:00-20:00,TJ Maxx,Q10860683
8887,tmobile_us,6th & Shawnee Pkwy,,Muskogee,OK,,US,+1 918-682-3210,https://www.t-mobile.com/store-locator/ok/muskogee/6th-shawnee-pkwy,,T-Mobile,Q3511885
7383,upsstore,Muskogee,1906 N Main St,Muskogee,OK,,US,,https://locations.theupsstore.com/ok/muskogee/1906-n-main-st,,UPS Store,Q7771029
1374302,usps,MUSKOGEE,,MUSKOGEE,OK,,US,+1 918-686-5246,,Mo-Fr 08:30-17:00; Sa 08:30-12:00,United States Postal Service,Q668687
7440100018,usps_collection_boxes,USPS COLLECTION BOX - BLUE BOX,350 S 40TH ST,MUSKOGEE,OK,,US,,,,United States Postal Service,Q668687
7440100069,usps_collection_boxes,USPS COLLECTION BOX - BLUE BOX,727 S 32ND ST,MUSKOGEE,OK,,US,,,,United States Postal Service,Q668687
7440100074,usps_collection_boxes,USPS COLLECTION BOX - BLUE BOX,1011 HONOR HEIGHTS DR,MUSKOGEE,OK,,US,,,,United States Postal Service,Q668687
7440100036,usps_collection_boxes,USPS COLLECTION BOX - BLUE BOX,3316 W OKMULGEE ST,MUSKOGEE,OK,,US,,,,United States Postal Service,Q668687
7440100006,usps_collection_boxes,USPS COLLECTION BOX - BLUE BOX,125 S MAIN ST,MUSKOGEE,OK,,US,,,,United States Postal Service,Q668687
7440100061,usps_collection_boxes,USPS COLLECTION BOX - BLUE BOX,220 STATE ST,MUSKOGEE,OK,,US,,,,United States Postal Service,Q668687
7440100071,usps_collection_boxes,USPS COLLECTION BOX - BLUE BOX,300 W BROADWAY ST,MUSKOGEE,OK,,US,,,,United States Postal Service,Q668687
7440100049,usps_collection_boxes,USPS COLLECTION BOX - BLUE BOX,505 N MAIN ST,MUSKOGEE,OK,,US,,,,United States Postal Service,Q668687
7440100059,usps_collection_boxes,USPS COLLECTION BOX - PO LOBBY,505 N MAIN ST,MUSKOGEE,OK,,US,,,,United States Postal Service,Q668687
7440100077,usps_collection_boxes,USPS COLLECTION BOX - PO LOBBY,505 N MAIN ST,MUSKOGEE,OK,,US,,,,United States Postal Service,Q668687
7440100079,usps_collection_boxes,USPS COLLECTION BOX - BLUE BOX,934 W SHAWNEE ST,MUSKOGEE,OK,,US,,,,United States Postal Service,Q668687
,visa,,,MUSKOGEE,OK,,US,,,,,
,visa,,,MUSKOGEE,OK,,US,,,,,
,visa,,,MUSKOGEE,OK,,US,,,,,
,visa,,,MUSKOGEE,OK,,US,,,,,
,visa,,,MUSKOGEE,OK,,US,,,,,
,visa,,,MUSKOGEE,OK,,US,,,,,
,visa,,,MUSKOGEE,OK,,US,,,,,
,visa,,,MUSKOGEE,OK,,US,,,,,
,visa,,,MUSKOGEE,OK,,US,,,,,
,visa,,,MUSKOGEE,OK,,US,,,,,
,visa,,,MUSKOGEE,OK,,US,,,,,
,visa,,,MUSKOGEE,OK,,US,,,,,
,visa,,,MUSKOGEE,OK,,US,,,,,
,visa,,,MUSKOGEE,OK,,US,,,,,
,visa,,,MUSKOGEE,OK,,US,,,,,
,visa,,,MUSKOGEE,OK,,US,,,,,
,visa,,,MUSKOGEE,OK,,US,,,,,
,visa,,,MUSKOGEE,OK,,US,,,,,
,visa,,,MUSKOGEE,OK,,US,,,,,
,visa,,,MUSKOGEE,OK,,US,,,,,
,visa,,,MUSKOGEE,OK,,US,,,,,
,visa,,,MUSKOGEE,OK,,US,,,,,
,visa,,,MUSKOGEE,OK,,US,,,,,
,visa,,,MUSKOGEE,OK,,US,,,,,
,visa,,,MUSKOGEE,OK,,US,,,,,
,visa,,,MUSKOGEE,OK,,US,,,,,
,visa,,,MUSKOGEE,OK,,US,,,,,
,visa,,,MUSKOGEE,OK,,US,,,,,
,visa,,,MUSKOGEE,OK,,US,,,,,
,visa,,,MUSKOGEE,OK,,US,,,,,
,visa,,,MUSKOGEE,OK,,US,,,,,
,visa,,,MUSKOGEE,OK,,US,,,,,
,visa,,,MUSKOGEE,OK,,US,,,,,
,visa,,,MUSKOGEE,OK,,US,,,,,
,visa,,,MUSKOGEE,OK,,US,,,,,
,visa,,,MUSKOGEE,OK,,US,,,,,
,visa,,,MUSKOGEE,OK,,US,,,,,
,visa,,,MUSKOGEE,OK,,US,,,,,
,visa,,,MUSKOGEE,OK,,US,,,,,
,visa,,,MUSKOGEE,OK,,US,,,,,
,visa,,,MUSKOGEE,OK,,US,,,,,
,visa,,,MUSKOGEE,OK,,US,,,,,
,visa,,,MUSKOGEE,OK,,US,,,,,
,visa,,,MUSKOGEE,OK,,US,,,,,
,visa,,,MUSKOGEE,OK,,US,,,,,
,visa,,,MUSKOGEE,OK,,US,,,,,
,visa,,,MUSKOGEE,OK,,US,,,,,
,visa,,,MUSKOGEE,OK,,US,,,,,
,visa,,,MUSKOGEE,OK,,US,,,,,
,visa,,,MUSKOGEE,OK,,US,,,,,
,visa,,,MUSKOGEE,OK,,US,,,,,
,visa,,,MUSKOGEE,OK,,US,,,,,
,visa,,,MUSKOGEE,OK,,US,,,,,
,visa,,,MUSKOGEE,OK,,US,,,,,
,visa,,,MUSKOGEE,OK,,US,,,,,
,visa,,,MUSKOGEE,OK,,US,,,,,
,visa,,,MUSKOGEE,OK,,US,,,,,
https://www.walgreens.com/locator/walgreens-100+n+32nd+st-muskogee-ok-74401/id=10223,walgreens,Walgreens,,Muskogee,OK,,US,+1 918-687-1319,https://www.walgreens.com/locator/walgreens-100+n+32nd+st-muskogee-ok-74401/id=10223,Mo-Sa 08:00-22:00; Su 09:00-21:00,Walgreens,Q1591889
https://locations.wendys.com/#9254312,wendys,"Wendy's S. 32nd Street in Muskogee, OK",,Muskogee,OK,,US,+1 918-684-3269,https://locations.wendys.com/united-states/ok/muskogee/331-s-32nd-street,"Mo-Su 06:30-10:30,09:00-22:00",Wendy's,Q550258
b4a7c1811975e9404c50d3b016cd924e,western_union,ADVANCE AMERICA #03530,,Muskogee,OK,,US,+1 918-682-8033,https://location.westernunion.com/us/ok/muskogee/b4a7c1811975e9404c50d3b016cd924e,Mo-Fr 10:00-18:00; Sa 10:00-13:00,Western Union,Q861042
8dd1c18808c57fa6aabe88a390b61ad1,western_union,E-Z MART #4360,,Muskogee,OK,,US,+1 918-683-8089,https://location.westernunion.com/us/ok/muskogee/8dd1c18808c57fa6aabe88a390b61ad1,Mo-Su 08:00-20:00,Western Union,Q861042
04414f32d093e8b69f1fb017ff2f2efd,western_union,WALMART #000130,,Muskogee,OK,,US,+1 918-687-0058,https://location.westernunion.com/us/ok/muskogee/04414f32d093e8b69f1fb017ff2f2efd,Mo-Sa 08:00-20:00; Su 10:00-18:00,Western Union,Q861042
https://locations.whataburger.com/ok/muskogee/3113-west-shawnee-bypass.html,whataburger,Muskogee,3113 West Shawnee Bypass,Muskogee,OK,,US,,https://locations.whataburger.com/ok/muskogee/3113-west-shawnee-bypass.html,,Whataburger,Q376627
600,world_finance_us,,"300 W. Shawnee St. Unit A, Muskogee, OK, 74401",Muskogee,OK,,US,+1 918-687-8163,https://www.loansbyworld.com/branches/branch-600,Mo-Fr 09:00-17:30; Sa 09:00-12:00,World Finance,Q3569971
