Ref,Spider,Name,Address,City,State,Zipcode,Country,Phone,Website,Hours,Brand,WikiData
223746,bluerhino,Consumers Cooperative Osseo,,Osseo,WI,,US,+1 715-304-3777,,,Blue Rhino,Q65681213
164528,bluerhino,Family Dollar #07443,,OSSEO,WI,,US,+1 715-318-3327,,,Blue Rhino,Q65681213
182319,bluerhino,Speedway #4523,,Osseo,WI,,US,+1 715-597-3222,,,Blue Rhino,Q65681213
207622,bluerhino,Stockman Farm Supply #001232,,Osseo,WI,,US,+1 715-597-2805,,,Blue Rhino,Q65681213
95774107386375475800100000000000,bp,BP,,Osseo,WI,,US,+1 715-597-2820,,24/7,BP,Q152057
75214689196135475800100000000000,bp,BP,,Osseo,WI,,US,+1 715-597-2353,,24/7,BP,Q152057
13041,cenex,Consumers Cooperative Oil Co,,Osseo,WI,,US,+1 715-597-6146,,24/7,Cenex,Q62127191
18045,chevrolet,"NELS GUNDERSON CHEVROLET, INC.",,Osseo,WI,,US,+1 715-597-3180,https://www.nelsgundersonchevrolet.com,Mo-Th 08:00-19:00; Fr 08:00-18:00; Sa 08:00-15:00,Chevrolet,Q29570
44631,citi,ATM CITIZENS COMMUNITY FED29,,Osseo,WI,,US,,,,Citibank,Q857063
63209,citi,ATM Kwik Trip #756-2,,Osseo,WI,,US,,,,Citibank,Q857063
63208,citi,ATM Kwik Trip #756-1,,Osseo,WI,,US,,,,Citibank,Q857063
78506,citi,ATM Speedway,,Osseo,WI,,US,,,,Citibank,Q857063
Motorcraft4859USAEnglish,ford,"Osseo Ford Sales & Service, Inc.",,Wisconsin,WI,,US,+1 715-597-3185,,,Ford,Q44294
https://www.ford.com/dealerships/dealer-details/wi/osseo/osseo-ford-sales-&-service-inc/,ford_dealers_us,"Osseo Ford Sales & Service, Inc.",,Osseo,WI,,US,+1 715-533-7265,https://www.ford.com/dealerships/dealer-details/wi/osseo/osseo-ford-sales-&-service-inc/,Mo-Th 08:00-19:00; Fr 08:00-18:00; Sa 08:00-15:00,Ford Motor Company,Q44294
47242,h_r_block,H&R Block,,Osseo,WI,,US,+1 715-597-6012,https://www.hrblock.com/local-tax-offices/wisconsin/osseo/50618-harmony-st/47242/,,H&R Block,Q5627799
https://restaurants.subway.com/#14901364,subway,Subway,,Osseo Trempealeau,WI,,US,+1 715-597-2796,https://restaurants.subway.com/united-states/wi/osseo/12936-10th-st,Mo-Fr 07:30-21:30; Sa 09:00-21:30; Su 08:30-20:30,Subway,Q244457
583765,taco_johns_us,Osseo,"12910 Cox Lane, Osseo WI 54758",Osseo,WI,,US,+1 715-597-6819,https://locations.tacojohns.com/wi/osseo/12910-cox-lane/,Mo-Su 07:00-22:00,Taco John's,Q7673962
0431,travelcenters_of_america_us,TA Express Osseo #0431,,Osseo,WI,,US,+1 715-597-2353,https://www.ta-petro.com/location/wi/ta-express-osseo/,,TA Express,Q7835892
047232,uhaul,FG Auto Sales,50712 Oak Grove Rd,Osseo,WI,,US,+1 715-709-5025,,Mo-Fr 00:00-16:00; Sa 00:00-15:00,U-Haul,Q7862902
021234,uhaul,Osseo Salvage LLC,W15591 US Hwy 10,Osseo,WI,,US,+1 715-597-2114,,Mo-Fr 00:00-17:00; Sa 00:00-14:00,U-Haul,Q7862902
1376381,usps,OSSEO,,OSSEO,WI,,US,+1 715-597-2018,,"Mo-Fr 08:30-12:30,13:30-16:30; Sa 09:00-10:30",United States Postal Service,Q668687
5475800000,usps_collection_boxes,USPS COLLECTION BOX - BLUE BOX,50669 HARMONY ST,OSSEO,WI,,US,,,,United States Postal Service,Q668687
5475800002,usps_collection_boxes,USPS COLLECTION BOX - PO LOBBY,50669 HARMONY ST,OSSEO,WI,,US,,,,United States Postal Service,Q668687
5475800003,usps_collection_boxes,USPS COLLECTION BOX - PO LOBBY,50669 HARMONY ST,OSSEO,WI,,US,,,,United States Postal Service,Q668687
,visa,,,OSSEO,WI,,US,,,,,
,visa,,,OSSEO,WI,,US,,,,,
,visa,,,OSSEO,WI,,US,,,,,
,visa,,,OSSEO,WI,,US,,,,,
,visa,,,OSSEO,WI,,US,,,,,
,visa,,,OSSEO,WI,,US,,,,,
,visa,,,OSSEO,WI,,US,,,,,
,visa,,,OSSEO,WI,,US,,,,,
,visa,,,OSSEO,WI,,US,,,,,
,visa,,,OSSEO,WI,,US,,,,,
,visa,,,OSSEO,WI,,US,,,,,
,visa,,,OSSEO,WI,,US,,,,,
,visa,,,OSSEO,WI,,US,,,,,
,visa,,,OSSEO,WI,,US,,,,,
,visa,,,OSSEO,WI,,US,,,,,
,visa,,,OSSEO,WI,,US,,,,,
,visa,,,OSSEO,WI,,US,,,,,
,visa,,,OSSEO,WI,,US,,,,,
,visa,,,EAU CLAIRE,WI,,US,,,,,
50645__RADCLIFFE__ST_OSSEO_WI_54758,wellsfargo,,50645 RADCLIFFE ST,OSSEO,WI,,US,+1 800-869-3557,https://www.wellsfargo.com/locator/bank/50645__RADCLIFFE__ST_OSSEO_WI_54758/,,Wells Fargo,Q744149
