Ref,Spider,Name,Address,City,State,Zipcode,Country,Phone,Website,Hours,Brand,WikiData
200959,bluerhino,Dollar General #22014,,New Auburn,WI,,US,+1 920-306-5073,,,Blue Rhino,Q65681213
118849,bp,BP,,New Auburn,WI,,US,+1 715-237-2585,,,BP,Q152057
10536,cenex,River Country Co-op,,New Auburn,WI,,US,+1 715-967-2171,,,Cenex,Q62127191
60838,citi,ATM Kings Inn,,New Auburn,WI,,US,,,,Citibank,Q857063
83636,citi,ATM The Quart House,,New Auburn,WI,,US,,,,Citibank,Q857063
75552,citi,ATM Security Bank New Auburn,,New Auburn,WI,,US,,,,Citibank,Q857063
1374627,usps,NEW AUBURN,,NEW AUBURN,WI,,US,+1 715-237-2213,,"Mo-Fr 07:30-12:00,12:30-14:00; Sa 09:00-10:00",United States Postal Service,Q668687
5475700000,usps_collection_boxes,USPS COLLECTION BOX - BLUE BOX,120 E ELM ST,NEW AUBURN,WI,,US,,,,United States Postal Service,Q668687
5475700003,usps_collection_boxes,USPS COLLECTION BOX - PO LOBBY,120 E ELM ST,NEW AUBURN,WI,,US,,,,United States Postal Service,Q668687
5475700005,usps_collection_boxes,USPS COLLECTION BOX - PO LOBBY,120 E ELM ST,NEW AUBURN,WI,,US,,,,United States Postal Service,Q668687
,visa,,,NEW AUBURN,WI,,US,,,,,
,visa,,,NEW AUBURN,WI,,US,,,,,
,visa,,,NEW AUBURN,WI,,US,,,,,
,visa,,,NEW AUBURN,WI,,US,,,,,
,visa,,,NEW AUBURN,WI,,US,,,,,
,visa,,,NEW AUBURN,WI,,US,,,,,
,visa,,,NEW AUBURN,WI,,US,,,,,
,visa,,,"NEW AUBURN,",WI,,US,,,,,
b92c82c8cfb1f7447597dc3e963262ee,western_union,DOLLAR GENERAL #22014,,New Auburn,WI,,US,+1 920-306-5073,https://location.westernunion.com/us/wi/new-auburn/b92c82c8cfb1f7447597dc3e963262ee,Mo-Su 08:00-22:00,Western Union,Q861042
camp-manitou-ymca,ymca,Camp Manitou YMCA,27960 137th St.,New Auburn,WI,,US,+1 715-839-4607,https://www.ymca.org/locations/camp-manitou-ymca,,YMCA,Q157169
