Ref,Spider,Name,Address,City,State,Zipcode,Country,Phone,Website,Hours,Brand,WikiData
https://stores.advanceautoparts.com/oh/toledo/4920-monroe-st,advance_auto_parts_us,Advance Auto Parts,,Toledo,OH,,US,+1 419-930-8017,https://stores.advanceautoparts.com/oh/toledo/4920-monroe-st,Mo-Sa 07:30-21:00; Su 09:00-20:00,Advance Auto Parts,Q4686051
https://storelocations.ae.com/#1726403,american_eagle_outfitters,American Eagle & Aerie Store Franklin Park,,Toledo,OH,,US,+1 419-474-2662,https://storelocations.ae.com/us/oh/toledo/5001-monroe-street.html,Mo-Th 11:00-20:00; Fr-Sa 10:00-21:00; Su 11:00-18:00,American Eagle & Aerie Store,Q2842931
R299,apple,Apple Franklin Park Mall,,Toledo,OH,,US,+1 419-473-4250,https://www.apple.com/retail/franklinparkmall,Mo-Th 10:00-20:00; Fr-Sa 10:00-21:00; Su 11:00-18:00,Apple,Q421253
https://restaurants.applebees.com/en-us/oh/toledo/4702-monroe-street-91049,applebees,Connect with this Applebee's,,Toledo,OH,,US,+1 419-475-2245,https://restaurants.applebees.com/en-us/oh/toledo/4702-monroe-street-91049,Mo-Su 11:00-24:00,Applebees,Q621532
11793,asics_us,DICK'S Sporting Goods  - Toledo ,5001 Monroe St,Toledo,OH,,US,+1 419-474-0170,,Mo-Sa 09:00-21:00; Su 10:00-19:00,asics,Q327247
62228,asics_us,Lady Foot Locker,5001 Monroe St,Toledo,OH,,US,+1 419-471-1473,,,asics,Q327247
62336,asics_us,Finish Line,5001 Monroe St,Toledo,OH,,US,+1 419-472-8045,,,asics,Q327247
1786,att_us,MONROE STREET STORE,,Toledo,OH,,US,+1 419-473-9756,https://www.att.com/stores/ohio/toledo/1786,Mo-Th 10:00-20:00; Fr-Sa 09:00-20:00; Su 11:00-18:00,AT&T,Q298594
https://locations.auntieannes.com/#5977,auntie_annes,Auntie Anne's Franklin Park II,,Toledo,OH,,US,+1 567-970-7044,https://locations.auntieannes.com/oh/toledo/5001-monroe-street,Mo-Th 11:00-20:00; Fr-Sa 10:00-21:00; Su 11:00-18:00,Auntie Anne's,Q4822010
https://locations.auntieannes.com/#5917,auntie_annes,Auntie Anne's Westfield Franklin Park,,Toledo,OH,,US,+1 419-472-8866,https://locations.auntieannes.com/oh/toledo/5001-monroe-str,Mo-Th 11:00-20:00; Fr-Sa 10:00-21:00; Su 11:00-18:00,Auntie Anne's,Q4822010
https://locations.baskinrobbins.com/oh/toledo/4015-secor-rd-360449-br,baskin_robbins_us,Baskin-Robbins™,,Toledo,OH,,US,+1 419-472-1000,https://locations.baskinrobbins.com/oh/toledo/4015-secor-rd-360449-br,Mo-Su 11:00-21:00,Baskin-Robbins,Q584601
BBW00603,bathandbodyworks_us,FRANKLIN PARK MALL,,TOLEDO,OH,,US,+1 419-474-5938,,Mo-Th 11:00-20:00; Fr-Sa 10:00-21:00; Su 11:00-18:00,Bath & Body Works,Q810773
223,biggby_coffee_us,Biggby Coffee,4204 W Sylvania Ave Suite 101 Toledo OH 43623,Toledo,OH,,US,+1 419-472-2339,,Mo-Fr 06:00-20:00; Sa-Su 07:00-20:00,Biggby Coffee,Q4906876
https://local.biglots.com/#13190915,biglots,Big Lots - Northwest Toledo,,Toledo,OH,,US,+1 419-474-9765,https://local.biglots.com/oh/toledo/3946-w-alexis-rd,Mo-Sa 09:00-21:00; Su 09:00-19:00,Big Lots,Q4905973
206283,bluerhino,Rite Aid #01217,,Toledo,OH,,US,+1 419-473-2451,,,Blue Rhino,Q65681213
73114,bluerhino,Speedway #3556,,Toledo,OH,,US,+1 419-882-6669,,,Blue Rhino,Q65681213
73125,bluerhino,Speedway #3613,,Toledo,OH,,US,+1 419-473-0683,,,Blue Rhino,Q65681213
175063,bluerhino,Fresh Thyme Farmer's Market #312,,Toledo,OH,,US,+1 567-455-9076,,,Blue Rhino,Q65681213
73028,bluerhino,Speedway #1401,,Toledo,OH,,US,+1 419-475-1550,,,Blue Rhino,Q65681213
46816,bobevans_us,Monroe Street,,Toledo,OH,,US,+1 419-475-2070,https://www.bobevans.com/locations/monroe-street,Mo-Su 07:00-21:00,Bob Evans,Q4932386
https://local.buckle.com/oh/toledo/clothing-120.html,buckle_us,Toledo Men’s & Women’s Clothing,,Toledo,OH,,US,+1 419-474-5641,https://local.buckle.com/oh/toledo/clothing-120.html,Mo-Th 11:00-20:00; Fr-Sa 10:00-21:00; Su 11:00-18:00,Buckle,Q4983306
1167,burlington_us,Burlington,,Toledo,OH,,US,+1 567-298-7361,https://stores.burlington.com/oh/toledo/1167,Mo-Th 09:00-23:00; Fr-Sa 09:00-23:30; Su 09:00-22:00,Burlington,Q4999220
C623,carpet_one_floor_and_home_us,Modern Floors Carpet One Floor & Home,,Toledo,OH,,US,+1 419-472-7190,https://www.modernfloorscarpetonetoledo.com/,,Carpet One Floor & Home,Q121335910
//locations.carters.com/oh/toledo/carters-toledo-franklin-oh,carters_us,Carter's Toledo,,Toledo,OH,,US,+1 419-841-2855,https://locations.carters.com/oh/toledo/carters-toledo-franklin-oh,Mo-Sa 10:00-20:00; Su 11:00-18:00,Carter's,Q5047083
001.005.1844,chilis,Toledo II,,Toledo,OH,,US,+1 419-472-7688,https://www.chilis.com/locations/us/ohio/toledo/toledo-ii/,Mo-Th 11:00-22:00; Fr-Sa 11:00-23:00; Su 11:00-22:00,Chili's,Q1072948
oh_toledo_4109-talmadge-rd,chipotle, ,,Toledo,OH,,US,+1 419-474-6365,https://locations.chipotle.com/oh/toledo/4109-talmadge-rd,,Chipotle,Q465751
https://locations.chuckecheese.com/us/oh/toledo/5077-monroe-st,chuckecheese,Chuck E. Cheese,,Toledo,OH,,US,+1 419-841-9133,https://locations.chuckecheese.com/us/oh/toledo/5077-monroe-st,Mo-Th 11:00-21:00; Fr 11:00-22:00; Sa 10:00-22:00; Su 11:00-21:00,Chuck E. Cheese,Q2438391
oh-toledo/cinemark-franklin-park-16-and-xd,cinemark,Cinemark Franklin Park 16 and XD,,Toledo,OH,,US,+1 419-472-2324,https://www.cinemark.com/theatres/oh-toledo/cinemark-franklin-park-16-and-xd,,Cinemark,Q707530
79692,citi,ATM SPEEDWAY#1401,,Toledo,OH,,US,,,,Citibank,Q857063
78316,citi,ATM Speedway,,Toledo,OH,,US,,,,Citibank,Q857063
82739,citi,ATM Target,,Toledo,OH,,US,,,,Citibank,Q857063
79904,citi,ATM SPEEDWAY # 3556,,Toledo,OH,,US,,,,Citibank,Q857063
78598,citi,ATM Speedway,,Toledo,OH,,US,,,,Citibank,Q857063
39498,citi,ATM Champion Credit Union Inc,,Toledo,OH,,US,,,,Citibank,Q857063
78480,citi,ATM Speedway,,Toledo,OH,,US,,,,Citibank,Q857063
79982,citi,ATM SPEEDWAY #3613,,Toledo,OH,,US,,,,Citibank,Q857063
91950,citi,ATM Walgreens,,Toledo,OH,,US,,,,Citibank,Q857063
77637,citi,ATM Speedway,,Toledo,OH,,US,,,,Citibank,Q857063
80116,citi,ATM SPEEDWAY # 8610,,Toledo,OH,,US,,,,Citibank,Q857063
ATM-1043,citizens_us,,,Toledo,OH,,US,,,24/7,Citizens,Q5122694
toledo/6143,claires,Shop Ear Piercings & Jewelry at Franklin Park,,TOLEDO,OH,,US,+1 419-474-2856,https://stores.claires.com/us/oh/toledo/6143.html,Mo-Th 11:00-20:00; Fr-Sa 10:00-21:00; Su 11:00-18:00,Claire's,Q2974996
21925,coldstone_creamery,Cold Stone Creamery,,Toledo,OH,,US,+1 419-292-1925,https://www.coldstonecreamery.com/stores/21925,,Cold Stone Creamery,Q1094923
https://locations.condadotacos.com/#22194474,condado_tacos_us,Condado Toledo,,,OH,,US,+1 419-720-6330,https://locations.condadotacos.com/oh/5215-monroe-st.,Mo-Fr 15:00-18:00,Condado Tacos,Q118640152
212567,coopers_hawk,"Toledo, OH",,Toledo,OH,,US,,https://chwinery.com/locations/ohio/toledo-oh,,Cooper's Hawk,Q64411347
,credit_union_us,Champion CU,,Toledo,OH,,US,+1 419-407-4140,,Mo-Th 09:00-04:30; Fr 09:00-05:45,,
,credit_union_us,Glass City FCU,,Toledo,OH,,US,+1 419-475-8201,,Mo-Th 09:00-04:30; Fr 09:00-06:00; Sa 09:00-12:00,,
16165,cvs_us,CVS Pharmacy,,Toledo,OH,,US,+1 419-843-1622,https://www.cvs.com/store-locator/toledo-oh-pharmacies/5225-monroe-st-toledo-oh-43623/storeid=16165,"Mo-Fr 09:00-13:30,14:00-19:00; Sa 09:00-13:30,14:00-17:00; Su 11:00-13:30,14:00-17:00",CVS Pharmacy,Q2078880
232,dickssportinggoods,"DICK'S Sporting Goods Store in Toledo, OH | 232",,Toledo,OH,,US,+1 419-474-0170,https://stores.dickssportinggoods.com/oh/toledo/232/,Mo-Sa 09:00-21:00; Su 10:00-19:00,Dick's Sporting Goods,Q5272601
0376,dillards,"Dillard's Franklin Park Mall in Toledo, Ohio",,Toledo,OH,,US,+1 419-473-9600,https://www.dillards.com/stores/ohio/franklin-park-mall-toledo/0376,Mo-Sa 11:00-20:00; Su 12:00-18:00,Dillard's,Q844805
Franklin Park Mall,dsw,DSW,,Toledo,OH,,US,+1 419-472-1706,https://stores.dsw.com/usa/oh/toledo/dsw-designer-shoe-warehouse-franklin-park-mall.html,Mo-Sa 10:00-20:00; Su 11:00-18:00,Designer Shoe Warehouse,Q5206207
https://www.edwardjones.com/us-en/financial-advisor/marci-bennitt,edwardjones,Marci Bennitt,,Toledo,OH,,US,+1 419-841-2627,https://www.edwardjones.com/us-en/financial-advisor/marci-bennitt,,Edward Jones,Q5343830
0739,european_wax_center_us,European Wax Center,,Toledo,OH,,US,+1 567-698-7400,https://locations.waxcenter.com/oh/toledo/toledo-0739.html,Mo-Fr 09:00-20:00; Sa 09:00-17:00; Su 11:00-17:00,European Wax Center,Q5413426
5001-monroe,express,Franklin Park,,Toledo,OH,,US,+1 419-474-7024,https://stores.express.com/us/oh/toledo/5001-monroe,Mo-Th 11:00-20:00; Fr-Sa 10:00-21:00; Su 11:00-18:00,Express,Q1384784
https://stores.finishline.com/oh/toledo/franklin-park-mall.html,finishline,Finish Line,,Toledo,OH,,US,+1 419-472-8045,https://stores.finishline.com/oh/toledo/franklin-park-mall.html,Mo-Sa 11:00-19:00; Su 12:00-18:00,Finish Line,Q5450341
3139,first_cash,Cash America Pawn,,Toledo,OH,,US,+1 419-472-3073,,,Cash America,Q5048636
https://locations.fivebelow.com/oh/toledo/5233-monroe-st,five_below,Five Below Franklin Place,,Toledo,OH,,US,,https://locations.fivebelow.com/oh/toledo/5233-monroe-st,Mo-Sa 10:00-20:00; Su 11:00-18:00,Five Below,Q5455836
https://stores.footlocker.com/oh/toledo/5001-monroe-street-7360.html,footlocker,"Foot Locker in Franklin Park Mall: Toledo, Ohio | Approved | Own It",,Toledo,OH,,US,+1 419-474-5130,https://stores.footlocker.com/oh/toledo/5001-monroe-street-7360.html,Mo-Sa 11:00-20:00; Su 11:00-18:00,Foot Locker,Q63335
Motorcraft3781USAEnglish,ford,"Franklin Park Lincoln, Inc.",,Ohio,OH,,US,,,,Ford,Q44294
https://www.ford.com/dealerships/dealer-details/oh/toledo/brondes-ford-inc/,ford_dealers_us,Brondes Ford Inc.,,Toledo,OH,,US,+1 877-915-6738,https://www.ford.com/dealerships/dealer-details/oh/toledo/brondes-ford-inc/,Mo 09:00-19:00; Tu-We 09:00-18:00; Th 09:00-19:00; Fr 09:00-18:00; Sa 09:00-16:00,Ford Motor Company,Q44294
https://locations.forever21.com/#35646932,forever21_us,Franklin Park Mall,,Toledo,OH,,US,+1 567-200-6800,https://locations.forever21.com/us/stores/oh/toledo/5001-monroe-street,Mo-Sa 11:00-19:00; Su 12:00-18:00,Forever 21,Q1060537
100439,fresenius_kidney_care_us,Fresenius Kidney Care Westgate,,Toledo,OH,,US,+1 800-881-5101,https://www.freseniuskidneycare.com/dialysis-centers/ohio/100439,,,
0700,gamestop_us,Monroe Street Market,,Toledo,OH,,US,+1 419-843-4901,https://www.gamestop.com/search/?store=0700,Mo-Th 12:00-20:00; Fr-Sa 10:00-21:00; Su 11:00-20:00,GameStop,Q202210
0255,gamestop_us,Franklin Park Mall,,Toledo,OH,,US,+1 419-471-0464,https://www.gamestop.com/search/?store=0255,Mo-Th 11:00-20:00; Fr-Sa 10:00-21:00; Su 11:00-18:00,GameStop,Q202210
https://stores.gnc.com/#24058338,gnc,GNC Franklin Park Mall,,,OH,,US,+1 419-471-0127,https://stores.gnc.com/all-stores-ohio/toledo/5001-monroe-street,Mo-Th 11:00-20:00; Fr-Sa 10:00-21:00; Su 11:00-18:00,GNC,Q4808595
https://salons.greatclips.com/us/oh/toledo/4701-talmadge-road,greatclips,Great Clips,,Toledo,OH,,US,+1 419-480-8900,https://salons.greatclips.com/us/oh/toledo/4701-talmadge-road,Mo-Fr 09:00-19:00; Sa 09:00-18:00; Su 10:00-17:00,Great Clips,Q5598967
US0659,hm,5001 Monroe St,,Toledo,OH,,US,+1 855-466-7467,,Mo-Th 11:00-20:00; Fr-Sa 10:00-21:00; Su 11:00-18:00,H&M,Q188326
8473,honey_baked,HoneyBaked of Toledo,,Toledo,OH,,US,+1 419-442-0830,https://www.honeybaked.com/stores/8473,,Honey Baked Ham,Q5893363
9928,huntingtonbank,Franklin Park ,,Toledo,OH,,US,+1 419-254-7052,https://www.huntington.com/Community/branch-info?locationId=9928,Mo-Fr 09:00-17:00; Sa 09:00-12:00; Su 00:00-00:00,Huntington Bank,Q798819
33428,h_r_block,H&R Block,,Toledo,OH,,US,+1 419-474-3410,https://www.hrblock.com/local-tax-offices/ohio/toledo/3820-w-alexis-rd/33428/,,H&R Block,Q5627799
oh_toledo_breakfast-4045-talmadge-rd-5456,ihop,IHOP Breakfast Restaurants Near You at 4045 Talmadge Rd,,Toledo,OH,,US,+1 419-474-6701,https://restaurants.ihop.com/en-us/oh/toledo/breakfast-4045-talmadge-rd-5456,,IHOP,Q1185675
https://locations.jamba.com/#1329-Jamba,jambajuice,Jamba Franklin Park Mall,,Toledo,OH,,US,+1 419-725-2750,https://locations.jamba.com/oh/toledo/5001-monroe-st,Mo-Th 11:00-20:00; Fr-Sa 10:00-21:00; Su 11:00-18:00,Jamba Juice,Q3088784
https://locations.jimmyjohns.com/oh/toledo/sandwiches-870.html,jimmy_johns,Jimmy John's,,Toledo,OH,,US,+1 419-472-0266,https://locations.jimmyjohns.com/oh/toledo/sandwiches-870.html,,Jimmy John's,Q1689380
2300,joann_us,JOANN Fabric and Crafts,,Toledo,OH,,US,+1 419-474-5100,https://stores.joann.com/oh/toledo/2300/,Mo-Sa 09:00-21:00; Su 10:00-18:00,JOANN,Q6203968
https://stores.factory.jcrew.com/#1975249,j_crew_us,J.Crew Factory,,Toledo,OH,,US,+1 419-474-7570,https://stores.factory.jcrew.com/us/oh/toledo/5001-monroe-street,Mo-Th 11:00-20:00; Fr-Sa 10:00-21:00; Su 11:00-18:00,J. Crew,Q5370765
https://locations.kfc.com/#11250397,kfc,Chicken Nuggets Near Toledo,,Toledo,OH,,US,,https://locations.kfc.com/oh/toledo/5001-monroe-street/chickennugget,,KFC,Q524757
https://locations.kfc.com/#11248951,kfc,Chicken Nuggets Near Toledo,,Toledo,OH,,US,,https://locations.kfc.com/oh/toledo/3730-secor-road/chickennugget,Mo-Su 10:30-22:00,KFC,Q524757
253,kohls_us,Kohl's,,Toledo,OH,,US,+1 419-473-2000,https://www.kohls.com/stores/oh/toledo-253.shtml,Mo-Sa 09:00-22:00; Su 09:00-21:00,Kohl's,Q967265
https://local.lenscrafters.com/oh/toledo/5001-monroe-st.html,lenscrafters,LensCrafters,,Toledo,OH,,US,+1 419-473-1500,https://local.lenscrafters.com/oh/toledo/5001-monroe-st.html,Mo-Th 10:00-20:00; Fr-Sa 10:00-21:00; Su 11:00-18:00,LensCrafters,Q6523209
158875,marathon_petroleum_us,Gas and Express Mart Sylvania,,Toledo,OH,,US,+1 419-214-0915,,,Marathon,Q458363
16858,mattress_firm_us,Mattress Firm Toledo West,,Toledo,OH,,US,+1 567-455-6500,https://www.mattressfirm.com/en-us/stores/oh/toledo/008006/,,Mattress Firm,Q6791878
https://locations.maurices.com/#11688198,maurices,maurices Franklin Park Mall SC,,Toledo,OH,,US,+1 419-324-1151,https://locations.maurices.com/us/oh/toledo/5001-monroe-st,Mo-Th 11:00-20:00; Fr-Sa 10:00-21:00; Su 11:00-18:00,maurices,Q6793571
https://www.mercy.com/#97b78fa6-b3bd-488f-9413-07686159b8c4,mercy_health_us,Mercy Health — St. Anne Wound Care Center,,Toledo,OH,,US,+1 419-407-1680,https://www.mercy.com/locations/specialty-locations/wound-care/mercy-health-st-anne-wound-care-center,Mo-Fr 08:00-16:30,Mercy Health,Q5053169
https://www.mercy.com/#4a239927-52c8-43c3-8c8c-05fb897c6534,mercy_health_us,Mercy Health — Sunforest Outpatient Rehabilitation and Therapy,,Toledo,OH,,US,+1 419-251-1121,https://www.mercy.com/locations/specialty-locations/physical-therapy-rehabilitation/mercy-health-sunforest-outpatient-rehabilitation-and-therapy,,Mercy Health,Q5053169
https://www.mercy.com/#4e73075d-5b2e-4c18-b025-bbb0bafb3782,mercy_health_us,Mercy Health — Sylvania Pain Medicine,,Toledo,OH,,US,+1 419-517-7677,https://www.mercy.com/locations/specialty-locations/pain-management/mercy-health-sylvania-pain-medicine,,Mercy Health,Q5053169
https://www.mercy.com/#09537a67-d9fd-4897-b9c7-d42f687c0c36,mercy_health_us,Mercy Health — Sunforest Orthopaedics and Sports Medicine,,Toledo,OH,,US,+1 419-442-0222,https://www.mercy.com/locations/specialty-locations/orthopedics-sports-medicine-spine/mercy-health-sunforest-orthopaedics-and-sports-medicine,Mo-Fr 08:00-17:00,Mercy Health,Q5053169
https://www.mercy.com/#966683e6-1de4-4b4c-834f-04c4c296f08d,mercy_health_us,"Mercy Health — Neuroscience Institute, Neurology",,Toledo,OH,,US,+1 419-475-9341,https://www.mercy.com/locations/specialty-locations/neurology-neurosurgery-neuroscience/mercy-health-neuroscience-institute-neurology,Mo-Fr 07:30-17:00,Mercy Health,Q5053169
https://www.mercy.com/#8a885489-cb56-4176-b054-dbe6288a01f2,mercy_health_us,Mercy Health — St. Anne Hospital Imaging Services,,Toledo,OH,,US,+1 419-251-3993,https://www.mercy.com/locations/specialty-locations/lab-and-imaging-centers/mercy-health-st-anne-hospital-imaging-services,,Mercy Health,Q5053169
https://www.mercy.com/#ee0e05a4-7f85-45d4-b9ac-495cc4efedec,mercy_health_us,Mercy Health — St. Anne Palliative Care,,Toledo,OH,,US,+1 419-407-1182,https://www.mercy.com/locations/specialty-locations/hospice-care-palliative-care/mercy-health-palliative-care-st-anne,,Mercy Health,Q5053169
https://www.mercy.com/#f30b3aa5-614b-44de-9ddc-302824365be8,mercy_health_us,Mercy Health — Sylvania Cardiac Rehabilitation,,Toledo,OH,,US,+1 419-517-8840,https://www.mercy.com/locations/specialty-locations/heart-care-vascular-care/mercy-health-sylvania-cardiac-rehabiliation,,Mercy Health,Q5053169
https://www.mercy.com/#ddca550a-c92e-4cc0-b119-5afa9fc3ad50,mercy_health_us,"Mercy Health — Heart and Vascular Institute, St. Anne",,Toledo,OH,,US,+1 419-251-3993,https://www.mercy.com/locations/specialty-locations/heart-care-vascular-care/mercy-heart-and-vascular-institute-st-anne,,Mercy Health,Q5053169
https://www.mercy.com/#6ef88c6e-ec01-4401-b906-5cb9edfdc77e,mercy_health_us,Mercy Health — Sylvania Obstetrics and Gynecology,,Toledo,OH,,US,+1 419-517-7665,https://www.mercy.com/locations/specialty-locations/gynecology-obgyn-womens-health/mercy-health-sylvania-obstetrics-and-gynecology,Mo-Th 08:30-16:30; Fr 08:30-14:00,Mercy Health,Q5053169
https://www.mercy.com/#a1cafd3b-c36c-41f9-8ab6-4b9389cc2e72,mercy_health_us,Mercy Health — St. Anne Women&#39;s Care,,Toledo,OH,,US,+1 419-251-3993,https://www.mercy.com/locations/specialty-locations/gynecology-obgyn-womens-health/mercy-health-st-anne-womens-care,,Mercy Health,Q5053169
https://www.mercy.com/#60432c05-3534-4196-8e15-faa7be357296,mercy_health_us,Mercy Health — St. Anne Cancer Center,,Toledo,OH,,US,+1 419-407-2663,https://www.mercy.com/locations/specialty-locations/cancer-care-oncology/mercy-health-st-anne-hospital,,Mercy Health,Q5053169
https://www.mercy.com/#ad8514ad-f6a2-462a-9eda-752c2256df0a,mercy_health_us,Mercy Health — St. Anne Women&#39;s Care,,Toledo,OH,,US,+1 419-251-3993,https://www.mercy.com/locations/specialty-locations/breast-health/mercy-health-st-anne-womens-care,,Mercy Health,Q5053169
https://www.mercy.com/#a44a8c7b-e643-4db5-b75f-08e7906ce622,mercy_health_us,Mercy Health — St. Anne Hospital Pharmacy Anticogulation/Coumadin Clinic,,Toledo,OH,,US,+1 419-407-2568,https://www.mercy.com/locations/specialty-locations/anticoagulation-clinics/mercy-health-st-anne-hospital-pharmacy-anticogulationcoumadin-clinic,,Mercy Health,Q5053169
https://www.mercy.com/#fc9c0581-1e40-4351-9f59-ba75baf77f9d,mercy_health_us,Mercy Health — St. Anne Hospital Emergency Department,,Toledo,OH,,US,+1 419-407-2663,https://www.mercy.com/locations/emergency-room/toledo/mercy-health-st-anne-hospital-emergency-room,24/7,Mercy Health,Q5053169
https://www.mercy.com/#c9734139-8139-4018-9ea1-41eb424c81e1,mercy_health_us,Mercy Health — Sylvania Family Medicine,,Toledo,OH,,US,+1 419-517-7668,https://www.mercy.com/locations/primary-care-family-medicine/toledo/mercy-health-sylvania-family-medicine-and-pediatrics,,Mercy Health,Q5053169
https://www.mercy.com/#c8223e0e-b6c4-4f4f-918a-0d1de108465a,mercy_health_us,Mercy Health — Sunforest Primary Care,,Toledo,OH,,US,+1 419-472-3126,https://www.mercy.com/locations/primary-care-family-medicine/toledo/mercy-health-sunforest-primary-care,Mo-Fr 08:00-16:30,Mercy Health,Q5053169
https://www.mercy.com/#4443debc-1043-4335-9a18-6a828a4275bd,mercy_health_us,Mercy Health — St. Anne Hospital,,Toledo,OH,,US,+1 419-407-2663,https://www.mercy.com/locations/hospitals/toledo/mercy-health-st-anne-hospital,24/7,Mercy Health,Q5053169
4011-secor-rd,my_eye_dr,,,Toledo,OH,,US,+1 419-474-8833,https://locations.myeyedr.com/oh/toledo/4011-secor-rd,,MyEyeDr.,Q117864710
https://locations.noodles.com/oh/toledo/5299-monroe-street.html,noodles_and_company_us,Noodles & Company Toledo Monroe Street,,Toledo,OH,,US,+1 419-540-0823,https://locations.noodles.com/oh/toledo/5299-monroe-street.html,Mo-We 10:30-21:00; Th-Sa 10:30-22:00; Su 10:30-21:00,Noodles and Company,Q7049673
https://locations.oreillyauto.com/oh/toledo/check-engine-light-testing-3301.html,oreilly,Your Toledo O'Reilly Auto Parts Store,,Toledo,OH,,US,+1 419-472-7766,https://locations.oreillyauto.com/oh/toledo/check-engine-light-testing-3301.html,Mo-Sa 07:30-22:00; Su 08:00-21:00,O'Reilly Auto Parts,Q7071951
https://locations.oreillyauto.com/oh/toledo/wiper-installation-3301.html,oreilly,Your Toledo O'Reilly Auto Parts Store,,Toledo,OH,,US,+1 419-472-7766,https://locations.oreillyauto.com/oh/toledo/wiper-installation-3301.html,Mo-Sa 07:30-22:00; Su 08:00-21:00,O'Reilly Auto Parts,Q7071951
https://locations.oreillyauto.com/oh/toledo/battery-testing-3301.html,oreilly,Your Toledo O'Reilly Auto Parts Store,,Toledo,OH,,US,+1 419-472-7766,https://locations.oreillyauto.com/oh/toledo/battery-testing-3301.html,Mo-Sa 07:30-22:00; Su 08:00-21:00,O'Reilly Auto Parts,Q7071951
https://locations.oreillyauto.com/oh/toledo/autopartes-3301.html,oreilly,Tu tienda O'Reilly Auto Parts en Toledo,,Toledo,OH,,US,+1 419-472-7766,https://locations.oreillyauto.com/oh/toledo/autopartes-3301.html,Mo-Sa 07:30-22:00; Su 08:00-21:00,O'Reilly Auto Parts,Q7071951
//locations.oshkosh.com/oh/toledo/oshkosh-toledo-franklin-oh,oshkosh_us,Oshkosh B'gosh Toledo,,Toledo,OH,,US,+1 419-841-2855,https://locations.oshkosh.com/oh/toledo/oshkosh-toledo-franklin-oh,Mo-Sa 10:00-20:00; Su 11:00-18:00,OshKosh B'gosh,Q1417347
https://locations.outback.com/#15502245,outbacksteakhouse,Outback Steakhouse,,Toledo,OH,,US,+1 419-841-2313,https://locations.outback.com/ohio/toledo/5200-monroe-street,Mo-Th 11:00-21:30; Fr-Sa 11:00-22:30; Su 11:00-21:00,Outback Steakhouse,Q1064893
143231,pandaexpress,Monroe St & Talmadge Rd,,Toledo,OH,,US,+1 419-386-2828,https://www.pandaexpress.com/locations/oh/toledo/5130-monroe-street,Mo-Th 10:00-22:00; Fr-Sa 10:00-22:30; Su 10:00-22:00,Panda Express,Q1358690
usfbdbbe41,pandora,About Pandora Jewelry at Pandora @ Franklin Park Mall,,Toledo,OH,,US,+1 419-473-2100,https://stores.pandora.net/oh/toledo/pandora-jewelry-usfbdbbe41.html,Mo-Th 11:00-20:00; Fr-Sa 10:00-21:00; Su 11:00-19:00,Pandora,Q2241604
usada40017,pandora,About Pandora Jewelry Authorized Retailer - Paul Antypas Jeweler,,Toledo,OH,,US,+1 419-725-1313,https://stores.pandora.net/oh/toledo/pandora-jewelry-usada40017.html,,Pandora,Q2241604
https://locations.papajohns.com/#10691737,papa_johns,Papa John's,,Toledo,OH,,US,+1 419-882-7272,https://locations.papajohns.com/united-states/oh/43623/toledo/4024-n-holland-sylvania-rd,Mo-Th 10:00-23:00; Fr-Sa 10:00-24:00; Su 10:00-23:00,Papa John's Pizza,Q2759586
609,party_city,Monroe St,,Toledo,OH,,US,+1 419-537-7588,https://stores.partycity.com/us/oh/toledo/party-store-pc609.html,,Party City,Q7140896
oh_toledo_5001-monroe-st,pizza_hut_us,5001 Monroe St.,,Toledo,OH,,US,,https://locations.pizzahut.com/oh/toledo/5001-monroe-st,,Pizza Hut,Q191615
01217,rite_aid_us,Rite Aid #01217 Toledo,,Toledo,OH,,US,+1 419-473-2451,https://locations2.riteaid.com.yext-cdn.com/oh/toledo/5765-secor-road.html,Mo-Su 08:00-22:00,Rite Aid,Q3433273
5001-monroe-st-,rue21,Franklin Park Mall,,Toledo,OH,,US,,https://stores.rue21.com/oh/toledo/5001-monroe-st-.html,Mo-Sa 11:00-20:00; Su 11:00-18:00,rue21,Q7377762
https://stores.saloncentric.com/#29173245,salon_centric_us,SalonCentric,,,OH,,US,+1 419-841-1401,https://stores.saloncentric.com/oh/toledo/2606,Mo 08:00-18:30; Tu-Fr 08:00-18:00; Sa 08:30-16:00; Su 12:00-16:00,SalonCentric,Q124339481
location-9097,sbarro,Franklin Park Shopping Center,5001 Monroe Street ,Toledo,OH,,US,,https://sbarro.com/locations/oh/toledo/franklin-park-shopping-center/,,Sbarro,Q2589409
1146,scooters_coffee_us,Talmadge Rd & W Sylvania Ave,,Toledo,OH,,US,+1 419-469-2739,,Mo-Su 06:00-20:00,Scooter's Coffee,Q117280308
230,shoe_carnival_us,Shoe Carnival,,Toledo,OH,,US,+1 419-842-0691,https://stores.shoecarnival.com/oh/toledo/shoe-store-toledo-oh-230.html,Mo-Sa 10:00-21:00; Su 11:00-19:00,Shoe Carnival,Q7500007
17093119411048750487,sleep_number_us,Sleep Number,,Toledo,OH,,US,,https://www.sleepnumber.com/stores/oh/toledo/5254-monroe-st,Mo-Th 10:00-19:00; Fr-Sa 10:00-20:00; Su 11:00-19:00,Sleep Number,Q7447640
106,sleep_outfitters_us,Sleep Outfitters,,Toledo,OH,,US,+1 567-316-2499,,,Sleep Outfitters,Q120509459
446,sola_salon_studios,Franklin Park,,Toledo,OH,,US,+1 419-705-5986,https://www.solasalonstudios.com/locations/franklin-park,,Sola Salon Studios,Q64337426
https://restaurants.subway.com/#14903747,subway,Subway,,Toledo Lucas,OH,,US,+1 419-474-5892,https://restaurants.subway.com/united-states/oh/toledo/5447-secor-road,Mo-Su 08:30-21:30,Subway,Q244457
https://stores.sunglasshut.com/us/oh/toledo/5001-monroe-st,sunglass_hut_1,Sunglass Hut,,Toledo,OH,,US,+1 419-475-6190,https://stores.sunglasshut.com/us/oh/toledo/5001-monroe-st,Mo-Th 11:00-20:00; Fr-Sa 10:00-21:00; Su 11:00-18:00,Sunglass Hut,Q136311
https://locations.tacobell.com/#8594581,taco_bell,Taco Bell,,Toledo,OH,,US,+1 419-540-0525,https://locations.tacobell.com/oh/toledo/5323-monroe-street.html,Mo-Su 07:00-01:00,Taco Bell,Q752941
https://locations.tacobell.com/#17283368,taco_bell,Taco Bell,,Toledo,OH,,US,+1 419-475-2000,https://locations.tacobell.com/oh/toledo/5001-monroe-street.html,,Taco Bell,Q752941
28671,tjx,Toledo,5243 Monroe St ,Toledo,OH,,US,+1 419-841-1773,,Mo-Sa 09:30-21:30; Su 10:00-20:00,HomeGoods,Q5887941
101279,tjx,Toledo,5245 Monroe St,Toledo,OH,,US,+1 419-841-1773,,Mo-Sa 09:30-21:30; Su 10:00-20:00,Marshalls,Q15903261
8109,tmobile_us,Monroe St & Talmadge Rd,,Toledo,OH,,US,+1 419-843-1652,https://www.t-mobile.com/store-locator/oh/toledo/monroe-st-talmadge-rd,,T-Mobile,Q3511885
5JSO,tmobile_us,Franklin Park Mall,,Toledo,OH,,US,+1 419-214-9335,https://www.t-mobile.com/store-locator/oh/toledo/franklin-park-mall,,T-Mobile,Q3511885
1364023,usps,FRANKLIN PARK,,TOLEDO,OH,,US,+1 419-885-2433,,Mo-Fr 08:00-17:00; Sa 08:00-12:00,United States Postal Service,Q668687
4362300055,usps_collection_boxes,USPS COLLECTION BOX - BLUE BOX,4340 N HOLLAND SYLVANIA RD,TOLEDO,OH,,US,,,,United States Postal Service,Q668687
4362300063,usps_collection_boxes,USPS COLLECTION BOX - BLUE BOX,4340 N HOLLAND SYLVANIA RD,TOLEDO,OH,,US,,,,United States Postal Service,Q668687
4362300037,usps_collection_boxes,USPS COLLECTION BOX - BLUE BOX,4159 N HOLLAND SYLVANIA RD,TOLEDO,OH,,US,,,,United States Postal Service,Q668687
4362300011,usps_collection_boxes,USPS COLLECTION BOX - BLUE BOX,5333 MONROE ST,TOLEDO,OH,,US,,,,United States Postal Service,Q668687
4362300023,usps_collection_boxes,USPS COLLECTION BOX - BLUE BOX,1000 REGENCY CT,TOLEDO,OH,,US,,,,United States Postal Service,Q668687
4362300053,usps_collection_boxes,USPS COLLECTION BOX - BLUE BOX,1000 REGENCY CT,TOLEDO,OH,,US,,,,United States Postal Service,Q668687
4362300075,usps_collection_boxes,USPS COLLECTION BOX - PO LOBBY,5151 MONROE ST,TOLEDO,OH,,US,,,,United States Postal Service,Q668687
4362300032,usps_collection_boxes,USPS COLLECTION BOX - PO LOBBY,5151 MONROE ST,TOLEDO,OH,,US,,,,United States Postal Service,Q668687
4362300057,usps_collection_boxes,USPS COLLECTION BOX - APC,5151 MONROE ST,TOLEDO,OH,,US,,,,United States Postal Service,Q668687
4362300059,usps_collection_boxes,USPS COLLECTION BOX - BLUE BOX,5151 MONROE ST,TOLEDO,OH,,US,,,,United States Postal Service,Q668687
4362300042,usps_collection_boxes,USPS COLLECTION BOX - BLUE BOX,5151 MONROE ST,TOLEDO,OH,,US,,,,United States Postal Service,Q668687
4362300031,usps_collection_boxes,USPS COLLECTION BOX - BLUE BOX,5151 MONROE ST,TOLEDO,OH,,US,,,,United States Postal Service,Q668687
4362300050,usps_collection_boxes,USPS COLLECTION BOX - BLUE BOX,4701 TALMADGE RD,TOLEDO,OH,,US,,,,United States Postal Service,Q668687
4362300020,usps_collection_boxes,USPS COLLECTION BOX - BLUE BOX,4268 ROSE GARDEN DR,TOLEDO,OH,,US,,,,United States Postal Service,Q668687
4362300008,usps_collection_boxes,USPS COLLECTION BOX - BLUE BOX,4427 TALMADGE RD,TOLEDO,OH,,US,,,,United States Postal Service,Q668687
4362300009,usps_collection_boxes,USPS COLLECTION BOX - BLUE BOX,4620 TALMADGE RD,TOLEDO,OH,,US,,,,United States Postal Service,Q668687
4362300062,usps_collection_boxes,USPS COLLECTION BOX - BLUE BOX,4217 TALMADGE RD,TOLEDO,OH,,US,,,,United States Postal Service,Q668687
4362300003,usps_collection_boxes,USPS COLLECTION BOX - BLUE BOX,4352 W SYLVANIA AVE,TOLEDO,OH,,US,,,,United States Postal Service,Q668687
4362300044,usps_collection_boxes,USPS COLLECTION BOX - BLUE BOX,3650 MCGREGOR LN,TOLEDO,OH,,US,,,,United States Postal Service,Q668687
4362300038,usps_collection_boxes,USPS COLLECTION BOX - BLUE BOX,5001 MONROE ST,TOLEDO,OH,,US,,,,United States Postal Service,Q668687
4362300004,usps_collection_boxes,USPS COLLECTION BOX - BLUE BOX,4210 W SYLVANIA AVE,TOLEDO,OH,,US,,,,United States Postal Service,Q668687
4362300022,usps_collection_boxes,USPS COLLECTION BOX - BLUE BOX,3455 W ALEXIS RD,TOLEDO,OH,,US,,,,United States Postal Service,Q668687
4362300045,usps_collection_boxes,USPS COLLECTION BOX - BLUE BOX,4895 MONROE ST,TOLEDO,OH,,US,,,,United States Postal Service,Q668687
4362300010,usps_collection_boxes,USPS COLLECTION BOX - BLUE BOX,4841 MONROE ST,TOLEDO,OH,,US,,,,United States Postal Service,Q668687
4362300052,usps_collection_boxes,USPS COLLECTION BOX - BLUE BOX,3740 W SYLVANIA AVE,TOLEDO,OH,,US,,,,United States Postal Service,Q668687
4362300001,usps_collection_boxes,USPS COLLECTION BOX - BLUE BOX,3332 W LASKEY RD,TOLEDO,OH,,US,,,,United States Postal Service,Q668687
4362300051,usps_collection_boxes,USPS COLLECTION BOX - BLUE BOX,3900 SUNFOREST CT,TOLEDO,OH,,US,,,,United States Postal Service,Q668687
4362300026,usps_collection_boxes,USPS COLLECTION BOX - BLUE BOX,3900 SUNFOREST CT,TOLEDO,OH,,US,,,,United States Postal Service,Q668687
4362300007,usps_collection_boxes,USPS COLLECTION BOX - BLUE BOX,4235 SECOR RD,TOLEDO,OH,,US,,,,United States Postal Service,Q668687
4362300056,usps_collection_boxes,USPS COLLECTION BOX - BLUE BOX,3404 W SYLVANIA AVE,TOLEDO,OH,,US,,,,United States Postal Service,Q668687
USA155,vans,Vans Store - FRANKLIN PARK,,Toledo,OH,,US,+1 419-471-1541,https://www.vans.com/en-us/stores/oh/toledo/usa155,Mo-Sa 11:00-19:00; Su 12:00-18:00,Vans,Q1135366
R00000131079,verizon_us,Toledo Monroe,,Toledo,OH,,US,+1 419-843-4384,https://www.verizon.com/stores/details/ohio/toledo/toledo-monroe-202098/,Mo-Fr 10:00-20:00; Sa 09:00-19:00; Su 11:00-18:00,Verizon,Q919641
,visa,,,TOLEDO,OH,,US,,,,,
,visa,,,TOLEDO,OH,,US,,,,,
,visa,,,TOLEDO,OH,,US,,,,,
,visa,,,TOLEDO,OH,,US,,,,,
,visa,,,TOLEDO,OH,,US,,,,,
,visa,,,TOLEDO,OH,,US,,,,,
,visa,,,TOLEDO,OH,,US,,,,,
,visa,,,TOLEDO,OH,,US,,,,,
,visa,,,TOLEDO,OH,,US,,,,,
,visa,,,TOLEDO,OH,,US,,,,,
,visa,,,TOLEDO,OH,,US,,,,,
,visa,,,TOLEDO,OH,,US,,,,,
,visa,,,TOLEDO,OH,,US,,,,,
,visa,,,TOLEDO,OH,,US,,,,,
,visa,,,TOLEDO,OH,,US,,,,,
,visa,,,TOLEDO,OH,,US,,,,,
,visa,,,TOLEDO,OH,,US,,,,,
,visa,,,TOLEDO,OH,,US,,,,,
,visa,,,TOLEDO,OH,,US,,,,,
,visa,,,TOLEDO,OH,,US,,,,,
,visa,,,TOLEDO,OH,,US,,,,,
,visa,,,TOLEDO,OH,,US,,,,,
,visa,,,TOLEDO,OH,,US,,,,,
,visa,,,TOLEDO,OH,,US,,,,,
,visa,,,TOLEDO,OH,,US,,,,,
,visa,,,TOLEDO,OH,,US,,,,,
,visa,,,TOLEDO,OH,,US,,,,,
,visa,,,TOLEDO,OH,,US,,,,,
,visa,,,TOLEDO,OH,,US,,,,,
,visa,,,TOLEDO,OH,,US,,,,,
,visa,,,TOLEDO,OH,,US,,,,,
,visa,,,TOLEDO,OH,,US,,,,,
,visa,,,TOLEDO,OH,,US,,,,,
,visa,,,TOLEDO,OH,,US,,,,,
,visa,,,TOLEDO,OH,,US,,,,,
,visa,,,TOLEDO,OH,,US,,,,,
,visa,,,TOLEDO,OH,,US,,,,,
,visa,,,TOLEDO,OH,,US,,,,,
,visa,,,TOLEDO,OH,,US,,,,,
,visa,,,TOLEDO,OH,,US,,,,,
,visa,,,TOLEDO,OH,,US,,,,,
,visa,,,TOLEDO,OH,,US,,,,,
,visa,,,TOLEDO,OH,,US,,,,,
,visa,,,TOLEDO,OH,,US,,,,,
,visa,,,TOLEDO,OH,,US,,,,,
,visa,,,TOLEDO,OH,,US,,,,,
,visa,,,TOLEDO,OH,,US,,,,,
,visa,,,TOLEDO,OH,,US,,,,,
,visa,,,TOLEDO,OH,,US,,,,,
,visa,,,TOLEDO,OH,,US,,,,,
,visa,,,TOLEDO,OH,,US,,,,,
,visa,,,TOLEDO,OH,,US,,,,,
,visa,,,TOLEDO,OH,,US,,,,,
,visa,,,TOLEDO,OH,,US,,,,,
,visa,,,TOLEDO,OH,,US,,,,,
,visa,,,TOLEDO,OH,,US,,,,,
,visa,,,TOLEDO,OH,,US,,,,,
,visa,,,TOLEDO,OH,,US,,,,,
,visa,,,TOLEDO,OH,,US,,,,,
https://locations.vitaminshoppe.com/oh/toledo/vitamins-supplements-toledo-oh-293.html,vitamin_shoppe,The Vitamin Shoppe® Toledo ,5055 Monroe St ,Toledo,OH,,US,+1 419-475-1445,https://locations.vitaminshoppe.com/oh/toledo/vitamins-supplements-toledo-oh-293.html,Su 10:00-19:00; Mo 09:00-20:30; Tu 09:00-20:30; We 09:00-20:30; Th 09:00-20:30; Fr 09:00-20:30; Sa 09:00-19:30,The Vitamin Shoppe,Q7772938
2421,waffle_house_us,Waffle House #2421,,TOLEDO,OH,,US,+1 419-293-5310,https://locations.wafflehouse.com/toledo-oh-2421,24/7,Waffle House,Q1701206
https://www.walgreens.com/locator/walgreens-5815+secor+rd-toledo-oh-43623/id=9337,walgreens,Walgreens,,Toledo,OH,,US,+1 419-472-8615,https://www.walgreens.com/locator/walgreens-5815+secor+rd-toledo-oh-43623/id=9337,Mo-Sa 08:00-22:00; Su 09:00-21:00,Walgreens,Q1591889
be7a7ed33513a0895bf0b1c51f524791,western_union,DOLLAR GENERAL #21050,,Toledo,OH,,US,+1 567-249-1510,https://location.westernunion.com/us/oh/toledo/be7a7ed33513a0895bf0b1c51f524791,Mo-Su 08:00-22:00,Western Union,Q861042
1306,whitehouseblackmarket,Franklin Park Mall,5001 Monroe Street,Toledo,OH,,US,+1 419-474-6470,,Mo-Sa 10:00-21:00; Su 12:00-18:00,White House Black Market,Q7994858
39,windsor_us,Toledo Franklin Park Mall,,Toledo,OH,,US,+1 419-407-8400,https://www.windsorstore.com/pages/oh-toledo-franklin-park-mall,,Windsor,Q72981668
