Ref,Spider,Name,Address,City,State,Zipcode,Country,Phone,Website,Hours,Brand,WikiData
221639,bluerhino,Lexington Express Stop LLC,,Lexington,MO,,US,+1 660-251-2155,,,Blue Rhino,Q65681213
220214,bluerhino,Break Time #3054,,Lexington,MO,,US,+1 660-259-4111,,,Blue Rhino,Q65681213
213313,bluerhino,Waters Hardware Lexington #2007,,Lexington,MO,,US,+1 660-259-3017,,,Blue Rhino,Q65681213
208514,bluerhino,Brothers Market #773,,Lexington,MO,,US,+1 660-259-4890,,,Blue Rhino,Q65681213
203658,bluerhino,CASEY'S GENERAL STORE #1033,,LEXINGTON,MO,,US,+1 660-259-2300,,,Blue Rhino,Q65681213
01815714277176406700100000000000,bp,BP,,LEXINGTON,MO,,US,+1 660-259-4495,,Mo-Th 05:00-22:00; Fr 05:00-23:00; Sa 07:00-23:00; Su 07:30-22:00,BP,Q152057
46852,citi,ATM CVS,,Lexington,MO,,US,,,,Citibank,Q857063
66363,citi,ATM NORTH AMERICAN SAVINGS BANK,,Lexington,MO,,US,,,,Citibank,Q857063
37023,citi,ATM Break Time,,Lexington,MO,,US,,,,Citibank,Q857063
11312,cvs_us,CVS Pharmacy,,Lexington,MO,,US,+1 660-259-2258,https://www.cvs.com/store-locator/lexington-mo-pharmacies/1030-main-st-lexington-mo-64067/storeid=11312,Mo-Fr 08:30-18:00,CVS Pharmacy,Q2078880
https://www.edwardjones.com/us-en/financial-advisor/rick-smith,edwardjones,Rick A Smith,,Lexington,MO,,US,+1 660-259-2077,https://www.edwardjones.com/us-en/financial-advisor/rick-smith,Mo-Th 08:30-16:30; Fr 08:30-15:00,Edward Jones,Q5343830
32686,family_dollar_us,FAMILY DOLLAR #12686,,Lexington,MO,,US,+1 660-259-8120,https://www.familydollar.com/locations/mo/lexington/32686/,Mo-Sa 09:00-22:00; Su 09:00-21:00,Family Dollar,Q5433101
25861,h_r_block,H&R Block,,Lexington,MO,,US,+1 660-259-6363,https://www.hrblock.com/local-tax-offices/missouri/lexington/1017-franklin-ave/25861/,,H&R Block,Q5627799
mo_lexington_537-s-hwy-13,pizza_hut_us,537 S Hwy 13,,Lexington,MO,,US,+1 660-259-4389,https://locations.pizzahut.com/mo/lexington/537-s-hwy-13,,Pizza Hut,Q191615
https://restaurants.subway.com/#14907090,subway,Subway Lafayette Square Shopping Ctr,,Lexington Lafayette,MO,,US,+1 660-383-4991,https://restaurants.subway.com/united-states/mo/lexington/831-s-13-highway,Mo-Su 09:00-21:00,Subway,Q244457
1370359,usps,LEXINGTON,,LEXINGTON,MO,,US,+1 660-259-3612,,Mo-Fr 09:00-16:00; Sa 09:00-12:00,United States Postal Service,Q668687
6406700013,usps_collection_boxes,USPS COLLECTION BOX - BLUE BOX,326 BROADWAY ST,LEXINGTON,MO,,US,,,,United States Postal Service,Q668687
6406700006,usps_collection_boxes,USPS COLLECTION BOX - BLUE BOX,1030 MAIN ST,LEXINGTON,MO,,US,,,,United States Postal Service,Q668687
6406700015,usps_collection_boxes,USPS COLLECTION BOX - PO LOBBY,301 S 13TH ST,LEXINGTON,MO,,US,,,,United States Postal Service,Q668687
6406700022,usps_collection_boxes,USPS COLLECTION BOX - PO LOBBY,301 S BUSINESS HIGHWAY 13,LEXINGTON,MO,,US,,,,United States Postal Service,Q668687
6406700003,usps_collection_boxes,USPS COLLECTION BOX - BLUE BOX,2112 MAIN ST,LEXINGTON,MO,,US,,,,United States Postal Service,Q668687
6406700018,usps_collection_boxes,USPS COLLECTION BOX - BLUE BOX,301 S 13TH ST,LEXINGTON,MO,,US,,,,United States Postal Service,Q668687
6406700016,usps_collection_boxes,USPS COLLECTION BOX - BLUE BOX,542 S. BUS HWY 13,LEXINGTON,MO,,US,,,,United States Postal Service,Q668687
6406700017,usps_collection_boxes,USPS COLLECTION BOX - BLUE BOX,813 S BUSINESS HIGHWAY 13,LEXINGTON,MO,,US,,,,United States Postal Service,Q668687
6406700011,usps_collection_boxes,USPS COLLECTION BOX - BLUE BOX,2201 OAKDALE DR,LEXINGTON,MO,,US,,,,United States Postal Service,Q668687
,visa,,,LEXINGTON,MO,,US,,,,,
,visa,,,LEXINGTON,MO,,US,,,,,
,visa,,,LEXINGTON,MO,,US,,,,,
,visa,,,LEXINGTON,MO,,US,,,,,
,visa,,,LEXINGTON,MO,,US,,,,,
,visa,,,LEXINGTON,MO,,US,,,,,
,visa,,,LEXINGTON,MO,,US,,,,,
,visa,,,LEXINGTON,MO,,US,,,,,
,visa,,,LEXINGTON,MO,,US,,,,,
,visa,,,LEXINGTON,MO,,US,,,,,
,visa,,,LEXINGTON,MO,,US,,,,,
