Ref,Spider,Name,Address,City,State,Zipcode,Country,Phone,Website,Hours,Brand,WikiData
72153697,moneygram,COPPEL TRANSMISORES - COACALCO DE BERRIO,,COACALCO DE BERRIOZABAL,MX,,MX,+52 55 5879 5336,,Mo-Sa 10:00-20:00; Su 11:00-21:00,MoneyGram,Q1944412
72154175,moneygram,COPPEL TRANSMISORES - COACALCO DE BERRIO,,COACALCO DE BERRIOZABAL,MX,,MX,+52 55 2620 0769,,Mo-Sa 11:00-21:00; Su 11:00-20:00,MoneyGram,Q1944412
73350486,moneygram,BODEGA AURRERA EXPRESS - #2238 - COACALC,,COACALCO DE BERRIOZABAL,MX,,MX,+52 55 2629 6000,,Mo-Su 08:00-21:00,MoneyGram,Q1944412
72233588,moneygram,FARMACIAS DEL AHORRO - #494 - COACALCO D,,COACALCO DE BERRIOZABAL,MX,,MX,5253224320,,Mo-Su 07:00-23:00,MoneyGram,Q1944412
73697945,moneygram,CADENA COMERCIAL OXXO SA DE CV - #10PCK5,,COACALCO DE BERRIOZABAL,MX,,MX,+52 81 8389 2121,,Mo-Su 03:00-24:00,MoneyGram,Q1944412
69509021,moneygram,MODATELAS - #1106 - 104 MODATELAS COACAL,,COACALCO DE BERRIOZABAL,MX,,MX,+52 55 5898 0331,,Mo-Su 08:00-20:00,MoneyGram,Q1944412
74018141,moneygram,BANCO AZTECA MEXICO - COACALCO DE BERRIO,,COACALCO DE BERRIOZABAL,MX,,MX,+52 55 1720 8177,,Mo-Su 09:00-21:00,MoneyGram,Q1944412
74018015,moneygram,DINERO EXPRESS - COACALCO DE BERRIOZABAL,,COACALCO DE BERRIOZABAL,MX,,MX,+52 55 1720 8177,,Mo-Su 09:00-21:00,MoneyGram,Q1944412
68817374,moneygram,DINERO EXPRESS - #6115 - COACALCO DE BER,,COACALCO DE BERRIOZABAL,MX,,MX,+52 55 1720 8141,,Mo-Su 09:00-21:00,MoneyGram,Q1944412
70398250,moneygram,FARMACIAS GUADALAJARA - COACALCO EDO. D,,COACALCO DE BERRIOZABAL,MX,,MX,+52 713 278 5436,,Mo-Su 08:00-22:00,MoneyGram,Q1944412
70455821,moneygram,SORIANA - #941 - COACALCO - SORIANA - CO,,COACALCO,MX,,MX,+52 81 1112 0003,,Mo-Su 08:00-22:00,MoneyGram,Q1944412
74819654,moneygram,FUNDACION DONDE - #502 - ESTADO DE MEXIC,,ESTADO DE MEXICO,MX,,MX,+52 55 8897 0001,,Mo-Fr 09:00-18:00; Sa 09:00-14:00; Su 00:00-24:00,MoneyGram,Q1944412
71119807,moneygram,TELECOMM - #TELECOMM 15011 - COACALCO DE,,COACALCO DE BERRIOZABAL,MX,,MX,55118008334700,,Mo-Fr 09:00-16:00; Sa-Su 00:00-24:00,MoneyGram,Q1944412
71144937,moneygram,ELEKTRA - #6115 - COACALCO DE BERRIOZABA,,COACALCO DE BERRIOZABAL,MX,,MX,+52 55 1720 7000,,Mo-Su 09:00-21:00,MoneyGram,Q1944412
45829097,moneygram,SORIANA - #163,,COACALCO,MX,,MX,+52 713 278 5436,,Mo-Su 08:00-22:00,MoneyGram,Q1944412
45832440,moneygram,SORIANA - #403,,COACALCO,MX,,MX,+52 713 278 5436,,Mo-Su 08:00-22:00,MoneyGram,Q1944412
41289220,moneygram,BANORTE - #451 - PLAZA COACALCO,,COACALCO,MX,,MX,+52 55 5882 1491,,Mo-Fr 09:00-20:00; Sa 09:30-16:30; Su 00:00-24:00,MoneyGram,Q1944412
71300603,moneygram,OXXO - COSMOPOL MEX,,COACALCO DE BERRIOZABAL,MX,,MX,+52 81 8389 2121,,Mo-Su 03:00-24:00,MoneyGram,Q1944412
71301424,moneygram,OXXO - LAUREL MEX,,COACALCO DE BERRIOZABAL,MX,,MX,+52 81 8389 2121,,Mo-Su 03:00-24:00,MoneyGram,Q1944412
71303817,moneygram,OXXO - MORAS MEX,,COACALCO DE BERRIOZABAL,MX,,MX,+52 81 8389 2121,,Mo-Su 03:00-24:00,MoneyGram,Q1944412
71302902,moneygram,OXXO - NOCHE BUENA MEX,,COACALCO DE BERRIOZABAL,MX,,MX,+52 81 8389 2121,,Mo-Su 03:00-24:00,MoneyGram,Q1944412
71303888,moneygram,OXXO - ORQUIDEAS MEX,,COACALCO DE BERRIOZABAL,MX,,MX,+52 81 8389 2121,,Mo-Su 03:00-24:00,MoneyGram,Q1944412
71311689,moneygram,OXXO - ZARZAPARRILLAS MEX,,COACALCO DE BERRIOZABAL,MX,,MX,+52 81 8389 2121,,Mo-Su 03:00-24:00,MoneyGram,Q1944412
71912062,moneygram,SORIANA - #500 - COACALCO DE BERROZABAL,,COACALCO DE BERROZABAL,MX,,MX,+52 800 555 6555,,Mo-Su 08:00-22:00,MoneyGram,Q1944412
