Ref,Spider,Name,Address,City,State,Zipcode,Country,Phone,Website,Hours,Brand,WikiData
https://stores.advanceautoparts.com/ky/lebanon/749-w-main-st,advance_auto_parts_us,Advance Auto Parts,,Lebanon,KY,,US,+1 270-692-2666,https://stores.advanceautoparts.com/ky/lebanon/749-w-main-st,Mo-Sa 07:30-21:00; Su 09:00-20:00,Advance Auto Parts,Q4686051
210822,bluerhino,Dollar General #22084,,Lebanon,KY,,US,+1 502-873-9881,,,Blue Rhino,Q65681213
219589,bluerhino,Orgill #13268 - Norbys,,Lebanon,KY,,US,+1 270-699-2755,,,Blue Rhino,Q65681213
165181,bluerhino,Family Dollar #01475,,Lebanon,KY,,US,+1 270-692-3009,,,Blue Rhino,Q65681213
154372,bluerhino,Walgreens #12076,,Lebanon,KY,,US,+1 270-692-0471,,,Blue Rhino,Q65681213
239537,bluerhino,Circle K #4703287,,Lebanon,KY,,US,+1 270-699-2355,,,Blue Rhino,Q65681213
45461,bluerhino,Kroger #730 - Louisville,,Lebanon,KY,,US,+1 270-692-3591,,,Blue Rhino,Q65681213
354625,captaind,Captain D's,,Lebanon,KY,,US,+1 270-699-2222,https://locations.captainds.com/ll/US/KY/Lebanon/790-W-Main-St,Mo-Su 10:00-20:00,Captain D's,Q5036616
61569,citi,ATM Kroger,,Lebanon,KY,,US,,,,Citibank,Q857063
42196,citi,ATM Circle K,,Lebanon,KY,,US,,,,Citibank,Q857063
91603,citi,ATM Walgreens,,Lebanon,KY,,US,,,,Citibank,Q857063
70232494,cricket_wireless,Cricket Wireless Authorized Retailer,,Lebanon,KY,,US,+1 270-321-4188,https://www.cricketwireless.com/stores,Mo-Sa 10:00-19:00; Su 13:00-17:00,Cricket Wireless,Q5184987
efefc5d9-ba16-44cf-aca6-ad0d89443c07,dairy_queen_us,655 W Main St.,,Lebanon,KY,,US,+1 270-321-3009,https://www.dairyqueen.com/locations/ky/lebanon/655-w-main-st/15892,,DQ Grill & Chill,Q1141226
nca_856,department_veterans_affairs,Lebanon National Cemetery,,Lebanon,KY,,US,+1 270-692-3390,https://www.cem.va.gov/cems/nchp/Lebanon.asp,,Department Veterans Affairs,Q592576
25004,dollar_general,Dollar General,,Lebanon,KY,,US,+1 270-972-4035,https://www.dollargeneral.com/store-directory/ky/lebanon/25004,Mo-Su 08:00-22:00,Dollar General,Q145168
22084,dollar_general,Dollar General,,Lebanon,KY,,US,+1 502-873-9881,https://www.dollargeneral.com/store-directory/ky/lebanon/22084,Mo-Su 08:00-22:00,Dollar General,Q145168
https://www.edwardjones.com/us-en/financial-advisor/brad-cox,edwardjones,Brad Cox,,Lebanon,KY,,US,+1 270-699-2979,https://www.edwardjones.com/us-en/financial-advisor/brad-cox,Mo-Fr 08:00-16:30,Edward Jones,Q5343830
E158DK,enterprise,Lebanon,,Lebanon,KY,,US,+1 270-937-3113,,,Enterprise Rent-A-Car,Q17085454
6808,fresenius_kidney_care_us,Fresenius Kidney Care Lebanon Marion County,,Lebanon,KY,,US,+1 800-881-5101,https://www.freseniuskidneycare.com/dialysis-centers/kentucky/6808,Mo 06:00-18:30; Tu 06:00-14:30; We 06:00-18:30; Th 06:00-16:30; Fr 06:00-18:30; Sa 06:00-16:30,,
0b0c0740-458a-e111-8dde-005056934050,goodwill,Lebanon Center #5250,,Lebanon,KY,,US,+1 270-692-4808,https://www.goodwill.org/locator/location/?store=MGIwYzA3NDAtNDU4YS1lMTExLThkZGUtMDA1MDU2OTM0MDUw&lat=MzcuNTYxNjM=&lng=LTg1LjI2OTAy,,Goodwill,Q5583655
1506087,hardees_us,Hardee's,,Lebanon,KY,,US,+1 270-699-3622,https://locations.hardees.com/ky/lebanon/50-corporate-dr,,Hardee's,Q1585088
673,huddle_house_us,KY - Lebanon (613 W Main St),,Lebanon,KY,,US,+1 270-699-2143,https://www.huddlehouse.com/locations/ky/lebanon/613-w-main-st,Mo-Th 06:00-22:00; Fr-Sa 06:00-00:00; Su 06:00-22:00,Huddle House,Q5928324
17788,h_r_block,H&R Block,,Lebanon,KY,,US,+1 270-692-6800,https://www.hrblock.com/local-tax-offices/kentucky/lebanon/725-w-main-st/17788/,,H&R Block,Q5627799
https://office.jacksonhewitt.com/#27577939,jackson_hewitt,Jackson Hewitt,,Lebanon,KY,,US,+1 270-699-9678,https://office.jacksonhewitt.com/tax-preparation-services-locations/en/ky/lebanon/418-e-main-street/16832,Mo-Fr 09:00-18:00; Sa 09:00-17:00,Jackson Hewitt,Q6117132
https://locations.kfc.com/#1021948279,kfc,Chicken Nuggets Near Lebanon,,Lebanon,KY,,US,,https://locations.kfc.com/ky/lebanon/780-w-main-street-28510/chickennugget,Mo-Th 10:00-23:00; Fr-Sa 10:00-24:00; Su 10:00-23:00,KFC,Q524757
https://locations.kfc.com/#11250535,kfc,Chicken Nuggets Near Lebanon,,Lebanon,KY,,US,,https://locations.kfc.com/ky/lebanon/780-w-main-street-028510/chickennugget,Mo-Th 10:00-23:00; Fr-Sa 10:00-24:00; Su 10:00-23:00,KFC,Q524757
157333,marathon_petroleum_us,FIVESTAR 5100,,LEBANON,KY,,US,+1 270-321-4073,,,Marathon,Q458363
157334,marathon_petroleum_us,FIVESTAR 4950,,LEBANON,KY,,US,+1 270-321-4200,,,Marathon,Q458363
44304306,moneygram,WAL-MART - #1675,,LEBANON,KY,,US,+1 270-692-1880,,Mo-Su 07:00-21:00,MoneyGram,Q1944412
7454,murphy_usa_us,,,Lebanon,KY,,US,+1 270-699-2703,,Mo-Sa 04:30-23:30; Su 05:00-23:00,Murphy USA,Q19604459
https://locations.oreillyauto.com/ky/lebanon/check-engine-light-testing-1445.html,oreilly,Your Lebanon O'Reilly Auto Parts Store,,Lebanon,KY,,US,+1 270-699-4334,https://locations.oreillyauto.com/ky/lebanon/check-engine-light-testing-1445.html,Mo-Sa 07:30-21:00; Su 09:00-20:00,O'Reilly Auto Parts,Q7071951
https://locations.oreillyauto.com/ky/lebanon/wiper-installation-1445.html,oreilly,Your Lebanon O'Reilly Auto Parts Store,,Lebanon,KY,,US,+1 270-699-4334,https://locations.oreillyauto.com/ky/lebanon/wiper-installation-1445.html,Mo-Sa 07:30-21:00; Su 09:00-20:00,O'Reilly Auto Parts,Q7071951
https://locations.oreillyauto.com/ky/lebanon/battery-testing-1445.html,oreilly,Your Lebanon O'Reilly Auto Parts Store,,Lebanon,KY,,US,+1 270-699-4334,https://locations.oreillyauto.com/ky/lebanon/battery-testing-1445.html,Mo-Sa 07:30-21:00; Su 09:00-20:00,O'Reilly Auto Parts,Q7071951
https://locations.oreillyauto.com/ky/lebanon/autopartes-1445.html,oreilly,Tu tienda O'Reilly Auto Parts en Lebanon,,Lebanon,KY,,US,+1 270-699-4334,https://locations.oreillyauto.com/ky/lebanon/autopartes-1445.html,Mo-Sa 07:30-21:00; Su 09:00-20:00,O'Reilly Auto Parts,Q7071951
us3cd49004,pandora,About Pandora Jewelry Authorized Retailer - Lebanon Jewelry &amp; Gift,,Lebanon,KY,,US,+1 270-692-9413,https://stores.pandora.net/ky/lebanon/pandora-jewelry-us3cd49004.html,Mo 09:00-17:30; Tu 09:00-17:00; We-Sa 09:00-17:30,Pandora,Q2241604
https://locations.papajohns.com/#10691075,papa_johns,Papa John's,,Lebanon,KY,,US,+1 270-692-5757,https://locations.papajohns.com/united-states/ky/40033/lebanon/255-north-depot-street,Mo-Su 10:30-23:00,Papa John's Pizza,Q2759586
https://restaurants.subway.com/#14898059,subway,Subway,,Lebanon Marion,KY,,US,+1 270-692-2588,https://restaurants.subway.com/united-states/ky/lebanon/124-lebanon-trade-center,Mo-Su 09:00-21:00,Subway,Q244457
https://locations.tacobell.com/#6142179,taco_bell,Taco Bell,,Lebanon,KY,,US,+1 270-692-0000,https://locations.tacobell.com/ky/lebanon/780-w--main-street.html,Mo-Su 10:00-23:00,Taco Bell,Q752941
1370062,usps,LEBANON,,LEBANON,KY,,US,+1 270-692-2270,,Mo-Fr 09:00-16:15; Sa 09:00-11:30,United States Postal Service,Q668687
4003300001,usps_collection_boxes,USPS COLLECTION BOX - BLUE BOX,101 E MAIN ST,LEBANON,KY,,US,,,,United States Postal Service,Q668687
4003300032,usps_collection_boxes,USPS COLLECTION BOX - PO LOBBY,101 E MAIN ST,LEBANON,KY,,US,,,,United States Postal Service,Q668687
4003300036,usps_collection_boxes,USPS COLLECTION BOX - PO LOBBY,101 E MAIN ST,LEBANON,KY,,US,,,,United States Postal Service,Q668687
lebanon_oil-change-id0008,valvoline_instant_oil_change,Valvoline,101 Scenic Hill Drive ,Lebanon,KY,,US,+1 270-692-6111,https://store.vioc.com/ky/lebanon/oil-change-id0008.html,,Valvoline Instant Oil Change,Q7912852
,visa,,,LEBANON,KY,,US,,,,,
,visa,,,LEBANON,KY,,US,,,,,
,visa,,,LEBANON,KY,,US,,,,,
,visa,,,LEBANON,KY,,US,,,,,
,visa,,,LEBANON,KY,,US,,,,,
,visa,,,LEBANON,KY,,US,,,,,
,visa,,,LEBANON,KY,,US,,,,,
,visa,,,LEBANON,KY,,US,,,,,
,visa,,,LEBANON,KY,,US,,,,,
,visa,,,LEBANON,KY,,US,,,,,
,visa,,,LEBANON,KY,,US,,,,,
,visa,,,LEBANON,KY,,US,,,,,
,visa,,,LEBANON,KY,,US,,,,,
,visa,,,LEBANON,KY,,US,,,,,
,visa,,,LEBANON,KY,,US,,,,,
,visa,,,LEBANON,KY,,US,,,,,
,visa,,,LEBANON,KY,,US,,,,,
,visa,,,LEBANON,KY,,US,,,,,
,visa,,,LEBANON,KY,,US,,,,,
,visa,,,LEBANON,KY,,US,,,,,
,visa,,,LEBANON,KY,,US,,,,,
,visa,,,LEBANON,KY,,US,,,,,
,visa,,,LEBANON,KY,,US,,,,,
,visa,,,LEBANON,KY,,US,,,,,
,visa,,,LEBANON,KY,,US,,,,,
,visa,,,LEBANON,KY,,US,,,,,
,visa,,,LEBANON,KY,,US,,,,,
,visa,,,LEBANON,KY,,US,,,,,
,visa,,,LEBANON,KY,,US,,,,,
,visa,,,LEBANON,KY,,US,,,,,
,visa,,,LEBANON,KY,,US,,,,,
,visa,,,LEBANON,KY,,US,,,,,
,visa,,,LOUISVILLE,KY,,US,,,,,
https://www.walgreens.com/locator/walgreens-512+w+main+st-lebanon-ky-40033/id=12076,walgreens,Walgreens,,Lebanon,KY,,US,+1 270-692-0471,https://www.walgreens.com/locator/walgreens-512+w+main+st-lebanon-ky-40033/id=12076,Mo-Fr 08:00-20:00; Sa-Su 09:00-20:00,Walgreens,Q1591889
https://locations.wendys.com/#9253573,wendys,"Wendy's Lebanon in Lebanon, KY",,Lebanon,KY,,US,+1 270-692-0470,https://locations.wendys.com/united-states/ky/lebanon/804-west-main-street,"Mo-Su 06:30-10:30,07:00-22:00",Wendy's,Q550258
f61faff0f3841c533b514a71b2785b7e,western_union,WALMART #001675,,Lebanon,KY,,US,+1 270-692-1880,https://location.westernunion.com/us/ky/lebanon/f61faff0f3841c533b514a71b2785b7e,Mo-Su 07:00-21:00,Western Union,Q861042
1458,world_finance_us,,"2158 Campbellsville Rd, Lebanon, KY, 40033",Lebanon,KY,,US,+1 270-699-2666,https://www.loansbyworld.com/branches/branch-1458,Mo-Fr 08:30-17:00; Sa 09:00-12:00,World Finance,Q3569971
