Ref,Spider,Name,Address,City,State,Zipcode,Country,Phone,Website,Hours,Brand,WikiData
203527,bluerhino,CASEY'S GENERAL STORE #2220,,NORTH MANKATO,MN,,US,+1 507-344-0574,,,Blue Rhino,Q65681213
153561,bluerhino,Walgreens #12535,,North Mankato,MN,,US,+1 507-388-1617,,,Blue Rhino,Q65681213
182714,bluerhino,Speedway #7027,,Mankato,MN,,US,+1 507-625-2901,,,Blue Rhino,Q65681213
mn_north-mankato_1725-lor-ray-drive,chipotle, ,,North Mankato,MN,,US,+1 507-512-1689,https://locations.chipotle.com/mn/north-mankato/1725-lor-ray-drive,,Chipotle,Q465751
76383,citi,ATM SOUTHPOINT FCU,,North Mankato,MN,,US,,,,Citibank,Q857063
63029,citi,ATM Kwik Trip #615-1,,North Mankato,MN,,US,,,,Citibank,Q857063
63030,citi,ATM Kwik Trip #615-2,,North Mankato,MN,,US,,,,Citibank,Q857063
67917,citi,ATM PIONEER BANK,,North Mankato,MN,,US,,,,Citibank,Q857063
36690,citi,ATM Big Dog Sports Cafe,,North Mankato,MN,,US,,,,Citibank,Q857063
88146,citi,ATM Walgreens,,North Mankato,MN,,US,,,,Citibank,Q857063
95979,citi,ATM X P J's Liquor Emporium,,North Mankato,MN,,US,,,,Citibank,Q857063
77358,citi,ATM Speedway,,Mankato,MN,,US,,,,Citibank,Q857063
57395,citi,ATM FRANDSEN NORTH MANKATO,,North Mankato,MN,,US,,,,Citibank,Q857063
193,culvers_us,"Culver's of North Mankato, MN - Commerce Dr",,North Mankato,MN,,US,+1 507-345-1680,http://www.culvers.com/restaurants/north-mankato,Mo-Fr 10:00-22:00; Su 10:00-22:00,Culver's,Q1143589
https://www.edwardjones.com/us-en/financial-advisor/jeremy-drexler,edwardjones,Jeremy Drexler,,North Mankato,MN,,US,+1 507-720-6287,https://www.edwardjones.com/us-en/financial-advisor/jeremy-drexler,Mo-Fr 08:00-16:00,Edward Jones,Q5343830
North Mankato Commerce,erbertandgerberts,North Mankato Commerce,,North Mankato,MN,,US,+1 507-625-2121,https://www.erbertandgerberts.com/locations/north-mankato-commerce/,,Erbert & Gerbert's,Q5385097
23156,h_r_block,H&R Block,,North Mankato,MN,,US,+1 507-388-2475,https://www.hrblock.com/local-tax-offices/minnesota/north-mankato/1763-commerce-dr/23156/,,H&R Block,Q5627799
2314,snap_fitness,"North Mankato, MN",1754 Commerce Drive,North Mankato,MN,,US,+1 507-387-7627,https://www.snapfitness.com/us/gyms/north-mankato-mn,24/7,Snap Fitness,Q7547254
https://restaurants.subway.com/#14903319,subway,Subway,,North Mankato Nicollet,MN,,US,+1 507-388-7821,https://restaurants.subway.com/united-states/mn/north-mankato/1750-commerce-dr,Mo-Su 08:00-21:00,Subway,Q244457
https://restaurants.subway.com/#14903314,subway,Subway Donut Depot/,,North Mankato Nicollet,MN,,US,+1 507-386-7827,https://restaurants.subway.com/united-states/mn/north-mankato/1102-n-river-dr,Mo-Su 08:00-21:00,Subway,Q244457
1439042,usps,NORTH MANKATO,,NORTH MANKATO,MN,,US,+1 507-345-5834,,"Mo-Fr 08:30-12:45,14:00-16:00",United States Postal Service,Q668687
5600300012,usps_collection_boxes,USPS COLLECTION BOX - BLUE BOX,1765 COMMERCE DR,NORTH MANKATO,MN,,US,,,,United States Postal Service,Q668687
5600300009,usps_collection_boxes,USPS COLLECTION BOX - BLUE BOX,1807 LEE BLVD,NORTH MANKATO,MN,,US,,,,United States Postal Service,Q668687
5600300006,usps_collection_boxes,USPS COLLECTION BOX - BLUE BOX,702 RANGE ST,NORTH MANKATO,MN,,US,,,,United States Postal Service,Q668687
5600300014,usps_collection_boxes,USPS COLLECTION BOX - BLUE BOX,245 BELGRADE AVE,NORTH MANKATO,MN,,US,,,,United States Postal Service,Q668687
5600300015,usps_collection_boxes,USPS COLLECTION BOX - PO LOBBY,245 BELGRADE AVE,NORTH MANKATO,MN,,US,,,,United States Postal Service,Q668687
5600300001,usps_collection_boxes,USPS COLLECTION BOX - BLUE BOX,1001 BELGRADE AVE,NORTH MANKATO,MN,,US,,,,United States Postal Service,Q668687
A00000251121,verizon_us,Victra North Mankato,,North Mankato,MN,,US,+1 507-550-0026,https://www.verizon.com/stores/details/minnesota/north-mankato/victra-north-mankato-1888022/,Mo-Fr 10:00-19:00; Sa 10:00-18:00; Su 12:00-17:00,Verizon,Q919641
,visa,,,MANKATO,MN,,US,,,,,
,visa,,,NORTH MANKATO,MN,,US,,,,,
,visa,,,NORTH MANKATO,MN,,US,,,,,
,visa,,,NORTH MANKATO,MN,,US,,,,,
,visa,,,NORTH MANKATO,MN,,US,,,,,
,visa,,,N MANKATO,MN,,US,,,,,
,visa,,,NORTH MANKATO,MN,,US,,,,,
,visa,,,NORTH MANKATO,MN,,US,,,,,
,visa,,,NORTH MANKATO,MN,,US,,,,,
,visa,,,NORTH MANKATO,MN,,US,,,,,
,visa,,,N MANKATO,MN,,US,,,,,
,visa,,,NORTH MANKATO,MN,,US,,,,,
,visa,,,NORTH MANKATO,MN,,US,,,,,
,visa,,,NORTH MANKATO,MN,,US,,,,,
,visa,,,NORTH MANKATO,MN,,US,,,,,
,visa,,,NORTH MANKATO,MN,,US,,,,,
,visa,,,N MANKATO,MN,,US,,,,,
,visa,,,NORTH MANKATO,MN,,US,,,,,
,visa,,,NORTH MANKATO,MN,,US,,,,,
https://www.walgreens.com/locator/walgreens-1705+commerce+dr-north+mankato-mn-56003/id=12535,walgreens,Walgreens,,North Mankato,MN,,US,+1 507-388-1617,https://www.walgreens.com/locator/walgreens-1705+commerce+dr-north+mankato-mn-56003/id=12535,Mo-Su 07:00-22:00,Walgreens,Q1591889
201__WEBSTER__AVE_NORTH__MANKATO_MN_56003,wellsfargo,,201 WEBSTER AVE,NORTH MANKATO,MN,,US,+1 800-869-3557,https://www.wellsfargo.com/locator/bank/201__WEBSTER__AVE_NORTH__MANKATO_MN_56003/,,Wells Fargo,Q744149
1760__COMMERCE__DR_NORTH__MANKATO_MN_56003,wellsfargo,,1760 COMMERCE DR,NORTH MANKATO,MN,,US,+1 800-869-3557,https://www.wellsfargo.com/locator/bank/1760__COMMERCE__DR_NORTH__MANKATO_MN_56003/,,Wells Fargo,Q744149
