Ref,Spider,Name,Address,City,State,Zipcode,Country,Phone,Website,Hours,Brand,WikiData
https://locations.arbys.com/ok/coweta/13589-s-state-highway-51.html,arbys_us,"Arby's Fast-Food Drive Through Near You in Coweta, OK",,Coweta,OK,,US,+1 918-486-7371,https://locations.arbys.com/ok/coweta/13589-s-state-highway-51.html,Mo-Su 10:00-23:00,Arby's,Q630866
6028,autozone_us,AutoZone Auto Parts Coweta,,Coweta,OK,,US,+1 918-887-6011,https://www.autozone.com/locations/ok/coweta/13533-s--state-hwy-51.html,Mo-Sa 07:30-21:00; Su 09:00-20:00,AutoZone,Q4826087
226145,bluerhino,Atwoods Ranch & Home Goods #35,,Coweta,OK,,US,+1 918-279-9232,,,Blue Rhino,Q65681213
156669,bluerhino,Walgreens #15756,,Coweta,OK,,US,+1 918-486-8800,,,Blue Rhino,Q65681213
170463,bluerhino,Kum & Go #982,,Coweta,OK,,US,+1 918-486-4711,,,Blue Rhino,Q65681213
8050,bueno,Taco Bueno - 8050,"506 N Broadway,  , Coweta, OK, 74429, US",Coweta,OK,,US,() -,,Mo-Su 10:00-21:30,Taco Bueno,Q7673958
87539,citi,ATM Walgreens,,Coweta,OK,,US,,,,Citibank,Q857063
70071111,cricket_wireless,Cricket Wireless Authorized Retailer,,Coweta,OK,,US,+1 918-887-8260,https://www.cricketwireless.com/stores/ll/US/OK/Coweta/11319-S-State-Highway-51,Mo-Sa 10:00-19:00,Cricket Wireless,Q5184987
8480,dollartree,DollarTree,,Coweta,OK,,US,+1 918-887-6008,,Mo-Sa 09:00-21:00; Su 09:00-20:00,Dollar Tree,Q5289230
https://www.edwardjones.com/us-en/financial-advisor/beau-driggers,edwardjones,Beau Driggers,,Coweta,OK,,US,+1 918-279-0900,https://www.edwardjones.com/us-en/financial-advisor/beau-driggers,Mo-Th 08:00-16:30; Fr 08:00-16:00,Edward Jones,Q5343830
https://salons.greatclips.com/us/ok/coweta/11319-s-hwy-51,greatclips,Great Clips,,Coweta,OK,,US,+1 918-887-8145,https://salons.greatclips.com/us/ok/coweta/11319-s-hwy-51,Mo-Fr 09:00-19:00; Sa 09:00-18:00; Su 12:00-17:00,Great Clips,Q5598967
19158,h_r_block,H&R Block,,Coweta,OK,,US,+1 918-486-6600,https://www.hrblock.com/local-tax-offices/oklahoma/coweta/11319-s-hwy-51/19158/,,H&R Block,Q5627799
https://office.jacksonhewitt.com/#27578044,jackson_hewitt,Jackson Hewitt,,Coweta,OK,,US,+1 615-622-2812,https://office.jacksonhewitt.com/tax-preparation-services-locations/en/ok/coweta/11207-s-state-highway-51/50374,Mo-Th 11:00-19:00; Fr 10:00-18:00; Sa 09:00-17:00; Su 13:00-17:00,Jackson Hewitt,Q6117132
0982,kum_and_go,Kum & Go #0982,,Coweta,OK,,US,+1 918-486-4711,https://www.kumandgo.com/store-locator?details=0982,24/7,Kum & Go,Q6443340
0000865582,phillips_66_conoco_76,STAR 51,,COWETA,OK,,US,+1 918-486-3692,,,Conoco,Q109341187
https://locations.quiktrip.com/#16003875,quiktrip_us,QuikTrip Store #70 14131 S State Hwy 51,,Coweta,OK,,US,+1 918-486-1355,https://locations.quiktrip.com/ok/coweta/14131-s-state-hwy-51,24/7,QuikTrip,Q7271953
1117,scooters_coffee_us,OK-51 & E Dogwood St,,Coweta,OK,,US,+1 918-887-8172,,Mo-Su 05:30-20:30,Scooter's Coffee,Q117280308
https://restaurants.subway.com/#14913854,subway,Subway,,Coweta Wagoner,OK,,US,+1 918-486-5363,https://restaurants.subway.com/united-states/ok/coweta/14050-state-hwy-51-south,Mo-Su 08:00-21:00,Subway,Q244457
6557,upsstore,Coweta,14083 State Hwy 51,Coweta,OK,,US,+1 918-279-0104,https://locations.theupsstore.com/ok/coweta/14083-state-hwy-51,,UPS Store,Q7771029
1359479,usps,COWETA,,COWETA,OK,,US,+1 918-486-5634,,Mo-Fr 08:30-16:30; Sa 09:30-11:00,United States Postal Service,Q668687
7442900003,usps_collection_boxes,USPS COLLECTION BOX - PO LOBBY,215 W SYCAMORE ST,COWETA,OK,,US,,,,United States Postal Service,Q668687
7442900004,usps_collection_boxes,USPS COLLECTION BOX - PO LOBBY,215 W SYCAMORE ST,COWETA,OK,,US,,,,United States Postal Service,Q668687
7442900005,usps_collection_boxes,USPS COLLECTION BOX - PO LOBBY,215 W SYCAMORE ST,COWETA,OK,,US,,,,United States Postal Service,Q668687
7442900000,usps_collection_boxes,USPS COLLECTION BOX - BLUE BOX,215 W SYCAMORE ST,COWETA,OK,,US,,,,United States Postal Service,Q668687
7442900007,usps_collection_boxes,USPS COLLECTION BOX - PO LOBBY,215 W SYCAMORE ST,COWETA,OK,,US,,,,United States Postal Service,Q668687
7442900001,usps_collection_boxes,USPS COLLECTION BOX - BLUE BOX,14269 S STATE HIGHWAY 51,COWETA,OK,,US,,,,United States Postal Service,Q668687
,visa,,,COWETA,OK,,US,,,,,
,visa,,,COWETA,OK,,US,,,,,
,visa,,,COWETA,OK,,US,,,,,
,visa,,,COWETA,OK,,US,,,,,
,visa,,,COWETA,OK,,US,,,,,
,visa,,,COWETA,OK,,US,,,,,
,visa,,,COWETA,OK,,US,,,,,
,visa,,,COWETA,OK,,US,,,,,
,visa,,,COWETA,OK,,US,,,,,
,visa,,,COWETA,OK,,US,,,,,
,visa,,,COWETA,OK,,US,,,,,
,visa,,,COWETA,OK,,US,,,,,
,visa,,,COWETA,OK,,US,,,,,
,visa,,,COWETA,OK,,US,,,,,
,visa,,,COWETA,OK,,US,,,,,
,visa,,,COWETA,OK,,US,,,,,
,visa,,,COWETA,OK,,US,,,,,
,visa,,,COWETA,OK,,US,,,,,
,visa,,,COWETA,OK,,US,,,,,
,visa,,,COWETA,OK,,US,,,,,
https://www.walgreens.com/locator/walgreens-14003+s+state+highway+51-coweta-ok-74429/id=15756,walgreens,Walgreens,,Coweta,OK,,US,+1 918-486-8800,https://www.walgreens.com/locator/walgreens-14003+s+state+highway+51-coweta-ok-74429/id=15756,Mo-Su 09:00-21:00,Walgreens,Q1591889
e013b2b6b2b711afe2f2167f6b4d99e9,western_union,QUIKTRIP #0070,,Coweta,OK,,US,+1 918-486-1355,https://location.westernunion.com/us/ok/coweta/e013b2b6b2b711afe2f2167f6b4d99e9,,Western Union,Q861042
c4d4d6f4ae4ec5bc4f8203513a4c35fd,western_union,WALMART #000374,,Coweta,OK,,US,+1 918-486-6511,https://location.westernunion.com/us/ok/coweta/c4d4d6f4ae4ec5bc4f8203513a4c35fd,Mo-Su 07:00-21:00,Western Union,Q861042
