Ref,Spider,Name,Address,City,State,Zipcode,Country,Phone,Website,Hours,Brand,WikiData
202556,bluerhino,CASEY'S GENERAL STORE #2763,,CEDAR RAPIDS,IA,,US,+1 319-396-7680,,,Blue Rhino,Q65681213
200635,bluerhino,HyVee Drugstore #7025,,Cedar Rapids,IA,,US,+1 319-396-1939,,,Blue Rhino,Q65681213
220991,bluerhino,Dollar General #6190,,CEDAR RAPIDS,IA,,US,+1 319-449-0965,,,Blue Rhino,Q65681213
155209,bluerhino,Walgreens #12580,,Cedar Rapids,IA,,US,+1 319-730-0636,,,Blue Rhino,Q65681213
197884,bluerhino,Casey's General Store Cedar Rapids 24 - #3899,,Cedar Rapids,IA,,US,+1 319-220-8744,,,Blue Rhino,Q65681213
202709,bluerhino,CASEY'S GENERAL STORE #3561,,CEDAR RAPIDS,IA,,US,+1 319-247-0261,,,Blue Rhino,Q65681213
180148,bluerhino,HyVee #1054,,Cedar Rapids,IA,,US,+1 319-365-0477,,,Blue Rhino,Q65681213
202568,bluerhino,CASEY'S GENERAL STORE #2776,,CEDAR RAPIDS,IA,,US,+1 319-364-3650,,,Blue Rhino,Q65681213
17871702848305240500100000000000,bp,BP,,Cedar Rapids,IA,,US,1111111111,,,BP,Q152057
12301,cenex,Midwest Petroleum & Convenienc,,Cedar Rapids,IA,,US,+1 319-364-4606,,24/7,Cenex,Q62127191
55644,citi,ATM FIRST FEDERAL CU,,Cedar Rapids,IA,,US,,,,Citibank,Q857063
39096,citi,ATM CEDAR RAPIDS # 1 81,,Cedar Rapids,IA,,US,,,,Citibank,Q857063
39097,citi,ATM CEDAR RAPIDS # 2 81,,Cedar Rapids,IA,,US,,,,Citibank,Q857063
54956,citi,ATM FARMERS STATE BANK,,Cedar Rapids,IA,,US,,,,Citibank,Q857063
90186,citi,ATM Walgreens,,Cedar Rapids,IA,,US,,,,Citibank,Q857063
https://www.edwardjones.com/us-en/financial-advisor/ian-robinson,edwardjones,Ian S Robinson,,Cedar Rapids,IA,,US,+1 319-390-0345,https://www.edwardjones.com/us-en/financial-advisor/ian-robinson,Mo-Th 08:00-16:30; Fr 08:00-15:30,Edward Jones,Q5343830
24541,family_dollar_us,FAMILY DOLLAR #4541,,Cedar Rapids,IA,,US,+1 319-775-6432,https://www.familydollar.com/locations/ia/cedar-rapids/24541/,Mo-Su 08:00-22:00,Family Dollar,Q5433101
https://local.fedex.com/#25201446,fedex,,,Cedar Rapids,IA,,US,+1 800-463-3339,https://local.fedex.com/en-us/ia/cedar-rapids/vexhu,,FedEx,Q459477
16150,h_r_block,H&R Block,,Cedar Rapids,IA,,US,+1 319-396-0127,https://www.hrblock.com/local-tax-offices/iowa/cedar-rapids/edgewood-shopping-center/16150/,,H&R Block,Q5627799
16098,h_r_block,H&R Block,,Cedar Rapids,IA,,US,+1 319-365-3360,https://www.hrblock.com/local-tax-offices/iowa/cedar-rapids/629-1st-ave-sw/16098/,,H&R Block,Q5627799
https://locations.papamurphys.com/#15429876,papamurphys,Pizza Takeout & Delivery,,Cedar Rapids,IA,,US,+1 319-390-3896,https://locations.papamurphys.com/ia/cedar-rapids/408-edgewood-road-north-west,Mo-Su 11:00-19:00,Papa Murphy's,Q7132349
ia_cedar-rapids_423-edgewood-rd-nw,pizza_hut_us,423 Edgewood Rd NW,,Cedar Rapids,IA,,US,+1 319-396-7777,https://locations.pizzahut.com/ia/cedar-rapids/423-edgewood-rd-nw,,Pizza Hut,Q191615
https://restaurants.subway.com/#14897516,subway,Subway Edgewood Plaza,,Cedar Rapids Linn,IA,,US,+1 319-396-8141,https://restaurants.subway.com/united-states/ia/cedar-rapids/425-edgewood-road-nw,Mo-Su 08:00-22:00,Subway,Q244457
583561,taco_johns_us,Cedar Rapids - Edgewood Rd.,"226 Edgewood Rd NW, Cedar Rapids IA 52405",Cedar Rapids,IA,,US,+1 319-396-2025,https://locations.tacojohns.com/ia/cedar-rapids/226-edgewood-rd-nw/,Mo-Su 07:00-22:00,Taco John's,Q7673962
5240500003,usps_collection_boxes,USPS COLLECTION BOX - BLUE BOX,2200 BUCKINGHAM DR NW,CEDAR RAPIDS,IA,,US,,,,United States Postal Service,Q668687
5240500042,usps_collection_boxes,USPS COLLECTION BOX - BLUE BOX,1843 JOHNSON AVE NW,CEDAR RAPIDS,IA,,US,,,,United States Postal Service,Q668687
5240500006,usps_collection_boxes,USPS COLLECTION BOX - BLUE BOX,300 EDGEWOOD RD NW,CEDAR RAPIDS,IA,,US,,,,United States Postal Service,Q668687
5240500041,usps_collection_boxes,USPS COLLECTION BOX - BLUE BOX,4825 JOHNSON AVE NW,CEDAR RAPIDS,IA,,US,,,,United States Postal Service,Q668687
https://vcahospitals.com/edgewood,vca,VCA Edgewood Animal Hospital,,Cedar Rapids,IA,,US,+1 319-396-7800,https://vcahospitals.com/edgewood,Mo-Fr 08:00-18:00; Sa 08:00-14:00,VCA,Q7906620
,visa,,,CEDAR RAPIDS,IA,,US,,,,,
,visa,,,CEDAR RAPIDS,IA,,US,,,,,
,visa,,,CEDAR RAPIDS,IA,,US,,,,,
,visa,,,CEDAR RAPIDS,IA,,US,,,,,
,visa,,,CEDAR RAPIDS,IA,,US,,,,,
,visa,,,CEDAR RAPIDS,IA,,US,,,,,
,visa,,,CEDAR RAPIDS,IA,,US,,,,,
,visa,,,CEDAR RAPIDS,IA,,US,,,,,
,visa,,,CEDAR RAPIDS,IA,,US,,,,,
,visa,,,CEDAR RAPIDS,IA,,US,,,,,
,visa,,,CEDAR RAPIDS,IA,,US,,,,,
,visa,,,CEDAR RAPIDS,IA,,US,,,,,
,visa,,,CEDAR RAPIDS,IA,,US,,,,,
,visa,,,CEDAR RAPIDS,IA,,US,,,,,
,visa,,,CEDAR RAPIDS,IA,,US,,,,,
,visa,,,CEDAR RAPIDS,IA,,US,,,,,
,visa,,,CEDAR RAPIDS,IA,,US,,,,,
,visa,,,CEDAR RAPIDS,IA,,US,,,,,
,visa,,,CEDAR RAPIDS,IA,,US,,,,,
,visa,,,CEDAR RAPIDS,IA,,US,,,,,
,visa,,,CEDAR RAPIDS,IA,,US,,,,,
,visa,,,CEDAR RAPIDS,IA,,US,,,,,
,visa,,,CEDAR RAPIDS,IA,,US,,,,,
,visa,,,CEDAR RAPIDS,IA,,US,,,,,
,visa,,,CEDAR RAPIDS,IA,,US,,,,,
,visa,,,CEDAR RAPIDS,IA,,US,,,,,
,visa,,,CEDAR RAPIDS,IA,,US,,,,,
,visa,,,CEDAR RAPIDS,IA,,US,,,,,
,visa,,,CEDAR RAPIDS,IA,,US,,,,,
,visa,,,CEDAR RAPIDS,IA,,US,,,,,
,visa,,,CEDAR RAPIDS,IA,,US,,,,,
,visa,,,CEDAR RAPIDS,IA,,US,,,,,
https://www.walgreens.com/locator/walgreens-324+edgewood+rd+nw-cedar+rapids-ia-52405/id=12580,walgreens,Walgreens,,Cedar Rapids,IA,,US,+1 319-730-0636,https://www.walgreens.com/locator/walgreens-324+edgewood+rd+nw-cedar+rapids-ia-52405/id=12580,Mo-Sa 08:00-21:00; Su 09:00-21:00,Walgreens,Q1591889
