Ref,Spider,Name,Address,City,State,Zipcode,Country,Phone,Website,Hours,Brand,WikiData
52198,asics_us,Iowa Running Co.,1000 3rd St. SE,Cedar Rapids,IA,,US,+1 319-364-0641,,Mo-Fr 10:00-18:00; Sa 10:00-17:00; Su 12:00-17:00,asics,Q327247
202570,bluerhino,CASEY'S GENERAL STORE #2778,,CEDAR RAPIDS,IA,,US,+1 319-862-1082,,,Blue Rhino,Q65681213
54148,citi,ATM DUBUQUE BANK & TRUST,,Cedar Rapids,IA,,US,,,,Citibank,Q857063
59413,citi,ATM HILLS BANK DOWNTOWN CR,,Cedar Rapids,IA,,US,,,,Citibank,Q857063
,credit_union_us,Dupaco Community CU,,Cedar Rapids,IA,,US,+1 800-373-7600,,Mo-Fr 08:00-06:00; Sa 08:00-01:00,,
https://www.edwardjones.com/us-en/financial-advisor/ryan-rader,edwardjones,Ryan T Rader,,Cedar Rapids,IA,,US,+1 319-366-3261,https://www.edwardjones.com/us-en/financial-advisor/ryan-rader,Mo-Fr 08:00-16:30,Edward Jones,Q5343830
cidccdt-doubletree-cedar-rapids-convention-complex,hilton,DoubleTree by Hilton Hotel Cedar Rapids Convention Complex,,,IA,,US,+1 319-731-4444,https://www.hilton.com/ar/hotels/cidccdt-doubletree-cedar-rapids-convention-complex/,,DoubleTree by Hilton,Q2504643
https://locations.jimmyjohns.com/ia/cedarrapids/sandwiches-1908.html,jimmy_johns,Jimmy John's,,Cedar Rapids,IA,,US,+1 319-364-4024,https://locations.jimmyjohns.com/ia/cedarrapids/sandwiches-1908.html,,Jimmy John's,Q1689380
https://locations.tacobell.com/#6142725,taco_bell,Taco Bell,,Cedar Rapids,IA,,US,+1 319-366-0123,https://locations.tacobell.com/ia/cedar-rapids/624-1st-ave-ne.html,Mo-Th 08:00-01:00; Fr-Sa 08:00-02:00; Su 08:00-01:00,Taco Bell,Q752941
1357388,usps,CEDAR RAPIDS,,CEDAR RAPIDS,IA,,US,+1 319-399-5560,,Mo-Fr 08:00-17:00; Sa 09:00-12:00,United States Postal Service,Q668687
5240100058,usps_collection_boxes,USPS COLLECTION BOX - BLUE BOX,615 6TH AVE SE,CEDAR RAPIDS,IA,,US,,,,United States Postal Service,Q668687
5240100059,usps_collection_boxes,USPS COLLECTION BOX - BLUE BOX,615 6TH AVE SE,CEDAR RAPIDS,IA,,US,,,,United States Postal Service,Q668687
5240100062,usps_collection_boxes,USPS COLLECTION BOX - BLUE BOX,615 6TH AVE SE,CEDAR RAPIDS,IA,,US,,,,United States Postal Service,Q668687
5240100066,usps_collection_boxes,USPS COLLECTION BOX - PO LOBBY,615 6TH AVE SE,CEDAR RAPIDS,IA,,US,,,,United States Postal Service,Q668687
5240100080,usps_collection_boxes,USPS COLLECTION BOX - APC,615 6TH AVE SE,CEDAR RAPIDS,IA,,US,,,,United States Postal Service,Q668687
5240100086,usps_collection_boxes,USPS COLLECTION BOX - PO LOBBY,615 6TH AVE SE,CEDAR RAPIDS,IA,,US,,,,United States Postal Service,Q668687
5240100012,usps_collection_boxes,USPS COLLECTION BOX - BLUE BOX,700 3RD AVE SE,CEDAR RAPIDS,IA,,US,,,,United States Postal Service,Q668687
5240100005,usps_collection_boxes,USPS COLLECTION BOX - BLUE BOX,145 TRANSIT WAY SE,CEDAR RAPIDS,IA,,US,,,,United States Postal Service,Q668687
5240100070,usps_collection_boxes,USPS COLLECTION BOX - BLUE BOX,526 2ND AVE SE,CEDAR RAPIDS,IA,,US,,,,United States Postal Service,Q668687
5240100004,usps_collection_boxes,USPS COLLECTION BOX - BLUE BOX,424 1ST AVE NE,CEDAR RAPIDS,IA,,US,,,,United States Postal Service,Q668687
5240100037,usps_collection_boxes,USPS COLLECTION BOX - BLUE BOX,417 1ST AVE SE,CEDAR RAPIDS,IA,,US,,,,United States Postal Service,Q668687
5240100083,usps_collection_boxes,USPS COLLECTION BOX - BLUE BOX,411 3RD ST SE,CEDAR RAPIDS,IA,,US,,,,United States Postal Service,Q668687
5240100084,usps_collection_boxes,USPS COLLECTION BOX - BLUE BOX,310 3RD AVE SE,CEDAR RAPIDS,IA,,US,,,,United States Postal Service,Q668687
5240100077,usps_collection_boxes,USPS COLLECTION BOX - BLUE BOX,625 1ST ST SE,CEDAR RAPIDS,IA,,US,,,,United States Postal Service,Q668687
5240100056,usps_collection_boxes,USPS COLLECTION BOX - BLUE BOX,210 2ND ST SE,CEDAR RAPIDS,IA,,US,,,,United States Postal Service,Q668687
5240100065,usps_collection_boxes,USPS COLLECTION BOX - BLUE BOX,116 3RD AVE SE,CEDAR RAPIDS,IA,,US,,,,United States Postal Service,Q668687
5240100001,usps_collection_boxes,USPS COLLECTION BOX - BLUE BOX,150 1ST AVE NE,CEDAR RAPIDS,IA,,US,,,,United States Postal Service,Q668687
5240100016,usps_collection_boxes,USPS COLLECTION BOX - BLUE BOX,51 3RD AVENUE BRG,CEDAR RAPIDS,IA,,US,,,,United States Postal Service,Q668687
,visa,,,CEDAR RAPIDS,IA,,US,,,,,
,visa,,,CEDAR RAPIDS,IA,,US,,,,,
,visa,,,CEDAR RAPIDS,IA,,US,,,,,
,visa,,,CEDAR RAPIDS,IA,,US,,,,,
,visa,,,CEDAR RAPIDS,IA,,US,,,,,
,visa,,,CEDAR RAPIDS,IA,,US,,,,,
,visa,,,CEDAR RAPIDS,IA,,US,,,,,
,visa,,,CEDAR RAPIDS,IA,,US,,,,,
,visa,,,CEDAR RAPIDS,IA,,US,,,,,
,visa,,,CEDAR RAPIDS,IA,,US,,,,,
,visa,,,CEDAR RAPIDS,IA,,US,,,,,
,visa,,,CEDAR RAPIDS,IA,,US,,,,,
,visa,,,CEDAR RAPIDS,IA,,US,,,,,
,visa,,,CEDAR RAPIDS,IA,,US,,,,,
,visa,,,CEDAR RAPIDS,IA,,US,,,,,
,visa,,,CEDAR RAPIDS,IA,,US,,,,,
,visa,,,CEDAR RAPIDS,IA,,US,,,,,
,visa,,,CEDAR RAPIDS,IA,,US,,,,,
,visa,,,CEDAR RAPIDS,IA,,US,,,,,
,visa,,,CEDAR RAPIDS,IA,,US,,,,,
,visa,,,CEDAR RAPIDS,IA,,US,,,,,
,visa,,,CEDAR RAPIDS,IA,,US,,,,,
,visa,,,CEDAR RAPIDS,IA,,US,,,,,
,visa,,,CEDAR RAPIDS,IA,,US,,,,,
,visa,,,CEDAR RAPIDS,IA,,US,,,,,
,visa,,,CEDAR RAPIDS,IA,,US,,,,,
,visa,,,CEDAR RAPIDS,IA,,US,,,,,
,visa,,,CEDAR RAPIDS,IA,,US,,,,,
150__1ST__AVE__NE_CEDAR__RAPIDS_IA_52401,wellsfargo,Wells Fargo,150 1ST AVE NE,CEDAR RAPIDS,IA,,US,+1 319-398-3000,https://www.wellsfargo.com/locator/bank/150__1ST__AVE__NE_CEDAR__RAPIDS_IA_52401/,Mo-Fr 09:00-17:00,Wells Fargo,Q744149
ymca-cedar-rapids-metropolitan-area,ymca,YMCA of the Cedar Rapids Metropolitan Area,207 7th Ave SE,Cedar Rapids,IA,,US,+1 319-366-6421,https://www.ymca.org/locations/ymca-cedar-rapids-metropolitan-area,Mo-Fr 08:00-16:30,YMCA,Q157169
helen-g-nassif-ymca,ymca,Helen G. Nassif YMCA,207 7th Ave SE,Cedar Rapids,IA,,US,+1 319-366-6421,https://www.ymca.org/locations/helen-g-nassif-ymca,Mo-Th 05:30-21:00; Fr 05:30-19:00; Sa 07:00-16:00; Su 10:00-14:00,YMCA,Q157169
