Ref,Spider,Name,Address,City,State,Zipcode,Country,Phone,Website,Hours,Brand,WikiData
MX-1072,anytime_fitness,Anytime Fitness,,Celaya,Guanajuato,,MX,+52 461 124 4733,https://anytimefitness.com.mx/club/mx-1072/celaya-guanajuato-38020/,,Anytime Fitness,Q4778364
971,first_cash,First Cash Pawn,,Celaya,Guanajuato,,MX,+52 461 157 6713,,,First Cash Pawn,
7595,vertiche_mx,PARQUE CELAYA,Av. Eje Nor-Poniente- Manuel J.Clouthier 801 (Plaza Parque Celaya),Celaya,Guanajuato,,MX,,,,Vertiche,Q113215945
,visa,,,CELAYA,GUANAJUATO,,MX,,,,,
,visa,,,CELAYA,GUANAJUATO,,MX,,,,,
,visa,,,CELAYA,GUANAJUATO,,MX,,,,,
,visa,,,CELAYA,GUANAJUATO,,MX,,,,,
,visa,,,CELAYA,GUANAJUATO,,MX,,,,,
,visa,,,CELAYA,GUANAJUATO,,MX,,,,,
,visa,,,CELAYA,GUANAJUATO,,MX,,,,,
,visa,,,CELAYA,GUANAJUATO,,MX,,,,,
,visa,,,CELAYA,GUANAJUATO,,MX,,,,,
,visa,,,CELAYA,GUANAJUATO,,MX,,,,,
,visa,,,CELAYA,GUANAJUATO,,MX,,,,,
,visa,,,CELAYA,GUANAJUATO,,MX,,,,,
,visa,,,CELAYA,GUANAJUATO,,MX,,,,,
,visa,,,CELAYA,GUANAJUATO,,MX,,,,,
,visa,,,CELAYA,GUANAJUATO,,MX,,,,,
c34829b035d92d3bfdef6c2ec0b29059,western_union,MUEBLES AMERICA 97 AP CASH,,Celaya,GUANAJUATO,,MX,+52 33 1201 1000,https://location.westernunion.com/mx/guanajuato/celaya/c34829b035d92d3bfdef6c2ec0b29059,Mo-Sa 10:00-20:30; Su 10:00-15:00,Western Union,Q861042
e2f36f2d808cdc41337987cf287b4631,western_union,MUEBLES AMERICA 97 AP CASH,,Celaya,GUANAJUATO,,MX,+52 33 1201 1000,https://location.westernunion.com/mx/guanajuato/celaya/e2f36f2d808cdc41337987cf287b4631,Mo-Sa 10:00-20:30; Su 10:00-15:00,Western Union,Q861042
f3692694cbb2cf42be327142fac1122e,western_union,ISSEG CELAYA SAN JOSE DE GUANAJUATO 185,,Celaya,GUANAJUATO,,MX,+52 800 224 7734,https://location.westernunion.com/mx/guanajuato/celaya/f3692694cbb2cf42be327142fac1122e,Mo-Su 07:00-21:00,Western Union,Q861042
79802575eafb1d574a845e7752fb757b,western_union,ISSEG CELAYA SAN JOSE DE GUANAJUATO 185,,Celaya,GUANAJUATO,,MX,+52 800 224 7734,https://location.westernunion.com/mx/guanajuato/celaya/79802575eafb1d574a845e7752fb757b,Mo-Su 07:00-21:00,Western Union,Q861042
66bfc52dcb42649765b2642108be9fd6,western_union,OXXO BRONCE QRF,,Celaya,GUANAJUATO,,MX,+52 81 8389 2121,https://location.westernunion.com/mx/guanajuato/celaya/66bfc52dcb42649765b2642108be9fd6,Mo-Su 08:00-22:00,Western Union,Q861042
d46107b81cceecafeb3b140660a2d600,western_union,OXXO BRONCE QRF,,Celaya,GUANAJUATO,,MX,+52 81 8389 2121,https://location.westernunion.com/mx/guanajuato/celaya/d46107b81cceecafeb3b140660a2d600,Mo-Su 08:00-22:00,Western Union,Q861042
887f1ecefbfdde8504f9ee1bb50d112e,western_union,OXXO SAN JUANICO QRF,,Celaya,GUANAJUATO,,MX,+52 81 8389 2121,https://location.westernunion.com/mx/guanajuato/celaya/887f1ecefbfdde8504f9ee1bb50d112e,Mo-Su 08:00-22:00,Western Union,Q861042
6798a5bf4bb40a07cda8748af9e1527e,western_union,OXXO BRONCE QRF,,Celaya,GUANAJUATO,,MX,+52 81 8389 2121,https://location.westernunion.com/mx/guanajuato/celaya/6798a5bf4bb40a07cda8748af9e1527e,Mo-Su 08:00-22:00,Western Union,Q861042
b6c01ab8619a0b159d34d45584cdce04,western_union,OXXO SAN JUANICO QRF,,Celaya,GUANAJUATO,,MX,+52 81 8389 2121,https://location.westernunion.com/mx/guanajuato/celaya/b6c01ab8619a0b159d34d45584cdce04,Mo-Su 08:00-22:00,Western Union,Q861042
7d3e0a84e3df4a740105761297621692,western_union,OXXO SAN JUANICO QRF,,Celaya,GUANAJUATO,,MX,+52 81 8389 2121,https://location.westernunion.com/mx/guanajuato/celaya/7d3e0a84e3df4a740105761297621692,Mo-Su 08:00-22:00,Western Union,Q861042
bc4f77751c9fbdce83e9410b4a547275,western_union,OXXO MAT ORO QRF,,Celaya,GUANAJUATO,,MX,+52 81 8389 2121,https://location.westernunion.com/mx/guanajuato/celaya/bc4f77751c9fbdce83e9410b4a547275,Mo-Su 08:00-22:00,Western Union,Q861042
adee2a4e8fe01886a0148636473df946,western_union,OXXO MAT ORO QRF,,Celaya,GUANAJUATO,,MX,+52 81 8389 2121,https://location.westernunion.com/mx/guanajuato/celaya/adee2a4e8fe01886a0148636473df946,Mo-Su 08:00-22:00,Western Union,Q861042
1123ee6544e42131b7efe8865c6f9463,western_union,FARM GUAD 12 DE OCTUBRE,,Celaya,GUANAJUATO,,MX,+52 800 833 4700,https://location.westernunion.com/mx/guanajuato/celaya/1123ee6544e42131b7efe8865c6f9463,Mo-Su 09:00-22:00,Western Union,Q861042
17233d883c336671f6477c755bea85ab,western_union,FARM GUAD 12 DE OCTUBRE,,Celaya,GUANAJUATO,,MX,+52 800 833 4700,https://location.westernunion.com/mx/guanajuato/celaya/17233d883c336671f6477c755bea85ab,Mo-Su 09:00-22:00,Western Union,Q861042
e6c7ada342e3789c5358f3f71bbad480,western_union,FARM GUAD 12 DE OCTUBRE,,Celaya,GUANAJUATO,,MX,+52 800 833 4700,https://location.westernunion.com/mx/guanajuato/celaya/e6c7ada342e3789c5358f3f71bbad480,Mo-Su 09:00-22:00,Western Union,Q861042
18bf1ccb94f2d45fda01d67bd8806676,western_union,SORIANA CELAYA 102,,Celaya,GUANAJUATO,,MX,(+52) 81-1112009,https://location.westernunion.com/mx/guanajuato/celaya/18bf1ccb94f2d45fda01d67bd8806676,Mo-Su 08:00-23:00,Western Union,Q861042
d22b7862223a7d5cfa4be61e92e4ea41,western_union,SORIANA CELAYA 102,,Celaya,GUANAJUATO,,MX,(+52) 81-1112009,https://location.westernunion.com/mx/guanajuato/celaya/d22b7862223a7d5cfa4be61e92e4ea41,Mo-Su 08:00-23:00,Western Union,Q861042
d30043d022191dc12c491350f260ad28,western_union,SORIANA CELAYA 102,,Celaya,GUANAJUATO,,MX,(+52) 81-1112009,https://location.westernunion.com/mx/guanajuato/celaya/d30043d022191dc12c491350f260ad28,Mo-Su 08:00-23:00,Western Union,Q861042
cd30dd059f87a84bbcc0a2799aeca73e,western_union,OXXO SAN JOSE QRF,,Celaya,GUANAJUATO,,MX,+52 81 8389 2121,https://location.westernunion.com/mx/guanajuato/celaya/cd30dd059f87a84bbcc0a2799aeca73e,Mo-Su 08:00-22:00,Western Union,Q861042
50d448ba208c0dd49e09ab051a89585c,western_union,OXXO SAN JOSE QRF,,Celaya,GUANAJUATO,,MX,+52 81 8389 2121,https://location.westernunion.com/mx/guanajuato/celaya/50d448ba208c0dd49e09ab051a89585c,Mo-Su 08:00-22:00,Western Union,Q861042
42c7c53ec2dfc4cdaf812d4812924f1a,western_union,OXXO SAN JOSE QRF,,Celaya,GUANAJUATO,,MX,+52 81 8389 2121,https://location.westernunion.com/mx/guanajuato/celaya/42c7c53ec2dfc4cdaf812d4812924f1a,Mo-Su 08:00-22:00,Western Union,Q861042
33e17dba4656c94f74080b7a87dcebae,western_union,OXXO LIZARDI QRF,,Celaya,GUANAJUATO,,MX,+52 81 8389 2121,https://location.westernunion.com/mx/guanajuato/celaya/33e17dba4656c94f74080b7a87dcebae,Mo-Su 08:00-22:00,Western Union,Q861042
3f7c1f5a66b31bf5dece3f91857e4b50,western_union,OXXO LIZARDI QRF,,Celaya,GUANAJUATO,,MX,+52 81 8389 2121,https://location.westernunion.com/mx/guanajuato/celaya/3f7c1f5a66b31bf5dece3f91857e4b50,Mo-Su 08:00-22:00,Western Union,Q861042
865b8f01919d557f438e40d9106bce96,western_union,OXXO LIZARDI QRF,,Celaya,GUANAJUATO,,MX,+52 81 8389 2121,https://location.westernunion.com/mx/guanajuato/celaya/865b8f01919d557f438e40d9106bce96,Mo-Su 08:00-22:00,Western Union,Q861042
7ad5055b21f039e2be5da99ff47a35f7,western_union,ISSEG CELAYA DEL FERROCARRIL 198,,Celaya,GUANAJUATO,,MX,+52 800 224 7734,https://location.westernunion.com/mx/guanajuato/celaya/7ad5055b21f039e2be5da99ff47a35f7,Mo-Su 07:00-21:00,Western Union,Q861042
c8cf2dcdbc7948ce2418a67e3dcab959,western_union,ISSEG CELAYA DEL FERROCARRIL 198,,Celaya,GUANAJUATO,,MX,+52 800 224 7734,https://location.westernunion.com/mx/guanajuato/celaya/c8cf2dcdbc7948ce2418a67e3dcab959,Mo-Su 07:00-21:00,Western Union,Q861042
e8f693959c0bcbe0f00da0f61b2eacb2,western_union,ISSEG CELAYA DEL FERROCARRIL 198,,Celaya,GUANAJUATO,,MX,+52 800 224 7734,https://location.westernunion.com/mx/guanajuato/celaya/e8f693959c0bcbe0f00da0f61b2eacb2,Mo-Su 07:00-21:00,Western Union,Q861042
27b8788fd28ec4eb95f3a5af6a325999,western_union,OXXO EL SAUZ QRF,,Celaya,GUANAJUATO,,MX,+52 81 8389 2121,https://location.westernunion.com/mx/guanajuato/celaya/27b8788fd28ec4eb95f3a5af6a325999,Mo-Su 08:00-22:00,Western Union,Q861042
39983be687f4e45f45b3f11c1b91367e,western_union,OXXO EL SAUZ QRF,,Celaya,GUANAJUATO,,MX,+52 81 8389 2121,https://location.westernunion.com/mx/guanajuato/celaya/39983be687f4e45f45b3f11c1b91367e,Mo-Su 08:00-22:00,Western Union,Q861042
9d1aed2f03dd80909673d1fa821da2f8,western_union,OXXO EL SAUZ QRF,,Celaya,GUANAJUATO,,MX,+52 81 8389 2121,https://location.westernunion.com/mx/guanajuato/celaya/9d1aed2f03dd80909673d1fa821da2f8,Mo-Su 08:00-22:00,Western Union,Q861042
62f1b3ebf957a263834a8998a80cb003,western_union,ISSEG CELAYA 12 DE OCTUBRE 122,,Celaya,GUANAJUATO,,MX,+52 800 224 7734,https://location.westernunion.com/mx/guanajuato/celaya/62f1b3ebf957a263834a8998a80cb003,Mo-Su 07:00-21:00,Western Union,Q861042
31993775de2e0ac17f9366c54bd24507,western_union,ISSEG CELAYA 12 DE OCTUBRE 122,,Celaya,GUANAJUATO,,MX,+52 800 224 7734,https://location.westernunion.com/mx/guanajuato/celaya/31993775de2e0ac17f9366c54bd24507,Mo-Su 07:00-21:00,Western Union,Q861042
457ebb5e58f1d61f531174cfdf1cc353,western_union,ISSEG CELAYA 12 DE OCTUBRE 122,,Celaya,GUANAJUATO,,MX,+52 800 224 7734,https://location.westernunion.com/mx/guanajuato/celaya/457ebb5e58f1d61f531174cfdf1cc353,Mo-Su 07:00-21:00,Western Union,Q861042
4727fc0bfc7ae68f2d652ccc38e3dd03,western_union,MUEBLES AMERICA 92 AP CASH,,Celaya,GUANAJUATO,,MX,+52 461 295 6501,https://location.westernunion.com/mx/guanajuato/celaya/4727fc0bfc7ae68f2d652ccc38e3dd03,Mo-Sa 10:00-20:30; Su 10:00-15:00,Western Union,Q861042
42df4a5eeb63af6925e7e6243e6063dd,western_union,MUEBLES AMERICA 92 AP CASH,,Celaya,GUANAJUATO,,MX,+52 461 295 6501,https://location.westernunion.com/mx/guanajuato/celaya/42df4a5eeb63af6925e7e6243e6063dd,Mo-Sa 10:00-20:30; Su 10:00-15:00,Western Union,Q861042
88eb4e2062735bfdc834836df583dbc0,western_union,ISSEG CELAYA SAN JOSE DE GUANAJUATO 185,,Celaya,GUANAJUATO,,MX,+52 800 224 7734,https://location.westernunion.com/mx/guanajuato/celaya/88eb4e2062735bfdc834836df583dbc0,Mo-Su 07:00-21:00,Western Union,Q861042
