Ref,Spider,Name,Address,City,State,Zipcode,Country,Phone,Website,Hours,Brand,WikiData
158006,bluerhino,Chenoa Country Store,,Pineville,KY,,US,+1 606-337-5936,,,Blue Rhino,Q65681213
154500,bluerhino,Walgreens #13034,,Pineville,KY,,US,+1 606-337-1444,,,Blue Rhino,Q65681213
165307,bluerhino,Family Dollar #03455,,PINEVILLE,KY,,US,+1 606-441-6001,,,Blue Rhino,Q65681213
91694,citi,ATM Walgreens,,Pineville,KY,,US,,,,Citibank,Q857063
23455,family_dollar_us,FAMILY DOLLAR #3455,,Pineville,KY,,US,+1 606-441-6001,https://www.familydollar.com/locations/ky/pineville/23455/,Mo-Sa 09:00-22:00; Su 09:00-21:00,Family Dollar,Q5433101
https://locations.kfc.com/#11247888,kfc,Chicken Nuggets Near Pineville,,Pineville,KY,,US,,https://locations.kfc.com/ky/pineville/117-pine-street/chickennugget,Mo-Su 10:30-21:00,KFC,Q524757
161425,marathon_petroleum_us,LEES FOOD MART 11,,PINEVILLE,KY,,US,+1 606-337-5030,,,Marathon,Q458363
2593,mightyflame,MAPCO EXPRESS #1060,,Pineville,KY,,US,+1 606-337-7788,,,Mighty Flame,
ky_pineville_us-rte-25-east,pizza_hut_us,US Rte 25 East,,Pineville,KY,,US,+1 606-337-6724,https://locations.pizzahut.com/ky/pineville/us-rte-25-east,,Pizza Hut,Q191615
https://restaurants.subway.com/#14898056,subway,Subway,,Pineville Bell,KY,,US,+1 606-337-1300,https://restaurants.subway.com/united-states/ky/pineville/108-kentucky-ave,Mo-Su 09:00-22:00,Subway,Q244457
1377587,usps,PINEVILLE,,PINEVILLE,KY,,US,+1 606-337-2650,,Mo-Fr 08:30-16:00; Sa 09:00-11:00,United States Postal Service,Q668687
4097700004,usps_collection_boxes,USPS COLLECTION BOX - PO LOBBY,111 S WALNUT ST,PINEVILLE,KY,,US,,,,United States Postal Service,Q668687
4097700006,usps_collection_boxes,USPS COLLECTION BOX - BLUE BOX,111 S WALNUT ST,PINEVILLE,KY,,US,,,,United States Postal Service,Q668687
4097700007,usps_collection_boxes,USPS COLLECTION BOX - PO LOBBY,111 S WALNUT ST,PINEVILLE,KY,,US,,,,United States Postal Service,Q668687
4097700009,usps_collection_boxes,USPS COLLECTION BOX - PO LOBBY,111 S WALNUT ST,PINEVILLE,KY,,US,,,,United States Postal Service,Q668687
4097700002,usps_collection_boxes,USPS COLLECTION BOX - BLUE BOX,203 S CHERRY ST,PINEVILLE,KY,,US,,,,United States Postal Service,Q668687
4097700005,usps_collection_boxes,USPS COLLECTION BOX - BLUE BOX,134 N PINE ST,PINEVILLE,KY,,US,,,,United States Postal Service,Q668687
4097700001,usps_collection_boxes,USPS COLLECTION BOX - BLUE BOX,100 S HOLLY ST,PINEVILLE,KY,,US,,,,United States Postal Service,Q668687
,visa,,,PINEVILLE,KY,,US,,,,,
,visa,,,PINEVILLE,KY,,US,,,,,
,visa,,,PINEVILLE,KY,,US,,,,,
,visa,,,PINEVILLE,KY,,US,,,,,
,visa,,,PINEVILLE,KY,,US,,,,,
,visa,,,PINEVILLE,KY,,US,,,,,
,visa,,,PINEVILLE,KY,,US,,,,,
,visa,,,PINEVILLE,KY,,US,,,,,
,visa,,,PINEVILLE,KY,,US,,,,,
,visa,,,PINEVILLE,KY,,US,,,,,
,visa,,,PINEVILLE,KY,,US,,,,,
,visa,,,PINEVILLE,KY,,US,,,,,
,visa,,,PINEVILLE,KY,,US,,,,,
https://www.walgreens.com/locator/walgreens-528+w+tennessee+ave-pineville-ky-40977/id=13034,walgreens,Walgreens,,Pineville,KY,,US,+1 606-337-1444,https://www.walgreens.com/locator/walgreens-528+w+tennessee+ave-pineville-ky-40977/id=13034,Mo-Sa 08:00-20:00; Su 10:00-18:00,Walgreens,Q1591889
