Ref,Spider,Name,Address,City,State,Zipcode,Country,Phone,Website,Hours,Brand,WikiData
https://stores.advanceautoparts.com/oh/brookville/610-arlington-rd,advance_auto_parts_us,Advance Auto Parts,,Brookville,OH,,US,+1 937-833-0838,https://stores.advanceautoparts.com/oh/brookville/610-arlington-rd,Mo-Sa 07:30-21:00; Su 09:00-20:00,Advance Auto Parts,Q4686051
73020,bluerhino,Speedway #1219,,Brookville,OH,,US,+1 937-833-4680,,,Blue Rhino,Q65681213
206304,bluerhino,Rite Aid #01659,,Brookville,OH,,US,+1 937-833-2174,,,Blue Rhino,Q65681213
131876,bluerhino,Speedway #8013,,Brookville,OH,,US,+1 937-833-5255,,,Blue Rhino,Q65681213
64043142708014530900100000000000,bp,BP,,Brookville,OH,,US,+1 937-833-2339,,24/7,BP,Q152057
09073,chevrolet,REICHARD CHEVROLET COMPANY,,Brookville,OH,,US,+1 937-833-4011,https://www.reichardchevrolet.com,Mo-Th 09:00-19:00; Fr 09:00-18:00; Sa 10:00-16:00,Chevrolet,Q29570
https://www.edwardjones.com/us-en/financial-advisor/evan-trick,edwardjones,Evan Trick,,Brookville,OH,,US,+1 937-833-4540,https://www.edwardjones.com/us-en/financial-advisor/evan-trick,,Edward Jones,Q5343830
1506550,hardees_us,Hardee's,,Brookville,OH,,US,+1 937-833-2346,https://locations.hardees.com/oh/brookville/801-arlington-road,,Hardee's,Q1585088
McMaken's IGA,iga,McMaken's IGA,"1 McMaken Lane, Brookville, OH, 45309",Brookville,OH,,US,+1 937-833-2118,http://www.mcmakens.com,,IGA,Q3146662
https://locations.kfc.com/#11249892,kfc,Chicken Nuggets Near Brookville,,Brookville,OH,,US,,https://locations.kfc.com/oh/brookville/25-triggs-road/chickennugget,Mo-Su 10:30-23:00,KFC,Q524757
https://locations.oreillyauto.com/oh/brookville/battery-testing-6225.html,oreilly,Your Brookville O'Reilly Auto Parts Store,,Brookville,OH,,US,+1 326-699-8370,https://locations.oreillyauto.com/oh/brookville/battery-testing-6225.html,Mo-Sa 07:30-21:00; Su 09:00-20:00,O'Reilly Auto Parts,Q7071951
https://locations.oreillyauto.com/oh/brookville/check-engine-light-testing-6225.html,oreilly,Your Brookville O'Reilly Auto Parts Store,,Brookville,OH,,US,+1 326-699-8370,https://locations.oreillyauto.com/oh/brookville/check-engine-light-testing-6225.html,Mo-Sa 07:30-21:00; Su 09:00-20:00,O'Reilly Auto Parts,Q7071951
https://locations.oreillyauto.com/oh/brookville/autopartes-6225.html,oreilly,O'Reilly Auto Parts,,Brookville,OH,,US,+1 326-699-8370,https://locations.oreillyauto.com/oh/brookville/autopartes-6225.html,Mo-Sa 07:30-21:00; Su 09:00-20:00,O'Reilly Auto Parts,Q7071951
https://locations.oreillyauto.com/oh/brookville/wiper-installation-6225.html,oreilly,Your Brookville O'Reilly Auto Parts Store,,Brookville,OH,,US,+1 326-699-8370,https://locations.oreillyauto.com/oh/brookville/wiper-installation-6225.html,Mo-Sa 07:30-21:00; Su 09:00-20:00,O'Reilly Auto Parts,Q7071951
oh_brookville_428-n-wolf-creek,pizza_hut_us,428 N Wolf Creek,,Brookville,OH,,US,+1 937-833-2780,https://locations.pizzahut.com/oh/brookville/428-n-wolf-creek,,Pizza Hut,Q191615
01659,rite_aid_us,Rite Aid #01659 Brookville,,Brookville,OH,,US,+1 937-833-2174,https://locations2.riteaid.com.yext-cdn.com/oh/brookville/437-north-wolf-creek-street.html,Mo-Su 08:00-22:00,Rite Aid,Q3433273
https://restaurants.subway.com/#14908767,subway,Subway,,Brookville Montgomery,OH,,US,+1 937-833-2510,https://restaurants.subway.com/united-states/oh/brookville/428-wolf-creek-st,Mo-Su 08:00-21:00,Subway,Q244457
0916787500,sunoco_us,Sunoco,,BROOKVILLE,OH,,US,+1 937-817-4701,,24/7,Sunoco,Q1423218
https://locations.tacobell.com/#6144843,taco_bell,Taco Bell,,Brookville,OH,,US,+1 937-833-4811,https://locations.tacobell.com/oh/brookville/25-triggs-road.html,Mo-Su 10:30-22:00,Taco Bell,Q752941
1356057,usps,BROOKVILLE,,BROOKVILLE,OH,,US,+1 937-833-2970,,Mo-Fr 08:00-16:30; Sa 08:00-12:00,United States Postal Service,Q668687
4530900004,usps_collection_boxes,USPS COLLECTION BOX - BLUE BOX,1 MC MAKEN LN,BROOKVILLE,OH,,US,,,,United States Postal Service,Q668687
4530900000,usps_collection_boxes,USPS COLLECTION BOX - BLUE BOX,22 MULBERRY ST,BROOKVILLE,OH,,US,,,,United States Postal Service,Q668687
4530900002,usps_collection_boxes,USPS COLLECTION BOX - PO LOBBY,22 MULBERRY ST,BROOKVILLE,OH,,US,,,,United States Postal Service,Q668687
4530900009,usps_collection_boxes,USPS COLLECTION BOX - PO LOBBY,22 MULBERRY ST,BROOKVILLE,OH,,US,,,,United States Postal Service,Q668687
,visa,,,CLAYTON,OH,,US,,,,,
,visa,,,BROOKVILLE,OH,,US,,,,,
,visa,,,COLUMBUS,OH,,US,,,,,
,visa,,,BROOKVILLE,OH,,US,,,,,
,visa,,,BROOKVILLE,OH,,US,,,,,
,visa,,,BROOKVILLE,OH,,US,,,,,
,visa,,,BROOKVILLE,OH,,US,,,,,
,visa,,,BROOKVILLE,OH,,US,,,,,
,visa,,,BROOKVILLE,OH,,US,,,,,
,visa,,,BROOKVILLE,OH,,US,,,,,
,visa,,,BROOKVILLE,OH,,US,,,,,
,visa,,,BROOKVILLE,OH,,US,,,,,
,visa,,,BROOKVILLE,OH,,US,,,,,
,visa,,,BROOKVILLE,OH,,US,,,,,
,visa,,,BROOKVILLE,OH,,US,,,,,
,visa,,,BROOKVILLE,OH,,US,,,,,
,visa,,,BROOKVILLE,OH,,US,,,,,
,visa,,,BROOKVILLE,OH,,US,,,,,
,visa,,,BROOKVILLE,OH,,US,,,,,
,visa,,,BROOKVILLE,OH,,US,,,,,
,visa,,,BROOKVILLE,OH,,US,,,,,
1075,waffle_house_us,Waffle House #1075,,BROOKVILLE,OH,,US,+1 937-833-6375,https://locations.wafflehouse.com/brookville-oh-1075,24/7,Waffle House,Q1701206
https://locations.wendys.com/#9251109,wendys,"Wendy's Upper Lewisburg in Brookville, OH",,Brookville,OH,,US,+1 937-683-4041,https://locations.wendys.com/united-states/oh/brookville/510-upper-lewisburg,"Mo-Su 06:00-10:30,09:00-24:00",Wendy's,Q550258
28af998a8b921437089f89154abb80d7,western_union,7-ELEVEN/SPEEDWAY #45244,,Brookville,OH,,US,+1 937-833-4680,https://location.westernunion.com/us/oh/brookville/28af998a8b921437089f89154abb80d7,,Western Union,Q861042
