Ref,Spider,Name,Address,City,State,Zipcode,Country,Phone,Website,Hours,Brand,WikiData
https://locations.99only.com/ca/porterville/discount-store-162.html,99_cents_only_us,99 Cents Only Stores,,Porterville,CA,,US,+1 559-789-9912,https://locations.99only.com/ca/porterville/discount-store-162.html,Mo-Su 07:00-22:00,99 Cents Only Stores,Q4646294
https://stores.aldi.us/#11363786,aldi_sud_us,ALDI  770 S Jaye St,,Porterville,CA,,US,+1 833-479-7199,https://stores.aldi.us/ca/porterville/770-s-jaye-st,Mo-Su 09:00-21:00,ALDI,Q41171672
https://restaurants.applebees.com/en-us/ca/porterville/892-w-henderson-ave-78008,applebees,Connect with this Applebee's,,Porterville,CA,,US,+1 559-788-2031,https://restaurants.applebees.com/en-us/ca/porterville/892-w-henderson-ave-78008,Mo-Th 11:00-24:00; Fr-Sa 11:00-01:00; Su 11:00-24:00,Applebees,Q621532
2058,att_us,PORTERVILLE TOWNE CENTER STORE 693,,Porterville,CA,,US,+1 559-783-0674,https://www.att.com/stores/california/porterville/2058,Mo-Fr 09:00-20:00; Sa 09:00-19:00; Su 10:00-19:00,AT&T,Q298594
4160,autozone_us,AutoZone Auto Parts Porterville,,Porterville,CA,,US,+1 559-793-1868,https://www.autozone.com/locations/ca/porterville/303-e-olive-ave--a.html,Mo-Sa 07:30-21:00; Su 08:00-21:00,AutoZone,Q4826087
2840,autozone_us,AutoZone Auto Parts Porterville,,Porterville,CA,,US,+1 559-781-4282,https://www.autozone.com/locations/ca/porterville/1132-w-olive-ave.html,Mo-Fr 07:30-22:00; Sa 07:30-21:00; Su 08:00-21:00,AutoZone,Q4826087
5708,autozone_us,AutoZone Auto Parts Porterville,,Porterville,CA,,US,+1 559-781-5823,https://www.autozone.com/locations/ca/porterville/1245-w-henderson-ave.html,Mo-Sa 07:30-21:00; Su 08:00-21:00,AutoZone,Q4826087
https://locators.bankofamerica.com/ca/porterville/financial-centers-porterville-8968.html,bankofamerica,Bank of America Financial Center & Drive-Thru ATM | Porterville,,Porterville,CA,,US,+1 559-788-6370,https://locators.bankofamerica.com/ca/porterville/financial-centers-porterville-8968.html,Mo-Fr 09:00-17:00; Sa 09:00-16:00,Bank of America,Q487907
https://locations.baskinrobbins.com/ca/porterville/902-w-henderson-ave-355121-br,baskin_robbins_us,Baskin-Robbins™,,Porterville,CA,,US,+1 559-782-0031,https://locations.baskinrobbins.com/ca/porterville/902-w-henderson-ave-355121-br,Mo-Su 11:00-22:00,Baskin-Robbins,Q584601
BBW02530,bathandbodyworks_us,PORTERVILLE MARKETPLACE,,PORTERVILLE,CA,,US,+1 559-306-3914,,Mo-Sa 10:00-20:00; Su 11:00-18:00,Bath & Body Works,Q810773
49545,blaze_pizza,Blaze Pizza Porterville,,Porterville,CA,,US,+1 559-403-1002,https://blazepizza.olo.com/menu/blaze-pizza-porterville/,,Blaze Pizza,Q23016666
114428,bluerhino,Shop N Save,,Porterville,CA,,US,+1 559-781-1850,,,Blue Rhino,Q65681213
217772,bluerhino,Smart & Final #796,,PORTERVILLE,CA,,US,+1 559-793-2689,,,Blue Rhino,Q65681213
197099,bluerhino,Henderson Avenue Chevron,,Porterville,CA,,US,+1 559-333-0478,,,Blue Rhino,Q65681213
190951,bluerhino,Weisenberger's Hardware Inc. #728,,Porterville,CA,,US,+1 559-784-3292,,,Blue Rhino,Q65681213
156443,bluerhino,Walgreens #9844,,Porterville,CA,,US,+1 559-791-0104,,,Blue Rhino,Q65681213
103258,bluerhino,Lowe's #2278,,Porterville,CA,,US,+1 559-306-5000,,,Blue Rhino,Q65681213
206654,bluerhino,Rite Aid #05799,,Porterville,CA,,US,+1 559-788-0452,,,Blue Rhino,Q65681213
0277,bootbarn,Tulare,,"Porterville,",CA,,US,+1 559-854-9009,https://www.bootbarn.com/stores?StoreID=0277,Mo-Fr 10:00-20:00; Sa 09:00-19:00; Su 10:00-18:00,Boot Barn,Q109825187
1001,carpet_one_floor_and_home_us,Thompson's Floor Covering,,Porterville,CA,,US,+1 559-781-1404,https://www.thompsonsfloorcoveringca.com/,,Carpet One Floor & Home,Q121335910
06022,chevrolet,MERLE STONE CHEVROLET,,PORTERVILLE,CA,,US,+1 559-339-0698,https://www.stonechevyporterville.com,Mo-Fr 08:00-19:00; Sa 09:00-17:00,Chevrolet,Q29570
ca_porterville_1174-w-henderson-ave,chipotle, ,,Porterville,CA,,US,+1 559-339-0236,https://locations.chipotle.com/ca/porterville/1174-w-henderson-ave,,Chipotle,Q465751
52892,citi,ATM CVS,,Porterville,CA,,US,,,,Citibank,Q857063
81593,citi,ATM Target,,Porterville,CA,,US,,,,Citibank,Q857063
47261,citi,ATM CVS,,Porterville,CA,,US,,,,Citibank,Q857063
90968,citi,ATM Walgreens,,Porterville,CA,,US,,,,Citibank,Q857063
44595,citi,ATM CITIZENS BUSINESS BANK12,,Porterville,CA,,US,,,,Citibank,Q857063
51663,citi,ATM CVS,,Porterville,CA,,US,,,,Citibank,Q857063
73573,citi,ATM Rite Aid,,Porterville,CA,,US,,,,Citibank,Q857063
57417,citi,ATM FRATERNAL ORDER OF EAGLES NO. 1351,,Porterville,CA,,US,,,,Citibank,Q857063
83548,citi,ATM THE MECCA,,Porterville,CA,,US,,,,Citibank,Q857063
70122107,cricket_wireless,Cricket Wireless Authorized Retailer,,Porterville,CA,,US,+1 559-781-3000,https://www.cricketwireless.com/stores/ll/US/CA/Porterville/977B-W-Henderson-Ave,Mo-Fr 09:30-18:00; Sa 10:00-17:00; Su 11:00-17:00,Cricket Wireless,Q5184987
80234103,cricket_wireless,Cricket Wireless Authorized Retailer,,Porterville,CA,,US,+1 559-782-3300,https://www.cricketwireless.com/stores/ll/US/CA/Porterville/349-E-Olive-Ave,Mo-Fr 10:00-19:00; Sa 10:00-18:00; Su 11:00-17:00,Cricket Wireless,Q5184987
80234106,cricket_wireless,Cricket Wireless Authorized Retailer,,Porterville,CA,,US,+1 559-784-1444,https://www.cricketwireless.com/stores/ll/US/CA/Porterville/947-W-Olive-Ave,Mo-Fr 10:00-19:00; Sa 10:00-18:00; Su 11:00-17:00,Cricket Wireless,Q5184987
70122108,cricket_wireless,Cricket Wireless Authorized Retailer,,Porterville,CA,,US,+1 559-854-7496,https://www.cricketwireless.com/stores/ll/US/CA/Porterville/1270-W-Henderson-Ave,Mo-Fr 10:00-19:00; Sa 10:00-18:00; Su 11:00-17:00,Cricket Wireless,Q5184987
2944,cvs_us,CVS Pharmacy y más,,Porterville,CA,,US,+1 559-791-9238,https://www.cvs.com/store-locator/porterville-ca-pharmacies/53-e-olive-ave-porterville-ca-93257/storeid=2944,Mo-Su 07:00-00:00,CVS Pharmacy,Q2078880
35,cvs_us,CVS Pharmacy,,Porterville,CA,,US,+1 559-784-2876,https://www.cvs.com/store-locator/porterville-ca-pharmacies/800-n-westwood-st-porterville-ca-93257/storeid=35,Mo-Su 07:00-23:00,CVS Pharmacy,Q2078880
9845,cvs_us,CVS Pharmacy y más,,Porterville,CA,,US,+1 559-784-3317,https://www.cvs.com/store-locator/porterville-ca-pharmacies/1155-w-henderson-ave-porterville-ca-93257/storeid=9845,Mo-Su 08:00-23:00,CVS Pharmacy,Q2078880
17477,cvs_us,CVS Pharmacy,,Porterville,CA,,US,+1 559-719-2204,https://www.cvs.com/store-locator/porterville-ca-pharmacies/1363-w-henderson-ave-porterville-ca-93257/storeid=17477,"Mo-Fr 09:00-13:30,14:00-19:00; Sa 10:00-13:30,14:00-18:00; Su 11:00-13:30,14:00-17:00",CVS Pharmacy,Q2078880
247820,dennys,Denny's,,Porterville,CA,,US,+1 559-781-0608,https://locations.dennys.com/CA/PORTERVILLE/247820,24/7,Denny's,Q1189695
247761,dennys,Denny's,,Porterville,CA,,US,+1 559-791-9170,https://locations.dennys.com/CA/PORTERVILLE/247761,24/7,Denny's,Q1189695
18056,dollar_general,Dollar General,,Porterville,CA,,US,+1 559-544-1615,https://www.dollargeneral.com/store-directory/ca/porterville/18056,Mo-Su 08:00-23:00,Dollar General,Q145168
16842,dollar_general,Dollar General,,Porterville,CA,,US,+1 559-306-6248,https://www.dollargeneral.com/store-directory/ca/porterville/16842,Mo-Su 08:00-22:00,Dollar General,Q145168
7768,dominos_pizza_us,Domino's Pizza,,Porterville,CA,,US,+1 559-784-4040,https://pizza.dominos.com/california/porterville/938-west-henderson,Mo-Th 10:30-24:00; Fr-Sa 10:30-01:00; Su 10:30-24:00,Domino's,Q839466
DB501,dutchbros,Porterville,,Porterville,CA,,US,,https://locations.dutchbros.com/dutch-bros-coffee-9a4a79e31605,Mo-Th 05:00-22:00; Fr-Sa 05:00-23:00; Su 05:00-22:00,Dutch Bros. Coffee,Q5317253
E130F7,enterprise,Porterville Golden State Paint & Body,,Porterville,CA,,US,+1 559-788-6240,,,Enterprise Rent-A-Car,Q17085454
Motorcraft2015USAEnglish,ford,Porterville Ford,,California,CA,,US,+1 559-784-6000,,,Ford,Q44294
Motorcraft2016USAEnglish,ford,Clevenger Ford,,California,CA,,US,+1 559-784-6000,,,Ford,Q44294
https://www.ford.com/dealerships/dealer-details/ca/porterville/porterville-ford/,ford_dealers_us,Porterville Ford,,Porterville,CA,,US,+1 559-615-5284,https://www.ford.com/dealerships/dealer-details/ca/porterville/porterville-ford/,Mo-Fr 08:30-20:00; Sa 09:00-19:00; Su 10:00-18:00,Ford Motor Company,Q44294
6034,gamestop_us,Porterville Marketplace,,Porterville,CA,,US,+1 559-783-9014,https://www.gamestop.com/search/?store=6034,Mo-Th 12:00-20:00; Fr-Sa 11:00-21:00; Su 11:00-19:00,GameStop,Q202210
https://stores.gnc.com/#24059592,gnc,GNC Porterville Marketplace,,,CA,,US,+1 559-791-9371,https://stores.gnc.com/all-stores-california/porterville/1387-henderson-ave,Mo-Sa 10:00-20:00; Su 11:00-18:00,GNC,Q4808595
3b1a94c9-458a-e111-8dde-005056934050,goodwill,Porterville Store,,Porterville,CA,,US,+1 559-306-1386,https://www.goodwill.org/locator/location/?store=M2IxYTk0YzktNDU4YS1lMTExLThkZGUtMDA1MDU2OTM0MDUw&lat=MzYuMDgwODk=&lng=LTExOS4wMzgwNA==,,Goodwill,Q5583655
https://salons.greatclips.com/us/ca/porterville/1321-w.-henderson-ave,greatclips,Great Clips,,Porterville,CA,,US,+1 559-756-6499,https://salons.greatclips.com/us/ca/porterville/1321-w.-henderson-ave,Mo-Fr 09:00-19:00; Sa 09:00-18:00; Su 10:00-17:00,Great Clips,Q5598967
https://www.habitburger.com/locations/porterville/,habit_burger,The Habit Burger Grill,,Porterville,CA,,US,+1 559-854-9740,https://www.habitburger.com/locations/porterville/,Mo-Su 10:30-21:30,The Habit Burger Grill,Q18158741
https://www.harborfreight.com/storelocator/580-s-jaye-street-porterville-93257?number=3081,harborfreight,"Harbor Freight Tools Porterville, CA",,Porterville,CA,,US,+1 559-854-9898,https://www.harborfreight.com/storelocator/580-s-jaye-street-porterville-93257?number=3081,Mo-Sa 08:00-20:00; Su 09:00-18:00,Harbor Freight Tools,Q5654601
6413,h_r_block,H&R Block,,Porterville,CA,,US,+1 559-781-1192,https://www.hrblock.com/local-tax-offices/california/porterville/141-n-main-st/6413/,,H&R Block,Q5627799
6414,h_r_block,H&R Block,,Porterville,CA,,US,+1 559-789-9300,https://www.hrblock.com/local-tax-offices/california/porterville/866-w-henderson/6414/,,H&R Block,Q5627799
https://locations.jackinthebox.com/us/ca/porterville/390-w-olive-ave,jackinthebox,Jack in the Box,,Porterville,CA,,US,+1 559-781-0155,https://locations.jackinthebox.com/us/ca/porterville/390-w-olive-ave,Mo-Su 04:00-04:00,Jack in the Box,Q1538507
https://locations.jackinthebox.com/us/ca/porterville/1075-w-henderson-ave,jackinthebox,Jack in the Box,,Porterville,CA,,US,+1 559-788-2400,https://locations.jackinthebox.com/us/ca/porterville/1075-w-henderson-ave,Mo-Su 04:00-04:00,Jack in the Box,Q1538507
https://office.jacksonhewitt.com/#27579581,jackson_hewitt,Jackson Hewitt,,Porterville,CA,,US,+1 661-493-2073,https://office.jacksonhewitt.com/tax-preparation-services-locations/en/ca/porterville/1250-w-henderson-ave/51877,Mo-Sa 11:00-19:00; Su 12:00-16:00,Jackson Hewitt,Q6117132
https://locations.jamba.com/#879-Jamba,jambajuice,Jamba Porterville Marketplace,,Porterville,CA,,US,+1 559-854-7589,https://locations.jamba.com/ca/porterville/1397-w-henderson-ave,Mo-Fr 08:00-21:00; Sa 09:00-21:00; Su 09:00-20:00,Jamba Juice,Q3088784
https://locations.jimmyjohns.com/ca/porterville/sandwiches-3194.html,jimmy_johns,Jimmy John's,,Porterville,CA,,US,+1 559-781-4546,https://locations.jimmyjohns.com/ca/porterville/sandwiches-3194.html,,Jimmy John's,Q1689380
https://healthy.kaiserpermanente.org/northern-california/facilities/tule-river-indian-health-center-174297,kaiser_permanente_us,Tule River Indian Health Center,,Porterville,CA,,US,+1 559-784-2316,https://healthy.kaiserpermanente.org/northern-california/facilities/tule-river-indian-health-center-174297,,Kaiser Permanente,Q1721601
https://healthy.kaiserpermanente.org/northern-california/facilities/sierra-view-medical-center-328813,kaiser_permanente_us,Sierra View Medical Center,,Porterville,CA,,US,+1 559-784-1110,https://healthy.kaiserpermanente.org/northern-california/facilities/sierra-view-medical-center-328813,,Kaiser Permanente,Q1721601
https://locations.kfc.com/#11246849,kfc,Chicken Nuggets Near Porterville,,Porterville,CA,,US,,https://locations.kfc.com/ca/porterville/642-west-olive/chickennugget,Mo-Th 10:00-21:30; Fr-Sa 10:00-22:00; Su 10:00-21:30,KFC,Q524757
1403,kohls_us,Kohl's,,Porterville,CA,,US,+1 559-789-0149,https://www.kohls.com/stores/ca/porterville-1403.shtml,Mo-Th 09:00-21:00; Fr-Sa 09:00-22:00; Su 09:00-21:00,Kohl's,Q967265
139900,little_free_library,Casey Rangel #139900 Porterville CA,,Porterville,CA,,US,,,,Little Free Library,Q6650101
143401,little_free_library,Parkwest Disney Library #143401 Porterville CA,,Porterville,CA,,US,,,,Little Free Library,Q6650101
46959,little_free_library,Fredrick Library #46959 Porterville CA,,Porterville,CA,,US,,,,Little Free Library,Q6650101
115930,little_free_library,Porterville Little Library Initiative #115930 Porterville CA,,Porterville,CA,,US,,,,Little Free Library,Q6650101
44071,little_free_library,Kyme Methvin #44071 Porterville CA,,Porterville,CA,,US,,,,Little Free Library,Q6650101
115929,little_free_library,Porterville Little Library Initiative #115929 Porterville CA,,Porterville,CA,,US,,,,Little Free Library,Q6650101
286230,marathon_petroleum_us,ARCO #42850 AMPM,,Porterville,CA,,US,+1 559-784-2114,,,Arco,Q304769
18418,mattress_firm_us,Mattress Firm Porterville,,Porterville,CA,,US,+1 559-853-4353,https://www.mattressfirm.com/en-us/stores/ca/porterville/504031/,,Mattress Firm,Q6791878
https://locations.maurices.com/#11688924,maurices,maurices Porterville Marketplace,,Porterville,CA,,US,+1 559-789-9747,https://locations.maurices.com/us/ca/porterville/1361-w-henderson-avenue,Mo-Th 10:00-20:00; Fr-Sa 10:00-21:00; Su 10:00-18:00,maurices,Q6793571
70373534,moneygram,MAILBOX MAX,,PORTEVILLE,CA,,US,+1 559-788-2817,,Mo-Su 06:00-21:00,MoneyGram,Q1944412
https://locations.oreillyauto.com/ca/porterville/check-engine-light-testing-4796.html,oreilly,Your Porterville O'Reilly Auto Parts Store,,Porterville,CA,,US,+1 559-784-0524,https://locations.oreillyauto.com/ca/porterville/check-engine-light-testing-4796.html,Mo-Su 07:30-21:00,O'Reilly Auto Parts,Q7071951
https://locations.oreillyauto.com/ca/porterville/battery-testing-4796.html,oreilly,Your Porterville O'Reilly Auto Parts Store,,Porterville,CA,,US,+1 559-784-0524,https://locations.oreillyauto.com/ca/porterville/battery-testing-4796.html,Mo-Su 07:30-21:00,O'Reilly Auto Parts,Q7071951
https://locations.oreillyauto.com/ca/porterville/wiper-installation-4796.html,oreilly,Your Porterville O'Reilly Auto Parts Store,,Porterville,CA,,US,+1 559-784-0524,https://locations.oreillyauto.com/ca/porterville/wiper-installation-4796.html,Mo-Su 07:30-21:00,O'Reilly Auto Parts,Q7071951
https://locations.oreillyauto.com/ca/porterville/autopartes-4796.html,oreilly,Tu tienda O'Reilly Auto Parts en Porterville,,Porterville,CA,,US,+1 559-784-0524,https://locations.oreillyauto.com/ca/porterville/autopartes-4796.html,Mo-Su 07:30-21:00,O'Reilly Auto Parts,Q7071951
https://locations.oreillyauto.com/ca/porterville/check-engine-light-testing-2881.html,oreilly,Your Porterville O'Reilly Auto Parts Store,,Porterville,CA,,US,+1 559-781-2707,https://locations.oreillyauto.com/ca/porterville/check-engine-light-testing-2881.html,Mo-Su 07:30-22:00,O'Reilly Auto Parts,Q7071951
https://locations.oreillyauto.com/ca/porterville/wiper-installation-2881.html,oreilly,Your Porterville O'Reilly Auto Parts Store,,Porterville,CA,,US,+1 559-781-2707,https://locations.oreillyauto.com/ca/porterville/wiper-installation-2881.html,Mo-Su 07:30-22:00,O'Reilly Auto Parts,Q7071951
https://locations.oreillyauto.com/ca/porterville/battery-testing-2881.html,oreilly,Your Porterville O'Reilly Auto Parts Store,,Porterville,CA,,US,+1 559-781-2707,https://locations.oreillyauto.com/ca/porterville/battery-testing-2881.html,Mo-Su 07:30-22:00,O'Reilly Auto Parts,Q7071951
https://locations.oreillyauto.com/ca/porterville/autopartes-2881.html,oreilly,Tu tienda O'Reilly Auto Parts en Porterville,,Porterville,CA,,US,+1 559-781-2707,https://locations.oreillyauto.com/ca/porterville/autopartes-2881.html,Mo-Su 07:30-22:00,O'Reilly Auto Parts,Q7071951
165438,pandaexpress,Henderson & Prospect Panda Express,,Porterville,CA,,US,+1 559-795-3800,https://www.pandaexpress.com/locations/ca/porterville/890-n-prospect-street,Mo-Th 09:30-22:00; Fr-Sa 09:30-22:30; Su 09:30-22:00,Panda Express,Q1358690
112156,pandaexpress,Hwy 190 & Jaye,,Porterville,CA,,US,+1 559-783-8907,https://www.pandaexpress.com/locations/ca/porterville/460-w-vandalia-ave,Mo-Su 09:30-22:00,Panda Express,Q1358690
019842,penske,Home Depot #1080,,PORTERVILLE,CA,,US,+1 559-781-2181,https://www.pensketruckrental.com/locations/us/california/porterville/019842/,,Penske,Q81234570
ca_porterville_393-wolive,pizza_hut_us,393 W.olive,,Porterville,CA,,US,+1 559-781-3811,https://locations.pizzahut.com/ca/porterville/393-wolive,,Pizza Hut,Q191615
ca_porterville_276-west-henderson,pizza_hut_us,276 West Henderson,,Porterville,CA,,US,+1 559-781-0323,https://locations.pizzahut.com/ca/porterville/276-west-henderson,,Pizza Hut,Q191615
ca_porterville_1363-w-henderson-avenue,pizza_hut_us,1363 W. Henderson Avenue,,Porterville,CA,,US,,https://locations.pizzahut.com/ca/porterville/1363-w-henderson-avenue,,Pizza Hut,Q191615
home-depot-1080-7900,ppgpaints,HOME DEPOT 1080,,"Porterville, ",CA,,US,+1 559-782-4611,https://www.ppgpaints.com/store-locator/us/california/porterville-paint-stores/home-depot-1080-7900,,PPG Paints,Q83891559
2596,rentacenter,Rent-A-Center,,Porterville,CA,,US,+1 559-791-9097,https://locations.rentacenter.com/california/porterville/880-w-henderson-ave/,Mo-Sa 10:00-18:00,Rent-A-Center,Q7313497
05799,rite_aid_us,Rite Aid #05799 Porterville,,Porterville,CA,,US,+1 559-788-0452,https://locations2.riteaid.com.yext-cdn.com/ca/porterville/66-west-morton-avenue.html,Mo-Su 08:00-22:00,Rite Aid,Q3433273
2160,round_table_pizza,Round Table Pizza W Henderson Ave,,Porterville ,CA,,US,+1 559-781-3602,https://ordering.roundtablepizza.com/site/rtp1081,,Round Table Pizza,Q7371139
https://stations.sinclairoil.com/ca/porterville/814-w-olive-ave,sinclair_us,Sinclair Gas Station,,Porterville,CA,,US,+1 559-784-8997,https://stations.sinclairoil.com/ca/porterville/814-w-olive-ave,Mo-Su 04:00-22:00,Sinclair,Q1290900
https://stations.sinclairoil.com/ca/porterville/1445-w-henderson-ave,sinclair_us,Sinclair Gas Station,,Porterville,CA,,US,+1 559-781-1018,https://stations.sinclairoil.com/ca/porterville/1445-w-henderson-ave,Mo-Su 05:00-23:00,Sinclair,Q1290900
https://stations.sinclairoil.com/ca/porterville/90-e-olive-ave,sinclair_us,Sinclair Gas Station,,Porterville,CA,,US,+1 559-781-2426,https://stations.sinclairoil.com/ca/porterville/90-e-olive-ave,Mo-Sa 05:00-23:00; Su 06:00-22:00,Sinclair,Q1290900
https://restaurants.subway.com/#14913294,subway,Subway Riverwalk Marketplace,,Porterville Tulare,CA,,US,+1 559-783-8201,https://restaurants.subway.com/united-states/ca/porterville/460-w-vandalia-ave,Mo-Fr 07:00-21:00; Sa 08:00-21:00; Su 09:00-21:00,Subway,Q244457
https://restaurants.subway.com/#14894018,subway,Subway Porterville Marketplace,,Porterville Tulare,CA,,US,+1 559-782-3342,https://restaurants.subway.com/united-states/ca/porterville/1277-1283-w-henderson-ave,Mo-Sa 07:00-22:00; Su 08:00-22:00,Subway,Q244457
https://restaurants.subway.com/#14906862,subway,Subway,,Porterville Tulare,CA,,US,+1 559-782-8452,https://restaurants.subway.com/united-states/ca/porterville/134-north-main-st,Mo-Fr 07:00-21:00; Sa 09:00-21:00; Su 09:00-20:00,Subway,Q244457
https://locations.tacobell.com/#6143458,taco_bell,Taco Bell,,Porterville,CA,,US,+1 559-784-5510,https://locations.tacobell.com/ca/porterville/450-w-olive-ave-.html,Mo-Th 07:00-24:00; Fr-Sa 07:00-01:00; Su 07:00-24:00,Taco Bell,Q752941
https://locations.tacobell.com/#6146737,taco_bell,Taco Bell,,Porterville,CA,,US,+1 559-783-2389,https://locations.tacobell.com/ca/porterville/1220-w-henderson.html,Mo-Th 07:00-01:00; Fr-Sa 07:00-02:00; Su 07:00-01:00,Taco Bell,Q752941
101166,tjx,Porterville,1351 W Henderson Ave.,Porterville,CA,,US,+1 559-788-0137,,Mo-Sa 09:30-21:30; Su 10:00-20:00,Marshalls,Q15903261
2271,tmobile_us,Henderson & Newcomb,,Porterville,CA,,US,+1 559-781-4500,https://www.t-mobile.com/store-locator/ca/porterville/henderson-newcomb,,T-Mobile,Q3511885
038033,uhaul,Porterville Storage LLC,167 W Poplar Av,Porterville,CA,,US,+1 559-339-0682,,Mo-Sa 00:00-16:00,U-Haul,Q7862902
051139,uhaul,Stuarts Auto Repair,1181 W Olive Av,Porterville,CA,,US,+1 559-783-1435,,Mo-Fr 30:00-17:00; Sa 00:00-15:00; Su 00:00-15:00,U-Haul,Q7862902
039184,uhaul,Mailbox Max,215 S Main St,Porterville,CA,,US,+1 559-339-0503,,Mo-Fr 30:00-18:00; Sa 00:00-15:00; Su 00:00-13:00,U-Haul,Q7862902
1307,upsstore,Porterville Marketplace,1279 W Henderson Ave,Porterville,CA,,US,+1 559-783-6363,https://locations.theupsstore.com/ca/porterville/1279-w-henderson-ave,,UPS Store,Q7771029
1440644,usps,POPLAR,,PORTERVILLE,CA,,US,+1 559-784-6415,,"Mo-Fr 09:00-12:00,13:00-17:00; Sa 09:00-12:00",United States Postal Service,Q668687
1378153,usps,PORTERVILLE,,PORTERVILLE,CA,,US,+1 559-784-4685,,Mo-Fr 09:00-17:00; Sa 09:30-14:00,United States Postal Service,Q668687
9325700002,usps_collection_boxes,USPS COLLECTION BOX - BLUE BOX,100 N HOCKETT ST,PORTERVILLE,CA,,US,,,,United States Postal Service,Q668687
9325700001,usps_collection_boxes,USPS COLLECTION BOX - BLUE BOX,100 N HOCKETT ST,PORTERVILLE,CA,,US,,,,United States Postal Service,Q668687
9325700013,usps_collection_boxes,USPS COLLECTION BOX - BLUE BOX,1155 W HENDERSON AVE,PORTERVILLE,CA,,US,,,,United States Postal Service,Q668687
9325700034,usps_collection_boxes,USPS COLLECTION BOX - APC,65 W MILL ST,PORTERVILLE,CA,,US,,,,United States Postal Service,Q668687
9325700005,usps_collection_boxes,USPS COLLECTION BOX - PO LOBBY,65 W MILL AVE,PORTERVILLE,CA,,US,,,,United States Postal Service,Q668687
9325700043,usps_collection_boxes,USPS COLLECTION BOX - PO LOBBY,65 W MILL AVE,PORTERVILLE,CA,,US,,,,United States Postal Service,Q668687
0000030892,valero,VALERO PORTERVILLE GRAND,,PORTERVILLE,CA,,US,+1 559-781-6680,https://locations.valero.com/en-us/LocationDetails/Index/1340-W-N-GRAND-AVE/0000030892,,Valero,Q1283291
porterville-32,vallarta,Porterville #32,305 E. Olive Ave,Porterville,CA,,US,+1 559-306-1325,https://vallartasupermarkets.com/store-locations/porterville-32/,Mo-Su 07:00-22:00,Vallarta Supermarkets,Q7911833
A00000163670,verizon_us,Victra Porterville,,PORTERVILLE,CA,,US,+1 559-784-2432,https://www.verizon.com/stores/details/california/porterville/gowireless-porterville-1833422/,Mo-Fr 09:00-19:00; Sa 10:00-19:00; Su 11:00-18:00,Verizon,Q919641
,visa,,,PORTERVILLE,CA,,US,,,,,
,visa,,,PORTERVILLE,CA,,US,,,,,
,visa,,,PORTERVILLE,CA,,US,,,,,
,visa,,,PORTERVILLE,CA,,US,,,,,
,visa,,,PORTERVILLE,CA,,US,,,,,
,visa,,,POTERVILLE,CA,,US,,,,,
,visa,,,PORTERVILLE,CA,,US,,,,,
,visa,,,PORTERVILLE,CA,,US,,,,,
,visa,,,POPLAR,CA,,US,,,,,
,visa,,,PORTERVILLE,CA,,US,,,,,
,visa,,,PORTERVILLE,CA,,US,,,,,
,visa,,,PORTERVILLE,CA,,US,,,,,
,visa,,,PORTERVILLE,CA,,US,,,,,
,visa,,,PORTERVILLE,CA,,US,,,,,
,visa,,,PORTERVILLE,CA,,US,,,,,
,visa,,,PORTERVILLE,CA,,US,,,,,
,visa,,,PORTERVILLE,CA,,US,,,,,
,visa,,,PORTERVILLE,CA,,US,,,,,
,visa,,,PORTERVILLE,CA,,US,,,,,
,visa,,,PORTERVILLE,CA,,US,,,,,
,visa,,,PORTERVILLE,CA,,US,,,,,
,visa,,,PORTERVILLE,CA,,US,,,,,
,visa,,,PORTERVILLE,CA,,US,,,,,
,visa,,,PORTERVILLE,CA,,US,,,,,
,visa,,,PORTERVILLE,CA,,US,,,,,
,visa,,,PORTERVILLE,CA,,US,,,,,
,visa,,,PORTERVILLE,CA,,US,,,,,
,visa,,,PORTERVILLE,CA,,US,,,,,
,visa,,,PORTERVILLE,CA,,US,,,,,
,visa,,,PORTERVILLE,CA,,US,,,,,
,visa,,,PORTERVILLE,CA,,US,,,,,
,visa,,,PORTERVILLE,CA,,US,,,,,
,visa,,,PORTERVILLE,CA,,US,,,,,
,visa,,,PORTERVILLE,CA,,US,,,,,
,visa,,,PORTERVILLE,CA,,US,,,,,
,visa,,,PORTEVILLE,CA,,US,,,,,
,visa,,,PORTERVILLE,CA,,US,,,,,
,visa,,,PORTERVILLE,CA,,US,,,,,
,visa,,,PORTERVILLE,CA,,US,,,,,
,visa,,,PORTERVILLE,CA,,US,,,,,
,visa,,,PORTERVILLE,CA,,US,,,,,
,visa,,,PORTERVILLE,CA,,US,,,,,
,visa,,,PORTERVILLE,CA,,US,,,,,
,visa,,,PORTERVILLE,CA,,US,,,,,
,visa,,,PORTERVILLE,CA,,US,,,,,
,visa,,,PORTERVILLE,CA,,US,,,,,
,visa,,,PORTERVILLE,CA,,US,,,,,
,visa,,,PORTERVILLE,CA,,US,,,,,
,visa,,,PORTERVILLE,CA,,US,,,,,
,visa,,,PORTERVILLE,CA,,US,,,,,
,visa,,,PORTERVILLE,CA,,US,,,,,
,visa,,,PORTERVILLE,CA,,US,,,,,
,visa,,,PORTERVILLE,CA,,US,,,,,
,visa,,,PORTERVILLE,CA,,US,,,,,
,visa,,,PORTERVILLE,CA,,US,,,,,
,visa,,,PORTERVILLE,CA,,US,,,,,
,visa,,,PORTERVILLE,CA,,US,,,,,
,visa,,,PORTERVILLE,CA,,US,,,,,
,visa,,,PORTETVILLE,CA,,US,,,,,
,visa,,,PORTERVILLE,CA,,US,,,,,
,visa,,,PORTERVILLE,CA,,US,,,,,
,visa,,,PORTERVILLE,CA,,US,,,,,
,visa,,,PORTETVILLE,CA,,US,,,,,
,visa,,,PORTERVILLE,CA,,US,,,,,
,visa,,,PORTERVILLE,CA,,US,,,,,
,visa,,,PORTERVILLE,CA,,US,,,,,
,visa,,,PORTERVILLE,CA,,US,,,,,
,visa,,,PORTERVILLE,CA,,US,,,,,
,visa,,,PORTERVILLE,CA,,US,,,,,
,visa,,,PORTERVILLE,CA,,US,,,,,
,visa,,,PORTERVILLE,CA,,US,,,,,
,visa,,,PORTERVILLE,CA,,US,,,,,
,visa,,,PORTERVILLE,CA,,US,,,,,
,visa,,,PORTERVILLE,CA,,US,,,,,
,visa,,,PORTERVILLE,CA,,US,,,,,
,visa,,,PORTERVILLE,CA,,US,,,,,
,visa,,,PORTERVILLE,CA,,US,,,,,
,visa,,,PORTERVILLE,CA,,US,,,,,
,visa,,,PORTERVILLE,CA,,US,,,,,
,visa,,,PORTERVILLE,CA,,US,,,,,
,visa,,,PORTERVILLE,CA,,US,,,,,
,visa,,,PORTERVILLE,CA,,US,,,,,
,visa,,,PORTERVILLE,CA,,US,,,,,
,visa,,,PORTERVILLE,CA,,US,,,,,
,visa,,,PORTERVILLE,CA,,US,,,,,
,visa,,,PORTERVILLE,CA,,US,,,,,
,visa,,,PORTERVILLE,CA,,US,,,,,
,visa,,,PORTERVILLE,CA,,US,,,,,
,visa,,,PORTERVILLE,CA,,US,,,,,
,visa,,,PORTERVILLE,CA,,US,,,,,
,visa,,,PORTERVILLE,CA,,US,,,,,
,visa,,,PORTERVILLE,CA,,US,,,,,
,visa,,,PORTERVILLE,CA,,US,,,,,
,visa,,,PORTERVILLE,CA,,US,,,,,
,visa,,,PORTERVILLE,CA,,US,,,,,
,visa,,,PORTERVILLE,CA,,US,,,,,
,visa,,,PORTERVILLE,CA,,US,,,,,
,visa,,,PORTERVILLE,CA,,US,,,,,
,visa,,,PORTERVILLE,CA,,US,,,,,
,visa,,,PORTERVILLE,CA,,US,,,,,
,visa,,,PORTERVILLE,CA,,US,,,,,
,visa,,,PORTERVILLE,CA,,US,,,,,
,visa,,,PORTERVILLE,CA,,US,,,,,
,visa,,,PORTERVILLE,CA,,US,,,,,
,visa,,,PORTERVILLE,CA,,US,,,,,
,visa,,,PORTERVILLE,CA,,US,,,,,
,visa,,,PORTERVILLE,CA,,US,,,,,
,visa,,,PORTERVILLE,CA,,US,,,,,
,visa,,,PORTERVILLE,CA,,US,,,,,
,visa,,,PORTERVILLE,CA,,US,,,,,
,visa,,,PORTERVILLE,CA,,US,,,,,
,visa,,,PORTERVILLE,CA,,US,,,,,
,visa,,,PORTERVILLE,CA,,US,,,,,
,visa,,,PORTERVILLE,CA,,US,,,,,
,visa,,,PORTERVILLE,CA,,US,,,,,
,visa,,,PORTERVILLE,CA,,US,,,,,
,visa,,,PORTERVILLE,CA,,US,,,,,
,visa,,,PORTERVILLE,CA,,US,,,,,
,visa,,,PORTERVILLE,CA,,US,,,,,
,visa,,,PORTERVILLE,CA,,US,,,,,
,visa,,,PORTERVILLE,CA,,US,,,,,
,visa,,,PORTERVILLE,CA,,US,,,,,
,visa,,,PORTERVILLE,CA,,US,,,,,
,visa,,,PORTERVILLE,CA,,US,,,,,
,visa,,,PORTERVILLE,CA,,US,,,,,
,visa,,,PORTERVILLE,CA,,US,,,,,
,visa,,,PORTERVILLE,CA,,US,,,,,
,visa,,,PORTERVILLE,CA,,US,,,,,
,visa,,,PORTERVILLE,CA,,US,,,,,
,visa,,,PORTERVILLE,CA,,US,,,,,
,visa,,,WOODVILLE,CA,,US,,,,,
,visa,,,WOODVILLE,CA,,US,,,,,
https://www.walgreens.com/locator/walgreens-416+w+olive+ave-porterville-ca-93257/id=9844,walgreens,Walgreens,,Porterville,CA,,US,+1 559-791-0104,https://www.walgreens.com/locator/walgreens-416+w+olive+ave-porterville-ca-93257/id=9844,Mo-Su 07:00-22:00,Walgreens,Q1591889
815__W__HENDERSON__AVE_PORTERVILLE_CA_93257,wellsfargo,Wells Fargo,815 W HENDERSON AVE,PORTERVILLE,CA,,US,+1 559-781-1111,https://www.wellsfargo.com/locator/bank/815__W__HENDERSON__AVE_PORTERVILLE_CA_93257/,Mo-Fr 09:00-17:00,Wells Fargo,Q744149
https://locations.wendys.com/#9255053,wendys,"Wendy's Porterville #6 in Porterville, CA",,Porterville,CA,,US,+1 559-781-5592,https://locations.wendys.com/united-states/ca/porterville/860-w-henderson,"Mo-Fr 06:00-10:30,06:00-22:00; Sa-Su 06:30-10:30,06:30-22:00",Wendy's,Q550258
acb50d989bd8f2004dae2a03a31d41bf,western_union,WALMART #001877,,Porterville,CA,,US,+1 559-783-8195,https://location.westernunion.com/us/ca/porterville/acb50d989bd8f2004dae2a03a31d41bf,Mo-Su 07:00-21:00,Western Union,Q861042
195232eb42da5cce3435f4364622883a,western_union,ADVANCE AMERICA #00939,,Porterville,CA,,US,+1 559-781-0522,https://location.westernunion.com/us/ca/porterville/195232eb42da5cce3435f4364622883a,Mo-Fr 10:00-18:00; Sa 10:00-14:00,Western Union,Q861042
ba3bfb58df12fc3b3cefbb7ae1813830,western_union,5 SEASONS MARKET,,Porterville,CA,,US,+1 559-793-4332,https://location.westernunion.com/us/ca/porterville/ba3bfb58df12fc3b3cefbb7ae1813830,Mo-Su 08:00-21:00,Western Union,Q861042
41adedfb23e3a27bee61c6bc9099bb31,western_union,OMEGA FOOD MART,,Porterville,CA,,US,+1 559-783-8305,https://location.westernunion.com/us/ca/porterville/41adedfb23e3a27bee61c6bc9099bb31,Mo-Su 08:00-21:00,Western Union,Q861042
dc0aa80d9f5925273cf5c791e2e53d08,western_union,OMEGA FOOD MART,,Porterville,CA,,US,+1 559-783-8305,https://location.westernunion.com/us/ca/porterville/dc0aa80d9f5925273cf5c791e2e53d08,Mo-Su 08:00-21:00,Western Union,Q861042
940d71e6e842019ea9c20484221b403f,western_union,SUNSHINE VENTURES LTD,,Porterville,CA,,US,+1 559-781-0468,https://location.westernunion.com/us/ca/porterville/940d71e6e842019ea9c20484221b403f,Mo-Su 05:00-23:00,Western Union,Q861042
a61df12e730f8d6203a0df11bc1638ee,western_union,SUNSHINE VENTURES LTD,,Porterville,CA,,US,+1 559-781-0468,https://location.westernunion.com/us/ca/porterville/a61df12e730f8d6203a0df11bc1638ee,Mo-Su 05:00-23:00,Western Union,Q861042
15899,wingstop,Wingstop Porterville Henderson Ave,"1375 W Henderson Ave, Ste 2B",Porterville,CA,,US,+1 559-781-9464,,,Wingstop,Q8025339
