Ref,Spider,Name,Address,City,State,Zipcode,Country,Phone,Website,Hours,Brand,WikiData
72140930,moneygram,CADENA COMERCIAL OXXO SA DE CV - #10DCU5,,PUERTO VALLARTA,JA,,MX,+52 81 8389 2121,,Mo-Su 03:00-24:00,MoneyGram,Q1944412
72140956,moneygram,CADENA COMERCIAL OXXO SA DE CV - #10DCU5,,PUERTO VALLARTA,JA,,MX,+52 81 8389 2121,,Mo-Su 03:00-24:00,MoneyGram,Q1944412
72387829,moneygram,FARMACIAS GUADALAJARA - #2138 - PUERTO V,,PUERTO VALLARTA,JA,,MX,+52 800 555 6559,,Mo-Su 08:00-22:00,MoneyGram,Q1944412
72936610,moneygram,FARMACIAS GUADALAJARA - #2258 - PUERTO V,,PUERTO VALLARTA,JA,,MX,+52 800 555 6559,,Mo-Su 08:00-22:00,MoneyGram,Q1944412
73618526,moneygram,CADENA COMERCIAL OXXO SA DE CV - #10DCU5,,PUERTO VALLARTA,JA,,MX,+52 81 8389 2121,,Mo-Su 03:00-24:00,MoneyGram,Q1944412
73618539,moneygram,CADENA COMERCIAL OXXO SA DE CV - #10DCU5,,PUERTO VALLARTA,JA,,MX,+52 81 8389 2121,,Mo-Su 03:00-24:00,MoneyGram,Q1944412
73788388,moneygram,CADENA COMERCIAL OXXO SA DE CV - #10DCU5,,PUERTO VALLARTA,JA,,MX,+52 81 8389 2121,,Mo-Su 03:00-24:00,MoneyGram,Q1944412
73788375,moneygram,CADENA COMERCIAL OXXO SA DE CV - #10DCU5,,PUERTO VALLARTA,JA,,MX,+52 81 8389 2121,,Mo-Su 03:00-24:00,MoneyGram,Q1944412
73850737,moneygram,CAJA TALPENSE - #6427 - EL PITILLAL - CA,,EL PITILLAL,JA,,MX,+52 388 385 1318,,Mo-Fr 09:00-14:00; Sa-Su 00:00-24:00,MoneyGram,Q1944412
68827937,moneygram,DINERO EXPRESS - #8996 - PUERTO VALLARTA,,PUERTO VALLARTA,JA,,MX,+52 55 1720 8141,,Mo-Su 09:00-21:00,MoneyGram,Q1944412
70388325,moneygram,FARMACIAS GUADALAJARA - PUERTO VALLARTA,,PUERTO VALLARTA,JA,,MX,+52 713 278 5436,,Mo-Su 08:00-22:00,MoneyGram,Q1944412
70396579,moneygram,FARMACIAS GUADALAJARA - PTO. VALLARTA EL,,PUERTO VALLARTA,JA,,MX,+52 713 278 5436,,Mo-Su 08:00-22:00,MoneyGram,Q1944412
70394937,moneygram,FARMACIAS GUADALAJARA - VALLARTA PITILLA,,PUERTO VALLARTA,JA,,MX,+52 713 278 5436,,Mo-Su 08:00-22:00,MoneyGram,Q1944412
70400135,moneygram,FARMACIAS GUADALAJARA - PUERTO VALLARTA,,PUERTO VALLARTA,JA,,MX,+52 713 278 5436,,Mo-Su 08:00-22:00,MoneyGram,Q1944412
71118963,moneygram,TELECOMM - #TELECOMM 14039 - PUERTO VALL,,PUERTO VALLARTA,JA,,MX,55118008334700,,Mo-Fr 09:00-15:00; Sa-Su 00:00-24:00,MoneyGram,Q1944412
71119221,moneygram,TELECOMM - #TELECOMM 14067 - PUERTO VALL,,PUERTO VALLARTA,JA,,MX,55118008334700,,Mo-Fr 09:00-15:00; Sa-Su 00:00-24:00,MoneyGram,Q1944412
71149589,moneygram,ELEKTRA - #8996 - PUERTO VALLARTA - DAZ,,PUERTO VALLARTA,JA,,MX,+52 55 1720 7000,,Mo-Su 09:00-21:00,MoneyGram,Q1944412
66556637,moneygram,BANORTE - PUERTO VALLARTA - PLAZA FLUVIA,,PUERTO VALLARTA,JA,,MX,+52 800 495 5674,,Mo-Fr 09:00-17:00; Sa-Su 00:00-24:00,MoneyGram,Q1944412
71261991,moneygram,OXXO - CLUB HIPODROMO PVA,,PUERTO VALLARTA,JA,,MX,+52 81 8389 2121,,Mo-Su 03:00-24:00,MoneyGram,Q1944412
71261784,moneygram,OXXO - ECUADOR PVA,,PUERTO VALLARTA,JA,,MX,+52 81 8389 2121,,Mo-Su 03:00-24:00,MoneyGram,Q1944412
71262576,moneygram,OXXO - LA CURVA PVA,,PUERTO VALLARTA,JA,,MX,+52 81 8389 2121,,Mo-Su 03:00-24:00,MoneyGram,Q1944412
71261519,moneygram,OXXO - LAZARO CARDENAS PVA,,PUERTO VALLARTA,JA,,MX,+52 81 8389 2121,,Mo-Su 03:00-24:00,MoneyGram,Q1944412
71262822,moneygram,OXXO - MEDANOS PVA,,PUERTO VALLARTA,JA,,MX,+52 81 8389 2121,,Mo-Su 03:00-24:00,MoneyGram,Q1944412
71262149,moneygram,OXXO - MOJONERAS PVA,,PUERTO VALLARTA,JA,,MX,+52 81 8389 2121,,Mo-Su 03:00-24:00,MoneyGram,Q1944412
71262819,moneygram,OXXO - PITILLAL II PVA,,PUERTO VALLARTA,JA,,MX,+52 81 8389 2121,,Mo-Su 03:00-24:00,MoneyGram,Q1944412
71262411,moneygram,OXXO - PITILLAL PVA,,PUERTO VALLARTA,JA,,MX,+52 81 8389 2121,,Mo-Su 03:00-24:00,MoneyGram,Q1944412
71262796,moneygram,OXXO - POETAS PVA,,PUERTO VALLARTA,JA,,MX,+52 81 8389 2121,,Mo-Su 03:00-24:00,MoneyGram,Q1944412
71262233,moneygram,OXXO - REVOLUCION PVA,,PUERTO VALLARTA,JA,,MX,+52 81 8389 2121,,Mo-Su 03:00-24:00,MoneyGram,Q1944412
71262563,moneygram,OXXO - ROMA PVA,,PUERTO VALLARTA,JA,,MX,+52 81 8389 2121,,Mo-Su 03:00-24:00,MoneyGram,Q1944412
71262194,moneygram,OXXO - UNIDIS PVA,,PUERTO VALLARTA,JA,,MX,+52 81 8389 2121,,Mo-Su 03:00-24:00,MoneyGram,Q1944412
71767110,moneygram,CADENA COMERCIAL OXXO SA DE CV - #10DCU5,,PUERTO VALLARTA,JA,,MX,+52 81 8389 2121,,Mo-Su 03:00-24:00,MoneyGram,Q1944412
