Ref,Spider,Name,Address,City,State,Zipcode,Country,Phone,Website,Hours,Brand,WikiData
2099,auchan_pl,Auchan Supermarket Światowida,"Światowida 57, 03-144 Warszawa, Polska",Warszawa,,,PL,+48 22 444 02 22,https://www.auchan.pl/pl/sklepy/Auchan-Supermarket-Swiatowida,Mo-Sa 06:30-22:00,Auchan Super,Q758603
1220,biedronka_pl,Biedronka,,Warszawa,,,PL,,"https://www.biedronka.pl/pl/shop,id,1220",Mo-Sa 06:00-23:30,Biedronka,Q857182
2994,biedronka_pl,Biedronka,,Warszawa,,,PL,,"https://www.biedronka.pl/pl/shop,id,2994",Mo-Sa 06:00-23:30,Biedronka,Q857182
"https://www.brw.pl/siec-sprzedazy/salon,mebloket,warszawa,961.html",black_red_white_pl,MEBLOKET - Warszawa,,Warszawa,,,PL,+48 609 665 526,"https://www.brw.pl/siec-sprzedazy/salon,mebloket,warszawa,961.html",Mo-Fr 11:00-19:00; Sa 10:00-14:00,Black Red White,Q4921546
Amrest_107091,burger_king_pl,Warszawa Galeria Północna,,Warszawa,,,PL,,,Mo-Su 10:00-22:00,Burger King,Q177054
3,carrefour_pl,Carrefour Market,,Warszawa,,,PL,,,Mo-Sa 06:00-22:00; Su 08:00-20:00,Carrefour Market,Q2689639
2920,carrefour_pl,Carrefour Express Convenience,,Warszawa,,,PL,,,Mo-Sa 07:00-22:00; Su 08:00-21:00,Carrefour Express,Q2940190
449,ccc,Warszawa CCC Galeria Północna 2301,,Warszawa,,,PL,+48 22 812 83 05,https://ccc.eu/pl/market/warszawa-ccc-galeria-polnocna-2301,Mo-Sa 10:00-22:00; Su 10:00-21:00,CCC,Q11788344
1014,chorten_pl,Chorten,,WARSZAWA,,,PL,,https://chorten.com.pl/sklepy/warszawa_mim-s-c-maciej-zalecki-mariusz-zakrzewski_1014,Mo-Sa 07:00-20:00,Chorten,Q48843988
"52.339054000|20.943973000|Pasaz Tarchomin Warszawa|Światowida 41, Warszawa, 03-144, Poland",costacoffee_pl,Pasaz Tarchomin Warszawa,"Światowida 41, Warszawa, 03-144, Poland",Warszawa,,,PL,,,,Costa Coffee,Q608845
557,dealz_pl,Dealz,,Warszawa,,,PL,,,Mo-Sa 10:00-22:00,Dealz,Q16942585
55187023,deichmann,DEICHMANN sklep Warszawa Ul. Światowida 17,,Warszawa,,,PL,+48 668 685 614,https://stores.deichmann.com/pl-pl/pl/mazowieckie/warszawa/ul-swiatowida-17,Mo-Sa 10:00-22:00; Su 10:00-21:00,Deichmann,Q664543
3264,empik_pl,Warszawa Galeria Północna (SP),ul. Światowida 17,Warszawa,,,PL,+48 532 547 988,"https://www.empik.com/salony-empik/warszawa/warszawa-galeria-polnocna-sp,3264,e",Mo-Sa 10:00-22:00; Su 10:00-21:00,Empik,Q3045978
R217,hebe_pl,Drogeria Hebe nr 217,,Warszawa,,,PL,,https://www.hebe.pl/sklep?StoreID=R217,,Hebe,Q113093841
MBPL164R,millennium_bank_pl,MBPL164R,,Warszawa,,,PL,,,,Bank Millennium,Q4855947
MBPL164S,millennium_bank_pl,MBPL164S,,Warszawa,,,PL,,,,Bank Millennium,Q4855947
RCDM0FT6,millennium_bank_pl,RCDM0FT6,,Warszawa,,,PL,,,,Bank Millennium,Q4855947
RCNM0Z76,millennium_bank_pl,RCNM0Z76,,Warszawa,,,PL,,,,Bank Millennium,Q4855947
RCNN0C3A,millennium_bank_pl,RCNN0C3A,,Warszawa,,,PL,,,,Bank Millennium,Q4855947
RCNN0W07,millennium_bank_pl,RCNN0W07,,Warszawa,,,PL,,,,Bank Millennium,Q4855947
RCNN0W08,millennium_bank_pl,RCNN0W08,,Warszawa,,,PL,,,,Bank Millennium,Q4855947
RCWM0Q77,millennium_bank_pl,RCWM0Q77,,Warszawa,,,PL,,,,Bank Millennium,Q4855947
RNET5A80,millennium_bank_pl,RNET5A80,,Warszawa,,,PL,,,,Bank Millennium,Q4855947
RNET7248,millennium_bank_pl,RNET7248,,Warszawa,,,PL,,,,Bank Millennium,Q4855947
RNET7249,millennium_bank_pl,RNET7249,,Warszawa,,,PL,,,,Bank Millennium,Q4855947
RNET3108,millennium_bank_pl,RNET3108,,Warszawa,,,PL,,,,Bank Millennium,Q4855947
RNET3868,millennium_bank_pl,RNET3868,,Warszawa,,,PL,,,,Bank Millennium,Q4855947
70991039,moneygram,FUP WARSZAWA 139 - POCZTA POLSKA,,WARSZAWA,,,PL,+48 887 857 065,,Mo-Fr 06:00-22:00; Sa 08:00-20:00; Su 00:00-24:00,MoneyGram,Q1944412
5b3cb3fac00458481b4377bf,newyorker,NEW YORKER | Galeria Polnocna,"Światowida 17, 03-144 Warszawa",Warszawa,,,PL,+48 22 431 86 02,,Mo-Sa 10:00-22:00; Su 10:00-21:00,New Yorker,Q706421
27010,orange_pl,Orange Warszawa Galeria Północna,,Warszawa,,,PL,+48 501 100 127,https://salony.orange.pl/pl/orange-warszawa-galeria-p%C3%B3%C5%82nocna-27010,Mo-Sa 10:00-22:00,Orange,Q1431486
448851,orlen_paczka_pl,,,Warszawa,,,PL,,,Mo-Fr 10:00-18:00,Orlen Paczka,Q110457879
494567,orlen_paczka_pl,,,Warszawa,,,PL,,,,Orlen Paczka,Q110457879
229,putka_pl,Putka,,Warszawa,,,PL,+48 607 041 140,https://www.putka.pl/sklepy-firmowe/1/0/229,Mo-Fr 06:30-20:00; Sa 07:00-16:00,Putka,Q113093586
37,putka_pl,Putka,,Warszawa,,,PL,+48 609 047 047,https://www.putka.pl/sklepy-firmowe/1/0/37,Mo-Fr 06:30-19:00; Sa 07:00-15:00,Putka,Q113093586
1522488,santander_pl,30 Oddział w Warszawie,,Warszawa,,,PL,+48 61 811 99 99,,Mo-Sa 10:00-21:00; Su 10:00-18:00,Santander,Q806653
SQLS370,speed_queen,Pralnia Speed Queen,,Warszawa,,,PL,+48 508 666 573,,Mo-Su 09:00-21:00,Speed Queen,Q7575499
https://restaurants.subway.com/#14929635,subway,Subway Galeria Polnocna,,Warszawa,,,PL,+48 22 812 83 32,https://restaurants.subway.com/poland/mz/warszawa/ul-swiatowida-17,Mo-Su 10:00-22:00,Subway,Q244457
TNFSW-US17W,the_north_face_eu,The North Face Store Warsaw Polnocna,,Warsaw,,,PL,+48 500 374 508,,,The North Face,Q152784
659,tmobile_pl,T-Mobile,,Warszawa,,,PL,+48 22 245 60 00,,Mo-Sa 10:00-22:00,T-Mobile,Q327634
,visa,,,WARSZAWA,,,PL,,,,,
,visa,,,WARSZAWA,,,PL,,,,,
,visa,,,WARSZAWA,,,PL,,,,,
,visa,,,WARSZAWA,,,PL,,,,,
,visa,,,WARSZAWA,,,PL,,,,,
,visa,,,WARSZAWA,,,PL,,,,,
,visa,,,WARSZAWA,,,PL,,,,,
,visa,,,WARSZAWA,,,PL,,,,,
,visa,,,WARSZAWA,,,PL,,,,,
,visa,,,WARSZAWA,,,PL,,,,,
,visa,,,WARSZAWA,,,PL,,,,,
ID04997,zabka_pl,Żabka,,Warszawa,,,PL,,,Mo-Sa 06:00-23:00,Żabka,Q2589061
ID05936,zabka_pl,Żabka,,Warszawa,,,PL,,,Mo-Sa 08:30-23:00; Su 11:00-20:00,Żabka,Q2589061
ID06252,zabka_pl,Żabka,,Warszawa,,,PL,,,Mo-Sa 06:00-23:00; Su 09:00-23:00,Żabka,Q2589061
ID07279,zabka_pl,Żabka,,Warszawa,,,PL,,,Mo-Sa 06:00-23:00; Su 10:00-22:00,Żabka,Q2589061
ID08644,zabka_pl,Żabka,,Warszawa,,,PL,,,Mo-Sa 06:00-23:00; Su 11:00-21:00,Żabka,Q2589061
ID09046,zabka_pl,Żabka,,Warszawa,,,PL,,,Mo-Sa 06:00-23:00; Su 09:00-21:00,Żabka,Q2589061
ID0A706,zabka_pl,Żabka,,Warszawa,,,PL,,,Mo-Sa 06:00-23:00; Su 09:00-21:00,Żabka,Q2589061
