Ref,Spider,Name,Address,City,State,Zipcode,Country,Phone,Website,Hours,Brand,WikiData
156157,bluerhino,Walgreens #11277,,Sauk City,WI,,US,+1 608-643-5182,,,Blue Rhino,Q65681213
219214,bluerhino,Sauk Ace Hardware #17879,,Sauk City,WI,,US,+1 608-643-2433,,,Blue Rhino,Q65681213
11196,cenex,Consumers Coop Oil Co,,Sauk City,WI,,US,+1 608-643-3301,,24/7,Cenex,Q62127191
57089,chevrolet,"KAYSER CHEVROLET, INC.",,Sauk City,WI,,US,+1 608-643-5813,https://www.kayserchevrolet.com,Mo 09:00-19:00; Tu-We 09:00-18:00; Th 09:00-19:00; Fr 09:00-18:00; Sa 09:00-16:00,Chevrolet,Q29570
45518,citi,ATM Connexus CU,,Sauk City,WI,,US,,,,Citibank,Q857063
75434,citi,ATM Sauk Cenex,,Sauk City,WI,,US,,,,Citibank,Q857063
63218,citi,ATM Kwik Trip #763-2,,Sauk City,WI,,US,,,,Citibank,Q857063
63217,citi,ATM Kwik Trip #763-1,,Sauk City,WI,,US,,,,Citibank,Q857063
90275,citi,ATM Walgreens,,Sauk City,WI,,US,,,,Citibank,Q857063
1,culvers_us,"Culver's of Sauk City, WI - Phillips Blvd",,Sauk City,WI,,US,+1 608-643-6620,http://www.culvers.com/restaurants/sauk-city,Mo-Fr 10:00-22:00; Su 10:00-22:00,Culver's,Q1143589
356838,dunkin_us,Dunkin',,Sauk City,WI,,US,+1 608-640-7300,https://locations.dunkindonuts.com/en/wi/sauk-city/410a-phillips-blvd/356838,Mo-Sa 05:00-20:00; Su 06:00-20:00,Dunkin',Q847743
https://www.edwardjones.com/us-en/financial-advisor/peter-vanderhagen,edwardjones,Peter J van der Hagen,,Sauk City,WI,,US,+1 608-643-5166,https://www.edwardjones.com/us-en/financial-advisor/peter-vanderhagen,Mo-Fr 08:00-16:30,Edward Jones,Q5343830
https://local.fedex.com/#25201422,fedex,,,Sauk City,WI,,US,+1 800-463-3339,https://local.fedex.com/en-us/wi/sauk-city/s7vk8,,FedEx,Q459477
Motorcraft4475USAEnglish,ford,Ballweg Ford,,Wisconsin,WI,,US,+1 608-643-8553,,,Ford,Q44294
https://www.ford.com/dealerships/dealer-details/wi/sauk-city/kayser-ford-of-sauk-city/,ford_dealers_us,Kayser Ford of Sauk City,,Sauk City,WI,,US,+1 608-370-5203,https://www.ford.com/dealerships/dealer-details/wi/sauk-city/kayser-ford-of-sauk-city/,Mo-Fr 08:00-18:00; Sa 08:00-15:00,Ford Motor Company,Q44294
46920,h_r_block,H&R Block,,Sauk City,WI,,US,+1 608-643-3273,https://www.hrblock.com/local-tax-offices/wisconsin/sauk-city/205-phillips-blvd/46920/,,H&R Block,Q5627799
https://locations.oreillyauto.com/wi/saukcity/check-engine-light-testing-4688.html,oreilly,Your Sauk City O'Reilly Auto Parts Store,,Sauk City,WI,,US,+1 608-643-2332,https://locations.oreillyauto.com/wi/saukcity/check-engine-light-testing-4688.html,Mo-Sa 07:00-21:00; Su 08:00-19:00,O'Reilly Auto Parts,Q7071951
https://locations.oreillyauto.com/wi/saukcity/wiper-installation-4688.html,oreilly,Your Sauk City O'Reilly Auto Parts Store,,Sauk City,WI,,US,+1 608-643-2332,https://locations.oreillyauto.com/wi/saukcity/wiper-installation-4688.html,Mo-Sa 07:00-21:00; Su 08:00-19:00,O'Reilly Auto Parts,Q7071951
https://locations.oreillyauto.com/wi/saukcity/autopartes-4688.html,oreilly,Tu tienda O'Reilly Auto Parts en Sauk City,,Sauk City,WI,,US,+1 608-643-2332,https://locations.oreillyauto.com/wi/saukcity/autopartes-4688.html,Mo-Sa 07:00-21:00; Su 08:00-19:00,O'Reilly Auto Parts,Q7071951
https://locations.oreillyauto.com/wi/saukcity/battery-testing-4688.html,oreilly,Your Sauk City O'Reilly Auto Parts Store,,Sauk City,WI,,US,+1 608-643-2332,https://locations.oreillyauto.com/wi/saukcity/battery-testing-4688.html,Mo-Sa 07:00-21:00; Su 08:00-19:00,O'Reilly Auto Parts,Q7071951
431,piggly_wiggly_us,Piggly Wiggly,,Sauk City,WI,,US,+1 608-643-8438,https://www.shopthepig.com/,,Piggly Wiggly,Q3388303
wi_sauk-city_825-phillips-blvd-eagle-plaza,pizza_hut_us,825 Phillips Blvd Eagle Plaza,,Sauk City,WI,,US,+1 608-643-4343,https://locations.pizzahut.com/wi/sauk-city/825-phillips-blvd-eagle-plaza,,Pizza Hut,Q191615
https://restaurants.subway.com/#14906793,subway,Subway,,Sauk City Sauk,WI,,US,+1 608-643-2727,https://restaurants.subway.com/united-states/wi/sauk-city/829-phillips-blvd,Mo-Su 08:00-21:00,Subway,Q244457
035085,uhaul,Pickers Place,7552 US Hwy 12,Sauk City,WI,,US,+1 608-370-5678,,Mo-Sa 00:00-18:00,U-Haul,Q7862902
1380849,usps,SAUK CITY,,SAUK CITY,WI,,US,+1 608-643-3217,,"Mo-Fr 08:15-11:30,12:30-16:30; Sa 08:30-10:30",United States Postal Service,Q668687
5358300012,usps_collection_boxes,USPS COLLECTION BOX - PO LOBBY,739 WATER ST,SAUK CITY,WI,,US,,,,United States Postal Service,Q668687
5358300004,usps_collection_boxes,USPS COLLECTION BOX - BLUE BOX,739 WATER ST,SAUK CITY,WI,,US,,,,United States Postal Service,Q668687
5358300008,usps_collection_boxes,USPS COLLECTION BOX - PO LOBBY,739 WATER ST,SAUK CITY,WI,,US,,,,United States Postal Service,Q668687
5358300009,usps_collection_boxes,USPS COLLECTION BOX - PO LOBBY,739 WATER ST,SAUK CITY,WI,,US,,,,United States Postal Service,Q668687
5358300010,usps_collection_boxes,USPS COLLECTION BOX - BLUE BOX,739 WATER ST,SAUK CITY,WI,,US,,,,United States Postal Service,Q668687
5358300003,usps_collection_boxes,USPS COLLECTION BOX - BLUE BOX,110 PHILLIPS BLVD,SAUK CITY,WI,,US,,,,United States Postal Service,Q668687
5358300011,usps_collection_boxes,USPS COLLECTION BOX - BLUE BOX,333 PHILLIPS BLVD,SAUK CITY,WI,,US,,,,United States Postal Service,Q668687
5358300006,usps_collection_boxes,USPS COLLECTION BOX - BLUE BOX,724 PHILLIPS BLVD,SAUK CITY,WI,,US,,,,United States Postal Service,Q668687
,visa,,,SAUK CITY,WI,,US,,,,,
,visa,,,SAUK CITY,WI,,US,,,,,
,visa,,,SAUK CITY,WI,,US,,,,,
,visa,,,SAUK CITY,WI,,US,,,,,
,visa,,,SAUK CITY,WI,,US,,,,,
,visa,,,SAUK CITY,WI,,US,,,,,
,visa,,,SAUK CITY,WI,,US,,,,,
,visa,,,SAUK CITY,WI,,US,,,,,
,visa,,,SAUK CITY,WI,,US,,,,,
,visa,,,SAUK CITY,WI,,US,,,,,
https://www.walgreens.com/locator/walgreens-333+phillips+blvd-sauk+city-wi-53583/id=11277,walgreens,Walgreens,,Sauk City,WI,,US,+1 608-643-5182,https://www.walgreens.com/locator/walgreens-333+phillips+blvd-sauk+city-wi-53583/id=11277,Mo-Fr 07:00-23:00; Sa-Su 07:00-22:00,Walgreens,Q1591889
