Ref,Spider,Name,Address,City,State,Zipcode,Country,Phone,Website,Hours,Brand,WikiData
21968,asics_us,BootLegger's Footwear Center,314 Daniel Webster Hwy,Meredith,NH,,US,+1 603-279-7463,,Mo-Sa 09:00-20:00; Su 09:00-17:30,asics,Q327247
128402,bluerhino,Bryant Paving,,Meredith,NH,,US,+1 603-279-1499,,,Blue Rhino,Q65681213
158553,bluerhino,Ocean State Job Lot #413,,Meredith,NH,,US,+1 603-279-0085,,,Blue Rhino,Q65681213
43192,bluerhino,Cumberland Farms #5536,,Meredith,NH,,US,+1 603-279-7730,,,Blue Rhino,Q65681213
164711,bluerhino,Family Dollar #08837,,Meredith,NH,,US,+1 603-217-8015,,,Blue Rhino,Q65681213
119060,bluerhino,Orgill #377390 - Middleton Building Supply,,Meredith,NH,,US,+1 603-279-7911,,,Blue Rhino,Q65681213
205436,bluerhino,Aubuchon Hardware #003,,Meredith,NH,,US,+1 603-279-1324,,,Blue Rhino,Q65681213
240249,bluerhino,Circle K #4707243,,Meredith,NH,,US,+1 603-279-5129,,,Blue Rhino,Q65681213
73691,citi,ATM Rite Aid,,Meredith,NH,,US,,,,Citibank,Q857063
44070,citi,ATM Circle K,,Meredith,NH,,US,,,,Citibank,Q857063
030419,citizens_us,Citizens Meredith,,Meredith,NH,,US,+1 603-279-3500,,Mo-Fr 09:00-16:00; Sa 09:00-12:00,Citizens,Q5122694
ATM-518,citizens_us,,,Meredith,NH,,US,+1 603-279-3500,,24/7,Citizens,Q5122694
ATM-1706,citizens_us,,,Meredith,NH,,US,,,,Citizens,Q5122694
520311,cumberland_farms_us,Cumberland Farms,,MEREDITH,NH,,US,+1 603-279-7730,https://www.cumberlandfarms.com/find-us/generic-store-page/?id=005536,,Cumberland Farms,Q1143685
3193,dominos_pizza_us,Domino's Pizza,,Meredith,NH,,US,+1 603-707-4222,https://pizza.dominos.com/new-hampshire/meredith/38-nh-route-25-unit-24a,Mo-Th 10:00-24:00; Fr-Sa 10:00-01:00; Su 10:00-24:00,Domino's,Q839466
310393,dunkin_us,Dunkin',,Meredith,NH,,US,+1 603-279-4936,https://locations.dunkindonuts.com/en/nh/meredith/55-nh-rte-25/310393,Mo-Su 05:00-20:00,Dunkin',Q847743
https://www.edwardjones.com/us-en/financial-advisor/cari-lamontagne,edwardjones,Cari Lamontagne,,Meredith,NH,,US,+1 603-279-3161,https://www.edwardjones.com/us-en/financial-advisor/cari-lamontagne,,Edward Jones,Q5343830
520311,eg_america_us,Cumberland Farms,,MEREDITH,NH,,US,+1 603-279-7730,https://www.cumberlandfarms.com/find-us/generic-store-page/?id=005536,,Cumberland Farms,Q1143685
200304483,exxonmobil,MEREDITH STATION,,MEREDITH,NH,,US,+1 603-279-1309,https://www.exxon.com/en/find-station/mobil-meredith-nh-meredithstation-200304483,Mo-Th 06:00-22:00; Fr-Sa 06:00-23:00; Su 06:00-22:00,Mobil,Q109676002
https://stores.hannaford.com/#8905424,hannaford,Hannaford - Meredith 50 NH Route 25 - Meredith,,Belknap County,NH,,US,+1 603-279-1451,https://stores.hannaford.com/nh/meredith/8253,Mo-Su 07:00-21:00,Hannaford,Q5648760
middleton-building-sply-26745,ppgpaints,MIDDLETON BUILDING SPLY,,"Meredith, ",NH,,US,+1 603-279-7911,https://www.ppgpaints.com/store-locator/us/new-hampshire/meredith-paint-stores/middleton-building-sply-26745,,PPG Paints,Q83891559
10281,rite_aid_us,Rite Aid #10281 Meredith,,Meredith,NH,,US,+1 603-279-4551,https://locations2.riteaid.com.yext-cdn.com/nh/meredith/89-nh-route-25.html,Mo-Sa 08:00-21:00; Su 08:00-18:00,Rite Aid,Q3433273
398,sanel_napa,NAPA Meredith,331 Daniel Webster Hwy.,Meredith,NH,,US,+1 603-279-4824,https://www.napaonline.com/en/nh/meredith/store/26391,,Sanel NAPA,Q122564780
32426,smilebrands,Mondovi Dental Meredith,9 Northview Drive,Meredith,NH,,US,+1 603-279-6959,https://mondovidental.com/locations/new-hampshire-dental-centers/meredith-nh/,,Smile Brands Inc.,Q108286823
1372744,usps,MEREDITH,,MEREDITH,NH,,US,+1 603-279-6242,,Mo-Fr 08:30-17:00; Sa 08:30-12:30,United States Postal Service,Q668687
0325300003,usps_collection_boxes,USPS COLLECTION BOX - BLUE BOX,148 MEREDITH CENTER RD,MEREDITH,NH,,US,,,,United States Postal Service,Q668687
0325300005,usps_collection_boxes,USPS COLLECTION BOX - BLUE BOX,71 NH ROUTE 104,MEREDITH,NH,,US,,,,United States Postal Service,Q668687
0325300007,usps_collection_boxes,USPS COLLECTION BOX - PO LOBBY,76 MAIN ST,MEREDITH,NH,,US,,,,United States Postal Service,Q668687
0325300002,usps_collection_boxes,USPS COLLECTION BOX - BLUE BOX,76 MAIN ST,MEREDITH,NH,,US,,,,United States Postal Service,Q668687
0325300006,usps_collection_boxes,USPS COLLECTION BOX - PO LOBBY,76 MAIN ST,MEREDITH,NH,,US,,,,United States Postal Service,Q668687
0325300004,usps_collection_boxes,USPS COLLECTION BOX - BLUE BOX,38 NH ROUTE 25,MEREDITH,NH,,US,,,,United States Postal Service,Q668687
,visa,,,MEREDITH,NH,,US,,,,,
,visa,,,MEREDITH,NH,,US,,,,,
,visa,,,MEREDITH,NH,,US,,,,,
,visa,,,MEREDITH,NH,,US,,,,,
,visa,,,MEREDITH,NH,,US,,,,,
,visa,,,MEREDITH,NH,,US,,,,,
