Ref,Spider,Name,Address,City,State,Zipcode,Country,Phone,Website,Hours,Brand,WikiData
https://locations.arbys.com/mi/lowell/2143-w-main-st.html,arbys_us,"Arby's Fast-Food Drive Through Near You in Lowell, MI",,Lowell,MI,,US,+1 616-897-1427,https://locations.arbys.com/mi/lowell/2143-w-main-st.html,Mo-Su 10:00-24:00,Arby's,Q630866
4305,autozone_us,AutoZone Auto Parts Lowell,,Lowell,MI,,US,+1 616-897-8454,https://www.autozone.com/locations/mi/lowell/2300-w-main-st.html,Mo-Sa 08:00-20:00; Su 08:30-19:00,AutoZone,Q4826087
https://bc.pizza/locations/lowell/,bcpizza,Lowell B.C. Pizza,,Lowell,MI,,US,+1 616-897-9776,https://bc.pizza/locations/lowell/,Mo-Th 11:00-21:00; Fr-Sa 11:00-22:00; Su 11:00-21:00,BC Pizza,Q117600284
380,biggby_coffee_us,Biggby Coffee,11826 Fulton St E Lowell MI 49331,Lowell,MI,,US,+1 616-987-3328,,Mo-Th 05:30-20:00; Fr-Sa 05:30-21:00; Su 06:00-20:00,Biggby Coffee,Q4906876
198764,bluerhino,Fallasburg Mobil #145,,Lowell,MI,,US,+1 616-897-2710,,,Blue Rhino,Q65681213
154044,bluerhino,Walgreens #12893,,Lowell,MI,,US,+1 616-698-9157,,,Blue Rhino,Q65681213
206892,bluerhino,Rite Aid #01529,,LOWELL,MI,,US,+1 616-897-9221,,,Blue Rhino,Q65681213
182848,bluerhino,Self Serve Lumber-Lowell,,Lowell,MI,,US,+1 616-897-4857,,,Blue Rhino,Q65681213
58463,bluerhino,Speedway #3564,,Lowell,MI,,US,+1 616-897-6649,,,Blue Rhino,Q65681213
198776,bluerhino,Lowell Mobil #135,,Lowell,MI,,US,+1 616-897-8019,,,Blue Rhino,Q65681213
30296397904034933100100000000000,bp,BP,,Lowell,MI,,US,+1 616-897-6143,,Mo-Su 07:00-22:00,BP,Q152057
26761,burgerking,Burger King,,Lowell,MI,,US,+1 616-987-5060,https://www.bk.com/store-locator/store/restaurant_88658,Mo-Sa 06:00-21:00; Su 07:00-21:00,Burger King,Q177054
86976,citi,ATM Walgreens,,Lowell,MI,,US,,,,Citibank,Q857063
73756,citi,ATM River Valley Credit Union,,Lowell,MI,,US,,,,Citibank,Q857063
76474,citi,ATM Speedway,,Lowell,MI,,US,,,,Citibank,Q857063
79492,citi,ATM SPEEDWAY #3564,,Lowell,MI,,US,,,,Citibank,Q857063
,credit_union_us,PFCU,,Lowell,MI,,US,+1 517-647-7571,,Mo-Th 09:00-05:00; Fr 09:00-05:30,,
867,culvers_us,"Culver's of Lowell, MI - W Main St",,Lowell,MI,,US,+1 616-319-7113,http://www.culvers.com/restaurants/lowell-mi-w-main-st,Mo-Fr 10:30-22:00; Su 10:30-22:00,Culver's,Q1143589
https://www.edwardjones.com/us-en/financial-advisor/ian-deming,edwardjones,Ian J Deming,,Lowell,MI,,US,+1 616-987-9515,https://www.edwardjones.com/us-en/financial-advisor/ian-deming,Mo-Th 08:30-16:30; Fr 08:30-16:00,Edward Jones,Q5343830
200320097,exxonmobil,J&H FAMILY STORES-FALLASBURG,,LOWELL,MI,,US,+1 616-897-2710,https://www.exxon.com/en/find-station/mobil-lowell-mi-jhfamilystoresfallasburg-200320097,24/7,Mobil,Q109676002
https://locations.53.com/#3034467,fifththirdbank,Fifth Third Bank Lowell,,Lowell,MI,,US,+1 616-897-1800,https://locations.53.com/mi/lowell/11915-fulton-street-east.html,Mo-Th 09:00-17:00; Fr 09:00-17:30; Sa 09:00-12:00,Fifth Third Bank,Q1411810
Motorcraft4307USAEnglish,ford,"Harold Zeigler Ford, Inc.",,Michigan,MI,,US,,,,Ford,Q44294
https://www.ford.com/dealerships/dealer-details/mi/lowell/zeigler-ford-of-lowell/,ford_dealers_us,Zeigler Ford of Lowell,,Lowell,MI,,US,+1 616-421-4332,https://www.ford.com/dealerships/dealer-details/mi/lowell/zeigler-ford-of-lowell/,Mo-Th 09:00-20:00; Fr 09:00-18:00; Sa 09:00-16:00,Ford Motor Company,Q44294
1951053a-458a-e111-8dde-005056934050,goodwill,Lowell Store,,Lowell,MI,,US,+1 616-897-2518,https://www.goodwill.org/locator/location/?store=MTk1MTA1M2EtNDU4YS1lMTExLThkZGUtMDA1MDU2OTM0MDUw&lat=NDIuOTMwMDQ=&lng=LTg1LjM4Mzg0,,Goodwill,Q5583655
https://salons.greatclips.com/us/mi/lowell/11635-fulton-st,greatclips,Great Clips,,Lowell,MI,,US,+1 616-897-9520,https://salons.greatclips.com/us/mi/lowell/11635-fulton-st,Mo-Fr 10:00-19:00; Sa 09:00-18:00; Su 09:00-17:00,Great Clips,Q5598967
393,huntingtonbank,Lowell ,,Lowell,MI,,US,+1 616-897-4153,https://www.huntington.com/Community/branch-info?locationId=393,Mo-Fr 09:00-17:00; Sa 09:00-12:00; Su 00:00-00:00,Huntington Bank,Q798819
22503,h_r_block,H&R Block,,Lowell,MI,,US,+1 616-897-8947,https://www.hrblock.com/local-tax-offices/michigan/lowell/2050-w-main/22503/,,H&R Block,Q5627799
https://locations.jimmyjohns.com/mi/lowell/sandwiches-4216.html,jimmy_johns,Jimmy John's,,Lowell,MI,,US,+1 616-457-8060,https://locations.jimmyjohns.com/mi/lowell/sandwiches-4216.html,,Jimmy John's,Q1689380
160854,marathon_petroleum_us,ADMIRAL 5770,,Lowell,MI,,US,+1 616-897-3044,,,Marathon,Q458363
158569,marathon_petroleum_us,ADMIRAL 5759,,Lowell,MI,,US,+1 616-897-8871,,,Marathon,Q458363
https://locations.oreillyauto.com/mi/lowell/check-engine-light-testing-4846.html,oreilly,Your Lowell O'Reilly Auto Parts Store,,Lowell,MI,,US,+1 616-421-2138,https://locations.oreillyauto.com/mi/lowell/check-engine-light-testing-4846.html,Mo-Sa 07:30-21:00; Su 08:00-20:00,O'Reilly Auto Parts,Q7071951
https://locations.oreillyauto.com/mi/lowell/wiper-installation-4846.html,oreilly,Your Lowell O'Reilly Auto Parts Store,,Lowell,MI,,US,+1 616-421-2138,https://locations.oreillyauto.com/mi/lowell/wiper-installation-4846.html,Mo-Sa 07:30-21:00; Su 08:00-20:00,O'Reilly Auto Parts,Q7071951
https://locations.oreillyauto.com/mi/lowell/battery-testing-4846.html,oreilly,Your Lowell O'Reilly Auto Parts Store,,Lowell,MI,,US,+1 616-421-2138,https://locations.oreillyauto.com/mi/lowell/battery-testing-4846.html,Mo-Sa 07:30-21:00; Su 08:00-20:00,O'Reilly Auto Parts,Q7071951
https://locations.oreillyauto.com/mi/lowell/autopartes-4846.html,oreilly,Tu tienda O'Reilly Auto Parts en Lowell,,Lowell,MI,,US,+1 616-421-2138,https://locations.oreillyauto.com/mi/lowell/autopartes-4846.html,Mo-Sa 07:30-21:00; Su 08:00-20:00,O'Reilly Auto Parts,Q7071951
785074,penske,Self Serve Lumber,,LOWELL,MI,,US,+1 616-866-8877,https://www.pensketruckrental.com/locations/us/michigan/lowell/785074/,,Penske,Q81234570
01529,rite_aid_us,Rite Aid #01529 Lowell,,Lowell,MI,,US,+1 616-897-9221,https://locations2.riteaid.com.yext-cdn.com/mi/lowell/1401-west-main-street.html,Mo-Fr 09:00-21:00; Sa-Su 09:00-18:00,Rite Aid,Q3433273
3235,snap_fitness,"Lowell, MI",2173 W Main St,Lowell,MI,,US,+1 616-987-4000,https://www.snapfitness.com/us/gyms/lowell-mi,24/7,Snap Fitness,Q7547254
https://restaurants.subway.com/#14910729,subway,Subway Mobil Gas / C-Store,,Lowell Kent,MI,,US,+1 616-897-8237,https://restaurants.subway.com/united-states/mi/lowell/4475-alden-nash-ave,Mo-Fr 07:00-21:00; Sa 08:00-21:00; Su 09:00-21:00,Subway,Q244457
https://restaurants.subway.com/#14897204,subway,Subway,,Lowell Kent,MI,,US,+1 616-897-4960,https://restaurants.subway.com/united-states/mi/lowell/11826-fulton-st,Mo-Su 08:00-21:00,Subway,Q244457
https://locations.tacobell.com/#6145473,taco_bell,Taco Bell,,Lowell,MI,,US,+1 616-987-9033,https://locations.tacobell.com/mi/lowell/1975-west-main-street.html,Mo 07:00-24:00; Tu-Th 07:00-01:00; Fr-Sa 07:00-03:00; Su 07:00-24:00,Taco Bell,Q752941
https://locations.tccrocks.com/mi/lowell/11635-fulton-st-e.html,tcc_us,TCC Lowell,,Lowell,MI,,US,+1 616-361-0334,https://locations.tccrocks.com/mi/lowell/11635-fulton-st-e.html,Mo-Sa 10:00-18:00,Verizon,Q919641
3HSQ,tmobile_us,W Main St & Ridgeview Dr,,Lowell,MI,,US,+1 616-365-5760,https://www.t-mobile.com/store-locator/mi/lowell/w-main-st-ridgeview-dr,,T-Mobile,Q3511885
7097,upsstore,Lowell,11901 Fulton St Suite B,Lowell,MI,,US,+1 616-987-3372,https://locations.theupsstore.com/mi/lowell/11901-fulton-st,,UPS Store,Q7771029
1437883,usps,LOWELL,,LOWELL,MI,,US,+1 616-897-9949,,Mo-Fr 08:30-17:00; Sa 09:00-12:00,United States Postal Service,Q668687
4933100014,usps_collection_boxes,USPS COLLECTION BOX - BLUE BOX,11901 FULTON ST E,LOWELL,MI,,US,,,,United States Postal Service,Q668687
4933100003,usps_collection_boxes,USPS COLLECTION BOX - BLUE BOX,146 VALLEY VISTA DR,LOWELL,MI,,US,,,,United States Postal Service,Q668687
4933100007,usps_collection_boxes,USPS COLLECTION BOX - BLUE BOX,1002 W MAIN ST,LOWELL,MI,,US,,,,United States Postal Service,Q668687
4933100016,usps_collection_boxes,USPS COLLECTION BOX - PO LOBBY,120 N BROADWAY ST,LOWELL,MI,,US,,,,United States Postal Service,Q668687
4933100011,usps_collection_boxes,USPS COLLECTION BOX - BLUE BOX,120 N BROADWAY ST,LOWELL,MI,,US,,,,United States Postal Service,Q668687
4933100012,usps_collection_boxes,USPS COLLECTION BOX - PO LOBBY,120 N BROADWAY ST,LOWELL,MI,,US,,,,United States Postal Service,Q668687
4933100001,usps_collection_boxes,USPS COLLECTION BOX - BLUE BOX,301 E MAIN ST,LOWELL,MI,,US,,,,United States Postal Service,Q668687
4933100015,usps_collection_boxes,USPS COLLECTION BOX - BLUE BOX,414 E MAIN ST,LOWELL,MI,,US,,,,United States Postal Service,Q668687
A00000012155,verizon_us,TCC Lowell,,Lowell,MI,,US,+1 616-897-6849,https://www.verizon.com/stores/details/michigan/lowell/tcc-lowell-1458522/,Mo-Sa 10:00-18:00,Verizon,Q919641
,visa,,,LOWELL,MI,,US,,,,,
,visa,,,LOWELL,MI,,US,,,,,
,visa,,,LOWELL,MI,,US,,,,,
,visa,,,LOWELL,MI,,US,,,,,
,visa,,,LOWELL,MI,,US,,,,,
,visa,,,LOWELL,MI,,US,,,,,
,visa,,,LOWELL,MI,,US,,,,,
,visa,,,LOWELL,MI,,US,,,,,
,visa,,,LOWELL,MI,,US,,,,,
,visa,,,LOWELL,MI,,US,,,,,
,visa,,,LOWELL,MI,,US,,,,,
,visa,,,LOWELL,MI,,US,,,,,
,visa,,,LOWELL,MI,,US,,,,,
,visa,,,LOWELL,MI,,US,,,,,
,visa,,,LOWELL,MI,,US,,,,,
,visa,,,LOWELL,MI,,US,,,,,
,visa,,,LOWELL,MI,,US,,,,,
,visa,,,LOWELL,MI,,US,,,,,
,visa,,,LOWELL,MI,,US,,,,,
,visa,,,LOWELL,MI,,US,,,,,
,visa,,,"LOWELL, MI",MI,,US,,,,,
,visa,,,LOWELL,MI,,US,,,,,
,visa,,,LOWELL,MI,,US,,,,,
https://www.walgreens.com/locator/walgreens-11980+fulton+st+e-lowell-mi-49331/id=12893,walgreens,Walgreens,,Lowell,MI,,US,+1 616-897-3160,https://www.walgreens.com/locator/walgreens-11980+fulton+st+e-lowell-mi-49331/id=12893,Mo-Su 09:00-21:00,Walgreens,Q1591889
