Ref,Spider,Name,Address,City,State,Zipcode,Country,Phone,Website,Hours,Brand,WikiData
8105,aaa,Barbara Almeida Insurance Agency,,Middleville,MI,,US,,,,American Automobile Association,Q463436
195517,bluerhino,Hardings Market #455,,Middleville,MI,,US,+1 269-795-7019,,,Blue Rhino,Q65681213
198782,bluerhino,Middleville #158,,Middleville,MI,,US,+1 269-241-1021,,,Blue Rhino,Q65681213
168675,bluerhino,Lovey's Snack Shack II,,Middleville,MI,,US,+1 269-205-2828,,,Blue Rhino,Q65681213
58456,bluerhino,Speedway #3568,,Middleville,MI,,US,+1 269-795-9063,,,Blue Rhino,Q65681213
79494,citi,ATM SPEEDWAY #3568,,Middleville,MI,,US,,,,Citibank,Q857063
78782,citi,ATM Speedway,,Middleville,MI,,US,,,,Citibank,Q857063
,credit_union_us,Community West CU,,Middleville,MI,,US,+1 616-261-5657,,Mo-Fr 09:00-05:00,,
6771,dollar_general,Dollar General,,Middleville,MI,,US,+1 269-241-2815,https://www.dollargeneral.com/store-directory/mi/middleville/6771,Mo-Su 08:00-21:00,Dollar General,Q145168
https://www.edwardjones.com/us-en/financial-advisor/jeffrey-westra,edwardjones,Jeffrey M Westra,,Middleville,MI,,US,+1 269-205-2650,https://www.edwardjones.com/us-en/financial-advisor/jeffrey-westra,Mo-Fr 08:30-16:30,Edward Jones,Q5343830
200326007,exxonmobil,MIDDLEVILLE MART,,MIDDLEVILLE,MI,,US,,https://www.exxon.com/en/find-station/mobil-middleville-mi-middlevillemart-200326007,24/7,Mobil,Q109676002
157685,marathon_petroleum_us,MB YANKEE SPRGS MARA 425,,MIDDLEVILLE,MI,,US,+1 269-795-7806,,,Marathon,Q458363
https://restaurants.subway.com/#14905572,subway,Subway,,Middleville Barry,MI,,US,+1 269-795-2961,https://restaurants.subway.com/united-states/mi/middleville/400-w-main-street,Mo-Su 05:00-24:00,Subway,Q244457
1437907,usps,MIDDLEVILLE,,MIDDLEVILLE,MI,,US,+1 269-795-9526,,"Mo-Fr 09:00-11:00,12:00-17:00; Sa 09:00-11:00",United States Postal Service,Q668687
4933300007,usps_collection_boxes,USPS COLLECTION BOX - PO LOBBY,220 S BROADWAY ST,MIDDLEVILLE,MI,,US,,,,United States Postal Service,Q668687
4933300002,usps_collection_boxes,USPS COLLECTION BOX - BLUE BOX,220 S BROADWAY ST,MIDDLEVILLE,MI,,US,,,,United States Postal Service,Q668687
4933300005,usps_collection_boxes,USPS COLLECTION BOX - PO LOBBY,220 S BROADWAY ST,MIDDLEVILLE,MI,,US,,,,United States Postal Service,Q668687
,visa,,,MIDDLEVILLE,MI,,US,,,,,
,visa,,,MIDDLEVILLE,MI,,US,,,,,
,visa,,,MIDDLEVILLE,MI,,US,,,,,
,visa,,,MIDDLEVILLE,MI,,US,,,,,
,visa,,,MIDDLEVILLE,MI,,US,,,,,
,visa,,,MIDDLEVILLE,MI,,US,,,,,
,visa,,,MIDDLEVILLE,MI,,US,,,,,
,visa,,,MIDDLEVILLE,MI,,US,,,,,
,visa,,,MIDDLEVILLE,MI,,US,,,,,
,visa,,,MIDDLEVILLE,MI,,US,,,,,
,visa,,,MIDDLEVILLE,MI,,US,,,,,
,visa,,,MIDDLEVILLE,MI,,US,,,,,
,visa,,,MIDDLEVILLE,MI,,US,,,,,
,visa,,,MIDDLEVILLE,MI,,US,,,,,
,visa,,,MIDDLEVILLE,MI,,US,,,,,
,visa,,,MIDDLEVILLE,MI,,US,,,,,
,visa,,,MIDDLEVILLE,MI,,US,,,,,
