Ref,Spider,Name,Address,City,State,Zipcode,Country,Phone,Website,Hours,Brand,WikiData
https://vertretung.allianz.de/agentur.thies/,allianz_de,Allianz Versicherung Stephan Thies GENERALVERTRETUNG,,Gronau (Westfalen),,,DE,+49 2562 25268,https://vertretung.allianz.de/agentur.thies/,"Mo 09:00-12:00; Tu 09:00-12:00,15:00-18:00; We 09:00-12:00; Th 09:00-12:00,15:00-18:00; Fr 09:00-12:00",Allianz SE,Q487292
https://vertretung.allianz.de/allianz.buegener/,allianz_de,Allianz Versicherung Stefan Bügener GENERALVERTRETUNG,,Gronau (Westfalen),,,DE,+49 2565 2899,https://vertretung.allianz.de/allianz.buegener/,"Mo-Fr 09:00-13:00,15:00-18:00",Allianz SE,Q487292
https://vertretung.allianz.de/allianz.braaksma/,allianz_de,Allianz Versicherung Ingo Braaksma HAUPTVERTRETUNG,,Gronau (Westfalen),,,DE,+49 2565 2399,https://vertretung.allianz.de/allianz.braaksma/,"Mo-Th 09:00-13:00,14:30-17:30; Fr 09:00-15:00",Allianz SE,Q487292
https://vertretung.allianz.de/agentur.hemsing/,allianz_de,Allianz Versicherung Dirk Hemsing GENERALVERTRETUNG,,Gronau (Westfalen),,,DE,+49 2562 2956,https://vertretung.allianz.de/agentur.hemsing/,"Mo-Th 09:00-12:00,14:00-17:00; Fr 09:00-12:00",Allianz SE,Q487292
https://vertretung.allianz.de/allianz.subgang/,allianz_de,Allianz Versicherung Stefan Subgang HAUPTVERTRETUNG,,Gronau (Westfalen),,,DE,+49 2562 98040,https://vertretung.allianz.de/allianz.subgang/,"Mo 09:00-12:00; Tu 09:00-12:00,14:00-17:00; Th 09:00-12:00,14:00-17:00; Fr 09:00-12:00",Allianz SE,Q487292
21567_1,bmw_group,Autohaus Cyran GmbH,,Gronau,,,DE,+49 2562 9922630,https://www.mini.de/autohaus_cyran_gmbh-gronau,,BMW,Q26678
28180000,bp,Pludra Tankstellen GmbH&Co. KG,,Gronau,,,DE,+49 2562 9919331,http://tankstelle.aral.de/tankstelle/28180000,Mo-Fr 06:00-22:00; Sa 07:00-22:00; Su 08:00-22:00,BP,Q152057
30195,burgerking,Burger King,,Gronau,,,DE,+49 2562 8165993,https://www.burgerking.de/store-locator/store/restaurant_30100,Mo-Th 11:00-00:00; Fr-Sa 11:00-02:00; Su 11:00-00:00,Burger King,Q177054
393,deutsche_telekom_de,Telekom Shop Gronau,,Gronau,,,DE,+49 2562 719981,https://shopseite.telekom.de/west/gronau/schweringstr-1,Mo-Fr 10:00-18:00; Sa 10:00-14:00,Deutsche Telekom,Q9396
de:2190,dm,dm-drogerie markt,,Gronau,,,DE,+49 2562 8163739,https://www.dm.de/store/d3j6/gronau/ochtruper-strasse-218,Mo-Sa 08:00-20:00,dm,Q266572
de:2761,dm,dm-drogerie markt,,Gronau,,,DE,+49 2562 1874710,https://www.dm.de/store/d4j1/gronau/koenigstrasse-66,Mo-Sa 08:00-20:00,dm,Q266572
52.211627.02319,dpd_de,Ringfoto Wilmink,,Gronau,,,DE,,,,DPD,Q541030
52.2147887.047028,dpd_de,Raiffeisentankstelle,,Gronau,,,DE,,,,DPD,Q541030
52.2200477.019827,dpd_de,Shams Import Export,,Gronau,,,DE,,,,DPD,Q541030
FordGK1D8E0  DEU,ford,Anton Segbert GmbH & Co. KG,,Gronau,,,DE,+49 2562 93660,ford-segbert-gronau.de,,Ford,Q44294
https://www.fressnapf.de/stores/fressnapf-xxl-gronau/,fressnapf_de,Fressnapf XXL Gronau,,Gronau,,,DE,+49 2562 965801,https://www.fressnapf.de/stores/fressnapf-xxl-gronau/,Mo-Fr 09:00-20:00; Sa 09:00-18:00,Fressnapf,Q875796
2760900153,gls_de,Moden Müller,,Gronau,,,DE,+49 2565 97347,,"Mo-Fr 09:30-12:30,14:30-18:00; Sa 09:30-13:00",General Logistics Systems,Q46495823
2760915536,gls_de,Änderungsschneiderei Epe,,Gronau,,,DE,+49 1525 9674324,,"Tu-Fr 09:30-13:00,14:30-18:00; Sa 10:00-13:00",General Logistics Systems,Q46495823
2760916265,gls_de,Jagd & Sport Oldenkotte,,Gronau,,,DE,+49 2562 5491,,Mo 13:00-18:00; Tu-Fr 09:00-18:00; Sa 09:00-13:00,General Logistics Systems,Q46495823
2760906976,gls_de,EDEKA Effing,,Gronau,,,DE,+49 2562 98173,,Mo-Sa 08:00-21:00,General Logistics Systems,Q46495823
2760916835,gls_de,Shams,,Gronau,,,DE,+49 1516 3360579,,Mo-Fr 08:00-18:00,General Logistics Systems,Q46495823
2760232054,gls_de,Raiffeisen Tankstelle,,Gronau,,,DE,+49 2562 712770,,Mo-Su 07:00-22:00,General Logistics Systems,Q46495823
1302,jysk,Gronau,,Gronau,,,DE,+49 2562 93790,https://jysk.de/filialen?storeId=1302,Mo-Th 10:00-18:00; Sa 09:30-16:00,JYSK,Q138913
1908,kik,KiK,,Gronau,,,DE,+49 2562 719334,,Mo-Fr 09:00-19:00; Sa 09:00-20:00,KiK,Q883965
2012,kik,KiK,,Gronau Innenstadt,,,DE,+49 2562 814873,,Mo-Fr 09:00-19:00; Sa 09:00-18:00,KiK,Q883965
5892,lidl_de,,,Gronau,,,DE,,,Mo-Sa 07:00-21:00,Lidl,Q151954
6011,lidl_de,,,Gronau,,,DE,,,Mo-Sa 07:00-21:00,Lidl,Q151954
3642,lidl_de,Epe,,Gronau,,,DE,,,Mo-Sa 07:00-21:00,Lidl,Q151954
27616488_001-renault,renault,Wallmeier GmbH & Co. KG,,Gronau,,,DE,+49 2562 992420,,,Renault,Q6686
27681196_001-dacia,renault,Wallmeier GmbH & Co. KG,,Gronau,,,DE,+49 2562 992420,,,Dacia,Q27460
https://www.rossmann.de/de/filialen/nordrhein-westfalen/gronau--westfalen/neustr--16-20.html,rossmann_de,Rossmann Drogerie-Markt Neustr. 16-20,,Gronau (Westfalen),,,DE,+49 2562 719292,https://www.rossmann.de/de/filialen/nordrhein-westfalen/gronau--westfalen/neustr--16-20.html,Mo-Sa 08:30-20:00,Rossmann,Q316004
https://www.rossmann.de/de/filialen/nordrhein-westfalen/gronau--westfalen/antoniusstr--2.html,rossmann_de,Rossmann Drogerie-Markt Antoniusstr. 2,,Gronau (Westfalen),,,DE,+49 2565 9139997,https://www.rossmann.de/de/filialen/nordrhein-westfalen/gronau--westfalen/antoniusstr--2.html,Mo-Sa 08:00-20:00,Rossmann,Q316004
BOR01,rsg_group,McFIT Gronau,,Gronau,,,DE,+49 2562 8168901,https://www.mcfit.com/de/studio/gronau/,24/7,McFit,Q871302
40929,seat_de,Autohaus Vortkamp GmbH,,Gronau,,,DE,+49 2562 93360,,,SEAT,Q188217
169435,sparkasse_de,Sparkasse Westmünsterland  S-Immobiliencenter s-punt.nl,,Gronau,,,DE,+49 2563 4034270,https://www.sparkasse.de/standorte/filialen/sparkasse-westmuensterland-s-immobiliencenter-s-punt-nl-169435,Mo-Fr 08:00-19:00,Sparkasse,Q13601825
169335,sparkasse_de,Sparkasse Westmünsterland  Online-Beratung Direktfiliale Gronau (Online- und Videoberatung),,Gronau,,,DE,+49 2563 4030,https://www.sparkasse.de/standorte/filialen/sparkasse-westmuensterland-online-beratung-direktfiliale-gronau-online-und-videoberatung-169335,,Sparkasse,Q13601825
164607,sparkasse_de,Sparkasse Westmünsterland  Geldautomat Epe,,Gronau,,,DE,+49 2563 4030,https://www.sparkasse.de/standorte/geldautomaten/sparkasse-westmuensterland-geldautomat-epe-164607,Mo-Su 06:00-23:00,Sparkasse,Q13601825
163891,sparkasse_de,Sparkasse Westmünsterland  Beratungscenter Epe,,Gronau,,,DE,+49 2563 4030,https://www.sparkasse.de/standorte/filialen/sparkasse-westmuensterland-beratungscenter-epe-163891,"Mo-We 09:00-12:00; Th 09:00-12:00,14:00-18:00; Fr 09:00-12:00,14:00-16:00",Sparkasse,Q13601825
164612,sparkasse_de,"Sparkasse Westmünsterland  Geldautomat Gronau, Vereinsstraße",,Gronau,,,DE,+49 2563 4030,https://www.sparkasse.de/standorte/geldautomaten/sparkasse-westmuensterland-geldautomat-gronau-vereinsstrasse-164612,Mo-Su 06:00-23:00,Sparkasse,Q13601825
164110,sparkasse_de,"Sparkasse Westmünsterland  Beratungscenter Gronau, Vereinsstraße",,Gronau,,,DE,+49 2563 4030,https://www.sparkasse.de/standorte/filialen/sparkasse-westmuensterland-beratungscenter-gronau-vereinsstrasse-164110,"Mo-We 09:00-12:00; Th 09:00-12:00,14:00-18:00; Fr 09:00-12:00,14:00-16:00",Sparkasse,Q13601825
164610,sparkasse_de,"Sparkasse Westmünsterland  Geldautomat Gronau, Enscheder Straße",,Gronau,,,DE,+49 2563 4030,https://www.sparkasse.de/standorte/geldautomaten/sparkasse-westmuensterland-geldautomat-gronau-enscheder-strasse-164610,Mo-Su 06:00-23:00,Sparkasse,Q13601825
163890,sparkasse_de,"Sparkasse Westmünsterland  SB-Filiale Gronau, Enscheder Straße",,Gronau,,,DE,+49 2563 4030,https://www.sparkasse.de/standorte/filialen/sparkasse-westmuensterland-sb-filiale-gronau-enscheder-strasse-163890,Mo-Su 06:00-23:00,Sparkasse,Q13601825
169434,sparkasse_de,Sparkasse Westmünsterland  S-Immobiliencenter Gronau,,Gronau,,,DE,+49 2563 4030,https://www.sparkasse.de/standorte/filialen/sparkasse-westmuensterland-s-immobiliencenter-gronau-169434,Mo-Fr 08:00-19:00,Sparkasse,Q13601825
164609,sparkasse_de,Sparkasse Westmünsterland  Geldautomat Gronau,,Gronau,,,DE,+49 2563 4030,https://www.sparkasse.de/standorte/geldautomaten/sparkasse-westmuensterland-geldautomat-gronau-164609,Mo-Su 06:00-23:00,Sparkasse,Q13601825
164108,sparkasse_de,Sparkasse Westmünsterland  Hauptstelle Gronau,,Gronau,,,DE,+49 2563 4030,https://www.sparkasse.de/standorte/filialen/sparkasse-westmuensterland-hauptstelle-gronau-164108,"Mo-Tu 09:00-12:00,14:00-16:00; We 09:00-12:00; Th 09:00-12:00,14:00-18:00; Fr 09:00-12:00,14:00-16:00",Sparkasse,Q13601825
EX_BP_2237,totalenergies,"ARAL TANKSTELLE GRONAU, GILDEH",,Gronau,,,DE,,https://store.totalenergies.fr/en_EN/EX_BP_2237,,Aral,Q565734
WES_DE_880,totalenergies,"GRONAU, NIENBORGER STR. 28",,Gronau,,,DE,,https://store.totalenergies.fr/en_EN/WES_DE_880,,Westfalen,Q1411209
https://www.vlh.de/bst/4123/Oeffnungszeiten.html,vhl_de,VLH-Berater Thomas Weßling in Gronau,,Gronau,,,DE,+49 2562 80567,https://www.vlh.de/bst/4123/,,Vereinigte Lohnsteuerhilfe e.V.,Q15852617
,visa,,,GRONAU,,,DE,,,,,
,visa,,,GRONAU,,,DE,,,,,
,visa,,,GRONAU,,,DE,,,,,
,visa,,,GRONAU,,,DE,,,,,
,visa,,,GRONAU,,,DE,,,,,
,visa,,,GRONAU,,,DE,,,,,
,visa,,,GRONAU,,,DE,,,,,
,visa,,,GRONAU,,,DE,,,,,
,visa,,,GRONAU,,,DE,,,,,
,visa,,,GRONAU,,,DE,,,,,
,visa,,,GRONAU,,,DE,,,,,
,visa,,,GRONAU,,,DE,,,,,
6DE06157,volvo,Auto Radink,,Gronau,,,DE,,http://www.volvocars-werkstatt.de/radink/,,Volvo,Q215293
https://www.vr.de/standorte/G/filiale-gronau-vereinsstrasse-10526.html,vr_bank,Filiale Gronau - Vereinsstraße,,Gronau,,,DE,+49 2562 914420,https://www.vbga.de,"Mo-Tu 09:00-12:00,14:00-16:00; Th 09:00-12:00,14:00-18:00",,
https://www.vr.de/standorte/G/filiale-gronau-ochtruper-strasse-10525.html,vr_bank,Filiale Gronau - Ochtruper Straße,,Gronau,,,DE,+49 2562 914440,https://www.vbga.de,"Mo-We 09:00-12:00,14:00-16:00; Th 09:00-12:00,14:00-18:00; Fr 09:00-12:00,14:00-16:00",,
https://www.vr.de/standorte/G/filiale-gronau-epe-sunhaar-10522.html,vr_bank,Filiale Gronau-Epe - Sunhaar,,Gronau,,,DE,+49 2562 914720,https://www.vbga.de,Mo-Fr 09:00-12:00,,
https://www.vr.de/standorte/G/filiale-gronau-epe-merschstrasse-15291.html,vr_bank,Filiale Gronau-Epe - Merschstraße,,Gronau,,,DE,+49 2565 9140,https://www.vbga.de,"Mo-We 09:00-12:00,14:00-16:00; Th 09:00-12:00,14:00-18:00; Fr 09:00-12:00,14:00-16:00",,
https://www.vr.de/standorte/G/filiale-gronau-enscheder-strasse-10523.html,vr_bank,Filiale Gronau - Enscheder Straße,,Gronau,,,DE,+49 2562 914400,https://www.vbga.de,"Mo-We 09:00-12:00,14:00-16:00; Th 09:00-12:00,14:00-18:00; Fr 09:00-12:00,14:00-16:00",,
https://www.vr.de/standorte/G/volksbank-gronau-ahaus-eg-3039.html,vr_bank,Volksbank Gronau-Ahaus eG,,Gronau,,,DE,+49 2562 9140,https://www.vbga.de,"Mo-We 09:00-12:00,14:00-16:00; Th 09:00-12:00,14:00-18:00; Fr 09:00-12:00,14:00-16:00",,
