Ref,Spider,Name,Address,City,State,Zipcode,Country,Phone,Website,Hours,Brand,WikiData
,visa,,,PESQUERIA,NUEVO LEON,,MX,,,,,
,visa,,,PESQUERIA,NUEVO LEON,,MX,,,,,
,visa,,,PESQUERIA,NUEVO LEON,,MX,,,,,
,visa,,,PESQUERIA,NUEVO LEON,,MX,,,,,
,visa,,,PESQUERIA,NUEVO LEON,,MX,,,,,
,visa,,,PESQUERIA,NUEVO LEON,,MX,,,,,
8218894390004c83c309cf863e1c3a4c,western_union,OXXO PERIMETRAL ORIENTE MTY,,Pesqueria,NUEVO LEON,,MX,+52 81 8389 2121,https://location.westernunion.com/mx/nuevo-leon/pesqueria/8218894390004c83c309cf863e1c3a4c,Mo-Su 08:00-22:00,Western Union,Q861042
7b8f20bfc6d3ab0cad835b39f9c247d8,western_union,OXXO PERIMETRAL ORIENTE MTY,,Pesqueria,NUEVO LEON,,MX,+52 81 8389 2121,https://location.westernunion.com/mx/nuevo-leon/pesqueria/7b8f20bfc6d3ab0cad835b39f9c247d8,Mo-Su 08:00-22:00,Western Union,Q861042
e442bcfc6e52adfbf71301ae111668e6,western_union,OXXO PERIMETRAL ORIENTE MTY,,Pesqueria,NUEVO LEON,,MX,+52 81 8389 2121,https://location.westernunion.com/mx/nuevo-leon/pesqueria/e442bcfc6e52adfbf71301ae111668e6,Mo-Su 08:00-22:00,Western Union,Q861042
1e074a879b016d2352d5e9e28770bb67,western_union,FARM GUAD PESQUERIA,,Pesqueria,NUEVO LEON,,MX,+52 800 833 4700,https://location.westernunion.com/mx/nuevo-leon/pesqueria/1e074a879b016d2352d5e9e28770bb67,Mo-Su 09:00-22:00,Western Union,Q861042
7d6f8170367dd59f038f9d1d73e49992,western_union,FARM GUAD PESQUERIA,,Pesqueria,NUEVO LEON,,MX,+52 800 833 4700,https://location.westernunion.com/mx/nuevo-leon/pesqueria/7d6f8170367dd59f038f9d1d73e49992,Mo-Su 09:00-22:00,Western Union,Q861042
b4d5cfc684a5ab7e57ed40bca8302211,western_union,FARM GUAD PESQUERIA,,Pesqueria,NUEVO LEON,,MX,+52 800 833 4700,https://location.westernunion.com/mx/nuevo-leon/pesqueria/b4d5cfc684a5ab7e57ed40bca8302211,Mo-Su 09:00-22:00,Western Union,Q861042
b1bf8f04315ae31094d2f582a0a235f5,western_union,OXXO HERCULES MTY,,Pesqueria,NUEVO LEON,,MX,+52 81 8389 2121,https://location.westernunion.com/mx/nuevo-leon/pesqueria/b1bf8f04315ae31094d2f582a0a235f5,Mo-Su 08:00-22:00,Western Union,Q861042
2c28f982b15367bad4c52d1d60b60efb,western_union,OXXO HERCULES MTY,,Pesqueria,NUEVO LEON,,MX,+52 81 8389 2121,https://location.westernunion.com/mx/nuevo-leon/pesqueria/2c28f982b15367bad4c52d1d60b60efb,Mo-Su 08:00-22:00,Western Union,Q861042
8351513bb2d47526e181f03b5a364d06,western_union,OXXO HERCULES MTY,,Pesqueria,NUEVO LEON,,MX,+52 81 8389 2121,https://location.westernunion.com/mx/nuevo-leon/pesqueria/8351513bb2d47526e181f03b5a364d06,Mo-Su 08:00-22:00,Western Union,Q861042
3c2de5436abcf79ba0cb4459bdc4de91,western_union,OXXO AV CENTRAL MTY,,Pesqueria,NUEVO LEON,,MX,+52 81 8389 2121,https://location.westernunion.com/mx/nuevo-leon/pesqueria/3c2de5436abcf79ba0cb4459bdc4de91,Mo-Su 08:00-22:00,Western Union,Q861042
03b93ea30392c009c0252cee08a6371b,western_union,OXXO AV CENTRAL MTY,,Pesqueria,NUEVO LEON,,MX,+52 81 8389 2121,https://location.westernunion.com/mx/nuevo-leon/pesqueria/03b93ea30392c009c0252cee08a6371b,Mo-Su 08:00-22:00,Western Union,Q861042
35d39f781e0da068d999ba1678f1693e,western_union,OXXO AV CENTRAL MTY,,Pesqueria,NUEVO LEON,,MX,+52 81 8389 2121,https://location.westernunion.com/mx/nuevo-leon/pesqueria/35d39f781e0da068d999ba1678f1693e,Mo-Su 08:00-22:00,Western Union,Q861042
41d079051fe8a25b353ece212ab3ea2d,western_union,OXXO ARCOS DEL PARQUE MTY,,Pesqueria,NUEVO LEON,,MX,+52 81 8389 2121,https://location.westernunion.com/mx/nuevo-leon/pesqueria/41d079051fe8a25b353ece212ab3ea2d,Mo-Su 08:00-22:00,Western Union,Q861042
42263e23744fde95d03f32276af21534,western_union,OXXO ARCOS DEL PARQUE MTY,,Pesqueria,NUEVO LEON,,MX,+52 81 8389 2121,https://location.westernunion.com/mx/nuevo-leon/pesqueria/42263e23744fde95d03f32276af21534,Mo-Su 08:00-22:00,Western Union,Q861042
e4d8c2e5cfcda8c50245572900e5eec9,western_union,OXXO ARCOS DEL PARQUE MTY,,Pesqueria,NUEVO LEON,,MX,+52 81 8389 2121,https://location.westernunion.com/mx/nuevo-leon/pesqueria/e4d8c2e5cfcda8c50245572900e5eec9,Mo-Su 08:00-22:00,Western Union,Q861042
dd40d2b1f31b2b069779733515503f16,western_union,OXXO UNIVERSO MTY,,Pesqueria,NUEVO LEON,,MX,+52 81 8389 2121,https://location.westernunion.com/mx/nuevo-leon/pesqueria/dd40d2b1f31b2b069779733515503f16,Mo-Su 06:00-22:00,Western Union,Q861042
0db1952519e3e87cc2a78eeb62131fd7,western_union,OXXO VALLE DE FLORESTAMTY,,Pesqueria,NUEVO LEON,,MX,+52 81 8389 2121,https://location.westernunion.com/mx/nuevo-leon/pesqueria/0db1952519e3e87cc2a78eeb62131fd7,Mo-Su 08:00-22:00,Western Union,Q861042
000a982136a2d3bacfca4c55ca7f950d,western_union,OXXO VALLE DE FLORESTAMTY,,Pesqueria,NUEVO LEON,,MX,+52 81 8389 2121,https://location.westernunion.com/mx/nuevo-leon/pesqueria/000a982136a2d3bacfca4c55ca7f950d,Mo-Su 08:00-22:00,Western Union,Q861042
9e68783a36fcd98f61fb5badbadb5002,western_union,OXXO VALLE DE FLORESTAMTY,,Pesqueria,NUEVO LEON,,MX,+52 81 8389 2121,https://location.westernunion.com/mx/nuevo-leon/pesqueria/9e68783a36fcd98f61fb5badbadb5002,Mo-Su 08:00-22:00,Western Union,Q861042
21435d4aff2fa2316624975367647085,western_union,OXXO NUEVO LEON MTY,,Pesqueria,NUEVO LEON,,MX,+52 81 8389 2121,https://location.westernunion.com/mx/nuevo-leon/pesqueria/21435d4aff2fa2316624975367647085,Mo-Su 08:00-22:00,Western Union,Q861042
ff5e10415d9e8d66cdc9072f803f42d4,western_union,OXXO NUEVO LEON MTY,,Pesqueria,NUEVO LEON,,MX,+52 81 8389 2121,https://location.westernunion.com/mx/nuevo-leon/pesqueria/ff5e10415d9e8d66cdc9072f803f42d4,Mo-Su 08:00-22:00,Western Union,Q861042
d57fd888cbaface3839ed438d6df1037,western_union,OXXO NUEVO LEON MTY,,Pesqueria,NUEVO LEON,,MX,+52 81 8389 2121,https://location.westernunion.com/mx/nuevo-leon/pesqueria/d57fd888cbaface3839ed438d6df1037,Mo-Su 08:00-22:00,Western Union,Q861042
f4c99c7c0a4f6d97214bbebef04b0104,western_union,BANCOPPEL 7688 COLINAS DEL AEROPUERTO,,Pesqueria,NUEVO LEON,,MX,+52 667 758 9999,https://location.westernunion.com/mx/nuevo-leon/pesqueria/f4c99c7c0a4f6d97214bbebef04b0104,Mo-Su 10:00-20:00,Western Union,Q861042
154ce27fb69997fa97e8c8ccceba5e1f,western_union,BANCOPPEL 7688 COLINAS DEL AEROPUERTO,,Pesqueria,NUEVO LEON,,MX,+52 667 758 9999,https://location.westernunion.com/mx/nuevo-leon/pesqueria/154ce27fb69997fa97e8c8ccceba5e1f,Mo-Su 10:00-20:00,Western Union,Q861042
f35d28a3f806d442ec6ac0e933c6db8d,western_union,AURRERA EXPRESS CENTRAL PESQUERIA 5204,,Garcia,NUEVO LEON,,MX,+52 800 833 4700,https://location.westernunion.com/mx/nuevo-leon/garcia/f35d28a3f806d442ec6ac0e933c6db8d,Mo-Su 08:00-22:00,Western Union,Q861042
2c9392682808711973913d5b9f6216e2,western_union,AURRERA EXPRESS CENTRAL PESQUERIA 5204,,Garcia,NUEVO LEON,,MX,+52 800 833 4700,https://location.westernunion.com/mx/nuevo-leon/garcia/2c9392682808711973913d5b9f6216e2,Mo-Su 08:00-22:00,Western Union,Q861042
3caa4a832995952367d0e45eb8e3e7be,western_union,AURRERA EXPRESS CENTRAL PESQUERIA 5204,,Garcia,NUEVO LEON,,MX,+52 800 833 4700,https://location.westernunion.com/mx/nuevo-leon/garcia/3caa4a832995952367d0e45eb8e3e7be,Mo-Su 08:00-22:00,Western Union,Q861042
4f7da542a1d374a04eb0e5bc8c38f166,western_union,OXXO PRIVADAS DEL ROBLE MTY,,Pesqueria,NUEVO LEON,,MX,+52 81 8389 2121,https://location.westernunion.com/mx/nuevo-leon/pesqueria/4f7da542a1d374a04eb0e5bc8c38f166,Mo-Su 08:00-22:00,Western Union,Q861042
f008320bedc89c5472db4c81ef568fc8,western_union,OXXO PRIVADAS DEL ROBLE MTY,,Pesqueria,NUEVO LEON,,MX,+52 81 8389 2121,https://location.westernunion.com/mx/nuevo-leon/pesqueria/f008320bedc89c5472db4c81ef568fc8,Mo-Su 08:00-22:00,Western Union,Q861042
059d233d113eb8d076bfa88037795b5b,western_union,OXXO PRIVADAS DEL ROBLE MTY,,Pesqueria,NUEVO LEON,,MX,+52 81 8389 2121,https://location.westernunion.com/mx/nuevo-leon/pesqueria/059d233d113eb8d076bfa88037795b5b,Mo-Su 08:00-22:00,Western Union,Q861042
3e9f0a84702ee30787029f8a7115c661,western_union,OXXO PASEODEHACIENDAS MTY,,Pesqueria,NUEVO LEON,,MX,+52 81 8389 2121,https://location.westernunion.com/mx/nuevo-leon/pesqueria/3e9f0a84702ee30787029f8a7115c661,Mo-Su 08:00-22:00,Western Union,Q861042
cf7b84b682eb4c823ef945f7aeded2ba,western_union,OXXO PASEODEHACIENDAS MTY,,Pesqueria,NUEVO LEON,,MX,+52 81 8389 2121,https://location.westernunion.com/mx/nuevo-leon/pesqueria/cf7b84b682eb4c823ef945f7aeded2ba,Mo-Su 08:00-22:00,Western Union,Q861042
a08715718bdef4555bb4470b8001a66a,western_union,OXXO PASEODEHACIENDAS MTY,,Pesqueria,NUEVO LEON,,MX,+52 81 8389 2121,https://location.westernunion.com/mx/nuevo-leon/pesqueria/a08715718bdef4555bb4470b8001a66a,Mo-Su 08:00-22:00,Western Union,Q861042
b4797c815369026cdec90c4e37b00f51,western_union,OXXO AGUALEGUAS MTY,,Pesqueria,NUEVO LEON,,MX,+52 81 8389 2121,https://location.westernunion.com/mx/nuevo-leon/pesqueria/b4797c815369026cdec90c4e37b00f51,Mo-Su 08:00-22:00,Western Union,Q861042
e5855d6db3b31c0128dff14e636964dc,western_union,OXXO AGUALEGUAS MTY,,Pesqueria,NUEVO LEON,,MX,+52 81 8389 2121,https://location.westernunion.com/mx/nuevo-leon/pesqueria/e5855d6db3b31c0128dff14e636964dc,Mo-Su 08:00-22:00,Western Union,Q861042
df49e5710b41f9eaaf7b095f714135d7,western_union,OXXO AGUALEGUAS MTY,,Pesqueria,NUEVO LEON,,MX,+52 81 8389 2121,https://location.westernunion.com/mx/nuevo-leon/pesqueria/df49e5710b41f9eaaf7b095f714135d7,Mo-Su 08:00-22:00,Western Union,Q861042
2f36d5a99aa73a21d76d3ae8f28389b0,western_union,MERCO COLINAS,,Pesqueria,NUEVO LEON,,MX,+52 81 8625 8650,https://location.westernunion.com/mx/nuevo-leon/pesqueria/2f36d5a99aa73a21d76d3ae8f28389b0,Mo-Su 08:00-22:00,Western Union,Q861042
7729c5361112120b4767033492804f6f,western_union,MERCO COLINAS,,Pesqueria,NUEVO LEON,,MX,+52 81 8625 8650,https://location.westernunion.com/mx/nuevo-leon/pesqueria/7729c5361112120b4767033492804f6f,Mo-Su 08:00-22:00,Western Union,Q861042
bb26b47dbd0be6241c5d9487b299acd6,western_union,OXXO UNIVERSO MTY,,Pesqueria,NUEVO LEON,,MX,+52 81 8389 2121,https://location.westernunion.com/mx/nuevo-leon/pesqueria/bb26b47dbd0be6241c5d9487b299acd6,Mo-Su 06:00-22:00,Western Union,Q861042
2e55613274b0b53a0edd65f993909568,western_union,OXXO UNIVERSO MTY,,Pesqueria,NUEVO LEON,,MX,+52 81 8389 2121,https://location.westernunion.com/mx/nuevo-leon/pesqueria/2e55613274b0b53a0edd65f993909568,Mo-Su 06:00-22:00,Western Union,Q861042
b8d697c323fb0b447084347b1d0fc5da,western_union,OXXO LAS HACIENDAS II MTY,,Pesqueria,NUEVO LEON,,MX,+52 81 8389 2121,https://location.westernunion.com/mx/nuevo-leon/pesqueria/b8d697c323fb0b447084347b1d0fc5da,Mo-Su 08:00-22:00,Western Union,Q861042
50bd36ef124d339dbb219d0cfe6d36d0,western_union,OXXO LAS HACIENDAS II MTY,,Pesqueria,NUEVO LEON,,MX,+52 81 8389 2121,https://location.westernunion.com/mx/nuevo-leon/pesqueria/50bd36ef124d339dbb219d0cfe6d36d0,Mo-Su 08:00-22:00,Western Union,Q861042
a3f00d66c403e980644c28ce15e077cc,western_union,OXXO LAS HACIENDAS II MTY,,Pesqueria,NUEVO LEON,,MX,+52 81 8389 2121,https://location.westernunion.com/mx/nuevo-leon/pesqueria/a3f00d66c403e980644c28ce15e077cc,Mo-Su 08:00-22:00,Western Union,Q861042
29b8675174d522025de4e108dff147b6,western_union,OXXO TAMPICO MTY,,Pesqueria,NUEVO LEON,,MX,+52 81 8389 2121,https://location.westernunion.com/mx/nuevo-leon/pesqueria/29b8675174d522025de4e108dff147b6,Mo-Su 08:00-22:00,Western Union,Q861042
552a045d97ecff4f9d25ffeb3962398d,western_union,OXXO TAMPICO MTY,,Pesqueria,NUEVO LEON,,MX,+52 81 8389 2121,https://location.westernunion.com/mx/nuevo-leon/pesqueria/552a045d97ecff4f9d25ffeb3962398d,Mo-Su 08:00-22:00,Western Union,Q861042
93adcf0fa84628b467c716c3de3f81f4,western_union,OXXO TAMPICO MTY,,Pesqueria,NUEVO LEON,,MX,+52 81 8389 2121,https://location.westernunion.com/mx/nuevo-leon/pesqueria/93adcf0fa84628b467c716c3de3f81f4,Mo-Su 08:00-22:00,Western Union,Q861042
d362963db53583a193bab81b0aaef744,western_union,OXXO EL LLANO MTY,,Pesqueria,NUEVO LEON,,MX,+52 81 8389 2121,https://location.westernunion.com/mx/nuevo-leon/pesqueria/d362963db53583a193bab81b0aaef744,Mo-Su 08:00-22:00,Western Union,Q861042
ff39ebac675dc18629583b57dc9bfddd,western_union,OXXO EL LLANO MTY,,Pesqueria,NUEVO LEON,,MX,+52 81 8389 2121,https://location.westernunion.com/mx/nuevo-leon/pesqueria/ff39ebac675dc18629583b57dc9bfddd,Mo-Su 08:00-22:00,Western Union,Q861042
8d0632a444a4472a43524c57b6e39f99,western_union,OXXO EL LLANO MTY,,Pesqueria,NUEVO LEON,,MX,+52 81 8389 2121,https://location.westernunion.com/mx/nuevo-leon/pesqueria/8d0632a444a4472a43524c57b6e39f99,Mo-Su 08:00-22:00,Western Union,Q861042
ccdafb8b937b0d3c3141b9ff86b6ded9,western_union,AURRERA EXPRESS SANTA ENGRACIA 4750,,Pesqueria,NUEVO LEON,,MX,+52 800 833 4700,https://location.westernunion.com/mx/nuevo-leon/pesqueria/ccdafb8b937b0d3c3141b9ff86b6ded9,Mo-Su 08:00-22:00,Western Union,Q861042
17004bd198e38bbcaeca8dbd813e0e82,western_union,AURRERA EXPRESS SANTA ENGRACIA 4750,,Pesqueria,NUEVO LEON,,MX,+52 800 833 4700,https://location.westernunion.com/mx/nuevo-leon/pesqueria/17004bd198e38bbcaeca8dbd813e0e82,Mo-Su 08:00-22:00,Western Union,Q861042
bcdc9e54105a0111328ef0c67e84b6b3,western_union,AURRERA EXPRESS SANTA ENGRACIA 4750,,Pesqueria,NUEVO LEON,,MX,+52 800 833 4700,https://location.westernunion.com/mx/nuevo-leon/pesqueria/bcdc9e54105a0111328ef0c67e84b6b3,Mo-Su 08:00-22:00,Western Union,Q861042
34cc38c877a77b8aa642987d72f6e76e,western_union,OXXO COLINASDESTAENGRACIA,,Pesqueria,NUEVO LEON,,MX,+52 81 8389 2121,https://location.westernunion.com/mx/nuevo-leon/pesqueria/34cc38c877a77b8aa642987d72f6e76e,Mo-Su 08:00-22:00,Western Union,Q861042
ec68643ce7fc201eeb47cb5ed316625e,western_union,OXXO COLINASDESTAENGRACIA,,Pesqueria,NUEVO LEON,,MX,+52 81 8389 2121,https://location.westernunion.com/mx/nuevo-leon/pesqueria/ec68643ce7fc201eeb47cb5ed316625e,Mo-Su 08:00-22:00,Western Union,Q861042
5a6b425380f5e04f34914b169b3cbbc8,western_union,OXXO STA ENGRACIA II MTY,,Pesqueria,NUEVO LEON,,MX,+52 81 8389 2121,https://location.westernunion.com/mx/nuevo-leon/pesqueria/5a6b425380f5e04f34914b169b3cbbc8,Mo-Su 08:00-22:00,Western Union,Q861042
11acd7229bb951a6a1ce51ec5246b1dd,western_union,OXXO COLINASDESTAENGRACIA,,Pesqueria,NUEVO LEON,,MX,+52 81 8389 2121,https://location.westernunion.com/mx/nuevo-leon/pesqueria/11acd7229bb951a6a1ce51ec5246b1dd,Mo-Su 08:00-22:00,Western Union,Q861042
e7be038348bf7341608c76136f835152,western_union,OXXO STA ENGRACIA II MTY,,Pesqueria,NUEVO LEON,,MX,+52 81 8389 2121,https://location.westernunion.com/mx/nuevo-leon/pesqueria/e7be038348bf7341608c76136f835152,Mo-Su 08:00-22:00,Western Union,Q861042
