Ref,Spider,Name,Address,City,State,Zipcode,Country,Phone,Website,Hours,Brand,WikiData
72618433,moneygram,RAJESH PANCHOLI,,AHMEDABAD,,,IN,+91 98988 02442,,Mo-Su 08:00-21:00,MoneyGram,Q1944412
73274038,moneygram,MUTHOOT FINANCE LTD - #2379 - AHMEDABAD,,AHMEDABAD,,,IN,+91 79 2664 2934,,Mo-Su 09:00-19:00,MoneyGram,Q1944412
73313656,moneygram,MUTHOOT FINCORP LIMITED - #F1192 - PALDI,,AHMEDABAD,,,IN,+91 79 2660 6801,,Mo-Sa 09:00-17:30; Su 00:00-24:00,MoneyGram,Q1944412
73418030,moneygram,CHETAN GOVINDJI BHAI SHAH,,AHMEDABAD,,,IN,+91 98258 70960,,Mo-Su 08:00-21:00,MoneyGram,Q1944412
73444884,moneygram,JAIN INTERNATIONAL,,AHMEDABAD,,,IN,+91 97240 06644,,Mo-Su 08:00-21:00,MoneyGram,Q1944412
73536912,moneygram,ANURADHA J SHAH,,AHMEDABAD,,,IN,+91 94260 06640,,Mo-Su 08:00-21:00,MoneyGram,Q1944412
73613547,moneygram,DOLLARVALA MONEY CHANGER AND THE MOBILE,,AHMEDABAD,,,IN,+91 93777 54144,,Mo-Su 09:00-21:00,MoneyGram,Q1944412
73731791,moneygram,BHAKTI HOLIDAYS,,AHMEDABAD,,,IN,+91 98243 97007,,Mo-Su 08:00-21:00,MoneyGram,Q1944412
66518099,moneygram,MANAPPURAM FINANCE - #1786 - AHMEDABAD -,,AHMEDABAD,,,IN,+91 79 3221 2136,,Mo-Sa 10:00-19:00; Su 10:00-16:00,MoneyGram,Q1944412
,visa,,,AHMEDABAD,,,IN,,,,,
,visa,,,AHMEDABAD,,,IN,,,,,
,visa,,,AHMEDABAD,,,IN,,,,,
,visa,,,AHMEDABAD,,,IN,,,,,
,visa,,,AHMEDABAD,,,IN,,,,,
,visa,,,AHMEDABAD,,,IN,,,,,
,visa,,,AHMADABAD,,,IN,,,,,
,visa,,,AHMADABAD,,,IN,,,,,
,visa,,,AHMEDABAD,,,IN,,,,,
,visa,,,AHMEDABAD,,,IN,,,,,
