Ref,Spider,Name,Address,City,State,Zipcode,Country,Phone,Website,Hours,Brand,WikiData
https://stores.advanceautoparts.com/pa/steelton/350-n-front-st,advance_auto_parts_us,Advance Auto Parts,,Steelton,PA,,US,+1 717-986-1687,https://stores.advanceautoparts.com/pa/steelton/350-n-front-st,Mo-Sa 07:30-21:00; Su 09:00-20:00,Advance Auto Parts,Q4686051
177630,bluerhino,Turkey Hill #186,,Steelton,PA,,US,+1 717-939-4835,,,Blue Rhino,Q65681213
177806,bluerhino,Turkey Hill #094,,Oberlin,PA,,US,+1 717-939-6382,,,Blue Rhino,Q65681213
70546,citi,ATM PNC BANK,,Oberlin,PA,,US,,,,Citibank,Q857063
70948,citi,ATM PNC BANK,,Steelton,PA,,US,,,,Citibank,Q857063
65343,citi,ATM MID PENN BANK,,Steelton,PA,,US,,,,Citibank,Q857063
520065,eg_america_us,Turkey Hill,,Oberlin,PA,,US,+1 717-939-6382,https://www.turkeyhillcstores.com/find-us/generic-store-page/?id=950094,,Turkey Hill,Q42376970
521327,eg_america_us,Turkey Hill,,Steelton,PA,,US,+1 717-939-4835,https://www.turkeyhillcstores.com/find-us/generic-store-page/?id=950186,,Turkey Hill,Q42376970
01304,rite_aid_us,Rite Aid #01304 Steelton,,Steelton,PA,,US,+1 717-939-7235,https://locations2.riteaid.com.yext-cdn.com/pa/steelton/124-south-front-street.html,Mo-Fr 09:00-21:00; Sa-Su 09:00-20:00,Rite Aid,Q3433273
0461732000,sunoco_us,Sunoco,,STEELTON,PA,,US,+1 717-939-1514,,,Sunoco,Q1423218
1436683,usps,STEELTON,,STEELTON,PA,,US,+1 717-939-2741,,Mo-Tu 09:00-16:30; We 09:00-14:00; Th-Fr 09:00-16:30; Sa 09:00-12:00,United States Postal Service,Q668687
1711300004,usps_collection_boxes,USPS COLLECTION BOX - BLUE BOX,101 FELTON ST,STEELTON,PA,,US,,,,United States Postal Service,Q668687
1711300001,usps_collection_boxes,USPS COLLECTION BOX - BLUE BOX,803 S FRONT ST,STEELTON,PA,,US,,,,United States Postal Service,Q668687
1711300029,usps_collection_boxes,USPS COLLECTION BOX - BLUE BOX,623 MAIN ST,STEELTON,PA,,US,,,,United States Postal Service,Q668687
1711300035,usps_collection_boxes,USPS COLLECTION BOX - PO LOBBY,29 LOCUST ST,STEELTON,PA,,US,,,,United States Postal Service,Q668687
1711300023,usps_collection_boxes,USPS COLLECTION BOX - BLUE BOX,575 S FRONT ST,STEELTON,PA,,US,,,,United States Postal Service,Q668687
1711300007,usps_collection_boxes,USPS COLLECTION BOX - BLUE BOX,410 S 2ND ST,STEELTON,PA,,US,,,,United States Postal Service,Q668687
1711300031,usps_collection_boxes,USPS COLLECTION BOX - BLUE BOX,301 MOHN ST,STEELTON,PA,,US,,,,United States Postal Service,Q668687
1711300014,usps_collection_boxes,USPS COLLECTION BOX - BLUE BOX,603 HIGHLAND ST,STEELTON,PA,,US,,,,United States Postal Service,Q668687
1711300032,usps_collection_boxes,USPS COLLECTION BOX - BLUE BOX,501 MOHN ST,STEELTON,PA,,US,,,,United States Postal Service,Q668687
1711300030,usps_collection_boxes,USPS COLLECTION BOX - BLUE BOX,1152 MAIN ST,STEELTON,PA,,US,,,,United States Postal Service,Q668687
1711300002,usps_collection_boxes,USPS COLLECTION BOX - BLUE BOX,270 S 2ND ST,STEELTON,PA,,US,,,,United States Postal Service,Q668687
1711300013,usps_collection_boxes,USPS COLLECTION BOX - BLUE BOX,434 SPRUCE ST,STEELTON,PA,,US,,,,United States Postal Service,Q668687
1711300022,usps_collection_boxes,USPS COLLECTION BOX - BLUE BOX,51 S FRONT ST,STEELTON,PA,,US,,,,United States Postal Service,Q668687
1711300006,usps_collection_boxes,USPS COLLECTION BOX - BLUE BOX,101 LOCUST ST,STEELTON,PA,,US,,,,United States Postal Service,Q668687
1711300033,usps_collection_boxes,USPS COLLECTION BOX - PO LOBBY,29 LOCUST ST,STEELTON,PA,,US,,,,United States Postal Service,Q668687
1711300024,usps_collection_boxes,USPS COLLECTION BOX - BLUE BOX,364 LOCUST ST,STEELTON,PA,,US,,,,United States Postal Service,Q668687
1711300016,usps_collection_boxes,USPS COLLECTION BOX - BLUE BOX,225 N FRONT ST,STEELTON,PA,,US,,,,United States Postal Service,Q668687
1711300027,usps_collection_boxes,USPS COLLECTION BOX - BLUE BOX,150 LINCOLN ST,STEELTON,PA,,US,,,,United States Postal Service,Q668687
1711300017,usps_collection_boxes,USPS COLLECTION BOX - BLUE BOX,407 N FRONT ST,STEELTON,PA,,US,,,,United States Postal Service,Q668687
1711300018,usps_collection_boxes,USPS COLLECTION BOX - BLUE BOX,661 N FRONT ST,STEELTON,PA,,US,,,,United States Postal Service,Q668687
,visa,,,HARRISBURG,PA,,US,,,,,
,visa,,,OBERLIN,PA,,US,,,,,
,visa,,,BRESSLER,PA,,US,,,,,
,visa,,,BRESSLER,PA,,US,,,,,
,visa,,,STEELTON,PA,,US,,,,,
,visa,,,STEELTON,PA,,US,,,,,
,visa,,,STEELTON,PA,,US,,,,,
,visa,,,STEELTON,PA,,US,,,,,
,visa,,,STEELTON,PA,,US,,,,,
,visa,,,STEELTON,PA,,US,,,,,
,visa,,,STEELTON,PA,,US,,,,,
,visa,,,STEELTON,PA,,US,,,,,
,visa,,,STEELTON,PA,,US,,,,,
,visa,,,STEELTON,PA,,US,,,,,
,visa,,,STEELTON,PA,,US,,,,,
,visa,,,STEELTON,PA,,US,,,,,
,visa,,,STEELTON,PA,,US,,,,,
,visa,,,STEELTON,PA,,US,,,,,
,visa,,,STEELTON,PA,,US,,,,,
,visa,,,STEELTON,PA,,US,,,,,
,visa,,,STEELTON,PA,,US,,,,,
,visa,,,STEELTON,PA,,US,,,,,
,visa,,,STEELTON,PA,,US,,,,,
,visa,,,STEELTON,PA,,US,,,,,
,visa,,,STEELTON,PA,,US,,,,,
,visa,,,STEELTON,PA,,US,,,,,
,visa,,,STEELTON,PA,,US,,,,,
,visa,,,STEELTON,PA,,US,,,,,
,visa,,,STEELTON,PA,,US,,,,,
,visa,,,STEELTON,PA,,US,,,,,
,visa,,,STEELTON,PA,,US,,,,,
,visa,,,STEELTON,PA,,US,,,,,
,visa,,,STEELTON,PA,,US,,,,,
,visa,,,STEELTON,PA,,US,,,,,
,visa,,,STEELTON,PA,,US,,,,,
,visa,,,STEELTON,PA,,US,,,,,
,visa,,,STEELTON,PA,,US,,,,,
,visa,,,STEELTON,PA,,US,,,,,
,visa,,,STEELTON,PA,,US,,,,,
16a71c06a56a3b981882e11bbc92a156,western_union,R&M VARIETY SHOP LLC #2,,Steelton,PA,,US,+1 717-986-1900,https://location.westernunion.com/us/pa/steelton/16a71c06a56a3b981882e11bbc92a156,Mo-Sa 09:00-20:00; Su 10:00-19:00,Western Union,Q861042
d356877c022d9e4f2d31b2ead8003e00,western_union,R&M VARIETY SHOP LLC #2,,Steelton,PA,,US,+1 717-986-1900,https://location.westernunion.com/us/pa/steelton/d356877c022d9e4f2d31b2ead8003e00,Mo-Sa 09:00-20:00; Su 10:00-19:00,Western Union,Q861042
80bef81bb92beca21dbda8550945614a,western_union,TURKEY HILL #186,,Steelton,PA,,US,+1 717-939-4835,https://location.westernunion.com/us/pa/steelton/80bef81bb92beca21dbda8550945614a,Mo-We 05:00-23:00; Th-Su 07:00-23:00,Western Union,Q861042
