Ref,Spider,Name,Address,City,State,Zipcode,Country,Phone,Website,Hours,Brand,WikiData
3340,anytime_fitness,Anytime Fitness,,Vernal,UT,,US,+1 435-789-9955,https://www.anytimefitness.com/gyms/3340/vernal-ut-84078/,,Anytime Fitness,Q4778364
https://locations.arbys.com/ut/vernal/1141-w-hwy-40.html,arbys_us,"Arby's Fast-Food Drive Through Near You in Vernal, UT",,Vernal,UT,,US,+1 435-789-0292,https://locations.arbys.com/ut/vernal/1141-w-hwy-40.html,Mo-Su 10:00-23:00,Arby's,Q630866
22138,asics_us,Hibbett Sports,1495 W Highway 40,Vernal,UT,,US,+1 435-789-0555,,,asics,Q327247
89947,att_us,RMR VERNAL NWLXH,,Vernal,UT,,US,+1 435-789-4444,https://www.att.com/stores/utah/vernal/89947,Mo-Fr 09:00-20:00; Sa 09:00-19:00; Su 10:00-18:00,AT&T,Q298594
4067,autozone_us,AutoZone Auto Parts Vernal,,Vernal,UT,,US,+1 435-781-2230,https://www.autozone.com/locations/ut/vernal/1130-w-hwy-40.html,Mo-Sa 07:30-21:00; Su 08:30-20:00,AutoZone,Q4826087
https://awrestaurants.com/locations/utah/vernal/1260-w-500-s/,awrestaurants,A&W Restaurant,,Vernal,UT,,US,+1 435-789-9055,https://awrestaurants.com/locations/utah/vernal/1260-w-500-s/,Mo-Su 10:30-21:00,A&W Restaurants,Q277641
150020,bluerhino,Smiths Food & Drug #82 - Fuel Site,,Vernal,UT,,US,+1 435-789-7135,,,Blue Rhino,Q65681213
153637,bluerhino,Walgreens #12480,,Vernal,UT,,US,+1 435-789-7936,,,Blue Rhino,Q65681213
57093,bluerhino,Smiths Food & Drug 82,,Vernal,UT,,US,+1 435-789-7135,,,Blue Rhino,Q65681213
198245,bluerhino,Fast Stop 1121,,Vernal,UT,,US,+1 435-723-5471,,,Blue Rhino,Q65681213
102376,bluerhino,Lowe's #2834,,Vernal,UT,,US,+1 435-781-9400,,,Blue Rhino,Q65681213
0194,bootbarn,Rock Springs,,"Vernal,",UT,,US,+1 435-789-6106,https://www.bootbarn.com/stores?StoreID=0194,Mo-Sa 09:00-20:00; Su 11:00-18:00,Boot Barn,Q109825187
355746,chevron,Chevron Station #355746,1355 EAST HWY 40,VERNAL,UT,,US,+1 435-789-8292,,,Chevron,Q319642
58356,citi,ATM Grand Valley Bank,,Heber City,UT,,US,,,,Citibank,Q857063
28084,citi,ATM 7ELEVEN-FCTI,,Maeser,UT,,US,,,,Citibank,Q857063
65822,citi,ATM MOUNTAIN AMERICA CU,,Vernal,UT,,US,,,,Citibank,Q857063
87370,citi,ATM Walgreens,,Vernal,UT,,US,,,,Citibank,Q857063
33475,citi,ATM 7ELEVEN-FCTI,,Vernal,UT,,US,,,,Citibank,Q857063
65886,citi,ATM MOUNTAIN AMERICA CU,,Vernal,UT,,US,,,,Citibank,Q857063
65887,citi,ATM MOUNTAIN AMERICA CU,,Vernal,UT,,US,,,,Citibank,Q857063
58353,citi,ATM Grand Valley Bank,,Vernal,UT,,US,,,,Citibank,Q857063
24157,citi,ATM 7ELEVEN-FCTI,,Vernal,UT,,US,,,,Citibank,Q857063
30807,citi,ATM 7ELEVEN-FCTI,,Vernal,UT,,US,,,,Citibank,Q857063
28080,citi,ATM 7ELEVEN-FCTI,,Naples,UT,,US,,,,Citibank,Q857063
vernal/678,claires,Shop Ear Piercings & Jewelry at Claires Walmart Vernal,,VERNAL,UT,,US,+1 435-789-2030,https://stores.claires.com/us/ut/vernal/678.html,Mo-Sa 11:00-20:00; Su 10:00-20:00,Claire's,Q2974996
23126,coldstone_creamery,Cold Stone Creamery,,Vernal,UT,,US,+1 435-781-6349,https://www.coldstonecreamery.com/stores/23126,,Cold Stone Creamery,Q1094923
15642553,commercial_tire_us,Vernal,"1291 E.US-40 Suite B, Vernal, UT, 84078, US",Vernal,UT,,US,+1 801-762-8814,https://commercialtire.com/locations/vernal,Mo-Fr 08:00-17:30; Sa 08:00-12:00,Commercial Tire,Q28403810
80155196,cricket_wireless,Cricket Wireless Authorized Retailer,,Vernal,UT,,US,+1 435-781-6023,https://www.cricketwireless.com/stores/ll/US/UT/Vernal/1205-W-Highway-40,Mo-Sa 10:00-19:00,Cricket Wireless,Q5184987
248858,dennys,Denny's,,VERNAL,UT,,US,+1 385-501-6411,https://locations.dennys.com/UT/VERNAL/248858,Mo-Th 05:00-01:00; Fr-Sa 05:00-02:00; Su 05:00-01:00,Denny's,Q1189695
7586,dominos_pizza_us,Domino's Pizza,,Vernal,UT,,US,+1 435-781-2121,https://pizza.dominos.com/utah/vernal/895-w-hwy-40,Mo-Th 10:30-24:00; Fr-Sa 10:30-01:00; Su 10:30-24:00,Domino's,Q839466
https://www.edwardjones.com/us-en/financial-advisor/justin-harris,edwardjones,Justin Harris,,Vernal,UT,,US,+1 435-781-2100,https://www.edwardjones.com/us-en/financial-advisor/justin-harris,Mo-Fr 08:00-17:00,Edward Jones,Q5343830
E14753,enterprise,Vernal Regional Airport,,Vernal,UT,,US,+1 435-781-3008,,,Enterprise Rent-A-Car,Q17085454
200330641,exxonmobil,VERNAL FOOD MART,,VERNAL,UT,,US,+1 435-789-2233,https://www.exxon.com/en/find-station/exxon-vernal-ut-vernalfoodmart-200330641,Mo-Su 06:00-22:00,Exxon,Q109675651
https://local.fedex.com/#25203712,fedex,,,Vernal,UT,,US,+1 800-463-3339,https://local.fedex.com/en-us/ut/vernal/nucdd,,FedEx,Q459477
https://local.fedex.com/#27760821,fedex,FedEx Authorized ShipCenter,,Vernal,UT,,US,+1 435-789-0766,https://local.fedex.com/en-us/ut/vernal/00t5r,,FedEx,Q459477
Motorcraft3183USAEnglish,ford,Showalter Motor Company,,Utah,UT,,US,+1 435-789-3818,,,Ford,Q44294
https://www.ford.com/dealerships/dealer-details/ut/vernal/heritage-ford-of-vernal-inc/,ford_dealers_us,"Heritage Ford of Vernal, Inc.",,Vernal,UT,,US,+1 877-926-3081,https://www.ford.com/dealerships/dealer-details/ut/vernal/heritage-ford-of-vernal-inc/,Mo-Fr 09:00-19:00; Sa 09:00-18:00,Ford Motor Company,Q44294
3168,gamestop_us,Vernal Marketplace,,Vernal,UT,,US,+1 435-709-2488,https://www.gamestop.com/search/?store=3168,Mo-Sa 11:00-20:00; Su 13:00-19:00,GameStop,Q202210
https://stores.gnc.com/#24057891,gnc,GNC Unitah Plaza Shopping Center,,,UT,,US,+1 435-781-1677,https://stores.gnc.com/all-stores-utah/vernal/1169-west-hwy-40,Mo-Sa 10:00-19:00; Su 11:00-18:00,GNC,Q4808595
https://salons.greatclips.com/us/ut/vernal/1152-w-hwy-40,greatclips,Great Clips,,Vernal,UT,,US,+1 435-781-1110,https://salons.greatclips.com/us/ut/vernal/1152-w-hwy-40,Mo-Sa 09:00-18:00; Su 00:00-24:00,Great Clips,Q5598967
https://www.harborfreight.com/storelocator/1149-w-highway-40-vernal-84078?number=886,harborfreight,"Harbor Freight Tools Vernal, UT",,Vernal,UT,,US,+1 435-222-9200,https://www.harborfreight.com/storelocator/1149-w-highway-40-vernal-84078?number=886,Mo-Sa 08:00-20:00; Su 09:00-18:00,Harbor Freight Tools,Q5654601
48881,h_r_block,H&R Block,,Vernal,UT,,US,+1 435-789-3335,https://www.hrblock.com/local-tax-offices/utah/vernal/2175-w-hwy-40/48881/,,H&R Block,Q5627799
https://office.jacksonhewitt.com/#27578008,jackson_hewitt,Jackson Hewitt,,Vernal,UT,,US,+1 435-248-2534,https://office.jacksonhewitt.com/tax-preparation-services-locations/en/ut/vernal/1851-w-hwy-40/51572,Mo-Sa 11:00-19:00; Su 12:00-16:00,Jackson Hewitt,Q6117132
https://locations.jimmyjohns.com/ut/vernal/sandwiches-2600.html,jimmy_johns,Jimmy John's,,Vernal,UT,,US,+1 435-781-8900,https://locations.jimmyjohns.com/ut/vernal/sandwiches-2600.html,,Jimmy John's,Q1689380
2365,joann_us,JOANN Fabric and Crafts,,Vernal,UT,,US,+1 435-781-1972,https://stores.joann.com/ut/vernal/2365/,Mo-Sa 09:00-19:00; Su 12:00-17:00,JOANN,Q6203968
https://locations.kfc.com/#11247927,kfc,Chicken Nuggets Near Vernal,,Vernal,UT,,US,,https://locations.kfc.com/ut/vernal/1260-west-500-south/chickennugget,Mo-Su 10:00-23:00,KFC,Q524757
M67215,little_free_library,Lil Pink Trailer #M67215 Vernal UT,,Vernal,UT,,US,,,,Little Free Library,Q6650101
166531,little_free_library,Miller Library #166531 Vernal UT,,Vernal,UT,,US,,,,Little Free Library,Q6650101
9213,little_free_library,Vernal Tutoring #9213 Vernal UT,,Vernal,UT,,US,,,,Little Free Library,Q6650101
10044,little_free_library,Yvonne Harris #10044 Vernal UT,,Vernal,UT,,US,,,,Little Free Library,Q6650101
VELSH,marriott,SpringHill Suites Vernal,,Vernal,UT,,US,+1 435-781-9000,https://www.marriott.com/VELSH,,SpringHill Suites,Q7580351
VELTS,marriott,TownePlace Suites Vernal,,Vernal,UT,,US,+1 435-789-8050,https://www.marriott.com/VELTS,,Townplace Suites by Marriott,Q7830092
https://locations.maurices.com/#11688858,maurices,maurices 1168 W. Hwy. 40,,Vernal,UT,,US,+1 435-215-4323,https://locations.maurices.com/us/ut/vernal/diamond-mountain-shopping-ctr,Mo-Sa 10:00-20:00; Su 12:00-17:00,maurices,Q6793571
https://locations.oreillyauto.com/ut/naples/check-engine-light-testing-6292.html,oreilly,Your Naples O'Reilly Auto Parts Store,,Naples,UT,,US,+1 435-789-9248,https://locations.oreillyauto.com/ut/naples/check-engine-light-testing-6292.html,Mo-Sa 07:30-22:00; Su 08:00-21:00,O'Reilly Auto Parts,Q7071951
https://locations.oreillyauto.com/ut/naples/wiper-installation-6292.html,oreilly,Your Naples O'Reilly Auto Parts Store,,Naples,UT,,US,+1 435-789-9248,https://locations.oreillyauto.com/ut/naples/wiper-installation-6292.html,Mo-Sa 07:30-22:00; Su 08:00-21:00,O'Reilly Auto Parts,Q7071951
https://locations.oreillyauto.com/ut/naples/battery-testing-6292.html,oreilly,Your Naples O'Reilly Auto Parts Store,,Naples,UT,,US,+1 435-789-9248,https://locations.oreillyauto.com/ut/naples/battery-testing-6292.html,Mo-Sa 07:30-22:00; Su 08:00-21:00,O'Reilly Auto Parts,Q7071951
https://locations.oreillyauto.com/ut/naples/autopartes-6292.html,oreilly,O'Reilly Auto Parts,,Naples,UT,,US,+1 435-789-9248,https://locations.oreillyauto.com/ut/naples/autopartes-6292.html,Mo-Sa 07:30-22:00; Su 08:00-21:00,O'Reilly Auto Parts,Q7071951
https://locations.oreillyauto.com/ut/vernal/check-engine-light-testing-2974.html,oreilly,Your Vernal O'Reilly Auto Parts Store,,Vernal,UT,,US,+1 435-789-2066,https://locations.oreillyauto.com/ut/vernal/check-engine-light-testing-2974.html,Mo-Sa 07:30-21:00; Su 09:00-20:00,O'Reilly Auto Parts,Q7071951
https://locations.oreillyauto.com/ut/vernal/wiper-installation-2974.html,oreilly,Your Vernal O'Reilly Auto Parts Store,,Vernal,UT,,US,+1 435-789-2066,https://locations.oreillyauto.com/ut/vernal/wiper-installation-2974.html,Mo-Sa 07:30-21:00; Su 09:00-20:00,O'Reilly Auto Parts,Q7071951
https://locations.oreillyauto.com/ut/vernal/battery-testing-2974.html,oreilly,Your Vernal O'Reilly Auto Parts Store,,Vernal,UT,,US,+1 435-789-2066,https://locations.oreillyauto.com/ut/vernal/battery-testing-2974.html,Mo-Sa 07:30-21:00; Su 09:00-20:00,O'Reilly Auto Parts,Q7071951
https://locations.oreillyauto.com/ut/vernal/autopartes-2974.html,oreilly,Tu tienda O'Reilly Auto Parts en Vernal,,Vernal,UT,,US,+1 435-789-2066,https://locations.oreillyauto.com/ut/vernal/autopartes-2974.html,Mo-Sa 07:30-21:00; Su 09:00-20:00,O'Reilly Auto Parts,Q7071951
https://locations.papamurphys.com/#15430539,papamurphys,Pizza Takeout & Delivery,,Vernal,UT,,US,+1 435-781-1400,https://locations.papamurphys.com/ut/vernal/1820-u.s.-40,Mo-Sa 11:00-20:00; Su 12:00-19:00,Papa Murphy's,Q7132349
https://locations.papajohns.com/#10690597,papa_johns,Papa John's,,Vernal,UT,,US,+1 435-789-8080,https://locations.papajohns.com/united-states/ut/84078/vernal/63-w-main-st,Mo-Th 10:30-21:00; Fr-Sa 10:30-22:00,Papa John's Pizza,Q2759586
https://stores.petco.com/#27959230,petco,Petco Vernal,,Vernal,UT,,US,+1 435-781-8013,https://stores.petco.com/ut/vernal/pet-supplies-vernal-ut-1269.html,Mo-Sa 09:00-20:00; Su 10:00-19:00,Petco,Q7171798
109,pilot_flyingj,Western Petroleum Dealer,,Vernal,UT,,US,,https://locations.pilotflyingj.com/us/ut/vernal/350-north-vernal-avenue,,Western Petroleum Dealer,Q1434601
108,pilot_flyingj,Western Petroleum Dealer,,Vernal,UT,,US,,https://locations.pilotflyingj.com/us/ut/vernal/1521-south-1500-east,,Western Petroleum Dealer,Q1434601
ut_vernal_1819-w-hwy-40,pizza_hut_us,1819 W Hwy 40,,Vernal,UT,,US,+1 435-781-1048,https://locations.pizzahut.com/ut/vernal/1819-w-hwy-40,,Pizza Hut,Q191615
jones-paint-and-glass-32907,ppgpaints,JONES PAINT & GLASS,,"Vernal, ",UT,,US,+1 435-789-3241,https://www.ppgpaints.com/store-locator/us/utah/vernal-paint-stores/jones-paint-and-glass-32907,,PPG Paints,Q83891559
24443,seven_eleven_ca_us,7-11 Str   2495 S 1500 E,,Naples,UT,,US,+1 435-789-5452,https://www.7-eleven.com/locations/ut/naples/2500-s-hwy-40-24443,,7-Eleven,Q259340
22234,seven_eleven_ca_us,7-11 Str   910 W Us Hwy 40,,Vernal,UT,,US,+1 435-789-2506,https://www.7-eleven.com/locations/ut/vernal/910-w.-us-hwy.-40-22234,,7-Eleven,Q259340
https://stations.sinclairoil.com/ut/vernal/50-s-1000-w,sinclair_us,Sinclair Gas Station,,Vernal,UT,,US,+1 435-789-9274,https://stations.sinclairoil.com/ut/vernal/50-s-1000-w,Mo-Sa 04:00-21:00; Su 09:00-19:30,Sinclair,Q1290900
https://stations.sinclairoil.com/ut/vernal/4743-s-4625-e,sinclair_us,Sinclair Gas Station,,Vernal,UT,,US,+1 435-781-2410,https://stations.sinclairoil.com/ut/vernal/4743-s-4625-e,24/7,Sinclair,Q1290900
https://restaurants.subway.com/#14907601,subway,Subway,,Vernal Uintah,UT,,US,+1 435-781-0711,https://restaurants.subway.com/united-states/ut/vernal/1205-west-hwy-40,Mo-Sa 07:00-21:00; Su 09:00-20:00,Subway,Q244457
https://restaurants.subway.com/#14916961,subway,Subway,,Naples Uintah,UT,,US,+1 435-781-1588,https://restaurants.subway.com/united-states/ut/naples/2537-sourth-hwy-40,Mo-Fr 06:00-21:00; Sa 08:00-21:00; Su 09:00-20:00,Subway,Q244457
https://locations.tacobell.com/#6141826,taco_bell,Taco Bell,,Vernal,UT,,US,+1 435-781-1812,https://locations.tacobell.com/ut/vernal/898-west-hwy-40.html,Mo-Su 07:00-01:00,Taco Bell,Q752941
081378,tjx,Vernal,2041 West US Hwy 40,Vernal,UT,,US,+1 435-781-6530,,Mo-Sa 09:30-21:30; Su 10:00-19:00,TJ Maxx,Q10860683
1ISF,tmobile_us,W Hwy 40 & W 1000 S,,Vernal,UT,,US,+1 435-671-4717,https://www.t-mobile.com/store-locator/ut/vernal/w-hwy-40-w-1000-s,,T-Mobile,Q3511885
1385847,usps,VERNAL,,VERNAL,UT,,US,+1 435-789-2393,,Mo-Fr 09:00-17:00; Sa 10:00-13:00,United States Postal Service,Q668687
8407800002,usps_collection_boxes,USPS COLLECTION BOX - BLUE BOX,820 W MAIN ST,VERNAL,UT,,US,,,,United States Postal Service,Q668687
8407800010,usps_collection_boxes,USPS COLLECTION BOX - PO LOBBY,67 N 800 W,VERNAL,UT,,US,,,,United States Postal Service,Q668687
8407800001,usps_collection_boxes,USPS COLLECTION BOX - PO LOBBY,67 N 800 W,VERNAL,UT,,US,,,,United States Postal Service,Q668687
8407800005,usps_collection_boxes,USPS COLLECTION BOX - PO LOBBY,67 N 800 W,VERNAL,UT,,US,,,,United States Postal Service,Q668687
,visa,,,VERNAL,UT,,US,,,,,
,visa,,,VERNAL,UT,,US,,,,,
,visa,,,VERNAL,UT,,US,,,,,
,visa,,,VERNAL,UT,,US,,,,,
,visa,,,VERNAL,UT,,US,,,,,
,visa,,,VERNAL,UT,,US,,,,,
,visa,,,VERNAL,UT,,US,,,,,
,visa,,,VERNAL,UT,,US,,,,,
,visa,,,NAPLES,UT,,US,,,,,
,visa,,,NAPLES,UT,,US,,,,,
,visa,,,VERNAL,UT,,US,,,,,
,visa,,,VERNAL,UT,,US,,,,,
,visa,,,VERNAL,UT,,US,,,,,
,visa,,,VERNAL,UT,,US,,,,,
,visa,,,VERNAL,UT,,US,,,,,
,visa,,,VERNAL,UT,,US,,,,,
,visa,,,VERNAL,UT,,US,,,,,
,visa,,,VERNAL,UT,,US,,,,,
,visa,,,VERNAL,UT,,US,,,,,
,visa,,,VERNAL,UT,,US,,,,,
,visa,,,VERNAL,UT,,US,,,,,
,visa,,,VERNAL,UT,,US,,,,,
,visa,,,VERNAL,UT,,US,,,,,
,visa,,,VERNAL,UT,,US,,,,,
,visa,,,VERNAL,UT,,US,,,,,
,visa,,,VERNAL,UT,,US,,,,,
,visa,,,VERNAL,UT,,US,,,,,
,visa,,,VERNAL,UT,,US,,,,,
,visa,,,VERNAL,UT,,US,,,,,
,visa,,,VERNAL,UT,,US,,,,,
,visa,,,VERNAL,UT,,US,,,,,
,visa,,,VERNAL,UT,,US,,,,,
,visa,,,VERNAL,UT,,US,,,,,
,visa,,,VERNAL,UT,,US,,,,,
,visa,,,VERNAL,UT,,US,,,,,
,visa,,,VERNAL,UT,,US,,,,,
,visa,,,VERNAL,UT,,US,,,,,
,visa,,,VERNAL,UT,,US,,,,,
,visa,,,VERNAL,UT,,US,,,,,
,visa,,,VERNAL,UT,,US,,,,,
,visa,,,VERNAL,UT,,US,,,,,
,visa,,,MAESER,UT,,US,,,,,
,visa,,,MAESER,UT,,US,,,,,
https://www.walgreens.com/locator/walgreens-1316+w+highway+40-vernal-ut-84078/id=12480,walgreens,Walgreens,,Vernal,UT,,US,+1 435-789-7936,https://www.walgreens.com/locator/walgreens-1316+w+highway+40-vernal-ut-84078/id=12480,Mo-Su 07:00-22:00,Walgreens,Q1591889
3__E__MAIN__ST_VERNAL_UT_84078,wellsfargo,Wells Fargo,3 E MAIN ST,VERNAL,UT,,US,+1 435-789-3142,https://www.wellsfargo.com/locator/bank/3__E__MAIN__ST_VERNAL_UT_84078/,Mo-Fr 09:00-17:00,Wells Fargo,Q744149
https://locations.wendys.com/#9256201,wendys,"Wendy's Vernal in Vernal, UT",,Vernal,UT,,US,+1 435-781-2222,https://locations.wendys.com/united-states/ut/vernal/1120-w-us-hwy-40,"Mo-Th 06:30-10:30,10:30-21:00; Fr-Sa 06:30-10:30,10:30-22:00; Su 08:00-10:30",Wendy's,Q550258
60ec66380a9845cc34ae42f7a3b9f2b9,western_union,WALMART #001572,,Vernal,UT,,US,+1 435-789-9784,https://location.westernunion.com/us/ut/vernal/60ec66380a9845cc34ae42f7a3b9f2b9,Mo-Su 07:00-21:00,Western Union,Q861042
0285fc8202e17d8ed4ae7e3be3312338,western_union,7-ELEVEN #24443,,Naples,UT,,US,+1 435-789-5452,https://location.westernunion.com/us/ut/naples/0285fc8202e17d8ed4ae7e3be3312338,,Western Union,Q861042
81990f2031c401f884da79a6cde3f939,western_union,7-ELEVEN #23471,,Vernal,UT,,US,+1 435-789-6803,https://location.westernunion.com/us/ut/vernal/81990f2031c401f884da79a6cde3f939,,Western Union,Q861042
2308,world_finance_us,,"74 E Main Street #5, Vernal, UT, 84078",Vernal,UT,,US,+1 385-955-3496,https://www.loansbyworld.com/branches/branch-2308,Mo-Fr 09:00-17:30; Sa 09:00-12:00,World Finance,Q3569971
