Ref,Spider,Name,Address,City,State,Zipcode,Country,Phone,Website,Hours,Brand,WikiData
CZ491741,adidas,adidas Outlet Store Ostrava,,Ostrava,,,CZ,+42553657008,https://www.adidas.co.uk/storefront/CZ491741-ostrava-hlucinska-1171b22-adidas-outlet-store-ostrava,,Adidas,Q3895
28074_1,bmw_group,"CarTec Ostrava, s.r.o.",,Ostrava,,,CZ,+420 597 499 200,https://www.bmw-cartecgroup.cz/,,BMW,Q26678
CZ207042,burger_king_cz,Burger King Ostrava Outlet,,Ostrava,,,CZ,,https://burgerking.cz/restaurants/burger-king-ostrava-outlet,Mo-Su 10:00-20:00,Burger King,Q177054
CZ207006,burger_king_cz,Burger King Ostrava Nová Karolina,,Ostrava,,,CZ,,https://burgerking.cz/restaurants/burger-king-ostrava-nova-karolina,Mo-Th 09:00-21:30; Fr-Sa 09:00-22:00; Su 09:00-21:30,Burger King,Q177054
CKCZ0005,calvin_klein,Calvin Klein Jeans,,Ostrava,,,CZ,+420 602 577 657,,Mo-Su 09:00-21:00,Calvin Klein,Q1068628
697,ccc,Ostrava CCC Forum 1411,,Ostrava,,,CZ,+420 596 113 123,https://ccc.eu/cz/market/ostrava-ccc-forum-1411,Su 09:00-21:00,CCC,Q11788344
ostrava/4407,claires,Shop Ear Piercings & Jewellery at Ostrava Karolina,,Ostrava,,,CZ,0042 596 155 106,https://stores.claires.com/cz-207/ostrava/4407.html,Mo-Su 09:00-21:00,Claire's,Q2974996
6975,czech_post_cz,Ostrava 2,,,,,CZ,,,,Česká pošta,Q341090
0070118801188,decathlon_cz,Ostrava Centrum,,Ostrava,,,CZ,+420 595 538 999,https://www.decathlon.cz/store-view/sportovni-prodejna-ostrava-centrum-0070118801188,Mo-Su 09:00-20:00,Decathlon,Q509349
55186248,deichmann,DEICHMANN prodejnu Ostrava Vítkovická 3278/3,,Ostrava,,,CZ,+420 725 295 720,https://stores.deichmann.com/cz-cs/cz/moravskoslezsky-kraj/ostrava/vitkovicka-32783,Mo-Su 09:00-19:00,Deichmann,Q664543
55187069,deichmann,DEICHMANN prodejnu Ostrava Jantarová 3344/4,,Ostrava,,,CZ,+420 725 295 832,https://stores.deichmann.com/cz-cs/cz/moravskoslezsky-kraj/ostrava/jantarova-33444,Mo-Su 09:00-21:00,Deichmann,Q664543
cz:280,dm,dm drogerie markt s.r.o. - prod.280,,Ostrava,,,CZ,+420 596 633 543,https://www.dm.cz/store/p0bg/ostrava/varenska-3309-50,Mo-Su 08:00-20:00,dm,Q266572
cz:385,dm,dm drogerie markt s.r.o. - prod.385,,Ostrava,,,CZ,+420 596 110 083,https://www.dm.cz/store/p0g1/ostrava/jantarova-3344-4,Mo-Su 09:00-21:00,dm,Q266572
cz:445,dm,dm drogerie markt s.r.o. - prod.445,,Ostrava,,,CZ,+420 558 668 392,https://www.dm.cz/store/p0id/ostrava/hlucinska-1175,Mo-Su 08:00-20:00,dm,Q266572
cz:505,dm,dm drogerie markt s.r.o. - prod.505,,Ostrava,,,CZ,+420 596 410 954,https://www.dm.cz/store/p0l1/ostrava/masarykovo-nam-3090,Mo-Su 08:00-19:00,dm,Q266572
0001061069,ecco,ECCO Nova Karolina Ostrava Popup,,Ostrava,,,CZ,+420 607 041 033,,Mo-Su 09:00-21:00,Ecco,Q1280255
0001052830,ecco,ECCO Outlet Moravia (Ostrava),,Ostrava-Moravská Ostrava,,,CZ,+420 558 686 454,,Mo-Su 10:00-20:00,Ecco,Q1280255
OSRC61,enterprise,Ostrava,,Ostrava,,,CZ,+420 220 113 454,,,Enterprise Rent-A-Car,Q17085454
CZ0027,hm,Karolina,,Ostrava,,,CZ,+420 596 112 517,,Mo-Su 09:00-21:00,H&M,Q188326
CZ0034,hm,Futurum Ostrava,,Ostrava,,,CZ,+420 596 630 209,,Mo-Su 09:00-21:00,H&M,Q188326
T415,jysk,"Karolína, Ostrava",,Ostrava,,,CZ,+420 720 740 415,https://jysk.cz/prodejny?storeId=T415,Mo-Sa 09:00-19:00; Su 09:00-18:00,JYSK,Q138913
987,kfc_amrest,KFC Ostrava Outlet,,Ostrava,,,CZ,+420 728 527 440,,Mo-Su 09:00-21:00,KFC,Q524757
5071,kik,KiK,,Ostrava Dubina,,,CZ,+420 595 781 253,,Mo-Su 09:00-20:00,KiK,Q883965
5038,kik,KiK,,Ostrava Moravská,,,CZ,+420 596 633 537,,Mo-Su 09:00-19:00,KiK,Q883965
613,lidl_cz,Lidl,,Ostrava,,,CZ,,,Mo-Sa 07:00-21:00; Su 08:00-21:00,Lidl,Q151954
62601,man_truck_and_bus,"MAN Truck & Bus Czech Republic s. r.o., Ostrava",,Ostrava,,,CZ,+420 595 135 945,,,MAN Truck & Bus,Q708667
44,mcdonalds_cz,"Ostrava, Forum Nová Karolina",,Ostrava,,,CZ,+420 606 612 191,https://restaurace.mcdonalds.cz/ostrava-forum-nova-karolina,Mo-Th 08:00-21:30; Fr-Sa 08:00-22:00; Su 08:00-21:30,McDonald's,Q38076
1199303,mol,Ostrava - Hlučínská,Hlučínská,Ostrava - Přívoz,,,CZ,+420 601 353 399;+420 601 353 399,,Mo-Sa 05:00-22:00,MOL,Q549181
5b3cb3fac00458481b43777f,newyorker,NEW YORKER | Forum Nova Karolina,"Jantarová 4, 702 00 Moravská Ostrava a Přívoz",Ostrava,,,CZ,+420 596 101 010,,Mo-Su 09:00-21:00,New Yorker,Q706421
5b3cb3fac00458481b4376aa,newyorker,NEW YORKER | OC Futurum,"Novinářská 6a, 701 00 Moravská Ostrava a Přívoz",Ostrava,,,CZ,+420 596 940 940,,Mo-Su 09:00-21:00,New Yorker,Q706421
CZ.2816.8,omv,OMV,,Orlová,,,CZ,+420 596 511 582,,24/7,OMV,Q168238
https://restaurants.subway.com/#14924085,subway,Subway Oc Forum Nová Karolina,,Ostrava,,,CZ,+420 602 772 726,https://restaurants.subway.com/czechia/ostrava/jantarova-3344/4,Mo-Su 09:00-21:00,Subway,Q244457
https://restaurants.subway.com/#14924077,subway,Subway Oc Futurum Ostrava,,Ostrava,,,CZ,+420 602 772 726,https://restaurants.subway.com/czechia/ostrava/novinarska-6a,Mo-Su 09:00-21:00,Subway,Q244457
THCZ0022,tommy_hilfiger,Tommy Hilfiger Outlet,,Ostrava,,,CZ,+420 (0) 558432160,,,Tommy Hilfiger,Q634881
,visa,,,OSTRAVA,,,CZ,,,,,
