Ref,Spider,Name,Address,City,State,Zipcode,Country,Phone,Website,Hours,Brand,WikiData
,visa,,,TAMAULIPAS,TAMAULIPAS,,MX,,,,,
,visa,,,MATAMOROS,TAMAULIPAS,,MX,,,,,
,visa,,,HEROICA MATAMOROS,TAMAULIPAS,,MX,,,,,
8427f2e4ef41d450c4127bd5fc45007e,western_union,OXXO TRES MORAS MAF,,Matamoros,TAMAULIPAS,,MX,+52 81 8389 2121,https://location.westernunion.com/mx/tamaulipas/matamoros/8427f2e4ef41d450c4127bd5fc45007e,Mo-Su 08:00-22:00,Western Union,Q861042
1dae885db40985a6cd52570e15f0401e,western_union,OXXO TRES MORAS MAF,,Matamoros,TAMAULIPAS,,MX,+52 81 8389 2121,https://location.westernunion.com/mx/tamaulipas/matamoros/1dae885db40985a6cd52570e15f0401e,Mo-Su 08:00-22:00,Western Union,Q861042
b3e54062fdae387ea1853bfb8918c691,western_union,OXXO TRES MORAS MAF,,Matamoros,TAMAULIPAS,,MX,+52 81 8389 2121,https://location.westernunion.com/mx/tamaulipas/matamoros/b3e54062fdae387ea1853bfb8918c691,Mo-Su 08:00-22:00,Western Union,Q861042
45906ce9fe40cc584b89ba712a8dc224,western_union,7ELEVEN SENDERO NACIONAL Y SUR 3 1900,,Matamoros,TAMAULIPAS,,MX,+52 800 833 4700,https://location.westernunion.com/mx/tamaulipas/matamoros/45906ce9fe40cc584b89ba712a8dc224,Mo-Su 06:00-22:00,Western Union,Q861042
4dad5557f0630568d193fa50a0974e59,western_union,7ELEVEN SENDERO NACIONAL Y SUR 3 1900,,Matamoros,TAMAULIPAS,,MX,+52 800 833 4700,https://location.westernunion.com/mx/tamaulipas/matamoros/4dad5557f0630568d193fa50a0974e59,Mo-Su 06:00-22:00,Western Union,Q861042
7e9ea7a0e558d903eeb054cee20683b4,western_union,7ELEVEN SENDERO NACIONAL Y SUR 3 1900,,Matamoros,TAMAULIPAS,,MX,+52 800 833 4700,https://location.westernunion.com/mx/tamaulipas/matamoros/7e9ea7a0e558d903eeb054cee20683b4,Mo-Su 06:00-22:00,Western Union,Q861042
7ca6194b63ad0cdc8dd24b7168905b2a,western_union,OXXO SANTA ROSA MAF,,Matamoros,TAMAULIPAS,,MX,+52 81 8389 2121,https://location.westernunion.com/mx/tamaulipas/matamoros/7ca6194b63ad0cdc8dd24b7168905b2a,Mo-Su 08:00-22:00,Western Union,Q861042
9455fcd545d72f57c3122c1166894857,western_union,OXXO SANTA ROSA MAF,,Matamoros,TAMAULIPAS,,MX,+52 81 8389 2121,https://location.westernunion.com/mx/tamaulipas/matamoros/9455fcd545d72f57c3122c1166894857,Mo-Su 08:00-22:00,Western Union,Q861042
adf764adb7fd9e1f0aed57962be4059f,western_union,OXXO EJIDO LOS ARADOS MAF,,Matamoros,TAMAULIPAS,,MX,+52 81 8389 2121,https://location.westernunion.com/mx/tamaulipas/matamoros/adf764adb7fd9e1f0aed57962be4059f,Mo-Su 08:00-22:00,Western Union,Q861042
1c2f487aa71cbb9e8e180f860961f80a,western_union,OXXO EJIDO LOS ARADOS MAF,,Matamoros,TAMAULIPAS,,MX,+52 81 8389 2121,https://location.westernunion.com/mx/tamaulipas/matamoros/1c2f487aa71cbb9e8e180f860961f80a,Mo-Su 08:00-22:00,Western Union,Q861042
a43df53fb4518995fb0a7400717682af,western_union,OXXO EJIDO LOS ARADOS MAF,,Matamoros,TAMAULIPAS,,MX,+52 81 8389 2121,https://location.westernunion.com/mx/tamaulipas/matamoros/a43df53fb4518995fb0a7400717682af,Mo-Su 08:00-22:00,Western Union,Q861042
533317dd4e1c466010e84ef5e8c52c0a,western_union,OXXO MEZQUITAL MAF,,Matamoros,TAMAULIPAS,,MX,+52 81 8389 2121,https://location.westernunion.com/mx/tamaulipas/matamoros/533317dd4e1c466010e84ef5e8c52c0a,Mo-Su 08:00-22:00,Western Union,Q861042
9717b58e2cf94b5a7b4b450741605c92,western_union,OXXO MEZQUITAL MAF,,Matamoros,TAMAULIPAS,,MX,+52 81 8389 2121,https://location.westernunion.com/mx/tamaulipas/matamoros/9717b58e2cf94b5a7b4b450741605c92,Mo-Su 08:00-22:00,Western Union,Q861042
a492c1f524af9c478c05d36d711cb850,western_union,OXXO MEZQUITAL MAF,,Matamoros,TAMAULIPAS,,MX,+52 81 8389 2121,https://location.westernunion.com/mx/tamaulipas/matamoros/a492c1f524af9c478c05d36d711cb850,Mo-Su 08:00-22:00,Western Union,Q861042
ef07d43f1d6b00f412d7f007091e46eb,western_union,OXXO SENDERO III MAF,,Matamoros,TAMAULIPAS,,MX,+52 81 8389 2121,https://location.westernunion.com/mx/tamaulipas/matamoros/ef07d43f1d6b00f412d7f007091e46eb,Mo-Su 08:00-22:00,Western Union,Q861042
5ccac1cd2b05bbd02dba252931d43567,western_union,OXXO SENDERO III MAF,,Matamoros,TAMAULIPAS,,MX,+52 81 8389 2121,https://location.westernunion.com/mx/tamaulipas/matamoros/5ccac1cd2b05bbd02dba252931d43567,Mo-Su 08:00-22:00,Western Union,Q861042
a0c160aa6752b7bef59391c00463cf49,western_union,OXXO SENDERO III MAF,,Matamoros,TAMAULIPAS,,MX,+52 81 8389 2121,https://location.westernunion.com/mx/tamaulipas/matamoros/a0c160aa6752b7bef59391c00463cf49,Mo-Su 08:00-22:00,Western Union,Q861042
ec2dcb780ebd1d10c7d5e97bf0e0bea2,western_union,OXXO CRUCERO SENDERO MAF,,Matamoros,TAMAULIPAS,,MX,+52 81 8389 2121,https://location.westernunion.com/mx/tamaulipas/matamoros/ec2dcb780ebd1d10c7d5e97bf0e0bea2,Mo-Su 06:00-22:00,Western Union,Q861042
e15ca257930d2174ad57ef250c928d1b,western_union,OXXO CRUCERO SENDERO MAF,,Matamoros,TAMAULIPAS,,MX,+52 81 8389 2121,https://location.westernunion.com/mx/tamaulipas/matamoros/e15ca257930d2174ad57ef250c928d1b,Mo-Su 06:00-22:00,Western Union,Q861042
33dcbc7bb53823ff37090abdee2a9fa1,western_union,OXXO CRUCERO SENDERO MAF,,Matamoros,TAMAULIPAS,,MX,+52 81 8389 2121,https://location.westernunion.com/mx/tamaulipas/matamoros/33dcbc7bb53823ff37090abdee2a9fa1,Mo-Su 06:00-22:00,Western Union,Q861042
358db842a0d355ad681617423db62cfa,western_union,7ELEVEN EMPLEADO POSTAL Y CARR A REYNOSA,,Matamoros,TAMAULIPAS,,MX,+52 800 833 4700,https://location.westernunion.com/mx/tamaulipas/matamoros/358db842a0d355ad681617423db62cfa,Mo-Su 06:00-22:00,Western Union,Q861042
48ee75499c0df118b82f374122cca0c2,western_union,7ELEVEN EMPLEADO POSTAL Y CARR A REYNOSA,,Matamoros,TAMAULIPAS,,MX,+52 800 833 4700,https://location.westernunion.com/mx/tamaulipas/matamoros/48ee75499c0df118b82f374122cca0c2,Mo-Su 06:00-22:00,Western Union,Q861042
a4331be96d6d031818726c71210b5004,western_union,7ELEVEN EMPLEADO POSTAL Y CARR A REYNOSA,,Matamoros,TAMAULIPAS,,MX,+52 800 833 4700,https://location.westernunion.com/mx/tamaulipas/matamoros/a4331be96d6d031818726c71210b5004,Mo-Su 06:00-22:00,Western Union,Q861042
65ca4da122919e84d85badc633ef9aaf,western_union,OXXO STA MARIA MAF,,Matamoros,TAMAULIPAS,,MX,+52 81 8389 2121,https://location.westernunion.com/mx/tamaulipas/matamoros/65ca4da122919e84d85badc633ef9aaf,Mo-Su 08:00-22:00,Western Union,Q861042
a6556766608446d89d754273e8ffcb11,western_union,OXXO STA MARIA MAF,,Matamoros,TAMAULIPAS,,MX,+52 81 8389 2121,https://location.westernunion.com/mx/tamaulipas/matamoros/a6556766608446d89d754273e8ffcb11,Mo-Su 08:00-22:00,Western Union,Q861042
3ce07b1bf81c72b1681a3fb2ea66d17d,western_union,OXXO SENDERO II MAF,,Matamoros,TAMAULIPAS,,MX,+52 81 8389 2121,https://location.westernunion.com/mx/tamaulipas/matamoros/3ce07b1bf81c72b1681a3fb2ea66d17d,Mo-Su 08:00-22:00,Western Union,Q861042
e13f1e4856b4ef6c818bbbf672ab493b,western_union,OXXO SENDERO II MAF,,Matamoros,TAMAULIPAS,,MX,+52 81 8389 2121,https://location.westernunion.com/mx/tamaulipas/matamoros/e13f1e4856b4ef6c818bbbf672ab493b,Mo-Su 08:00-22:00,Western Union,Q861042
26114e6decde026a18136a9843786653,western_union,OXXO SENDERO II MAF,,Matamoros,TAMAULIPAS,,MX,+52 81 8389 2121,https://location.westernunion.com/mx/tamaulipas/matamoros/26114e6decde026a18136a9843786653,Mo-Su 08:00-22:00,Western Union,Q861042
