Ref,Spider,Name,Address,City,State,Zipcode,Country,Phone,Website,Hours,Brand,WikiData
https://stores.advanceautoparts.com/oh/fairborn/1246-kauffman-ave,advance_auto_parts_us,Advance Auto Parts,,Fairborn,OH,,US,+1 937-754-1050,https://stores.advanceautoparts.com/oh/fairborn/1246-kauffman-ave,Mo-Sa 07:30-21:00; Su 09:00-20:00,Advance Auto Parts,Q4686051
https://locations.arbys.com/oh/fairborn/381-n-broad-st.html,arbys_us,"Arby's Fast-Food Drive Through Near You in Fairborn, OH",,Fairborn,OH,,US,+1 937-878-1565,https://locations.arbys.com/oh/fairborn/381-n-broad-st.html,Mo-Th 10:00-23:00; Fr-Sa 10:00-24:00; Su 10:00-23:00,Arby's,Q630866
https://locations.arbys.com/oh/fairborn/2724-colonel-glenn-hwy.html,arbys_us,"Arby's Fast-Food Drive Through Near You in Fairborn, OH",,Fairborn,OH,,US,+1 937-426-1427,https://locations.arbys.com/oh/fairborn/2724-colonel-glenn-hwy.html,Mo-Su 10:00-22:00,Arby's,Q630866
https://stores.ashleyfurniture.com/store/us/ohio/fairborn/7710000337/,ashley_furniture,"Ashley Store Fairborn, OH",,Fairborn,OH,,US,+1 937-874-7140,https://stores.ashleyfurniture.com/store/us/ohio/fairborn/7710000337/,,Ashley Furniture,Q4805437
35962,asics_us,Runners Plus,2604 Colonel Glenn Hwy,Fairborn,OH,,US,+1 937-995-5005,,Mo-Fr 10:00-19:00; Sa 10:00-18:00; Su 12:00-17:00,asics,Q327247
1788,autozone_us,AutoZone Auto Parts Fairborn,,Fairborn,OH,,US,+1 937-754-0180,https://www.autozone.com/locations/oh/fairborn/1855-s-maple-ave.html,Mo-Sa 08:00-22:00; Su 09:00-21:00,AutoZone,Q4826087
https://www.avis.com/en/locations/us/oh/fairborn/f2o,avis,Avis U S A Fairborn,,Fairborn,OH,,US,+1 937-873-9818,https://www.avis.com/en/locations/us/oh/fairborn/f2o,Mo-Fr 08:00-17:30; Sa 08:00-12:00; Su 09:00-12:00,Avis,Q791136
https://stores.bestbuy.com/oh/fairborn/2907-centre-dr-266.html,bestbuy,Best Buy Beavercreek,,Fairborn,OH,,US,+1 937-320-1484,https://stores.bestbuy.com/oh/fairborn/2907-centre-dr-266.html,,Best Buy,Q533415
241865,bluerhino,CASEY'S GENERAL STORE #4274,,Beavercreek,OH,,US,7.606.3803,,,Blue Rhino,Q65681213
73003,bluerhino,Speedway #1172,,Fairborn,OH,,US,+1 937-879-0551,,,Blue Rhino,Q65681213
223584,bluerhino,Marathon Food Mart,,Fairborn,OH,,US,+1 937-830-6005,,,Blue Rhino,Q65681213
221300,bluerhino,Dollar General #10770,,FAIRBORN,OH,,US,+1 937-343-1654,,,Blue Rhino,Q65681213
3987,bluerhino,Lowe's #89,,Fairborn,OH,,US,+1 937-427-1110,,,Blue Rhino,Q65681213
175055,bluerhino,Fresh Thyme Farmer's Market #302,,Beavercreek,OH,,US,+1 937-429-4516,,,Blue Rhino,Q65681213
219758,bluerhino,Casey's General Store #3907,,Fairborn,OH,,US,+1 937-541-0525,,,Blue Rhino,Q65681213
73184,bluerhino,Speedway #5222,,Fairborn,OH,,US,+1 937-879-1870,,,Blue Rhino,Q65681213
152186,bluerhino,Walgreens #6990,,Fairborn,OH,,US,+1 937-878-2889,,,Blue Rhino,Q65681213
168280,bluerhino,Kroger Marketplace #838 - Cincinnati,,Fairborn,OH,,US,+1 937-318-3900,,,Blue Rhino,Q65681213
185537,bluerhino,Kroger Marketplace #838 - Cincinnati- Fuel Site,,Fairborn,OH,,US,+1 937-318-3900,,,Blue Rhino,Q65681213
239439,bluerhino,Circle K #4705282,,Fairborn,OH,,US,+1 937-878-2877,,,Blue Rhino,Q65681213
104957,bluerhino,Speedway #5333,,Fairborn,OH,,US,+1 937-878-2020,,,Blue Rhino,Q65681213
46981,bobevans_us,Fairborn,,Beavercreek,OH,,US,+1 937-427-0442,https://www.bobevans.com/locations/fairborn,Mo-Su 07:00-21:00,Bob Evans,Q4932386
94814125500404532400100000000000,bp,BP,,Fairborn,OH,,US,+1 937-879-7507,,Mo-Su 06:00-22:00,BP,Q152057
19070202998714532400100000000000,bp,BP,,Fairborn,OH,,US,+1 937-873-2444,,Mo-Fr 06:00-22:00; Sa-Su 07:00-22:00,BP,Q152057
09373,chevrolet,JEFF SCHMITT CHEVROLET NORTH,,Fairborn,OH,,US,+1 937-412-0941,https://www.jeffschmittchevy.com,Mo-Th 09:00-20:00; Fr-Sa 09:00-18:00,Chevrolet,Q29570
oh_fairborn_2012-commerce-center-blvd,chipotle, ,,Fairborn,OH,,US,+1 937-777-3095,https://locations.chipotle.com/oh/fairborn/2012-commerce-center-blvd,,Chipotle,Q465751
oh_beavercreek_2544-zink-rd,chipotle, ,,Beavercreek,OH,,US,+1 937-429-1294,https://locations.chipotle.com/oh/beavercreek/2544-zink-rd,,Chipotle,Q465751
108,clean_eatz_us,,,Beavercreek,OH,,US,+1 937-306-8211,https://locations.cleaneatz.com/oh/beavercreek/meal-prep-108.html,Mo-Fr 11:00-19:00; Sa-Su 11:00-15:00,Clean Eatz,Q124412638
,credit_union_us,Wright-Patt CU,,Fairborn,OH,,US,+1 800-762-0047,,Mo-Fr 09:00-06:00; Sa 09:00-01:00,,
,credit_union_us,Wright-Patt CU,,Fairborn,OH,,US,+1 800-762-0047,,Mo-Fr 09:00-06:00; Sa 09:00-01:00,,
80326101,cricket_wireless,Cricket Wireless Authorized Retailer,,Fairborn,OH,,US,+1 937-754-1300,https://www.cricketwireless.com/stores/ll/US/OH/Fairborn/85-E-Dayton-Yellow-Springs-Rd,Mo-Sa 09:00-19:00; Su 12:00-18:00,Cricket Wireless,Q5184987
3411,cvs_us,CVS Pharmacy,,Fairborn,OH,,US,+1 937-878-3991,https://www.cvs.com/store-locator/fairborn-oh-pharmacies/200-e-dayton-yellow-springs-rd-fairborn-oh-45324/storeid=3411,Mo-Fr 08:00-21:00; Sa 09:00-21:00; Su 10:00-18:00,CVS Pharmacy,Q2078880
eb13fb02-6c3d-45a8-81fd-d4454d5fb9bb,dairy_queen_us,180 E Dayton Yellow Springs Rd,,Fairborn,OH,,US,+1 937-318-8437,https://www.dairyqueen.com/locations/oh/fairborn/180-e-dayton-yellow-springs-rd/16070,,DQ Grill & Chill,Q1141226
2360,dominos_pizza_us,Domino's Pizza,,Fairborn,OH,,US,+1 937-878-3030,https://pizza.dominos.com/ohio/fairborn/1258-kauffman-road,Mo-Th 10:00-02:00; Fr-Sa 10:00-03:00; Su 10:00-02:00,Domino's,Q839466
359258,dunkin_us,Dunkin',,Fairborn,OH,,US,+1 937-582-4073,https://locations.dunkindonuts.com/en/oh/fairborn/11th-street/359258,Mo-Fr 07:00-16:00; Sa-Su 00:00-24:00,Dunkin',Q847743
358182,dunkin_us,Dunkin',,Fairborn,OH,,US,+1 937-401-8373,https://locations.dunkindonuts.com/en/oh/fairborn/168-e-dayton-yellow-springs-rd/358182,Mo-Sa 05:00-20:00; Su 06:00-20:00,Dunkin',Q847743
https://www.edwardjones.com/us-en/financial-advisor/darrien-kynard,edwardjones,Darrien J Kynard,,Fairborn,OH,,US,+1 937-879-5699,https://www.edwardjones.com/us-en/financial-advisor/darrien-kynard,Mo-Fr 08:30-16:30,Edward Jones,Q5343830
E13861,enterprise,Fairborn,,Fairborn,OH,,US,+1 937-879-0023,,,Enterprise Rent-A-Car,Q17085454
https://locations.53.com/#3034239,fifththirdbank,Fifth Third Bank South Fairborn,,Fairborn,OH,,US,+1 937-318-2280,https://locations.53.com/oh/fairborn/1095-east-dayton-yellow-springs-road.html,Mo-Th 09:00-17:00; Fr 09:00-18:00; Sa 09:00-12:00,Fifth Third Bank,Q1411810
6467,firestone_auto_care,Firestone Complete Auto Care,,Fairborn,OH,,US,+1 937-412-2690,https://local.firestonecompleteautocare.com/ohio/fairborn/550-n-broad-st/,,Firestone,Q420837
3186,first_cash,Cashland,,Fairborn,OH,,US,+1 937-879-2268,,,,
f395c78a-0921-ea11-80e3-00505689ac90,goodwill,Fairborn,,Fairborn,OH,,US,+1 937-528-6070,https://www.goodwill.org/locator/location/?store=ZjM5NWM3OGEtMDkyMS1lYTExLTgwZTMtMDA1MDU2ODlhYzkw&lat=MzkuNzg1OTE=&lng=LTg0LjAxMzIz,,Goodwill,Q5583655
https://salons.greatclips.com/us/oh/fairborn/1173-e-dayton-yellow-springs-rd,greatclips,Great Clips,,Fairborn,OH,,US,+1 937-879-9747,https://salons.greatclips.com/us/oh/fairborn/1173-e-dayton-yellow-springs-rd,Mo-Fr 09:00-19:00; Sa 08:00-18:00; Su 10:00-17:00,Great Clips,Q5598967
https://salons.greatclips.com/us/oh/fairborn/3800-colonel-glenn-hwy,greatclips,Great Clips,,Fairborn,OH,,US,+1 937-365-2785,https://salons.greatclips.com/us/oh/fairborn/3800-colonel-glenn-hwy,Mo-Fr 09:00-19:00; Sa 09:00-18:00; Su 10:00-17:00,Great Clips,Q5598967
daybvru-tru-beavercreek-dayton,hilton,Tru by Hilton Beavercreek Dayton,,,OH,,US,+1 937-988-0250,https://www.hilton.com/ar/hotels/daybvru-tru-beavercreek-dayton/,,Tru by Hilton,Q24907770
dayfbhw-homewood-suites-dayton-fairborn-wright-patterson,hilton,Homewood Suites by Hilton Dayton-Fairborn (Wright Patterson),,,OH,,US,+1 937-429-0600,https://www.hilton.com/ar/hotels/dayfbhw-homewood-suites-dayton-fairborn-wright-patterson/,,Homewood Suites by Hilton,Q5890701
dayfnhx-hampton-dayton-fairborn-wright-patterson-afb,hilton,Hampton Inn Dayton Fairborn Wright Patterson AFB,,,OH,,US,+1 937-429-5505,https://www.hilton.com/ar/hotels/dayfnhx-hampton-dayton-fairborn-wright-patterson-afb/,,Hampton by Hilton,Q5646230
33445,h_r_block,H&R Block,,Fairborn,OH,,US,+1 937-878-7080,https://www.hrblock.com/local-tax-offices/ohio/fairborn/1195-e-dayton-yellow-spgs-rd/33445/,,H&R Block,Q5627799
https://office.jacksonhewitt.com/#27577055,jackson_hewitt,Jackson Hewitt,,Fairborn,OH,,US,+1 937-878-8882,https://office.jacksonhewitt.com/tax-preparation-services-locations/en/oh/fairborn/13-w-dayton-yellow-springs-road/17158,Mo-Fr 09:00-20:00; Sa 10:00-17:00; Su 12:00-17:00,Jackson Hewitt,Q6117132
https://locations.kfc.com/#11248843,kfc,Chicken Nuggets Near Fairborn,,Fairborn,OH,,US,,https://locations.kfc.com/oh/fairborn/440-n-broad-st/chickennugget,Mo-Su 10:30-23:00,KFC,Q524757
204,kohls_us,Kohl's,,Beavercreek,OH,,US,+1 937-320-0888,https://www.kohls.com/stores/oh/beavercreek-204.shtml,Mo-Sa 09:00-22:00; Su 09:00-21:00,Kohl's,Q967265
158210,marathon_petroleum_us,Kauffman Marathon,,Fairborn,OH,,US,7777777777,,,Marathon,Q458363
160195,marathon_petroleum_us,FAIRBORN KK MULTANI,,Fairborn,OH,,US,+1 937-878-2061,,,Marathon,Q458363
156657,marathon_petroleum_us,FAIRBORN MARATHON,,FAIRBORN,OH,,US,+1 937-320-1791,,,Marathon,Q458363
3369,menards,FAIRBORN,"1277 E DAYTON YLW SPGS RD, FAIRBORN, OH 45324",FAIRBORN,OH,,US,,https://www.menards.com/main/storeDetails.html?store=3369,,Menards,Q1639897
https://www.mercy.com/#bd8e4879-ff57-4253-8cfd-19c7950ce07d,mercy_health_us,Mercy Health â€” Dayton Springfield Emergency Center,,Fairborn,OH,,US,+1 937-523-8780,https://www.mercy.com/locations/emergency-room/springfield/mercy-health-dayton-springfield-emergency-center,24/7,Mercy Health,Q5053169
4097,mightyflame,SHAKTI PETRO GROUP-SHELL,,Fairborn,OH,,US,+1 937-318-5860,,,Mighty Flame,
1573,mightyflame,FAIRBORN SUNOCO,,FAIRBORN,OH,,US,+1 937-873-2164,,,Mighty Flame,
4098,mightyflame,SHAKTI PETRO GROUP-VALERO,,Fairborn,OH,,US,+1 937-318-5592,,,Mighty Flame,
https://locations.oreillyauto.com/oh/fairborn/check-engine-light-testing-6073.html,oreilly,Your Fairborn O'Reilly Auto Parts Store,,Fairborn,OH,,US,+1 937-200-5050,https://locations.oreillyauto.com/oh/fairborn/check-engine-light-testing-6073.html,Mo-Sa 07:30-22:00; Su 09:00-21:00,O'Reilly Auto Parts,Q7071951
https://locations.oreillyauto.com/oh/fairborn/wiper-installation-6073.html,oreilly,Your Fairborn O'Reilly Auto Parts Store,,Fairborn,OH,,US,+1 937-200-5050,https://locations.oreillyauto.com/oh/fairborn/wiper-installation-6073.html,Mo-Sa 07:30-22:00; Su 09:00-21:00,O'Reilly Auto Parts,Q7071951
https://locations.oreillyauto.com/oh/fairborn/battery-testing-6073.html,oreilly,Your Fairborn O'Reilly Auto Parts Store,,Fairborn,OH,,US,+1 937-200-5050,https://locations.oreillyauto.com/oh/fairborn/battery-testing-6073.html,Mo-Sa 07:30-22:00; Su 09:00-21:00,O'Reilly Auto Parts,Q7071951
https://locations.oreillyauto.com/oh/fairborn/autopartes-6073.html,oreilly,O'Reilly Auto Parts,,Fairborn,OH,,US,+1 937-200-5050,https://locations.oreillyauto.com/oh/fairborn/autopartes-6073.html,Mo-Sa 07:30-22:00; Su 09:00-21:00,O'Reilly Auto Parts,Q7071951
https://locations.oreillyauto.com/oh/fairborn/check-engine-light-testing-5785.html,oreilly,Your Fairborn O'Reilly Auto Parts Store,,Fairborn,OH,,US,+1 937-412-0061,https://locations.oreillyauto.com/oh/fairborn/check-engine-light-testing-5785.html,Mo-Sa 07:30-22:00; Su 09:00-21:00,O'Reilly Auto Parts,Q7071951
https://locations.oreillyauto.com/oh/fairborn/wiper-installation-5785.html,oreilly,Your Fairborn O'Reilly Auto Parts Store,,Fairborn,OH,,US,+1 937-412-0061,https://locations.oreillyauto.com/oh/fairborn/wiper-installation-5785.html,Mo-Sa 07:30-22:00; Su 09:00-21:00,O'Reilly Auto Parts,Q7071951
https://locations.oreillyauto.com/oh/fairborn/battery-testing-5785.html,oreilly,Your Fairborn O'Reilly Auto Parts Store,,Fairborn,OH,,US,+1 937-412-0061,https://locations.oreillyauto.com/oh/fairborn/battery-testing-5785.html,Mo-Sa 07:30-22:00; Su 09:00-21:00,O'Reilly Auto Parts,Q7071951
https://locations.oreillyauto.com/oh/fairborn/autopartes-5785.html,oreilly,Tu tienda O'Reilly Auto Parts en Fairborn,,Fairborn,OH,,US,+1 937-412-0061,https://locations.oreillyauto.com/oh/fairborn/autopartes-5785.html,Mo-Sa 07:30-22:00; Su 09:00-21:00,O'Reilly Auto Parts,Q7071951
https://locations.papajohns.com/#10693571,papa_johns,Papa John's,,Fairborn,OH,,US,+1 937-879-7272,https://locations.papajohns.com/united-states/oh/45324/fairborn/44-s-central-ave,Mo-Th 10:00-00:30; Fr-Sa 10:00-01:30; Su 11:00-23:30,Papa John's Pizza,Q2759586
oh_fairborn_1272-kauffman-ave,pizza_hut_us,1272 Kauffman Ave,,Fairborn,OH,,US,+1 937-878-7585,https://locations.pizzahut.com/oh/fairborn/1272-kauffman-ave,,Pizza Hut,Q191615
3526,rentacenter,Rent-A-Center,,Fairborn,OH,,US,+1 937-754-1775,https://locations.rentacenter.com/ohio/fairborn/33-s-central-ave/,Mo-Sa 10:00-18:00,Rent-A-Center,Q7313497
423,shoe_carnival_us,Shoe Carnival,,Beavercreek,OH,,US,+1 937-429-0358,https://stores.shoecarnival.com/oh/beavercreek/shoe-store-beavercreek-oh-423.html,Mo-Sa 10:00-21:00; Su 11:00-19:00,Shoe Carnival,Q7500007
199,skyline_chili,Skyline Chili,1223 Dayton-Yellow Springs Road,Fairborn,OH,,US,+1 937-879-7125,https://locations.skylinechili.com/skyline-chili-ec22560d6dd6,Mo-Sa 10:30-22:00; Su 11:00-22:00,Skyline Chili,Q151224
205,skyline_chili,Skyline Chili,2805 Centre Drive,Beavercreek,OH,,US,+1 937-426-3824,https://locations.skylinechili.com/skyline-chili-95db99201fcb,Mo-Su 10:30-21:00,Skyline Chili,Q151224
269,steak_n_shake,Steak n Shake,,Fairborn,OH,,US,+1 937-320-0621,https://www.steaknshake.com/locations/oh-fairborn-center-drive/,,Steak N Shake,Q7605233
https://restaurants.subway.com/#14905167,subway,Subway Bp C-Store,,Fairborn Greene,OH,,US,+1 937-879-7507,https://restaurants.subway.com/united-states/oh/fairborn/1040-e-dayton-yellow-springs,Mo-Sa 07:00-22:00; Su 09:00-21:00,Subway,Q244457
https://restaurants.subway.com/#14914897,subway,Subway Shoppess On Broad,,Fairborn Greene,OH,,US,+1 937-879-1202,https://restaurants.subway.com/united-states/oh/fairborn/316-n-broad-st,Mo-Su 08:00-21:00,Subway,Q244457
https://restaurants.subway.com/#14916423,subway,Subway,,Fairborn Greene,OH,,US,+1 937-879-7072,https://restaurants.subway.com/united-states/oh/fairborn/1210-kauffman-ave,Mo-Su 09:00-22:00,Subway,Q244457
0319210100,sunoco_us,Sunoco,,FAIRBORN,OH,,US,+1 937-604-0012,,Mo-Sa 06:00-23:00; Su 07:00-23:00,Sunoco,Q1423218
0204180400,sunoco_us,Sunoco,,FAIRBORN,OH,,US,+1 937-879-2759,,24/7,Sunoco,Q1423218
https://locations.tacobell.com/#6143981,taco_bell,Taco Bell,,Fairborn,OH,,US,+1 937-879-7690,https://locations.tacobell.com/oh/fairborn/360-north-broad-street.html,Mo-Sa 08:00-02:00; Su 08:00-24:00,Taco Bell,Q752941
https://locations.tacobell.com/#6144696,taco_bell,Taco Bell,,Fairborn,OH,,US,+1 937-426-7808,https://locations.tacobell.com/oh/fairborn/2674-colonel-glenn-hwy.html,Mo-We 07:00-02:00; Th-Sa 07:00-03:00; Su 07:00-02:00,Taco Bell,Q752941
https://locations.tacobell.com/#6146630,taco_bell,Taco Bell,,Fairborn,OH,,US,+1 937-878-1028,https://locations.tacobell.com/oh/fairborn/1280-e--dayton-yellow-springs-road.html,Mo-Th 07:00-02:00; Fr-Sa 07:00-03:00; Su 07:00-02:00,Taco Bell,Q752941
08113,tjx,Beavercreek,2850 F Centre Drive,Beavercreek,OH,,US,+1 937-426-1509,,Mo-Sa 09:30-21:30; Su 10:00-20:00,TJ Maxx,Q10860683
2076,united_dairy_farmers_us,United Dairy Farmers,7910 Dayton Road,Fairborn,OH,,US,+1 937-864-0461,,,United Dairy Farmers,Q7887677
3844,upsstore,Fairborn,1166 E Dayton-Yellow Springs Rd,Fairborn,OH,,US,+1 937-754-9999,https://locations.theupsstore.com/oh/fairborn/1166-e-dayton-yellow-springs-rd,,UPS Store,Q7771029
fairborn,usavingsbank,Fairborn,,Fairborn,OH,,US,+1 937-431-3663,https://usavingsbank.com/contact/find-a-branch-atm/fairborn/,Mo-Th 09:00-17:00; Fr 09:00-18:00; Sa 09:00-13:00,Union Savings Bank,Q69206498
1362956,usps,FAIRBORN,,FAIRBORN,OH,,US,+1 937-878-4647,,Mo-Fr 08:30-17:00; Sa 08:30-12:00,United States Postal Service,Q668687
4532400063,usps_collection_boxes,USPS COLLECTION BOX - BLUE BOX,2030 VILLAGE DR,FAIRBORN,OH,,US,,,,United States Postal Service,Q668687
4532400032,usps_collection_boxes,USPS COLLECTION BOX - BLUE BOX,2646 COLONEL GLENN HWY,FAIRBORN,OH,,US,,,,United States Postal Service,Q668687
4532400045,usps_collection_boxes,USPS COLLECTION BOX - BLUE BOX,2145 ROCKDELL DR,FAIRBORN,OH,,US,,,,United States Postal Service,Q668687
4532400014,usps_collection_boxes,USPS COLLECTION BOX - BLUE BOX,1 E MAIN ST,FAIRBORN,OH,,US,,,,United States Postal Service,Q668687
4532400052,usps_collection_boxes,USPS COLLECTION BOX - BLUE BOX,67 W HEBBLE AVE,FAIRBORN,OH,,US,,,,United States Postal Service,Q668687
4532400054,usps_collection_boxes,USPS COLLECTION BOX - PO LOBBY,67 W HEBBLE AVE,FAIRBORN,OH,,US,,,,United States Postal Service,Q668687
4532400068,usps_collection_boxes,USPS COLLECTION BOX - PO LOBBY,67 W HEBBLE AVE,FAIRBORN,OH,,US,,,,United States Postal Service,Q668687
4532400070,usps_collection_boxes,USPS COLLECTION BOX - APC,67 W HEBBLE AVE,FAIRBORN,OH,,US,,,,United States Postal Service,Q668687
4532400080,usps_collection_boxes,USPS COLLECTION BOX - PO LOBBY,67 W HEBBLE AVE,FAIRBORN,OH,,US,,,,United States Postal Service,Q668687
4532400031,usps_collection_boxes,USPS COLLECTION BOX - BLUE BOX,1343 NORTHGATE BLVD,FAIRBORN,OH,,US,,,,United States Postal Service,Q668687
,visa,,,FAIRBORN,OH,,US,,,,,
,visa,,,FAIRBORN,OH,,US,,,,,
,visa,,,FAIRBORN,OH,,US,,,,,
,visa,,,FAIRBORN,OH,,US,,,,,
,visa,,,FAIRBORN,OH,,US,,,,,
,visa,,,FAIRBORN,OH,,US,,,,,
,visa,,,FAIRBORN,OH,,US,,,,,
,visa,,,FAIRBORN,OH,,US,,,,,
,visa,,,FAIRBORN,OH,,US,,,,,
,visa,,,FAIRBORN,OH,,US,,,,,
,visa,,,FAIRBORN,OH,,US,,,,,
,visa,,,FAIRBORN,OH,,US,,,,,
,visa,,,FAIRBORN,OH,,US,,,,,
,visa,,,FAIRBORN,OH,,US,,,,,
,visa,,,FAIRBORN,OH,,US,,,,,
,visa,,,FAIRBORN,OH,,US,,,,,
,visa,,,FAIRBORN,OH,,US,,,,,
,visa,,,FAIRBORN,OH,,US,,,,,
,visa,,,FAIRBORN,OH,,US,,,,,
,visa,,,FAIRBORN,OH,,US,,,,,
,visa,,,FAIRBORN,OH,,US,,,,,
,visa,,,FAIRBORN,OH,,US,,,,,
,visa,,,FAIRBORN,OH,,US,,,,,
,visa,,,FAIRBORN,OH,,US,,,,,
,visa,,,FAIRBORN,OH,,US,,,,,
,visa,,,FAIRBORN,OH,,US,,,,,
,visa,,,FAIRBORN,OH,,US,,,,,
,visa,,,FAIRBORN,OH,,US,,,,,
,visa,,,FAIRBORN,OH,,US,,,,,
,visa,,,FARIBORN,OH,,US,,,,,
,visa,,,FARIBORN,OH,,US,,,,,
,visa,,,FAIRBORN,OH,,US,,,,,
,visa,,,FAIRBORN,OH,,US,,,,,
,visa,,,FAIRBORN,OH,,US,,,,,
,visa,,,FAIRBORN,OH,,US,,,,,
,visa,,,FAIRBORN,OH,,US,,,,,
,visa,,,FAIRBORN,OH,,US,,,,,
,visa,,,FAIRBORN,OH,,US,,,,,
,visa,,,FAIRBORN,OH,,US,,,,,
,visa,,,FAIRBORN,OH,,US,,,,,
,visa,,,DAYTON,OH,,US,,,,,
,visa,,,FAIRBORN,OH,,US,,,,,
,visa,,,FAIRBORN,OH,,US,,,,,
,visa,,,FAIRBORN,OH,,US,,,,,
,visa,,,FAIRBORN,OH,,US,,,,,
,visa,,,FAIRBORN,OH,,US,,,,,
,visa,,,FAIRBORN,OH,,US,,,,,
,visa,,,FAIRBORN,OH,,US,,,,,
,visa,,,FAIRBORN,OH,,US,,,,,
,visa,,,FAIRBORN,OH,,US,,,,,
,visa,,,FAIRBORN,OH,,US,,,,,
,visa,,,FAIRBORN,OH,,US,,,,,
,visa,,,FAIRBORN,OH,,US,,,,,
,visa,,,FAIRBORN,OH,,US,,,,,
,visa,,,FAIRBORN,OH,,US,,,,,
,visa,,,FAIRBORN,OH,,US,,,,,
,visa,,,FAIRBORN,OH,,US,,,,,
,visa,,,FAIRBORN,OH,,US,,,,,
,visa,,,FAIRBORN,OH,,US,,,,,
,visa,,,FAIRBORN,OH,,US,,,,,
,visa,,,FAIRBORN,OH,,US,,,,,
,visa,,,FAIRBORN,OH,,US,,,,,
,visa,,,FAIBORN,OH,,US,,,,,
,visa,,,DAYTON,OH,,US,,,,,
,visa,,,FAIRBORN,OH,,US,,,,,
,visa,,,BEAVERCREEK,OH,,US,,,,,
,visa,,,BEAVERCREEK,OH,,US,,,,,
,visa,,,FAIRBORN,OH,,US,,,,,
,visa,,,FAIRBORN,OH,,US,,,,,
,visa,,,FAIRBORN,OH,,US,,,,,
,visa,,,DAYTON,OH,,US,,,,,
,visa,,,FAIRBORN,OH,,US,,,,,
,visa,,,FAIRBORN,OH,,US,,,,,
,visa,,,FAIRBORN,OH,,US,,,,,
,visa,,,FAIRBORN,OH,,US,,,,,
,visa,,,FAIRBORN,OH,,US,,,,,
,visa,,,BEAVERCREEK,OH,,US,,,,,
,visa,,,FAIRBORN,OH,,US,,,,,
,visa,,,BEAVERCREEK,OH,,US,,,,,
,visa,,,FAIRBORN,OH,,US,,,,,
,visa,,,BEAVERCREEK,OH,,US,,,,,
1167,waffle_house_us,Waffle House #1167,,FAIRBORN,OH,,US,+1 937-431-1167,https://locations.wafflehouse.com/fairborn-oh-1167,24/7,Waffle House,Q1701206
1733,waffle_house_us,Waffle House #1733,,FAIRBORN,OH,,US,+1 937-318-2514,https://locations.wafflehouse.com/fairborn-oh-1733,24/7,Waffle House,Q1701206
https://www.walgreens.com/locator/walgreens-183+e+dayton+yellow+springs+rd-fairborn-oh-45324/id=6990,walgreens,Walgreens,,Fairborn,OH,,US,+1 937-878-2889,https://www.walgreens.com/locator/walgreens-183+e+dayton+yellow+springs+rd-fairborn-oh-45324/id=6990,Mo-Su 08:00-21:00,Walgreens,Q1591889
https://locations.wendys.com/#9252264,wendys,"Wendy's N Broad St in Fairborn, OH",,Fairborn,OH,,US,+1 937-412-0100,https://locations.wendys.com/united-states/oh/fairborn/393-north-broad-street,"Mo-Su 06:00-10:30,06:00-22:00",Wendy's,Q550258
https://locations.wendys.com/#9252263,wendys,"Wendy's Colonel Glenn Hwy in Fairborn, OH",,Fairborn,OH,,US,+1 937-458-3880,https://locations.wendys.com/united-states/oh/fairborn/3084-colonel-glenn-hwy,"Mo-Su 06:00-10:30,06:00-24:00",Wendy's,Q550258
https://locations.wendys.com/#9252262,wendys,"Wendy's Yellow Springs in Fairborn, OH",,Fairborn,OH,,US,+1 937-412-0057,https://locations.wendys.com/united-states/oh/fairborn/1235-east-dayton-yellow-springs-rd,"Mo-Su 06:00-10:30,07:00-24:00",Wendy's,Q550258
ddce139cacc402531da32fb397a5885a,western_union,ADVANCE AMERICA #05902,,Fairborn,OH,,US,+1 937-879-0791,https://location.westernunion.com/us/oh/fairborn/ddce139cacc402531da32fb397a5885a,Mo-Th 10:00-18:00; Fr 09:00-18:00; Sa 09:00-13:00,Western Union,Q861042
