Ref,Spider,Name,Address,City,State,Zipcode,Country,Phone,Website,Hours,Brand,WikiData
Ford38822INDen,ford,"Fortune Ford, Hyderabad",,Hyderabad,,,IN,+91 98488 31000,,,Ford,Q44294
45705331,moneygram,M. MOHANLAL JAIN JEWELLERS,,HYDERABAD,,,IN,+91 40 6673 6430,,Mo-Su 06:00-23:00,MoneyGram,Q1944412
72320459,moneygram,K B R TOURS TRAVELS AND MOBILES - HYDERA,,HYDERABAD,,,IN,+91 99498 24761,,Mo-Su 01:00-24:00,MoneyGram,Q1944412
73260314,moneygram,MUTHOOT FINANCE LTD - #1293 - HYDERABAD,,HYDERABAD,,,IN,+91 40 2765 5931,,Mo-Su 09:00-19:00,MoneyGram,Q1944412
73261999,moneygram,MUTHOOT FINANCE LTD - #1478 - HYDERABAD,,HYDERABAD,,,IN,+91 40 2760 6020,,Mo-Su 09:00-19:00,MoneyGram,Q1944412
73265047,moneygram,MUTHOOT FINANCE LTD - #1804 - HYDERABAD,,HYDERABAD,,,IN,+91 40 2760 6030,,Mo-Su 09:00-19:00,MoneyGram,Q1944412
73254016,moneygram,MUTHOOT FINANCE LTD - #537 - HYDERABAD -,,HYDERABAD,,,IN,+91 40 2765 4889,,Mo-Su 09:00-19:00,MoneyGram,Q1944412
73317526,moneygram,MUTHOOT FINCORP LIMITED - #F1739 - ASHOK,,HYDERABAD,,,IN,+91 85682 80172,,Mo-Sa 09:00-17:30; Su 00:00-24:00,MoneyGram,Q1944412
73310125,moneygram,MUTHOOT FINCORP LIMITED - #F833 - RAM NA,,HYDERABAD,,,IN,+91 40 6581 2057,,Mo-Sa 09:00-17:30; Su 00:00-24:00,MoneyGram,Q1944412
73733430,moneygram,RAGHAVENDRA TOURS TRAVELS,,HYDERABAD,,,IN,+91 92475 10918,,Mo-Su 08:00-21:00,MoneyGram,Q1944412
74051438,moneygram,MUTHOOTTU MINI FINANCIERS LTD - JAWAHAR,,JAWAHAR NAGAR,,,IN,+91 40 4221 5477,,Mo-Sa 09:00-17:30; Su 00:00-24:00,MoneyGram,Q1944412
74094123,moneygram,KOSAMATTAM FINANCE LIMITED - #1138 - RAM,,RAMNAGAR CROSS ROAD,,,IN,+91 40 2767 5699,,Mo-Sa 09:00-17:30; Su 00:00-24:00,MoneyGram,Q1944412
43563669,moneygram,MANAPPURAM FINANCE - #3,,HYDERABAD,,,IN,+91 93463 59477,,Mo-Sa 09:30-18:30; Su 00:00-24:00,MoneyGram,Q1944412
65525368,moneygram,MANAPPURAM FINANCE,,HYDERABAD,,,IN,+91 40 3221 0031,,Mo-Sa 10:00-19:00; Su 00:00-24:00,MoneyGram,Q1944412
65623095,moneygram,MANAPPURAM FINANCE,,HYDERABAD,,,IN,+91 40 2677 2065,,Mo-Sa 10:00-19:00; Su 00:00-24:00,MoneyGram,Q1944412
65725757,moneygram,MANAPPURAM FINANCE,,HYDERABAD,,,IN,+91 40 3221 0411,,Mo-Sa 10:00-19:00; Su 00:00-24:00,MoneyGram,Q1944412
66507327,moneygram,MANAPPURAM FINANCE - HYDERABAD,,HYDERABAD,,,IN,+91 40 3100 2937,,Mo-Sa 10:00-19:00; Su 10:00-16:00,MoneyGram,Q1944412
71203470,moneygram,DIKSHA TRAVELS - HYDERABAD - HYDERABAD,,HYDERABAD,,,IN,+91 99630 00920,,Mo-Fr 08:00-20:00; Sa-Su 09:00-13:00,MoneyGram,Q1944412
71204136,moneygram,SIDHARTHA PAWN BROKER AND JEWELLERS - HY,,HYDERABAD,,,IN,+91 89190 62973,,Mo-Fr 08:00-20:00; Sa 09:00-13:00; Su 00:00-24:00,MoneyGram,Q1944412
,visa,,,HYDERABAD,,,IN,,,,,
,visa,,,HYDERABAD,,,IN,,,,,
,visa,,,HYDERABAD,,,IN,,,,,
,visa,,,HYDERABAD,,,IN,,,,,
,visa,,,HYDERABAD,,,IN,,,,,
,visa,,,HYDERABAD,,,IN,,,,,
,visa,,,HYDERABAD,,,IN,,,,,
,visa,,,HYDERABAD,,,IN,,,,,
,visa,,,HYDERABAD,,,IN,,,,,
