Ref,Spider,Name,Address,City,State,Zipcode,Country,Phone,Website,Hours,Brand,WikiData
https://stores.advanceautoparts.com/ky/albany/609-n-cross-st,advance_auto_parts_us,Advance Auto Parts,,Albany,KY,,US,+1 606-387-2085,https://stores.advanceautoparts.com/ky/albany/609-n-cross-st,Mo-Sa 07:30-21:00; Su 09:00-20:00,Advance Auto Parts,Q4686051
193799,bluerhino,Family Dollar #1392,,ALBANY,KY,,US,+1 606-328-3006,,,Blue Rhino,Q65681213
195138,bluerhino,Albany Exxon Food Mart,,Albany,KY,,US,+1 606-387-8700,,,Blue Rhino,Q65681213
194290,bluerhino,Country Mart,,Albany,KY,,US,+1 606-387-8222,,,Blue Rhino,Q65681213
223963,bluerhino,Ferguson's Super City Mart,,Albany,KY,,US,+1 606-387-8685,,,Blue Rhino,Q65681213
219747,bluerhino,Shell Quick Mart,,Albany,KY,,US,+1 606-387-7080,,,Blue Rhino,Q65681213
219630,bluerhino,Potters Ace Hardware #18418,,Albany,KY,,US,+1 606-387-5528,,,Blue Rhino,Q65681213
24363,dollar_general,Dollar General,,Albany,KY,,US,+1 502-632-7312,https://www.dollargeneral.com/store-directory/ky/albany/24363,Mo-Su 08:00-22:00,Dollar General,Q145168
16621,dollar_general,Dollar General,,Albany,KY,,US,+1 502-473-9206,https://www.dollargeneral.com/store-directory/ky/albany/16621,Mo-Su 08:00-22:00,Dollar General,Q145168
17606,h_r_block,H&R Block,,Albany,KY,,US,+1 606-387-4997,https://www.hrblock.com/local-tax-offices/kentucky/albany/807-n-cross-st/17606/,,H&R Block,Q5627799
Hometown IGA #17,iga,Hometown IGA #17,"39 Westview Shopping Center, Albany, KY, 42602",Albany,KY,,US,+1 606-387-5117,http://www.myiga.com,,IGA,Q3146662
161564,marathon_petroleum_us,SUPER CITY MART INC,,ALBANY,KY,,US,+1 606-387-8685,,,Marathon,Q458363
ky_albany_805-tennessee-rd,pizza_hut_us,805 Tennessee Rd,,Albany,KY,,US,+1 606-387-9696,https://locations.pizzahut.com/ky/albany/805-tennessee-rd,,Pizza Hut,Q191615
albany-plumbing-and-electric-27998,ppgpaints,ALBANY PLUMBING & ELECTRIC,,"Albany, ",KY,,US,+1 606-387-7392,https://www.ppgpaints.com/store-locator/us/kentucky/albany-paint-stores/albany-plumbing-and-electric-27998,,PPG Paints,Q83891559
https://restaurants.subway.com/#14915343,subway,Subway City Mart,,Albany Clinton,KY,,US,+1 606-387-4737,https://restaurants.subway.com/united-states/ky/albany/407-tennessee-rd,Mo-Fr 07:00-21:00; Sa-Su 08:00-21:00,Subway,Q244457
1352569,usps,ALBANY,,ALBANY,KY,,US,+1 606-387-5951,,Mo-Fr 08:30-16:00; Sa 09:00-12:00,United States Postal Service,Q668687
4260200004,usps_collection_boxes,USPS COLLECTION BOX - BLUE BOX,200 S WASHINGTON ST,ALBANY,KY,,US,,,,United States Postal Service,Q668687
4260200010,usps_collection_boxes,USPS COLLECTION BOX - PO LOBBY,401 N CROSS ST,ALBANY,KY,,US,,,,United States Postal Service,Q668687
4260200000,usps_collection_boxes,USPS COLLECTION BOX - PO LOBBY,401 N CROSS ST,ALBANY,KY,,US,,,,United States Postal Service,Q668687
4260200001,usps_collection_boxes,USPS COLLECTION BOX - BLUE BOX,401 N CROSS ST,ALBANY,KY,,US,,,,United States Postal Service,Q668687
4260200008,usps_collection_boxes,USPS COLLECTION BOX - PO LOBBY,401 N CROSS ST,ALBANY,KY,,US,,,,United States Postal Service,Q668687
4260200003,usps_collection_boxes,USPS COLLECTION BOX - BLUE BOX,120 WESTVIEW SHOPPING CTR,ALBANY,KY,,US,,,,United States Postal Service,Q668687
,visa,,,ALBANY,KY,,US,,,,,
,visa,,,ALBANY,KY,,US,,,,,
,visa,,,ALBANY,KY,,US,,,,,
,visa,,,ALBANY,KY,,US,,,,,
,visa,,,ALBANY,KY,,US,,,,,
,visa,,,ALBANY,KY,,US,,,,,
,visa,,,ALBANY,KY,,US,,,,,
,visa,,,ALBANY,KY,,US,,,,,
,visa,,,ALBANY,KY,,US,,,,,
,visa,,,ALBANY,KY,,US,,,,,
,visa,,,ALBANY,KY,,US,,,,,
,visa,,,ALBANY,KY,,US,,,,,
5cf116fb72242477455ba4c3b9562f2a,western_union,EBEN EZER,,Albany,KY,,US,+1 606-557-1052,https://location.westernunion.com/us/ky/albany/5cf116fb72242477455ba4c3b9562f2a,Mo-Su 05:00-23:00,Western Union,Q861042
5a93382dcefc03e96fa1b993f657ce9e,western_union,DOLLAR GENERAL #24363,,Albany,KY,,US,+1 502-632-7312,https://location.westernunion.com/us/ky/albany/5a93382dcefc03e96fa1b993f657ce9e,Mo-Su 08:00-22:00,Western Union,Q861042
