Ref,Spider,Name,Address,City,State,Zipcode,Country,Phone,Website,Hours,Brand,WikiData
173234,bluerhino,Family Dollar #04156,,Harlem,GA,,US,+1 706-556-1416,,,Blue Rhino,Q65681213
127933,bp,BP,,Harlem,GA,,US,+1 706-556-8600,,24/7,BP,Q152057
24880,dollar_general,Dollar General,,Harlem,GA,,US,+1 573-258-8538,https://www.dollargeneral.com/store-directory/ga/harlem/24880,Mo-Su 08:00-22:00,Dollar General,Q145168
521550,eg_america_us,,,Harlem,GA,,US,+1 706-868-6999,https://www.sprintcstores.com/find-us/generic-store-page/?id=900733,,Sprint,Q123012447
200316979,exxonmobil,THE PUMPKIN CENTER,,HARLEM,GA,,US,+1 912-550-4192,https://www.exxon.com/en/find-station/exxon-harlem-ga-thepumpkincenter-200316979,24/7,Exxon,Q109675651
24156,family_dollar_us,FAMILY DOLLAR #4156,,Harlem,GA,,US,+1 762-675-6010,https://www.familydollar.com/locations/ga/harlem/24156/,Mo-Su 08:00-22:00,Family Dollar,Q5433101
https://local.fedex.com/#25234592,fedex,,,Harlem,GA,,US,+1 800-463-3339,https://local.fedex.com/en-us/ga/harlem/agsae,,FedEx,Q459477
1506506,hardees_us,Hardee's,,Harlem,GA,,US,+1 706-449-8330,https://locations.hardees.com/ga/harlem/310-milledgeville-road,,Hardee's,Q1585088
336,huddle_house_us,GA - Harlem,,Harlem,GA,,US,+1 706-556-0058,https://www.huddlehouse.com/locations/ga/harlem/175-east-milledgeville-court,Mo-Su 06:00-00:00,Huddle House,Q5928324
11195,h_r_block,H&R Block,,Harlem,GA,,US,+1 706-556-3110,https://www.hrblock.com/local-tax-offices/georgia/harlem/565-w-milledgeville-rd/11195/,,H&R Block,Q5627799
KJ's Market IGA-Harlem #5154,iga,KJ's Market IGA-Harlem #5154,"305 W Milledgeville Road, Harlem, GA, 30814",Harlem,GA,,US,+1 706-424-8735,http://www.igaguy.com,,IGA,Q3146662
159058,marathon_petroleum_us,JET FOOD STORES 9,,Harlem,GA,,US,+1 706-556-9260,,,Marathon,Q458363
ga_harlem_569-a-milledgeville-rd,pizza_hut_us,569-a Milledgeville Rd.,,Harlem,GA,,US,+1 706-556-6555,https://locations.pizzahut.com/ga/harlem/569-a-milledgeville-rd,,Pizza Hut,Q191615
https://restaurants.subway.com/#14896615,subway,Subway,,Harlem Columbia,GA,,US,+1 706-901-5015,https://restaurants.subway.com/united-states/ga/harlem/155-e-milledgeville-road,Mo-Su 09:00-22:00,Subway,Q244457
1436108,usps,HARLEM,,HARLEM,GA,,US,+1 706-556-3101,,Mo-Fr 08:30-16:30; Sa 09:00-12:00,United States Postal Service,Q668687
3081400002,usps_collection_boxes,USPS COLLECTION BOX - BLUE BOX,335 W MILLEDGEVILLE RD,HARLEM,GA,,US,,,,United States Postal Service,Q668687
3081400004,usps_collection_boxes,USPS COLLECTION BOX - PO LOBBY,335 W MILLEDGEVILLE RD,HARLEM,GA,,US,,,,United States Postal Service,Q668687
3081400006,usps_collection_boxes,USPS COLLECTION BOX - PO LOBBY,335 W MILLEDGEVILLE RD,HARLEM,GA,,US,,,,United States Postal Service,Q668687
,visa,,,HEPHZIBAH,GA,,US,,,,,
,visa,,,HARLEM,GA,,US,,,,,
,visa,,,HARLEM,GA,,US,,,,,
,visa,,,HARLEM,GA,,US,,,,,
,visa,,,HARLEM,GA,,US,,,,,
,visa,,,HARLEM,GA,,US,,,,,
,visa,,,HARLEM,GA,,US,,,,,
,visa,,,HARLEM,GA,,US,,,,,
,visa,,,HARLEM,GA,,US,,,,,
,visa,,,HARLEM,GA,,US,,,,,
247b8a8f0f6f08b12fb26929f48d3a8a,western_union,DOLLAR GENERAL #24880,,Harlem,GA,,US,+1 573-258-8538,https://location.westernunion.com/us/ga/harlem/247b8a8f0f6f08b12fb26929f48d3a8a,Mo-Su 08:00-22:00,Western Union,Q861042
