Ref,Spider,Name,Address,City,State,Zipcode,Country,Phone,Website,Hours,Brand,WikiData
https://local.pharmacy.albertsons.com/#5672658,albertsons,Albertsons Pharmacy,,Glendive,MT,,US,+1 406-365-5209,https://local.pharmacy.albertsons.com/mt/glendive/307-n-harmon-st.html,Mo-Fr 09:00-19:00; Sa 09:00-17:00; Su 10:00-16:00,Albertsons,Q2831861
https://local.albertsons.com/#5603401,albertsons,Albertsons,,Glendive,MT,,US,+1 406-365-3324,https://local.albertsons.com/mt/glendive/307-n-harmon-st.html,"Mo-Fr 07:00-22:00,09:00-19:00; Sa 07:00-22:00,09:00-17:00; Su 07:00-22:00,10:00-16:00",Albertsons,Q2831861
52852,asics_us,Squad Sports,117 S Kendrick Ave,Glendive,MT,,US,+1 406-377-2393,,,asics,Q327247
178108,bluerhino,Loaf N Jug #710,,Glendive,MT,,US,+1 406-365-6111,,,Blue Rhino,Q65681213
239311,bluerhino,Circle K #2746271,,Glendive,MT,,US,+1 406-365-2221,,,Blue Rhino,Q65681213
193228,bluerhino,Superpumper #58,,Glendive,MT,,US,+1 406-365-4000,,,Blue Rhino,Q65681213
148939,bluerhino,Runnings Supply #30,,Glendive,MT,,US,+1 406-377-8233,,,Blue Rhino,Q65681213
10110,cenex,East End Cenex,,Glendive,MT,,US,+1 406-377-4849,,24/7,Cenex,Q62127191
9483,cenex,Cross Petroleum Crossroads,,Glendive,MT,,US,+1 406-377-2728,,,Cenex,Q62127191
10107,cenex,West Gate Cenex,,Glendive,MT,,US,+1 406-377-7180,,24/7,Cenex,Q62127191
10109,cenex,West Park Cenex,,Glendive,MT,,US,+1 406-377-6282,,24/7,Cenex,Q62127191
10312,chevrolet,HKT BIG SKY MOTORS,,Glendive,MT,,US,+1 406-377-3350,https://www.hktbigskymotors.com,Mo-Fr 08:00-17:30,Chevrolet,Q29570
63980,citi,ATM Loaf N Jug,,Glendive,MT,,US,,,,Citibank,Q857063
https://www.edwardjones.com/us-en/financial-advisor/kayla-rivas,edwardjones,Kayla Rivas,,Glendive,MT,,US,+1 406-377-4493,https://www.edwardjones.com/us-en/financial-advisor/kayla-rivas,Mo-Fr 08:00-16:00,Edward Jones,Q5343830
521082,eg_america_us,Loaf 'N Jug,,Glendive,MT,,US,+1 406-365-6111,https://www.loafnjug.com/find-us/generic-store-page/?id=750710,,Loaf 'N Jug,Q6663398
200320621,exxonmobil,Exxon,,GLENDIVE,MT,,US,,https://www.exxon.com/en/find-station/exxon-glendive-mt-exxon-200320621,Mo-Fr 07:30-20:00; Sa 08:00-20:00; Su 08:00-19:00,Exxon,Q109675651
Motorcraft5395USAEnglish,ford,American Ford,,Montana,MT,,US,+1 406-345-3673,,,Ford,Q44294
25739,h_r_block,H&R Block,,Glendive,MT,,US,+1 406-377-5221,https://www.hrblock.com/local-tax-offices/montana/glendive/1515-w-bell-st/25739/,,H&R Block,Q5627799
75776,little_free_library,A'Lynn Shields #75776 Glendive MT,,Glendive,MT,,US,,,,Little Free Library,Q6650101
121503,little_free_library,Friends of Makoshika #121503 Glendive MT,,Glendive,MT,,US,,,,Little Free Library,Q6650101
146050,little_free_library,Jeni Gabbert #146050 #146050 Glendive MT,,Glendive,MT,,US,,,,Little Free Library,Q6650101
1014,pilot_flyingj,Pilot Licensed Location - Town Pump,,Glendive,MT,,US,+1 406-377-7500,https://locations.pilotflyingj.com/us/mt/glendive/73-highway-16,,Pilot,Q7194412
mt_glendive_1515-w-bell-st,pizza_hut_us,1515 W. Bell St.,,Glendive,MT,,US,+1 406-365-6004,https://locations.pizzahut.com/mt/glendive/1515-w-bell-st,,Pizza Hut,Q191615
https://stations.sinclairoil.com/mt/glendive/11-highway-16,sinclair_us,Sinclair Gas Station,,Glendive,MT,,US,+1 406-377-3901,https://stations.sinclairoil.com/mt/glendive/11-highway-16,24/7,Sinclair,Q1290900
https://restaurants.subway.com/#14903602,subway,Subway,,Glendive Dawson,MT,,US,+1 406-377-8604,https://restaurants.subway.com/united-states/mt/glendive/1221-north-merrill,Mo-Fr 07:00-21:00; Sa-Su 08:00-21:00,Subway,Q244457
1364952,usps,GLENDIVE,,GLENDIVE,MT,,US,+1 406-365-3373,,Mo-Fr 08:00-17:00; Sa 09:00-12:00,United States Postal Service,Q668687
5933000005,usps_collection_boxes,USPS COLLECTION BOX - BLUE BOX,307 HARMON ST,GLENDIVE,MT,,US,,,,United States Postal Service,Q668687
5933000008,usps_collection_boxes,USPS COLLECTION BOX - BLUE BOX,207 W BELL ST,GLENDIVE,MT,,US,,,,United States Postal Service,Q668687
5933000012,usps_collection_boxes,USPS COLLECTION BOX - BLUE BOX,221 N KENDRICK AVE,GLENDIVE,MT,,US,,,,United States Postal Service,Q668687
5933000013,usps_collection_boxes,USPS COLLECTION BOX - PO LOBBY,221 N KENDRICK AVE,GLENDIVE,MT,,US,,,,United States Postal Service,Q668687
5933000007,usps_collection_boxes,USPS COLLECTION BOX - BLUE BOX,221 N KENDRICK AVE,GLENDIVE,MT,,US,,,,United States Postal Service,Q668687
5933000016,usps_collection_boxes,USPS COLLECTION BOX - PO LOBBY,221 N KENDRICK AVE,GLENDIVE,MT,,US,,,,United States Postal Service,Q668687
5933000002,usps_collection_boxes,USPS COLLECTION BOX - BLUE BOX,1320 N MERRILL AVE,GLENDIVE,MT,,US,,,,United States Postal Service,Q668687
A00000250304,verizon_us,Cellular Plus Glendive,,Glendive,MT,,US,+1 406-377-7917,https://www.verizon.com/stores/details/montana/glendive/cellular-plus-glendive-1812022/,Tu-Fr 10:00-18:00; Sa 10:00-16:00,Verizon,Q919641
,visa,,,GLENDIVE,MT,,US,,,,,
,visa,,,GLENDIVE,MT,,US,,,,,
,visa,,,GLENDIVE,MT,,US,,,,,
,visa,,,GLENDIVE,MT,,US,,,,,
,visa,,,GLENDIVE,MT,,US,,,,,
,visa,,,GLENDIVE,MT,,US,,,,,
,visa,,,GLENDIVE,MT,,US,,,,,
,visa,,,GLENDIVE,MT,,US,,,,,
,visa,,,GLENDIVE,MT,,US,,,,,
,visa,,,GLENDIVE,MT,,US,,,,,
,visa,,,GLENDIVE,MT,,US,,,,,
,visa,,,GLENDIVE,MT,,US,,,,,
,visa,,,GLENDIVE,MT,,US,,,,,
,visa,,,GLENDIVE,MT,,US,,,,,
,visa,,,GLENDIVE,MT,,US,,,,,
,visa,,,GLENDIVE,MT,,US,,,,,
,visa,,,GLENDIVE,MT,,US,,,,,
,visa,,,GLENDIVE,MT,,US,,,,,
,visa,,,GLENDIVE,MT,,US,,,,,
,visa,,,GLENDIVE,MT,,US,,,,,
,visa,,,GLENDIVE,MT,,US,,,,,
,visa,,,GLENDIVE,MT,,US,,,,,
,visa,,,GLENDIVE,MT,,US,,,,,
,visa,,,GLENDIVE,MT,,US,,,,,
,visa,,,GLENDIVE,MT,,US,,,,,
,visa,,,GLENDIVE,MT,,US,,,,,
,visa,,,GLENDIVE,MT,,US,,,,,
,visa,,,GLENDIVE,MT,,US,,,,,
,visa,,,GLENDIVE,MT,,US,,,,,
,visa,,,GLENDIVE,MT,,US,,,,,
,visa,,,GLENDIVE,MT,,US,,,,,
,visa,,,GLENDIVE,MT,,US,,,,,
,visa,,,GLENDIVE,MT,,US,,,,,
,visa,,,GLENDIVE,MT,,US,,,,,
,visa,,,GLENDIVE,MT,,US,,,,,
,visa,,,GLENDIVE,MT,,US,,,,,
,visa,,,GLENDIVE,MT,,US,,,,,
,visa,,,GLENDIVE,MT,,US,,,,,
,visa,,,GLENDIVE,MT,,US,,,,,
,visa,,,GLENDIVE,MT,,US,,,,,
,visa,,,GLENDIVE,MT,,US,,,,,
,visa,,,GLENDIVE,MT,,US,,,,,
,visa,,,GLENDIVE,MT,,US,,,,,
02ac9ee141d7a29c359611cbcacd6b7f,western_union,LOAF N JUG #710,,Glendive,MT,,US,+1 406-365-6111,https://location.westernunion.com/us/mt/glendive/02ac9ee141d7a29c359611cbcacd6b7f,Mo-We 05:00-23:00; Th-Su 07:00-23:00,Western Union,Q861042
