Ref,Spider,Name,Address,City,State,Zipcode,Country,Phone,Website,Hours,Brand,WikiData
2090,abc_pl,abc,,Wałbrzych,dolnośląskie,,PL,,,,abc,Q11683985
10083,abc_pl,abc,,Wałbrzych,dolnośląskie,,PL,,,,abc,Q11683985
10078,abc_pl,abc,,Wałbrzych,dolnośląskie,,PL,,,,abc,Q11683985
2094,abc_pl,abc,,Wałbrzych,dolnośląskie,,PL,,,,abc,Q11683985
POP-WAL23,paczkomat_inpost_pl,AFRA-MAR,,Wałbrzych,dolnośląskie,,PL,,https://inpost.pl/paczkomat-walbrzych-pop-wal23-hetmanska-paczkomaty-dolnoslaskie,Mo-Fr 10:00-18:00; Sa 10:00-14:00,Paczkomat,Q110970254
POP-WAL30,paczkomat_inpost_pl,DUŻY BEN,,Wałbrzych,dolnośląskie,,PL,,https://inpost.pl/paczkomat-walbrzych-pop-wal30-hetmanska-paczkomaty-dolnoslaskie,Mo-Sa 10:00-22:00,Paczkomat,Q110970254
POP-WAL34,paczkomat_inpost_pl,PAKERSI SKLEP BALBINA SHOP,,Wałbrzych,dolnośląskie,,PL,,https://inpost.pl/paczkomat-walbrzych-pop-wal34-kasztelanska-paczkomaty-dolnoslaskie,Mo-Fr 10:00-18:00; Sa 11:00-15:00,Paczkomat,Q110970254
WAL02L,paczkomat_inpost_pl,Przy parkingu,,Wałbrzych,dolnośląskie,,PL,,https://inpost.pl/paczkomat-walbrzych-wal02l-palisadowa-paczkomaty-dolnoslaskie,24/7,Paczkomat,Q110970254
WAL03W,paczkomat_inpost_pl,Po prawej stronie od wejścia,,Wałbrzych,dolnośląskie,,PL,,https://inpost.pl/paczkomat-walbrzych-wal03w-aleja-podwale-paczkomaty-dolnoslaskie,24/7,Paczkomat,Q110970254
WAL12M,paczkomat_inpost_pl,Na parkingu Lidla,,Wałbrzych,dolnośląskie,,PL,,https://inpost.pl/paczkomat-walbrzych-wal12m-senatorska-paczkomaty-dolnoslaskie,24/7,Paczkomat,Q110970254
WAL16M,paczkomat_inpost_pl,Po lewej stronie od wejścia.,,Wałbrzych,dolnośląskie,,PL,,https://inpost.pl/paczkomat-walbrzych-wal16m-al-jana-pawla-ii-paczkomaty-dolnoslaskie,24/7,Paczkomat,Q110970254
WAL200,paczkomat_inpost_pl,Stacja paliw AMIC ENERGY,,Wałbrzych,dolnośląskie,,PL,,https://inpost.pl/paczkomat-walbrzych-wal200-wieniawskiego-paczkomaty-dolnoslaskie,24/7,Paczkomat,Q110970254
WAL23M,paczkomat_inpost_pl,Przy sklepie spożywczym,,Wałbrzych,dolnośląskie,,PL,,https://inpost.pl/paczkomat-walbrzych-wal23m-basztowa-paczkomaty-dolnoslaskie,24/7,Paczkomat,Q110970254
WAL27M,paczkomat_inpost_pl,Przy kwiaciarni,,Wałbrzych,dolnośląskie,,PL,,https://inpost.pl/paczkomat-walbrzych-wal27m-kasztelanska-paczkomaty-dolnoslaskie,24/7,Paczkomat,Q110970254
WAL28M,paczkomat_inpost_pl,Przed sklepem Żabka,,Wałbrzych,dolnośląskie,,PL,,https://inpost.pl/paczkomat-walbrzych-wal28m-blankowa-paczkomaty-dolnoslaskie,24/7,Paczkomat,Q110970254
WAL30M,paczkomat_inpost_pl,Obok wejścia,,Wałbrzych,dolnośląskie,,PL,,https://inpost.pl/paczkomat-walbrzych-wal30m-senatorska-paczkomaty-dolnoslaskie,24/7,Paczkomat,Q110970254
WAL35M,paczkomat_inpost_pl,Obok piekarni,,Wałbrzych,dolnośląskie,,PL,,https://inpost.pl/paczkomat-walbrzych-wal35m-forteczna-paczkomaty-dolnoslaskie,24/7,Paczkomat,Q110970254
301682,poczta_polska_pl,AP Wałbrzych,,Wałbrzych,DOLNOŚLĄSKIE,,PL,+48 608 797 149,,,Poczta Polska,Q168833
271797,poczta_polska_pl,UP Wałbrzych 14,,Wałbrzych,DOLNOŚLĄSKIE,,PL,+48 74 840 15 28,,,Poczta Polska,Q168833
301668,poczta_polska_pl,AP Wałbrzych,,Wałbrzych,DOLNOŚLĄSKIE,,PL,+48 795 264 699,,,Poczta Polska,Q168833
314252,poczta_polska_pl,FUP Wałbrzych 14,,Wałbrzych,DOLNOŚLĄSKIE,,PL,+48 74 840 15 38,,,Poczta Polska,Q168833
