Ref,Spider,Name,Address,City,State,Zipcode,Country,Phone,Website,Hours,Brand,WikiData
498526,afcurgentcare,American Family Care Greystone,,Birmingham,AL,,US,+1 205-201-7290,https://www.afcurgentcare.com/greystone/,Mo-Su 08:00-18:00,AFC Urgent Care,Q110552174
https://stores.aldi.us/#8770222,aldi_sud_us,ALDI  4639 Hwy 280,,Birmingham,AL,,US,+1 833-470-7072,https://stores.aldi.us/al/birmingham/4639-hwy-280,Mo-Su 09:00-20:00,ALDI,Q41171672
491fae73-e11d-e611-80c5-005056aa8521,amf_bowling,Bowlero Riverview,,Birmingham,AL,,US,+1 205-991-3900,https://www.bowlero.com/location/bowlero-riverview,,Bowlero,Q17102967
1549,anytime_fitness,Anytime Fitness,,Birmingham,AL,,US,+1 205-957-2525,https://www.anytimefitness.com/gyms/1549/birmingham-al-35242/,,Anytime Fitness,Q4778364
https://stores.ashleyfurniture.com/store/us/alabama/birmingham/9000739026/,ashley_furniture,"Ashley Store Birmingham, AL",,Birmingham,AL,,US,+1 205-791-7222,https://stores.ashleyfurniture.com/store/us/alabama/birmingham/9000739026/,,Ashley Furniture,Q4805437
28540,asics_us,PGA TOUR Superstore,165 Inverness Plaza,Birmingham,AL,,US,+1 205-440-4200,,,asics,Q327247
11831,asics_us,DICK'S Sporting Goods  - Birmingham,5201 US-280,Birmingham,AL,,US,+1 205-981-1320,,Mo-Sa 09:00-21:00; Su 10:00-19:00,asics,Q327247
16546,asics_us,The Trak Shak 280,4700 US-280,Birmingham,AL,,US,+1 205-408-5723,,Mo-Fr 10:00-18:00; Sa 10:00-17:00; Su 13:00-17:00,asics,Q327247
15823,asics_us,Hibbett Sports,5275 US-280,Birmingham,AL,,US,+1 205-991-8646,,,asics,Q327247
https://locations.atipt.com/greystone-lee-branch,ati_physical_therapy,ATI Physical Therapy Birmingham 5207,,Birmingham,AL,,US,+1 205-730-3660,https://locations.atipt.com/greystone-lee-branch,,ATI Physical Therapy,Q50039703
2375,att_us,INVERNESS STORE 73112,,Birmingham,AL,,US,+1 205-980-0273,https://www.att.com/stores/alabama/birmingham/2375,Mo-Sa 09:00-19:00; Su 11:00-18:00,AT&T,Q298594
4975,autozone_us,AutoZone Auto Parts Birmingham,,Birmingham,AL,,US,+1 205-981-5325,https://www.autozone.com/locations/al/birmingham/4991-highway-280.html,Mo-Sa 07:00-21:00; Su 08:00-20:00,AutoZone,Q4826087
565,batteriesplus,Find what you need at Birmingham / Greystone,,Birmingham - Greystone,AL,,US,+1 205-995-0053,https://www.batteriesplus.com/store-locator/al/birmingham-greystone/batteries-plus-565,Mo-Fr 08:00-19:00; Sa 09:00-19:00; Su 10:00-17:00,Batteries Plus Bulbs,Q17005157
620,beef_o_bradys,Brook Highland,,Birmingham,AL,,US,+1 205-637-6661,https://www.beefobradys.com/brookhighland,,Beef 'o' Brady's,Q4879745
https://stores.bestbuy.com/al/birmingham/5201-highway-280-383.html,bestbuy,Best Buy Birmingham,,Birmingham,AL,,US,+1 205-437-8966,https://stores.bestbuy.com/al/birmingham/5201-highway-280-383.html,,Best Buy,Q533415
151255,bluerhino,Walgreens #7306,,Birmingham,AL,,US,+1 205-981-2362,,,Blue Rhino,Q65681213
237005,bluerhino,Circle K #2723817,,Birmingham,AL,,US,+1 205-980-9652,,,Blue Rhino,Q65681213
153503,bluerhino,Walgreens #11651,,Hoover,AL,,US,+1 205-991-1599,,,Blue Rhino,Q65681213
237004,bluerhino,Circle K #2706736,,Birmingham,AL,,US,+1 205-991-9640,,,Blue Rhino,Q65681213
176070,bluerhino,Winn Dixie #0445,,Birmingham,AL,,US,+1 205-991-0230,,,Blue Rhino,Q65681213
64794,bluerhino,Lowe's #1726,,Birmingham,AL,,US,+1 205-981-4100,,,Blue Rhino,Q65681213
11,bluerhino,Walmart #2111 - Supercenter,,Hoover (E),AL,,US,+1 205-980-5156,,,Blue Rhino,Q65681213
151259,bluerhino,Walgreens #7791,,Birmingham,AL,,US,+1 205-437-9467,,,Blue Rhino,Q65681213
179465,bluerhino,Piggly Wiggly Dunnavant #268,,Birmingham,AL,,US,+1 205-918-7120,,,Blue Rhino,Q65681213
197136,bluerhino,Dunnavant Valley Ace Hardware,,Birmingham,AL,,US,+1 205-980-7221,,,Blue Rhino,Q65681213
1314,burlington_us,Burlington,,Birmingham,AL,,US,+1 205-236-2978,https://stores.burlington.com/al/birmingham/1314,Mo-Th 09:00-22:00; Fr-Sa 09:00-23:00; Su 09:00-22:00,Burlington,Q4999220
https://locations.carrabbas.com/#15503054,carrabbasitaliangrill,"Carrabba's Birmingham, AL",,Birmingham,AL,,US,+1 205-980-1016,https://locations.carrabbas.com/alabama/birmingham/4503-riverview-pkwy,Mo-Th 11:00-22:00; Fr-Sa 11:00-23:00; Su 11:00-21:00,Carrabba's Italian Grill,Q5045999
1021038496,chase_us,US 280 Hwy and Kenley Way - New branch,,Birmingham,AL,,US,+1 205-582-6000,https://locator.chase.com/al/birmingham/4651-highway-280,Mo-Fr 09:00-17:00; Sa 09:00-13:00,Chase,Q524629
08805,chevrolet,"EDWARDS CHEVROLET - 280, INC.",,Birmingham,AL,,US,+1 205-980-3325,https://www.280.chevyman.com/,Mo-Fr 09:00-19:00; Sa 09:00-18:00,Chevrolet,Q29570
379248,chevron,Chevron Station #379248,1314 DUNNAVANT VALLEY ROAD,BIRMINGHAM,AL,,US,,,,Chevron,Q319642
al_birmingham_5342-highway-280,chipotle, ,,Birmingham,AL,,US,+1 659-272-0321,https://locations.chipotle.com/al/birmingham/5342-highway-280,,Chipotle,Q465751
al_birmingham_4719-highway-280,chipotle, ,,Birmingham,AL,,US,+1 205-991-4846,https://locations.chipotle.com/al/birmingham/4719-highway-280,,Chipotle,Q465751
https://locations.chuckecheese.com/us/al/birmingham/4647-hwy.-280,chuckecheese,Chuck E. Cheese,,Birmingham,AL,,US,+1 205-980-3266,https://locations.chuckecheese.com/us/al/birmingham/4647-hwy.-280,Mo-Th 11:00-21:00; Fr 11:00-22:00; Sa 10:00-22:00; Su 11:00-21:00,Chuck E. Cheese,Q2438391
86319,citi,ATM Walgreens,,Birmingham,AL,,US,,,,Citibank,Q857063
51715,citi,ATM CVS,,Hoover,AL,,US,,,,Citibank,Q857063
85492,citi,ATM UNITED COMMUNITY BANK 06,,Birmingham,AL,,US,,,,Citibank,Q857063
95596,citi,ATM Winn Dixie,,Hoover,AL,,US,,,,Citibank,Q857063
46900,citi,ATM CVS,,Birmingham,AL,,US,,,,Citibank,Q857063
43010,citi,ATM Circle K,,Birmingham,AL,,US,,,,Citibank,Q857063
91186,citi,ATM Walgreens,,Birmingham,AL,,US,,,,Citibank,Q857063
91310,citi,ATM Walgreens,,Birmingham,AL,,US,,,,Citibank,Q857063
43770,citi,ATM Circle K,,Birmingham,AL,,US,,,,Citibank,Q857063
82645,citi,ATM Target,,Birmingham,AL,,US,,,,Citibank,Q857063
al_birmingham_4608-highway-280,costplus_worldmarket,World Market Birmingham,,Birmingham,AL,,US,+1 205-981-3390,https://stores.worldmarket.com/al/birmingham/4608-highway-280.html,Mo-Sa 10:00-20:00; Su 11:00-18:00,Cost Plus World Market,Q5174750
,credit_union_us,APCO Employees CU,,Hoover,AL,,US,+1 205-547-9400,,Mo-Fr 08:30-04:30,,
,credit_union_us,Avadian CU,,Birmingham,AL,,US,+1 205-437-3696,,Mo-Fr 08:45-05:00; Sa 09:00-12:00,,
,credit_union_us,Legacy CU,,Birmingham,AL,,US,+1 205-930-5000,,Mo-Th 09:00-04:30; Fr 09:00-06:00,,
,credit_union_us,Legacy CU,,Birmingham,AL,,US,+1 205-930-5000,,Mo-Th 09:00-04:30; Fr 09:00-06:00,,
829,culvers_us,"Culver's of Birmingham, AL - Tattersall Blvd",,Hoover,AL,,US,+1 205-829-1380,http://www.culvers.com/restaurants/birmingham-al-tattersall-blvd,Mo-Fr 10:00-22:00; Su 10:00-21:00,Culver's,Q1143589
1394,dickssportinggoods,"DICK'S Sporting Goods Store in Birmingham, AL | 1394",,Birmingham,AL,,US,+1 205-747-3121,https://stores.dickssportinggoods.com/al/birmingham/1394/,Mo-Sa 09:00-21:00; Su 10:00-19:00,Dick's Sporting Goods,Q5272601
5842,dominos_pizza_us,Domino's Pizza,,Birmingham,AL,,US,+1 205-991-0070,https://pizza.dominos.com/alabama/birmingham/4527-valleydale-rd,Mo-Th 10:00-24:00; Fr-Sa 10:00-01:00; Su 10:00-24:00,Domino's,Q839466
5889,dominos_pizza_us,Domino's Pizza,,Birmingham,AL,,US,+1 205-580-1900,https://pizza.dominos.com/alabama/birmingham/8000-liberty-parkway-suite-108,Mo-Th 10:00-24:00; Fr-Sa 10:00-01:00; Su 10:00-24:00,Domino's,Q839466
9407,dominos_pizza_us,Domino's Pizza,,Birmingham,AL,,US,+1 205-408-8100,https://pizza.dominos.com/alabama/birmingham/5285-us-280-suite-105,Mo-Th 10:00-24:00; Fr-Sa 10:00-01:00; Su 10:00-24:00,Domino's,Q839466
353205,dunkin_us,Dunkin',,Birmingham,AL,,US,+1 205-502-7311,https://locations.dunkindonuts.com/en/al/birmingham/400-cahaba-park-cir/353205,Mo-Fr 05:00-20:00; Sa 06:00-19:00; Su 06:00-18:00,Dunkin',Q847743
362770,dunkin_us,Dunkin',,Hoover,AL,,US,+1 205-580-1959,https://locations.dunkindonuts.com/en/al/hoover/5413-us-280/362770,Mo-Fr 05:00-20:00; Sa-Su 06:00-20:00,Dunkin',Q847743
https://www.edwardjones.com/us-en/financial-advisor/taylor-wolfe,edwardjones,Taylor Wolfe,,Birmingham,AL,,US,+1 205-437-2866,https://www.edwardjones.com/us-en/financial-advisor/taylor-wolfe,Mo-Fr 08:00-17:00,Edward Jones,Q5343830
E15510,enterprise,Birmingham Inverness,,Birmingham,AL,,US,+1 205-991-6222,,,Enterprise Rent-A-Car,Q17085454
E155X1,enterprise,Inverness- Parkway,,Birmingham,AL,,US,+1 205-992-7227,,,Enterprise Rent-A-Car,Q17085454
0728,european_wax_center_us,European Wax Center,,Birmingham,AL,,US,+1 205-637-3201,https://locations.waxcenter.com/al/birmingham/birmingham-greystone-0728.html,Mo-Fr 09:00-21:00; Sa 10:00-18:00; Su 12:00-18:00,European Wax Center,Q5413426
501784,extra_space_storage,Birmingham Self Storage at 3050 Bowling Dr,,Birmingham,AL,,US,+1 205-995-2223,https://www.extraspace.com/storage/facilities/us/alabama/birmingham/501784/,Mo-Fr 09:30-18:00; Sa 09:00-17:30,Extra Space Storage,Q5422162
200319784,exxonmobil,VALLEYDALE COOSA MART,,BIRMINGHAM,AL,,US,+1 205-408-8355,https://www.exxon.com/en/find-station/exxon-birmingham-al-valleydalecoosamart-200319784,Mo-Fr 05:00-23:00; Sa 06:00-23:00; Su 07:00-22:00,Exxon,Q109675651
799860,firestone_auto_care,Firestone Complete Auto Care,,Hoover,AL,,US,+1 205-208-8643,https://local.firestonecompleteautocare.com/alabama/hoover/6606-tattersall-ln/,,Firestone,Q420837
12335,firestone_auto_care,Firestone Complete Auto Care,,Birmingham,AL,,US,+1 205-238-6327,https://local.firestonecompleteautocare.com/alabama/birmingham/4619-us-280/,,Firestone,Q420837
https://locations.fivebelow.com/al/birmingham/5267-us-280,five_below,Five Below Brook Highland Plaza,,Birmingham,AL,,US,,https://locations.fivebelow.com/al/birmingham/5267-us-280,Mo-Sa 10:00-20:00; Su 11:00-18:00,Five Below,Q5455836
https://restaurants.fiveguys.com/#34981884,five_guys_us,Five Guys Hwy 280,,Hoover,AL,,US,+1 205-407-4301,https://restaurants.fiveguys.com/5413-us-280,"Mo-Su 11:00-21:30,11:00-22:00",Five Guys,Q1131810
100417,fresenius_kidney_care_us,Fresenius Kidney Care Oak Mountain,,Birmingham,AL,,US,+1 800-881-5101,https://www.freseniuskidneycare.com/dialysis-centers/alabama/100417,Mo-Sa 07:00-17:00,,
5059,gamestop_us,River Ridge,,BIRMINGHAM,AL,,US,+1 205-981-2121,https://www.gamestop.com/search/?store=5059,Mo-Th 12:00-19:00; Fr-Sa 11:00-20:00; Su 12:00-18:00,GameStop,Q202210
https://stores.gnc.com/#24058442,gnc,GNC Brook Highland Plaza,,,AL,,US,+1 205-995-5121,https://stores.gnc.com/all-stores-alabama/birmingham/5287-highway-280-east,Mo-Sa 09:30-19:30; Su 11:00-18:00,GNC,Q4808595
dc2b5a27-aecb-ec11-80fd-00505689ac90,goodwill,Brook Highland,,Birmingham,AL,,US,+1 205-775-0288,https://www.goodwill.org/locator/location/?store=ZGMyYjVhMjctYWVjYi1lYzExLTgwZmQtMDA1MDU2ODlhYzkw&lat=MzMuNDI5NzM=&lng=LTg2LjcwODg0,,Goodwill,Q5583655
35e1d7aa-1769-ea11-80e4-00505689ac90,goodwill,Tattersall Park - ADC,,Hoover,AL,,US,+1 205-438-6010,https://www.goodwill.org/locator/location/?store=MzVlMWQ3YWEtMTc2OS1lYTExLTgwZTQtMDA1MDU2ODlhYzkw&lat=MzMuNDE5NTc=&lng=LTg2LjY2ODg5,,Goodwill,Q5583655
https://salons.greatclips.com/us/al/hoover/5361-hwy-280,greatclips,Great Clips,,Hoover,AL,,US,+1 205-437-9996,https://salons.greatclips.com/us/al/hoover/5361-hwy-280,Mo-Fr 09:00-19:00; Sa 09:00-18:00; Su 10:00-17:00,Great Clips,Q5598967
bhmhwhw-homewood-suites-birmingham-south-inverness,hilton,Homewood Suites by Hilton Birmingham-South/Inverness,,,AL,,US,+1 205-995-9823,https://www.hilton.com/ar/hotels/bhmhwhw-homewood-suites-birmingham-south-inverness/,,Homewood Suites by Hilton,Q5890701
bhmlbhx-hampton-suites-birmingham-280-east-eagle-point,hilton,Hampton Inn & Suites Birmingham/280 East-Eagle Point,,,AL,,US,+1 205-981-0024,https://www.hilton.com/ar/hotels/bhmlbhx-hampton-suites-birmingham-280-east-eagle-point/,,Hampton by Hilton,Q5646230
817,honey_baked,HoneyBaked Ham Holiday Express,,Birmingham,AL,,US,+1 470-231-0435,https://www.honeybaked.com/stores/817,,Honey Baked Ham,Q5893363
1493,h_r_block,H&R Block,,Birmingham,AL,,US,+1 205-995-8639,https://www.hrblock.com/local-tax-offices/alabama/birmingham/850-inverness-corners/1493/,,H&R Block,Q5627799
https://office.jacksonhewitt.com/#27577608,jackson_hewitt,Jackson Hewitt,,Birmingham,AL,,US,+1 205-419-0034,https://office.jacksonhewitt.com/tax-preparation-services-locations/en/al/birmingham/5335-hwy-280-south/52111,Mo-Sa 11:00-19:00; Su 13:00-17:00,Jackson Hewitt,Q6117132
2831-greystone-commercial-blvd,jim_n_nicks,Birmingham / Greystone,,Birmingham,AL,,US,+1 205-991-1306,https://www.jimnnicks.com/locations/al/hoover/2831-greystone-commercial-blvd/,,Jim 'N Nick's,Q122955601
657,kohls_us,Kohl's,,Birmingham,AL,,US,+1 205-980-4770,https://www.kohls.com/stores/al/birmingham-657.shtml,Mo-Sa 09:00-21:00; Su 09:00-20:00,Kohl's,Q967265
156812,marathon_petroleum_us,GREYSTONE MARATHON,,BIRMINGHAM,AL,,US,+1 205-991-2494,,,Marathon,Q458363
https://locations.massageenvy.com/#1773728,massage_envy,Massage Envy Greystone,,Birmingham,AL,,US,+1 205-408-1882,https://locations.massageenvy.com/alabama/birmingham/250-doug-baker-blvd.html,Mo-Fr 09:00-21:00; Sa-Su 10:00-18:00,Massage Envy,Q10327170
17132,mattress_firm_us,Mattress Firm Greystone,,Birmingham,AL,,US,+1 205-995-2697,https://www.mattressfirm.com/en-us/stores/al/birmingham/055019/,,Mattress Firm,Q6791878
https://metrodiner.com/locations/alabama/inverness-birmingham/,metrodiner,Metro Diner – Birmingham - Inverness,,Birmingham,AL,,US,+1 205-719-2563,https://metrodiner.com/locations/alabama/inverness-birmingham/,Mo-Su 07:00-20:00,Metro Diner,Q104870732
https://metrodiner.com/locations/alabama/inverness-birmingham/,metro_diner_us,Metro Diner – Birmingham - Inverness,,Birmingham,AL,,US,+1 205-719-2563,https://metrodiner.com/locations/alabama/inverness-birmingham/,Mo-Su 07:00-20:00,Metro Diner,Q104870732
2889,mightyflame,MAPCO EXPRESS #7549,,BIRMINGHAM,AL,,US,,,,Mighty Flame,
https://locations.moes.com/#119,moes,Moe's Southwest Grill,,Birmingham,AL,,US,+1 205-437-9998,https://locations.moes.com/al/birmingham/270-doug-baker-blvd,Mo-Su 10:30-21:00,Moe's Southwest Grill,Q6889938
1821,orangetheory_fitness,"Inverness, AL",,Birmingham,AL,,US,+1 205-991-9700,,,Orangetheory Fitness,Q25005163
https://locations.oreillyauto.com/al/hoover/wiper-installation-6619.html,oreilly,Your Hoover O'Reilly Auto Parts Store,,Hoover,AL,,US,+1 205-820-9120,https://locations.oreillyauto.com/al/hoover/wiper-installation-6619.html,Mo-Sa 07:00-21:00; Su 08:00-20:00,O'Reilly Auto Parts,Q7071951
https://locations.oreillyauto.com/al/hoover/check-engine-light-testing-6619.html,oreilly,Your Hoover O'Reilly Auto Parts Store,,Hoover,AL,,US,+1 205-820-9120,https://locations.oreillyauto.com/al/hoover/check-engine-light-testing-6619.html,Mo-Sa 07:00-21:00; Su 08:00-20:00,O'Reilly Auto Parts,Q7071951
https://locations.oreillyauto.com/al/hoover/battery-testing-6619.html,oreilly,Your Hoover O'Reilly Auto Parts Store,,Hoover,AL,,US,+1 205-820-9120,https://locations.oreillyauto.com/al/hoover/battery-testing-6619.html,Mo-Sa 07:00-21:00; Su 08:00-20:00,O'Reilly Auto Parts,Q7071951
https://locations.oreillyauto.com/al/hoover/autopartes-6619.html,oreilly,O'Reilly Auto Parts,,Hoover,AL,,US,+1 205-820-9120,https://locations.oreillyauto.com/al/hoover/autopartes-6619.html,Mo-Sa 07:00-21:00; Su 08:00-20:00,O'Reilly Auto Parts,Q7071951
https://locations.outback.com/#15502066,outbacksteakhouse,Outback Steakhouse,,Birmingham,AL,,US,+1 205-991-4418,https://locations.outback.com/alabama/birmingham/5231-highway-280-south,Mo-Th 16:00-21:30; Fr-Sa 11:00-22:00; Su 11:00-21:00,Outback Steakhouse,Q1064893
112962,pandaexpress,US 280 & Resource Center,,Birmingham,AL,,US,+1 205-980-9120,https://www.pandaexpress.com/locations/al/birmingham/101-resource-center-parkway,Mo-Su 10:00-21:30,Panda Express,Q1358690
https://locations.papajohns.com/#10690815,papa_johns,Papa John's,,Birmingham,AL,,US,+1 205-980-7272,https://locations.papajohns.com/united-states/al/35242/birmingham/4629-highway-280-s-a,Mo-Th 10:00-23:00; Fr-Sa 10:00-24:00; Su 10:00-23:00,Papa John's Pizza,Q2759586
1040,party_city,Brook Highland Shopping Center,,Birmingham,AL,,US,+1 205-578-3290,https://stores.partycity.com/us/al/birmingham/party-store-pc1040.html,,Party City,Q7140896
037667,penske,The Narrows Self Storage,,BIRMINGHAM,AL,,US,+1 205-823-2008,https://www.pensketruckrental.com/locations/us/alabama/birmingham/037667/,,Penske,Q81234570
037639,penske,Home Depot #0875,,BIRMINGHAM,AL,,US,+1 205-991-9168,https://www.pensketruckrental.com/locations/us/alabama/birmingham/037639/,,Penske,Q81234570
https://stores.petco.com/#27959393,petco,Petco Birmingham Hwy 280,,Birmingham,AL,,US,+1 205-995-1013,https://stores.petco.com/al/birmingham/pet-supplies-birmingham-al-1835.html,Mo-Sa 09:00-20:00; Su 10:00-19:00,Petco,Q7171798
AL - Birmingham,petparadise,AL - Birmingham,,Birmingham,AL,,US,+1 659-674-3036,https://www.petparadise.com/birmingham.htm,,Pet Paradise,Q122955413
10,piggly_wiggly_us,Piggly Wiggly,,Birmingham,AL,,US,+1 205-918-7120,http://www.pigglywigglybirmingham.com,,Piggly Wiggly,Q3388303
al_birmingham_4500-valleydale-rd,pizza_hut_us,4500 Valleydale Rd,,Birmingham,AL,,US,+1 205-778-1905,https://locations.pizzahut.com/al/birmingham/4500-valleydale-rd,,Pizza Hut,Q191615
al_birmingham_200-inverness-center-drive,pizza_hut_us,200 Inverness Center Drive,,Birmingham,AL,,US,,https://locations.pizzahut.com/al/birmingham/200-inverness-center-drive,,Pizza Hut,Q191615
19264,planet_smoothie_us,Planet Smoothie,,Vestavia,AL,,US,+1 205-502-7222,https://www.planetsmoothie.com/stores/vestavia/19264,,Planet Smoothie,Q7201170
home-depot-0875-14035,ppgpaints,HOME DEPOT 0875,,"Birmingham, ",AL,,US,+1 205-995-9357,https://www.ppgpaints.com/store-locator/us/alabama/birmingham-paint-stores/home-depot-0875-14035,,PPG Paints,Q83891559
95,primrose_schools,Primrose School of Meadowbrook,,Birmingham,AL,,US,+1 205-991-3020,https://www.primroseschools.com/schools/meadowbrook/,,Primrose Schools,Q7243677
217,primrose_schools,Primrose School at Liberty Park,,Vestavia Hills,AL,,US,+1 205-969-8202,https://www.primroseschools.com/schools/liberty-park/,,Primrose Schools,Q7243677
766,pure_barre_us,Birmingham | 280,,Hoover,AL,,US,+1 205-991-5224,https://www.purebarre.com/location/birmingham-280-al,,Pure Barre,Q86707084
8741,regal_nails_us,"Regal Nails, Salon &#038; Spa",5335 Hwy 280 South,Hoover,AL,,US,+1 205-408-0916,,,Regal Nails,Q108918028
https://locations.schlotzskys.com/#2169,schlotzskys,Schlotzsky's,,Shelby County,AL,,US,+1 205-991-0035,https://locations.schlotzskys.com/al/hoover/103-inverness-corners,Mo-Su 10:00-22:00,Schlotzsky's,Q2244796
7276353473385237712,sleep_number_us,Sleep Number,,Birmingham,AL,,US,,https://www.sleepnumber.com/stores/al/birmingham/4618-hwy-280,Mo-Th 10:00-19:00; Fr-Sa 10:00-20:00; Su 11:00-19:00,Sleep Number,Q7447640
36,sleep_outfitters_us,Sleep Outfitters,,Birmingham,AL,,US,+1 205-380-5590,,,Sleep Outfitters,Q120509459
196,sola_salon_studios,Inverness Corners,,Hoover,AL,,US,+1 205-360-0580,https://www.solasalonstudios.com/locations/inverness-corners,,Sola Salon Studios,Q64337426
https://www.sprouts.com/store/al/birmingham/us-hwy-280/,sprouts_farmer_market,Sprouts Farmers Market 482-Birmingham,,Birmingham,AL,,US,+1 205-263-2808,https://www.sprouts.com/store/al/birmingham/us-hwy-280/,Mo-Su 07:00-22:00,Sprouts Farmer Market,Q7581369
https://restaurants.subway.com/#14905820,subway,Subway Prominence Shops,,Vestavia Hills Jefferson,AL,,US,+1 205-298-8048,https://restaurants.subway.com/united-states/al/vestavia-hills/8000-liberty-parkway,Mo-Fr 07:00-21:00; Sa 08:00-21:00; Su 09:00-21:00,Subway,Q244457
https://restaurants.subway.com/#14912550,subway,Subway Rainbow Plaza,,Hoover Shelby,AL,,US,+1 205-991-0000,https://restaurants.subway.com/united-states/al/hoover/2800-greystone-commercial-blvd,Mo-Su 08:30-21:30,Subway,Q244457
https://restaurants.subway.com/#14905716,subway,Subway Wal-Mart #2111,,Birmingham Shelby,AL,,US,+1 205-644-8700,https://restaurants.subway.com/united-states/al/birmingham/5335-old-hwy-280,Mo-Su 08:00-21:00,Subway,Q244457
https://restaurants.subway.com/#14904844,subway,Subway 280 Station,,Birmingham Shelby,AL,,US,+1 205-995-5665,https://restaurants.subway.com/united-states/al/birmingham/424-cahaba-park-cir,Mo-Fr 09:00-22:30; Sa-Su 10:00-22:30,Subway,Q244457
90264,supercuts,Liberty Park Town Center,Swc Liberty Pkwy & Liberty Rd,Birmingham,AL,,US,(0) 0-0,https://www.supercuts.com/checkin/90264,,Supercuts,Q7643239
80357,supercuts,Village At Lee Branch,200 Doug Baker Blvd Ste 500,Birmingham,AL,,US,+1 205-408-9777,https://www.supercuts.com/checkin/80357,Mo-Sa 09:00-18:00,Supercuts,Q7643239
35252,sweetfrog_us,sweetFrog Store 35252,,Birmingham,AL,,US,+1 205-437-3775,https://www.sweetfrog.com/stores/frozen-yogurt-birmingham/35252,Mo-Su 12:00-21:00,sweetFrog,Q16952110
https://locations.tacobell.com/#15053520,taco_bell,Taco Bell,,Birmingham,AL,,US,+1 205-538-0339,https://locations.tacobell.com/al/birmingham/6806-tattersall-way.html,Mo-Th 08:00-01:00; Fr-Sa 08:00-02:00; Su 08:00-01:00,Taco Bell,Q752941
https://locations.tacobell.com/#3917105,taco_bell,Taco Bell,,Birmingham,AL,,US,+1 205-991-5192,https://locations.tacobell.com/al/birmingham/4623-highway-280-s-.html,Mo-Th 07:00-02:00; Fr-Sa 07:00-03:00; Su 07:00-02:00,Taco Bell,Q752941
https://locations.tacobell.com/#47865495,taco_bell,Taco Bell,,Birmingham,AL,,US,+1 659-287-0018,https://locations.tacobell.com/al/birmingham/4525-valleydale-road.html,Mo-Th 07:00-24:00; Fr 07:00-01:00; Sa 08:00-01:00; Su 08:00-24:00,Taco Bell,Q752941
08466,tjx,Birmingham,5025 Highway 280S,Birmingham,AL,,US,+1 205-981-9364,,Mo-Sa 09:00-21:30; Su 10:00-20:00,TJ Maxx,Q10860683
28415,tjx,Birmingham,5215 Highway 280,Birmingham,AL,,US,+1 205-991-6766,,Mo-Sa 09:30-21:30; Su 10:00-20:00,HomeGoods,Q5887941
2SLM,tmobile_us,Hwy 280 & 119,,Birmingham,AL,,US,+1 205-980-8009,https://www.t-mobile.com/store-locator/al/birmingham/hwy-280-119,,T-Mobile,Q3511885
025486,uhaul,Copper Safe Storage,5300 Cahaba Valley Rd,Birmingham,AL,,US,,,,U-Haul,Q7862902
1372479,usps,MEADOWBROOK,,BIRMINGHAM,AL,,US,+1 205-995-0957,,Mo-Fr 08:30-18:00; Sa 09:00-16:00,United States Postal Service,Q668687
3524200036,usps_collection_boxes,USPS COLLECTION BOX - BLUE BOX,4501 OLD CALDWELL MILL RD,BIRMINGHAM,AL,,US,,,,United States Postal Service,Q668687
3524200020,usps_collection_boxes,USPS COLLECTION BOX - BLUE BOX,4500 VALLEYDALE RD,BIRMINGHAM,AL,,US,,,,United States Postal Service,Q668687
3524200008,usps_collection_boxes,USPS COLLECTION BOX - BLUE BOX,115 CAMBRIAN WAY,BIRMINGHAM,AL,,US,,,,United States Postal Service,Q668687
3524200016,usps_collection_boxes,USPS COLLECTION BOX - BLUE BOX,4625 HIGHWAY 280,BIRMINGHAM,AL,,US,,,,United States Postal Service,Q668687
3524200022,usps_collection_boxes,USPS COLLECTION BOX - BLUE BOX,200 CAHABA PARK CIR,BIRMINGHAM,AL,,US,,,,United States Postal Service,Q668687
3524200024,usps_collection_boxes,USPS COLLECTION BOX - BLUE BOX,200 RIVERHILLS BUSINESS PARK,BIRMINGHAM,AL,,US,,,,United States Postal Service,Q668687
3524200009,usps_collection_boxes,USPS COLLECTION BOX - BLUE BOX,165 INVERNESS PLZ,BIRMINGHAM,AL,,US,,,,United States Postal Service,Q668687
3524200012,usps_collection_boxes,USPS COLLECTION BOX - BLUE BOX,3 GREENHILL PKWY,BIRMINGHAM,AL,,US,,,,United States Postal Service,Q668687
3524200021,usps_collection_boxes,USPS COLLECTION BOX - BLUE BOX,1 EAGLE RIDGE DR,BIRMINGHAM,AL,,US,,,,United States Postal Service,Q668687
3524200028,usps_collection_boxes,USPS COLLECTION BOX - BLUE BOX,5259 HIGHWAY 280,BIRMINGHAM,AL,,US,,,,United States Postal Service,Q668687
3524200032,usps_collection_boxes,USPS COLLECTION BOX - PO LOBBY,1900 CORPORATE DR,BIRMINGHAM,AL,,US,,,,United States Postal Service,Q668687
3524200035,usps_collection_boxes,USPS COLLECTION BOX - BLUE BOX,1900 CORPORATE DR,BIRMINGHAM,AL,,US,,,,United States Postal Service,Q668687
3524200040,usps_collection_boxes,USPS COLLECTION BOX - APC,1900 CORPORATE DR,BIRMINGHAM,AL,,US,,,,United States Postal Service,Q668687
3524200046,usps_collection_boxes,USPS COLLECTION BOX - PO LOBBY,1900 CORPORATE DR,BIRMINGHAM,AL,,US,,,,United States Postal Service,Q668687
3524200004,usps_collection_boxes,USPS COLLECTION BOX - BLUE BOX,1900 CORPORATE DR,BIRMINGHAM,AL,,US,,,,United States Postal Service,Q668687
3524200039,usps_collection_boxes,USPS COLLECTION BOX - BLUE BOX,1 MT LAUREL AVE,BIRMINGHAM,AL,,US,,,,United States Postal Service,Q668687
R00000252828,verizon_us,Hwy 280 Birmingham,,Birmingham,AL,,US,+1 205-991-9229,https://www.verizon.com/stores/details/alabama/birmingham/hwy-280-1155614/,Mo-Fr 10:00-19:00; Sa 09:00-18:00; Su 10:00-17:00,Verizon,Q919641
,visa,,,BIRMINGHAM,AL,,US,,,,,
,visa,,,BIRMINGHAM,AL,,US,,,,,
,visa,,,BIRMINGHAM,AL,,US,,,,,
,visa,,,BIRMINGHAM,AL,,US,,,,,
,visa,,,BIRMINGHAM,AL,,US,,,,,
,visa,,,BIRMINGHAM,AL,,US,,,,,
,visa,,,BIRMINGHAM,AL,,US,,,,,
,visa,,,HOOVER,AL,,US,,,,,
,visa,,,BIRMINGHAM,AL,,US,,,,,
,visa,,,BIRMINGHAM,AL,,US,,,,,
,visa,,,BIRMINGHAM,AL,,US,,,,,
,visa,,,BIRMINGHAM,AL,,US,,,,,
,visa,,,BIRMINGHAM,AL,,US,,,,,
,visa,,,BIRMINGHAM,AL,,US,,,,,
,visa,,,HOOVER,AL,,US,,,,,
,visa,,,HOOVER,AL,,US,,,,,
,visa,,,BIRMINGHAM,AL,,US,,,,,
,visa,,,BIRMINGHAM,AL,,US,,,,,
,visa,,,HOOVER,AL,,US,,,,,
,visa,,,BIRMINGHAM,AL,,US,,,,,
,visa,,,BIRMINGHAM,AL,,US,,,,,
,visa,,,BIRMINGHAM,AL,,US,,,,,
,visa,,,BIRMINGHAM,AL,,US,,,,,
,visa,,,BIRMINGHAM,AL,,US,,,,,
,visa,,,BIRMINGHAM,AL,,US,,,,,
,visa,,,BIRMINGHAM,AL,,US,,,,,
,visa,,,BIRMINGHAM,AL,,US,,,,,
,visa,,,BIRMINGHAM,AL,,US,,,,,
,visa,,,BIRMINGHAM,AL,,US,,,,,
,visa,,,BIRMINGHAM,AL,,US,,,,,
,visa,,,BIRMINGHAM,AL,,US,,,,,
,visa,,,BIRMINGHAM,AL,,US,,,,,
,visa,,,BIRMINGHAM,AL,,US,,,,,
,visa,,,BIRMINGHAM ,AL,,US,,,,,
,visa,,,BIRMINGHAM,AL,,US,,,,,
,visa,,,BIRMINGHAM,AL,,US,,,,,
,visa,,,BIRMINGHAM,AL,,US,,,,,
,visa,,,BIRMINGHAM,AL,,US,,,,,
,visa,,,BIRMINGHAM,AL,,US,,,,,
,visa,,,BIRMINGHAM,AL,,US,,,,,
,visa,,,BIRMINGHAM,AL,,US,,,,,
,visa,,,BIRMINGHAM,AL,,US,,,,,
,visa,,,BIRMINGHAM,AL,,US,,,,,
,visa,,,VESTAVIA HILLS,AL,,US,,,,,
,visa,,,BIRMINGHAM,AL,,US,,,,,
,visa,,,BIRMINGHAM,AL,,US,,,,,
,visa,,,BIRMINGHAM,AL,,US,,,,,
,visa,,,BIRMINGHAM,AL,,US,,,,,
,visa,,,BIRMINGHAM,AL,,US,,,,,
,visa,,,BIRMINGHAM,AL,,US,,,,,
,visa,,,BIRMINGHAM,AL,,US,,,,,
,visa,,,BIRMINGHAM,AL,,US,,,,,
,visa,,,BIRMINGHAM,AL,,US,,,,,
https://www.vocellipizza.com/birmingham_al,vocelli_pizza_us,Birmingham / Inverness,,Birmingham,AL,,US,,https://www.vocellipizza.com/birmingham_al,,Vocelli Pizza,Q7939247
https://www.walgreens.com/locator/walgreens-4496+valleydale+rd-birmingham-al-35242/id=7306,walgreens,Walgreens,,Birmingham,AL,,US,+1 205-981-2362,https://www.walgreens.com/locator/walgreens-4496+valleydale+rd-birmingham-al-35242/id=7306,Mo-Fr 07:00-22:00; Sa-Su 08:00-22:00,Walgreens,Q1591889
https://www.walgreens.com/locator/walgreens-4700+highway+280-hoover-al-35242/id=11651,walgreens,Walgreens,,Hoover,AL,,US,+1 205-991-1599,https://www.walgreens.com/locator/walgreens-4700+highway+280-hoover-al-35242/id=11651,Mo-Su 07:00-22:00,Walgreens,Q1591889
https://www.walgreens.com/locator/walgreens-101+doug+baker+blvd-hoover-al-35242/id=7791,walgreens,Walgreens,,Hoover,AL,,US,+1 205-437-9467,https://www.walgreens.com/locator/walgreens-101+doug+baker+blvd-hoover-al-35242/id=7791,Mo-Fr 07:00-22:00; Sa-Su 08:00-22:00,Walgreens,Q1591889
5376__HIGHWAY__280_BIRMINGHAM_AL_35242,wellsfargo,Wells Fargo,5376 HIGHWAY 280,BIRMINGHAM,AL,,US,+1 205-948-1400,https://www.wellsfargo.com/locator/bank/5376__HIGHWAY__280_BIRMINGHAM_AL_35242/,Mo-Fr 09:00-17:00,Wells Fargo,Q744149
https://locations.wendys.com/#9250930,wendys,"Wendy's Hwy 280 in Birmingham, AL",,Birmingham,AL,,US,+1 205-438-6810,https://locations.wendys.com/united-states/al/birmingham/4671-highway-280-east,"Mo-Su 06:30-10:30,06:30-22:00",Wendy's,Q550258
8c947446e42a8a9579b980d9d818d296,western_union,WALMART #002111,,Hoover,AL,,US,+1 205-980-5156,https://location.westernunion.com/us/al/hoover/8c947446e42a8a9579b980d9d818d296,Mo-Sa 08:00-20:00; Su 10:00-18:00,Western Union,Q861042
44e41b490f8a8fb05762da795d6131e3,western_union,PUBLIX #1692,,Vestavia Hills,AL,,US,+1 205-967-5998,https://location.westernunion.com/us/al/vestavia-hills/44e41b490f8a8fb05762da795d6131e3,Mo-Su 07:00-21:00,Western Union,Q861042
626d25dfddfe30326418ecbd442e9e0c,western_union,RACEWAY #6824,,Birmingham,AL,,US,+1 205-995-6601,https://location.westernunion.com/us/al/birmingham/626d25dfddfe30326418ecbd442e9e0c,Mo-Su 06:00-20:00,Western Union,Q861042
https://locations.whataburger.com/al/birmingham/111-resource-center-pkwy.html,whataburger,HWY 280 & Resource Center,111 RESOURCE CENTER PKWY,BIRMINGHAM,AL,,US,,https://locations.whataburger.com/al/birmingham/111-resource-center-pkwy.html,,Whataburger,Q376627
121392,wingstop,Wingstop Birmingham Inverness Corners,830 Inverness Corners,Birmingham,AL,,US,+1 205-848-2221,,,Wingstop,Q8025339
445,winndixie,,500 Inverness Corners,BIRMINGHAM,AL,,US,+1 205-991-0230,https://www.winndixie.com/storedetails/birmingham/al?search=445,,Winn Dixie,Q1264366
greystone-branch-ymca,ymca,Greystone Branch YMCA,5414 Highway 280,Birmingham,AL,,US,+1 205-981-0144,https://www.ymca.org/locations/greystone-branch-ymca,Mo-Th 05:00-21:00; Fr 05:00-20:00; Sa 07:00-18:00; Su 12:00-18:00,YMCA,Q157169
