Ref,Spider,Name,Address,City,State,Zipcode,Country,Phone,Website,Hours,Brand,WikiData
https://local.albertsons.com/#5603398,albertsons,Albertsons,,Glasgow,MT,,US,+1 406-228-8252,https://local.albertsons.com/mt/glasgow/54181-us-hwy-2.html,Mo-Su 07:00-22:00,Albertsons,Q2831861
52851,asics_us,D & G Sports & Western Wear,215 4th St S,Glasgow,MT,,US,+1 406-228-9363,,,asics,Q327247
8694,cenex,Agland Co-op,,Glasgow,MT,,US,+1 406-653-1510,,,Cenex,Q62127191
10655,chevrolet,GLASGOW AUTO SALES LLC,,Glasgow,MT,,US,+1 406-228-9325,https://www.glasgowautosales.com,Mo-Fr 08:00-17:00,Chevrolet,Q29570
67024,citi,ATM OPPORTUNITY BANK OF MONTANA,,Glasgow,MT,,US,,,,Citibank,Q857063
https://www.edwardjones.com/us-en/financial-advisor/arron-franzen,edwardjones,Arron Franzen,,Glasgow,MT,,US,+1 406-228-2428,https://www.edwardjones.com/us-en/financial-advisor/arron-franzen,Mo-Th 08:00-16:00; Fr 08:00-15:00,Edward Jones,Q5343830
Motorcraft5502USAEnglish,ford,"Hi-Line Ford, Inc.",,Montana,MT,,US,+1 406-228-2141,,,Ford,Q44294
26948,h_r_block,H&R Block,,Glasgow,MT,,US,+1 406-228-8311,https://www.hrblock.com/local-tax-offices/montana/glasgow/325-klein-ave/26948/,,H&R Block,Q5627799
58342,little_free_library,At the Corner of First Lutheran Church #58342 Glasgow MT,,Glasgow,MT,,US,,,,Little Free Library,Q6650101
81304,little_free_library,Little Red Library #81304 Glasgow MT,,Glasgow,MT,,US,,,,Little Free Library,Q6650101
143803,little_free_library,Valley County Friends Of The Library #143803 Glasgow MT,,Glasgow,MT,,US,,,,Little Free Library,Q6650101
https://locations.oreillyauto.com/mt/glasgow/wiper-installation-4783.html,oreilly,Your Glasgow O'Reilly Auto Parts Store,,Glasgow,MT,,US,+1 406-228-8230,https://locations.oreillyauto.com/mt/glasgow/wiper-installation-4783.html,Mo-Sa 07:30-20:00; Su 09:00-20:00,O'Reilly Auto Parts,Q7071951
https://locations.oreillyauto.com/mt/glasgow/battery-testing-4783.html,oreilly,Your Glasgow O'Reilly Auto Parts Store,,Glasgow,MT,,US,+1 406-228-8230,https://locations.oreillyauto.com/mt/glasgow/battery-testing-4783.html,Mo-Sa 07:30-20:00; Su 09:00-20:00,O'Reilly Auto Parts,Q7071951
https://locations.oreillyauto.com/mt/glasgow/check-engine-light-testing-4783.html,oreilly,Your Glasgow O'Reilly Auto Parts Store,,Glasgow,MT,,US,+1 406-228-8230,https://locations.oreillyauto.com/mt/glasgow/check-engine-light-testing-4783.html,Mo-Sa 07:30-20:00; Su 09:00-20:00,O'Reilly Auto Parts,Q7071951
https://locations.oreillyauto.com/mt/glasgow/autopartes-4783.html,oreilly,Tu tienda O'Reilly Auto Parts en Glasgow,,Glasgow,MT,,US,+1 406-228-8230,https://locations.oreillyauto.com/mt/glasgow/autopartes-4783.html,Mo-Sa 07:30-20:00; Su 09:00-20:00,O'Reilly Auto Parts,Q7071951
mt_glasgow_619-1st-ave-n,pizza_hut_us,619 1st Ave N,,Glasgow,MT,,US,+1 406-228-2411,https://locations.pizzahut.com/mt/glasgow/619-1st-ave-n,,Pizza Hut,Q191615
https://restaurants.subway.com/#14893784,subway,Subway,,Glasgow Valley,MT,,US,+1 406-228-4052,https://restaurants.subway.com/united-states/mt/glasgow/629-1st-ave-n,Mo-Su 07:30-21:00,Subway,Q244457
16845,true_value_us,All Seasons Home Center,,Glasgow,MT,,US,+1 406-228-8288,http://www.truevalue.com/allseasons,,True Value,Q7847545
1364856,usps,GLASGOW,,GLASGOW,MT,,US,+1 406-228-4342,,Mo-Fr 08:00-16:00; Sa 10:00-12:00,United States Postal Service,Q668687
5923000009,usps_collection_boxes,USPS COLLECTION BOX - PO LOBBY,605 2ND AVE S,GLASGOW,MT,,US,,,,United States Postal Service,Q668687
5923000011,usps_collection_boxes,USPS COLLECTION BOX - PO LOBBY,605 2ND AVE S,GLASGOW,MT,,US,,,,United States Postal Service,Q668687
5923000013,usps_collection_boxes,USPS COLLECTION BOX - PO LOBBY,605 2ND AVE S,GLASGOW,MT,,US,,,,United States Postal Service,Q668687
5923000016,usps_collection_boxes,USPS COLLECTION BOX - PO LOBBY,605 2ND AVE S,GLASGOW,MT,,US,,,,United States Postal Service,Q668687
5923000000,usps_collection_boxes,USPS COLLECTION BOX - BLUE BOX,501 COURT SQ,GLASGOW,MT,,US,,,,United States Postal Service,Q668687
A00000202563,verizon_us,Cellular Plus Glasgow,,Glasgow,MT,,US,+1 406-228-4460,https://www.verizon.com/stores/details/montana/glasgow/cellular-plus-glasgow-1909022/,Tu-Fr 10:00-18:00; Sa 10:00-16:00,Verizon,Q919641
,visa,,,GLASGOW,MT,,US,,,,,
,visa,,,GLASGOW,MT,,US,,,,,
,visa,,,GLASGOW,MT,,US,,,,,
,visa,,,GLASGOW,MT,,US,,,,,
,visa,,,GLASGOW,MT,,US,,,,,
,visa,,,GLASGOW,MT,,US,,,,,
,visa,,,GLASGOW,MT,,US,,,,,
,visa,,,GLASGOW,MT,,US,,,,,
,visa,,,GLASGOW,MT,,US,,,,,
,visa,,,GLASGOW,MT,,US,,,,,
,visa,,,GLASGOW,MT,,US,,,,,
,visa,,,NORTH GLASGOW,MT,,US,,,,,
,visa,,,GLASGOW,MT,,US,,,,,
,visa,,,GLASGOW,MT,,US,,,,,
,visa,,,GLASGOW,MT,,US,,,,,
,visa,,,NORTH GLASGOW,MT,,US,,,,,
,visa,,,GLASGOW,MT,,US,,,,,
,visa,,,GLASGOW,MT,,US,,,,,
,visa,,,GLASGOW,MT,,US,,,,,
,visa,,,GLASGOW,MT,,US,,,,,
623__2ND__AVE__S_GLASGOW_MT_59230,wellsfargo,Wells Fargo,623 2ND AVE S,GLASGOW,MT,,US,+1 406-228-5100,https://www.wellsfargo.com/locator/bank/623__2ND__AVE__S_GLASGOW_MT_59230/,Mo-Fr 09:00-17:00,Wells Fargo,Q744149
