Ref,Spider,Name,Address,City,State,Zipcode,Country,Phone,Website,Hours,Brand,WikiData
https://local.acmemarkets.com/#5602976,albertsons,ACME Markets,,Philadelphia,PA,,US,+1 215-338-8077,https://local.acmemarkets.com/pa/philadelphia/8200-roosevelt-blvd.html,"Mo-Fr 06:00-22:00,09:00-20:00; Sa 06:00-22:00,09:00-17:00; Su 06:00-22:00,09:00-16:00",ACME Markets,Q341975
https://local.pharmacy.acmemarkets.com/#5672355,albertsons,ACME Markets Pharmacy,,Philadelphia,PA,,US,+1 215-338-4967,https://local.pharmacy.acmemarkets.com/pa/philadelphia/8200-roosevelt-blvd.html,Mo-Fr 09:00-20:00; Sa 09:00-17:00; Su 09:00-16:00,ACME Markets,Q341975
https://stores.aldi.us/#4419835,aldi_sud_us,ALDI  7900 Roosevelt Blvd.,,Philadelphia,PA,,US,+1 877-460-7012,https://stores.aldi.us/pa/philadelphia/7900-roosevelt-blvd,"Mo-Su 08:00-20:00,08:30-20:00,09:00-20:00",ALDI,Q41171672
210316,bluerhino,Giant Martins #6562,,Philadelphia,PA,,US,+1 717-561-1285,,,Blue Rhino,Q65681213
132304,bluerhino,Speed Petroleum,,Philadelphia,PA,,US,+1 215-708-1230,,,Blue Rhino,Q65681213
ATM-2175,citizens_us,,,Philadelphia,PA,,US,,,,Citizens,Q5122694
ATM-77,citizens_us,,,Philadelphia,PA,,US,+1 215-673-1076,,24/7,Citizens,Q5122694
,credit_union_us,TruMark Financial CU,,Philadelphia,PA,,US,+1 215-725-9739,,Mo-Fr 08:30-05:00; Sa 09:00-01:00,,
17475,cvs_us,CVS Pharmacy,,Philadelphia,PA,,US,+1 267-350-9481,https://www.cvs.com/store-locator/philadelphia-pa-pharmacies/7400-bustleton-ave-philadelphia-pa-19152/storeid=17475,"Mo-Fr 09:00-13:30,14:00-19:00; Sa 09:00-13:30,14:00-17:00; Su 11:00-13:30,14:00-17:00",CVS Pharmacy,Q2078880
7184,cvs_us,CVS Pharmacy,,Philadelphia,PA,,US,+1 215-342-1091,https://www.cvs.com/store-locator/philadelphia-pa-pharmacies/7720-bustleton-avenue-philadelphia-pa-19152/storeid=7184,Mo-Su 08:00-22:00,CVS Pharmacy,Q2078880
9125,dominos_pizza_us,Domino's Pizza,,Philadelphia,PA,,US,+1 215-722-1330,https://pizza.dominos.com/pennsylvania/philadelphia/7325-castor-ave,Mo-Th 10:30-24:00; Fr-Sa 10:30-01:00; Su 10:30-24:00,Domino's,Q839466
337079,dunkin_us,Dunkin',,Philadelphia,PA,,US,+1 267-621-4806,https://locations.dunkindonuts.com/en/pa/philadelphia/2998-a-welsh-rd/337079,Mo-Sa 05:00-20:00; Su 05:00-19:00,Dunkin',Q847743
304154,dunkin_us,Dunkin',,Philadelphia,PA,,US,+1 215-552-5058,https://locations.dunkindonuts.com/en/pa/philadelphia/7512-bustleton-ave/304154,Mo-We 04:00-23:00; Th 04:00-22:00; Fr 04:00-23:00; Sa 04:30-19:00; Su 04:30-23:00,Dunkin',Q847743
304931,dunkin_us,Dunkin',,Philadelphia,PA,,US,+1 267-621-4809,https://locations.dunkindonuts.com/en/pa/philadelphia/8298-bustleton-ave/304931,Mo-Sa 05:30-18:30; Su 06:00-18:00,Dunkin',Q847743
E11702,enterprise,Philadelphia Roosevelt Blvd.,,Philadelphia,PA,,US,+1 215-331-6000,,,Enterprise Rent-A-Car,Q17085454
E117VF,enterprise,Philadelphia Roosevelt Blvd. Vans,,Philadelphia,PA,,US,+1 215-331-6000,,,Enterprise Rent-A-Car,Q17085454
3285,fresenius_kidney_care_us,Fresenius Kidney Care Nazareth,,Philadelphia,PA,,US,+1 800-881-5101,https://www.freseniuskidneycare.com/dialysis-centers/pennsylvania/3285,Mo-Su 05:00-19:30,,
Bell's Market #20845,iga,Bell's Market #20845,"8330 Bustleton Ave, Philadelphia, PA, 19152",Philadelphia,PA,,US,+1 209-727-5628,http://www.bellsmarket.net,,IGA,Q3146662
https://www.jeffersonhealth.org/locations/smylie-times-urgent-care,jefferson_univ_hosp,Jefferson Smylie Times Urgent Care,,Philadelphia,PA,,US,+1 215-333-0304,https://www.jeffersonhealth.org/locations/smylie-times-urgent-care,,Jefferson University Hospital,Q59676202
https://www.jeffersonhealth.org/locations/einstein-physicians-pennypack,jefferson_univ_hosp,Einstein Physicians Pennypack,,Philadelphia,PA,,US,+1 215-698-9200,https://www.jeffersonhealth.org/locations/einstein-physicians-pennypack,,Jefferson University Hospital,Q59676202
https://www.jeffersonhealth.org/locations/cardiology-smylie-times,jefferson_univ_hosp,Cardiology - Smylie Times,,Philadelphia,PA,,US,+1 215-676-8300,https://www.jeffersonhealth.org/locations/cardiology-smylie-times,,Jefferson University Hospital,Q59676202
0389,mattress_warehouse_us,Mattress Warehouse,,Philadelphia,PA,,US,+1 267-888-5505,https://mattresswarehouse.com/store-locator/mattress-warehouse-of-philadelphia_(great_northeast_plaza)-0389-philadelphia-pa,Mo-Fr 10:00-21:00; Sa 10:00-20:00; Su 11:00-18:00,Mattress Warehouse,Q61995079
128,mightyflame,EZ GAS #2,,PHILADELPHIA,PA,,US,+1 215-722-6100,,,Mighty Flame,
pa_philadelphia_8001-castor-ave,pizza_hut_us,8001 Castor Ave,,Philadelphia,PA,,US,+1 267-845-8501,https://locations.pizzahut.com/pa/philadelphia/8001-castor-ave,,Pizza Hut,Q191615
pa_philadelphia_7400-bustleton-avenue,pizza_hut_us,7400 Bustleton Avenue,,Philadelphia,PA,,US,,https://locations.pizzahut.com/pa/philadelphia/7400-bustleton-avenue,,Pizza Hut,Q191615
https://www.plannedparenthood.org/health-center/pennsylvania/philadelphia/19152/castor-ave-health-center-2512-91460,planned_parenthood,Planned Parenthood,,Philadelphia,PA,,US,,https://www.plannedparenthood.org/health-center/pennsylvania/philadelphia/19152/castor-ave-health-center-2512-91460,,Planned Parenthood,Q2553262
89275,ritasitalianice,Ritaâ€™s of Holme Circle PA,,Philadelphia,PA,,US,+1 215-676-0900,https://www.ritasice.com/location/ritas-of-holme-circle-pa/,,Rita's Italian Ice,Q7336456
04938,rite_aid_us,Rite Aid #04938 Philadelphia,,Philadelphia,PA,,US,+1 215-728-4981,https://locations2.riteaid.com.yext-cdn.com/pa/philadelphia/7972-castor-avenue.html,Mo-Sa 08:00-22:00; Su 09:00-21:00,Rite Aid,Q3433273
0764174900,sunoco_us,Sunoco,,PHILADELPHIA,PA,,US,+1 215-725-0394,,,Sunoco,Q1423218
https://locations.tacobell.com/#12735404,taco_bell,Taco Bell,,Philadelphia,PA,,US,+1 215-904-7430,https://locations.tacobell.com/pa/philadelphia/7500-bustleton-avenue.html,Mo-Th 08:00-02:00; Fr-Sa 08:00-03:00; Su 08:00-02:00,Taco Bell,Q752941
081412,tjx,Philadelphia,7301 Castor Ave,Philadelphia,PA,,US,+1 215-342-1206,,Mo-Sa 09:30-21:30; Su 10:00-20:00,TJ Maxx,Q10860683
1915200088,usps_collection_boxes,USPS COLLECTION BOX - BLUE BOX,8321 ALGON AVE,PHILA,PA,,US,,,,United States Postal Service,Q668687
1915200151,usps_collection_boxes,USPS COLLECTION BOX - BLUE BOX,8130 SUMMERDALE AVE,PHILA,PA,,US,,,,United States Postal Service,Q668687
1915200145,usps_collection_boxes,USPS COLLECTION BOX - BLUE BOX,8341 LANGDON ST,PHILA,PA,,US,,,,United States Postal Service,Q668687
1915200092,usps_collection_boxes,USPS COLLECTION BOX - BLUE BOX,1735 BENSON ST,PHILA,PA,,US,,,,United States Postal Service,Q668687
1915200090,usps_collection_boxes,USPS COLLECTION BOX - BLUE BOX,8150 LORETTO AVE,PHILA,PA,,US,,,,United States Postal Service,Q668687
1915200089,usps_collection_boxes,USPS COLLECTION BOX - BLUE BOX,1601 PLACID ST,PHILA,PA,,US,,,,United States Postal Service,Q668687
1915200114,usps_collection_boxes,USPS COLLECTION BOX - BLUE BOX,8334 BUSTLETON AVE,PHILA,PA,,US,,,,United States Postal Service,Q668687
1915200127,usps_collection_boxes,USPS COLLECTION BOX - BLUE BOX,1999 FOX CHASE RD,PHILA,PA,,US,,,,United States Postal Service,Q668687
1915200129,usps_collection_boxes,USPS COLLECTION BOX - BLUE BOX,7975 CASTOR AVE,PHILA,PA,,US,,,,United States Postal Service,Q668687
1915200120,usps_collection_boxes,USPS COLLECTION BOX - BLUE BOX,8541 BUSTLETON AVE,PHILA,PA,,US,,,,United States Postal Service,Q668687
1915200137,usps_collection_boxes,USPS COLLECTION BOX - BLUE BOX,8020 LARGE ST,PHILA,PA,,US,,,,United States Postal Service,Q668687
1915200155,usps_collection_boxes,USPS COLLECTION BOX - BLUE BOX,1838 CARWITHAN ST,PHILA,PA,,US,,,,United States Postal Service,Q668687
1915200152,usps_collection_boxes,USPS COLLECTION BOX - BLUE BOX,2101 STRAHLE ST,PHILA,PA,,US,,,,United States Postal Service,Q668687
1915200134,usps_collection_boxes,USPS COLLECTION BOX - BLUE BOX,7701 FAIRFIELD ST,PHILA,PA,,US,,,,United States Postal Service,Q668687
1915200109,usps_collection_boxes,USPS COLLECTION BOX - BLUE BOX,7717 BROUS AVE,PHILA,PA,,US,,,,United States Postal Service,Q668687
1915200100,usps_collection_boxes,USPS COLLECTION BOX - BLUE BOX,7635 ROOSEVELT BLVD,PHILA,PA,,US,,,,United States Postal Service,Q668687
1915200123,usps_collection_boxes,USPS COLLECTION BOX - BLUE BOX,7801 CALVERT ST,PHILA,PA,,US,,,,United States Postal Service,Q668687
1915200108,usps_collection_boxes,USPS COLLECTION BOX - BLUE BOX,7801 BROCKLEHURST ST,PHILA,PA,,US,,,,United States Postal Service,Q668687
1915200124,usps_collection_boxes,USPS COLLECTION BOX - BLUE BOX,7499 CALVERT ST,PHILA,PA,,US,,,,United States Postal Service,Q668687
1915200110,usps_collection_boxes,USPS COLLECTION BOX - BLUE BOX,2858 SANDYFORD RD,PHILA,PA,,US,,,,United States Postal Service,Q668687
1915200105,usps_collection_boxes,USPS COLLECTION BOX - BLUE BOX,2328 FAUNCE ST,PHILA,PA,,US,,,,United States Postal Service,Q668687
1915200160,usps_collection_boxes,USPS COLLECTION BOX - BLUE BOX,2722 RHAWN ST,PHILA,PA,,US,,,,United States Postal Service,Q668687
1915200166,usps_collection_boxes,USPS COLLECTION BOX - PO LOBBY,2722 RHAWN ST,PHILA,PA,,US,,,,United States Postal Service,Q668687
1915200147,usps_collection_boxes,USPS COLLECTION BOX - BLUE BOX,7901 BRADFORD ST,PHILA,PA,,US,,,,United States Postal Service,Q668687
1915200091,usps_collection_boxes,USPS COLLECTION BOX - BLUE BOX,7563 BATTERSBY ST,PHILA,PA,,US,,,,United States Postal Service,Q668687
1915200149,usps_collection_boxes,USPS COLLECTION BOX - BLUE BOX,2801 RHAWN ST,PHILA,PA,,US,,,,United States Postal Service,Q668687
1915200140,usps_collection_boxes,USPS COLLECTION BOX - BLUE BOX,7351 REVERE ST,PHILA,PA,,US,,,,United States Postal Service,Q668687
1915200117,usps_collection_boxes,USPS COLLECTION BOX - BLUE BOX,7798 BUSTLETON AVE,PHILA,PA,,US,,,,United States Postal Service,Q668687
1915200148,usps_collection_boxes,USPS COLLECTION BOX - BLUE BOX,2414 RHAWN ST,PHILA,PA,,US,,,,United States Postal Service,Q668687
1915200115,usps_collection_boxes,USPS COLLECTION BOX - BLUE BOX,7901 BUSTLETON AVE,PHILA,PA,,US,,,,United States Postal Service,Q668687
1915200142,usps_collection_boxes,USPS COLLECTION BOX - BLUE BOX,3038 NESPER ST,PHILA,PA,,US,,,,United States Postal Service,Q668687
1915200112,usps_collection_boxes,USPS COLLECTION BOX - BLUE BOX,2900 TEESDALE ST,PHILA,PA,,US,,,,United States Postal Service,Q668687
1915200103,usps_collection_boxes,USPS COLLECTION BOX - BLUE BOX,8040 ROOSEVELT BLVD,PHILA,PA,,US,,,,United States Postal Service,Q668687
1915200119,usps_collection_boxes,USPS COLLECTION BOX - BLUE BOX,2299 LONEY ST,PHILA,PA,,US,,,,United States Postal Service,Q668687
1915200144,usps_collection_boxes,USPS COLLECTION BOX - BLUE BOX,2136 OAKMONT ST,PHILA,PA,,US,,,,United States Postal Service,Q668687
1915200102,usps_collection_boxes,USPS COLLECTION BOX - BLUE BOX,8001 ROOSEVELT BLVD,PHILA,PA,,US,,,,United States Postal Service,Q668687
1915200153,usps_collection_boxes,USPS COLLECTION BOX - BLUE BOX,2901 WELSH RD,PHILA,PA,,US,,,,United States Postal Service,Q668687
1915200154,usps_collection_boxes,USPS COLLECTION BOX - BLUE BOX,8221 ROOSEVELT BLVD,PHILA,PA,,US,,,,United States Postal Service,Q668687
1915200162,usps_collection_boxes,USPS COLLECTION BOX - BLUE BOX,8001 ROOSEVELT BLVD,PHILA,PA,,US,,,,United States Postal Service,Q668687
1915200111,usps_collection_boxes,USPS COLLECTION BOX - BLUE BOX,8161 BROUS AVE,PHILA,PA,,US,,,,United States Postal Service,Q668687
1915200143,usps_collection_boxes,USPS COLLECTION BOX - BLUE BOX,2601 HOLME AVE,PHILA,PA,,US,,,,United States Postal Service,Q668687
1915200121,usps_collection_boxes,USPS COLLECTION BOX - BLUE BOX,2198 RHAWN ST,PHILA,PA,,US,,,,United States Postal Service,Q668687
1915200097,usps_collection_boxes,USPS COLLECTION BOX - BLUE BOX,2137 BLEIGH AVE,PHILA,PA,,US,,,,United States Postal Service,Q668687
1915200106,usps_collection_boxes,USPS COLLECTION BOX - BLUE BOX,2401 SOLLY AVE,PHILA,PA,,US,,,,United States Postal Service,Q668687
1915200139,usps_collection_boxes,USPS COLLECTION BOX - BLUE BOX,2101 GRIFFITH ST,PHILA,PA,,US,,,,United States Postal Service,Q668687
1915200130,usps_collection_boxes,USPS COLLECTION BOX - BLUE BOX,3201 COTTMAN AVE,PHILA,PA,,US,,,,United States Postal Service,Q668687
1915200146,usps_collection_boxes,USPS COLLECTION BOX - BLUE BOX,2098 SHELMIRE AVE,PHILA,PA,,US,,,,United States Postal Service,Q668687
1915200122,usps_collection_boxes,USPS COLLECTION BOX - BLUE BOX,8099 BUSTLETON AVE,PHILA,PA,,US,,,,United States Postal Service,Q668687
1915200126,usps_collection_boxes,USPS COLLECTION BOX - BLUE BOX,7601 CASTOR AVE,PHILA,PA,,US,,,,United States Postal Service,Q668687
1915200128,usps_collection_boxes,USPS COLLECTION BOX - BLUE BOX,7720 CASTOR AVE,PHILA,PA,,US,,,,United States Postal Service,Q668687
1915200156,usps_collection_boxes,USPS COLLECTION BOX - BLUE BOX,7630 CASTOR AVE,PHILA,PA,,US,,,,United States Postal Service,Q668687
1915200132,usps_collection_boxes,USPS COLLECTION BOX - BLUE BOX,2236 HOFFNAGLE ST,PHILA,PA,,US,,,,United States Postal Service,Q668687
1915200133,usps_collection_boxes,USPS COLLECTION BOX - BLUE BOX,2138 EMERSON ST,PHILA,PA,,US,,,,United States Postal Service,Q668687
1915200096,usps_collection_boxes,USPS COLLECTION BOX - BLUE BOX,7399 CASTOR AVE,PHILA,PA,,US,,,,United States Postal Service,Q668687
1915200093,usps_collection_boxes,USPS COLLECTION BOX - BLUE BOX,2201 BENSON ST,PHILA,PA,,US,,,,United States Postal Service,Q668687
1915200094,usps_collection_boxes,USPS COLLECTION BOX - BLUE BOX,8594 BENTON ST,PHILA,PA,,US,,,,United States Postal Service,Q668687
1915200099,usps_collection_boxes,USPS COLLECTION BOX - BLUE BOX,8800 BLUE GRASS RD,PHILA,PA,,US,,,,United States Postal Service,Q668687
1915200135,usps_collection_boxes,USPS COLLECTION BOX - BLUE BOX,8901 FAIRFIELD ST,PHILA,PA,,US,,,,United States Postal Service,Q668687
1915200150,usps_collection_boxes,USPS COLLECTION BOX - BLUE BOX,8846 REVERE ST,PHILA,PA,,US,,,,United States Postal Service,Q668687
1915200107,usps_collection_boxes,USPS COLLECTION BOX - BLUE BOX,8851 BROCKLEHURST ST,PHILA,PA,,US,,,,United States Postal Service,Q668687
1915200131,usps_collection_boxes,USPS COLLECTION BOX - BLUE BOX,8801 DANSBURY ST,PHILA,PA,,US,,,,United States Postal Service,Q668687
1915200125,usps_collection_boxes,USPS COLLECTION BOX - BLUE BOX,2642 TREMONT ST,PHILA,PA,,US,,,,United States Postal Service,Q668687
1915200141,usps_collection_boxes,USPS COLLECTION BOX - BLUE BOX,2700 TAUNTON ST,PHILA,PA,,US,,,,United States Postal Service,Q668687
1915200098,usps_collection_boxes,USPS COLLECTION BOX - BLUE BOX,2628 WELSH RD,PHILA,PA,,US,,,,United States Postal Service,Q668687
1915200158,usps_collection_boxes,USPS COLLECTION BOX - BLUE BOX,2822 CHASE RD,PHILA,PA,,US,,,,United States Postal Service,Q668687
,visa,,,PHILADELPHIA,PA,,US,,,,,
,visa,,,PHILADELPHIA,PA,,US,,,,,
,visa,,,PHILADELPHIA,PA,,US,,,,,
,visa,,,PHILADELPHIA,PA,,US,,,,,
,visa,,,PHILADELPHIA,PA,,US,,,,,
,visa,,,PHILADELPHIA,PA,,US,,,,,
,visa,,,PHILADELPHIA,PA,,US,,,,,
,visa,,,PHILADELPHIA,PA,,US,,,,,
,visa,,,PHILADELPHIA,PA,,US,,,,,
,visa,,,PHILADELPHIA,PA,,US,,,,,
,visa,,,PHILADELPHIA,PA,,US,,,,,
,visa,,,PHILADELPHIA,PA,,US,,,,,
,visa,,,PHILADELPHIA,PA,,US,,,,,
,visa,,,PHILADELPHIA,PA,,US,,,,,
,visa,,,PHILADELPHIA,PA,,US,,,,,
,visa,,,PHILADELPHIA,PA,,US,,,,,
,visa,,,PHILADELPHIA,PA,,US,,,,,
,visa,,,PHILADELPHIA,PA,,US,,,,,
,visa,,,PHILA,PA,,US,,,,,
,visa,,,PHILADELPHIA,PA,,US,,,,,
,visa,,,PHILADELPHIA,PA,,US,,,,,
,visa,,,PHILADELPHIA,PA,,US,,,,,
,visa,,,PHILADELPHIA,PA,,US,,,,,
,visa,,,PHILA,PA,,US,,,,,
,visa,,,PHILADELPHIA,PA,,US,,,,,
,visa,,,PHILADELPHIA,PA,,US,,,,,
,visa,,,PHILADELPHIA,PA,,US,,,,,
,visa,,,PHILADELPHIA,PA,,US,,,,,
,visa,,,PHILADELPHIA,PA,,US,,,,,
,visa,,,PHILA,PA,,US,,,,,
,visa,,,PHILA,PA,,US,,,,,
,visa,,,PHILADELPHIA,PA,,US,,,,,
,visa,,,PHILA,PA,,US,,,,,
,visa,,,PHILADELPHIA,PA,,US,,,,,
,visa,,,PHILADELPHIA,PA,,US,,,,,
,visa,,,PHILADELPHIA,PA,,US,,,,,
,visa,,,PHILADELPHIA,PA,,US,,,,,
,visa,,,PHILADELPHIA,PA,,US,,,,,
,visa,,,PHILADELPHIA,PA,,US,,,,,
,visa,,,PHILADELPHIA,PA,,US,,,,,
,visa,,,PHILADELPHIA,PA,,US,,,,,
,visa,,,PHILADELPHIA,PA,,US,,,,,
,visa,,,PHILADELPHIA,PA,,US,,,,,
,visa,,,PHILADELPHIA,PA,,US,,,,,
,visa,,,PHILADELPHIA,PA,,US,,,,,
,visa,,,PHILADELPHIA,PA,,US,,,,,
,visa,,,PHILADELPHIA,PA,,US,,,,,
,visa,,,PHILADELPHIA,PA,,US,,,,,
,visa,,,PHILADELPHIA,PA,,US,,,,,
,visa,,,PHILADELPHIA,PA,,US,,,,,
,visa,,,PHILA,PA,,US,,,,,
,visa,,,PHILADELPHIA,PA,,US,,,,,
,visa,,,PHILADELPHIA,PA,,US,,,,,
,visa,,,PHILADELPHIA,PA,,US,,,,,
,visa,,,PHILADELPHIA,PA,,US,,,,,
,visa,,,PHILA,PA,,US,,,,,
,visa,,,PHILADELPHIA,PA,,US,,,,,
,visa,,,PHILADELPHIA,PA,,US,,,,,
,visa,,,PHILADELPHIA,PA,,US,,,,,
,visa,,,PHILADELPHIA,PA,,US,,,,,
,visa,,,PHILADELPHIA,PA,,US,,,,,
,visa,,,PHILADELPHIA,PA,,US,,,,,
,visa,,,PHILADELPHIA,PA,,US,,,,,
,visa,,,PHILADELPHIA,PA,,US,,,,,
,visa,,,PHILADELPHIA,PA,,US,,,,,
,visa,,,PHILADELPHIA,PA,,US,,,,,
,visa,,,PHILA,PA,,US,,,,,
,visa,,,PHILA,PA,,US,,,,,
,visa,,,PHILA,PA,,US,,,,,
,visa,,,PHILA,PA,,US,,,,,
,visa,,,PHILADELPHIA,PA,,US,,,,,
,visa,,,PHILA,PA,,US,,,,,
,visa,,,PHILA,PA,,US,,,,,
7345__BUSTLETON__AVE_PHILADELPHIA_PA_19152,wellsfargo,Wells Fargo,7345 BUSTLETON AVE,PHILADELPHIA,PA,,US,+1 215-335-0700,https://www.wellsfargo.com/locator/bank/7345__BUSTLETON__AVE_PHILADELPHIA_PA_19152/,Mo-Fr 09:00-17:00,Wells Fargo,Q744149
f277e812822ed64df861a5d650b00fed,western_union,KIKA TECH LLC,,Philadelphia,PA,,US,+1 215-703-8401,https://location.westernunion.com/us/pa/philadelphia/f277e812822ed64df861a5d650b00fed,Mo-Su 10:00-20:00,Western Union,Q861042
2107a4549eb89d25e555dc45ed91241b,western_union,7-ELEVEN #24839,,Philadelphia,PA,,US,+1 215-464-5641,https://location.westernunion.com/us/pa/philadelphia/2107a4549eb89d25e555dc45ed91241b,,Western Union,Q861042
9c653a27adf16611e4b29c346a9b035d,western_union,BELL'S MARKET,,Philadelphia,PA,,US,+1 215-342-6016,https://location.westernunion.com/us/pa/philadelphia/9c653a27adf16611e4b29c346a9b035d,Mo-Su 08:00-20:00,Western Union,Q861042
