Ref,Spider,Name,Address,City,State,Zipcode,Country,Phone,Website,Hours,Brand,WikiData
https://stores.advanceautoparts.com/ms/moss-point/4212-main-st,advance_auto_parts_us,Advance Auto Parts,,Moss Point,MS,,US,+1 228-475-7440,https://stores.advanceautoparts.com/ms/moss-point/4212-main-st,Mo-Sa 07:00-21:00; Su 08:30-20:00,Advance Auto Parts,Q4686051
171825,bluerhino,Family Dollar #08900,,Moss Point,MS,,US,+1 228-474-8127,,,Blue Rhino,Q65681213
237326,bluerhino,Circle K #2723758,,Moss Point,MS,,US,+1 228-474-6303,,,Blue Rhino,Q65681213
365096,captaind,Captain D's,,Moss Point,MS,,US,,,Mo-Su 10:30-22:00,Captain D's,Q5036616
https://stores.catofashions.com/#26560770,cato_us,Cato,,,MS,,US,+1 228-696-2988,https://stores.catofashions.com/ms/pascagoula/3507-denny-avenue,Mo-Sa 10:00-19:00; Su 13:00-18:00,Cato,Q16956136
304136,chevron,Texaco Station #304136,3400 MAIN ST.,MOSS POINT,MS,,US,+1 228-475-6776,,,Chevron,Q319642
304038,chevron,Texaco Station #304038,6821 HIGHWAY 613,MOSS POINT,MS,,US,+1 678-858-1061,,,Chevron,Q319642
301300,chevron,Chevron Station #301300,6718 HWY 63,MOSS POINT,MS,,US,,,,Chevron,Q319642
66073,citi,ATM Navigator Credit Union,,Moss Point,MS,,US,,,,Citibank,Q857063
43805,citi,ATM Circle K,,Moss Point,MS,,US,,,,Citibank,Q857063
55649,citi,ATM FIRST FEDERAL S&L,,Moss Point,MS,,US,,,,Citibank,Q857063
,credit_union_us,Singing River FCU,,Moss Point,MS,,US,+1 228-475-9135,,Mo-Tu 09:00-05:00; We 10:00-05:00; Th-Fr 09:00-05:00,,
5968,dominos_pizza_us,Domino's Pizza,,Moss Point,MS,,US,+1 228-474-9555,https://pizza.dominos.com/mississippi/moss-point/7100-highway-63,Mo-Th 10:00-23:00; Fr-Sa 10:00-24:00; Su 10:00-23:00,Domino's,Q839466
https://locations.kfc.com/#11248455,kfc,Chicken Nuggets Near Moss Point,,Moss Point,MS,,US,,https://locations.kfc.com/ms/moss-point/6600-highway-63/chickennugget,,KFC,Q524757
156827,marathon_petroleum_us,BROWNS MARATHON,,MOSS POINT,MS,,US,+1 228-475-9447,,,Marathon,Q458363
840,mightyflame,BROWN'S MARATHON,,MOSS POINT,MS,,US,+1 228-285-0587,,,Mighty Flame,
2075,mightyflame,HWY 613 FOOD MART,,Moss Point,MS,,US,+1 941-687-8226,,,Mighty Flame,
85,mightyflame,KEITHS SUPERSTORES,,Moss Point,MS,,US,+1 228-474-2556,,,Mighty Flame,
436,mightyflame,RACEWAY #6867,,MOSS POINT,MS,,US,+1 228-474-3221,,,Mighty Flame,
1063,mightyflame,CLARKS FOOD STORE #10,,Moss Point,MS,,US,+1 228-475-1019,,,Mighty Flame,
86,mightyflame,KEITHS SUPERSTORES,,Moss Point,MS,,US,+1 228-474-0004,,,Mighty Flame,
425,mightyflame,HWY 613 FOOD MART,,MOSS POINT,MS,,US,+1 251-382-2419,,,Mighty Flame,
https://locations.moes.com/#1083,moes,Moe's Southwest Grill,,Moss Point,MS,,US,+1 228-474-6544,https://locations.moes.com/ms/moss-point/6705-hwy-63,Mo-Su 08:00-23:00,Moe's Southwest Grill,Q6889938
586,pilot_flyingj,Pilot Travel Center,,Moss Point,MS,,US,+1 228-474-6511,https://locations.pilotflyingj.com/us/ms/moss-point/6705-hwy-63,,Pilot,Q7194412
4371,ruby_tuesday_us,Ruby Tuesday,6736 HIGHWAY 63 MOSS POINT MS 39563,Moss Point,MS,,US,+1 228-475-5100,,Mo-Th 11:00-22:00; Fr-Sa 11:00-23:00; Su 11:00-22:00,Ruby Tuesday,Q7376400
https://restaurants.subway.com/#14905900,subway,Subway Exxon,,Moss Point Jackson,MS,,US,+1 228-474-6915,https://restaurants.subway.com/united-states/ms/moss-point/6627-hwy-63,,Subway,Q244457
https://locations.tacobell.com/#6142543,taco_bell,Taco Bell,,Moss Point,MS,,US,+1 228-474-8873,https://locations.tacobell.com/ms/moss-point/6732-hwy-63.html,Mo-Th 09:00-24:00; Fr-Sa 09:00-01:00; Su 09:00-24:00,Taco Bell,Q752941
1438080,usps,MOSS POINT,,MOSS POINT,MS,,US,+1 228-475-5621,,Mo-Fr 08:30-16:45; Sa 10:00-12:00,United States Postal Service,Q668687
3956300009,usps_collection_boxes,USPS COLLECTION BOX - PO LOBBY,4537 BOWEN ST,PASCAGOULA,MS,,US,,,,United States Postal Service,Q668687
3956300010,usps_collection_boxes,USPS COLLECTION BOX - PO LOBBY,4537 BOWEN ST,PASCAGOULA,MS,,US,,,,United States Postal Service,Q668687
3956300014,usps_collection_boxes,USPS COLLECTION BOX - PO LOBBY,4537 BOWEN ST,PASCAGOULA,MS,,US,,,,United States Postal Service,Q668687
,visa,,,MOSS POINT,MS,,US,,,,,
,visa,,,MOSS POINT,MS,,US,,,,,
,visa,,,MOSS POINT,MS,,US,,,,,
,visa,,,MOSS POINT,MS,,US,,,,,
,visa,,,MOSS POINT,MS,,US,,,,,
,visa,,,MOSS POINT,MS,,US,,,,,
,visa,,,MOSS POINT,MS,,US,,,,,
,visa,,,MOSS POINT,MS,,US,,,,,
,visa,,,MOSS POINT,MS,,US,,,,,
,visa,,,MOSS POINT,MS,,US,,,,,
,visa,,,MOSS POINT,MS,,US,,,,,
,visa,,,MOSS POINT,MS,,US,,,,,
,visa,,,MOSS POINT,MS,,US,,,,,
,visa,,,MOSS POINT,MS,,US,,,,,
,visa,,,MOSS POINT,MS,,US,,,,,
,visa,,,MOSS POINT,MS,,US,,,,,
,visa,,,MOSS POINT,MS,,US,,,,,
,visa,,,MOSS POINT,MS,,US,,,,,
,visa,,,MOSS POINT,MS,,US,,,,,
,visa,,,MOSS POINT,MS,,US,,,,,
,visa,,,MOSS POINT,MS,,US,,,,,
,visa,,,MOSS POINT,MS,,US,,,,,
,visa,,,MOSS POINT,MS,,US,,,,,
,visa,,,MOSS POINT,MS,,US,,,,,
,visa,,,MOSS POINT,MS,,US,,,,,
,visa,,,MOSS POINT,MS,,US,,,,,
,visa,,,MOSS POINT,MS,,US,,,,,
,visa,,,MOSS POINT,MS,,US,,,,,
,visa,,,MOSS POINT,MS,,US,,,,,
,visa,,,PASCAGOULA,MS,,US,,,,,
,visa,,,MOSS POINT,MS,,US,,,,,
,visa,,,MOSS POINT,MS,,US,,,,,
,visa,,,MOSS POINT,MS,,US,,,,,
,visa,,,MOSS POINT,MS,,US,,,,,
1379,waffle_house_us,Waffle House #1379,,MOSS POINT,MS,,US,+1 228-475-3615,https://locations.wafflehouse.com/mosspoint-ms-1379,24/7,Waffle House,Q1701206
1842,waffle_house_us,Waffle House #1842,,MOSS POINT,MS,,US,+1 228-588-6007,https://locations.wafflehouse.com/mosspoint-ms-1842,24/7,Waffle House,Q1701206
455,waffle_house_us,Waffle House #455,,MOSS POINT,MS,,US,+1 228-475-8897,https://locations.wafflehouse.com/mosspoint-ms-455,24/7,Waffle House,Q1701206
https://locations.wendys.com/#9254264,wendys,"Wendy's 6533 Hwy. 63 in Moss Point, MS",,Moss Point,MS,,US,+1 228-474-1645,https://locations.wendys.com/united-states/ms/moss-point/6533-hwy-63,"Mo-Su 06:30-10:30,07:00-22:00",Wendy's,Q550258
d275095b65b42233bf68a79c1bdfc965,western_union,CLARK OIL #10,,Moss Point,MS,,US,+1 228-475-1063,https://location.westernunion.com/us/ms/moss-point/d275095b65b42233bf68a79c1bdfc965,,Western Union,Q861042
fa4a237a2b61ac64d69779b8b4849f3f,western_union,PILOT TRAVEL CENTERS #586,,Moss Point,MS,,US,+1 228-474-6511,https://location.westernunion.com/us/ms/moss-point/fa4a237a2b61ac64d69779b8b4849f3f,Mo-Su 07:00-22:00,Western Union,Q861042
