Ref,Spider,Name,Address,City,State,Zipcode,Country,Phone,Website,Hours,Brand,WikiData
RED0013331,australia_post_au,,,MAREEBA,QLD,,AU,,,,Australia Post,Q1142936
RED0013330,australia_post_au,,,MAREEBA,QLD,,AU,,,,Australia Post,Q1142936
RED0013334,australia_post_au,,,MAREEBA,QLD,,AU,,,,Australia Post,Q1142936
RED0013329,australia_post_au,,,MAREEBA,QLD,,AU,,,,Australia Post,Q1142936
RED0013332,australia_post_au,,,MAREEBA,QLD,,AU,,,,Australia Post,Q1142936
440698_PO,australia_post_au,MAREEBA POST SHOP,,MAREEBA,QLD,,AU,+61 131318,,,Australia Post,Q1142936
91678400_UPL,australia_post_au,Mareeba Parcel Locker,,MAREEBA,QLD,,AU,,,24/7,Australia Post,Q1142936
RED0013333,australia_post_au,,,MAREEBA,QLD,,AU,,,,Australia Post,Q1142936
0469,bp,BP MAREEBA,,MAREEBA,QLD,,AU,+61 7 4092 2434,,24/7,BP,Q152057
4139,bp,BP DPT MAREEBA,,MAREEBA,QLD,,AU,+61 7 4671 3780,,24/7,BP,Q152057
1052,bp,BP OPT MAREEBA,,MAREEBA,QLD,,AU,+61 7 4092 1977,,24/7,BP,Q152057
70654,caltex,Puma Energy Mareeba,,Mareeba,QLD,,AU,+61 7 4093 3147,,,Caltex,Q277470
45069,cellarbrations_au,CELLARBRATIONS AT MAREEBA CENTRE,,MAREEBA,QLD,,AU,+61 7 4092 7000,,Mo-We 09:00-18:00; Th-Fr 09:00-20:00; Sa 09:00-19:00; Su 09:00-18:00,Cellarbrations,Q109807592
5589,cellarbrations_au,CELLARBRATIONS AT GRAHAM HOTEL,,MAREEBA,QLD,,AU,+61 7 4092 2588,,Mo-Sa 10:00-22:00; Su 10:00-20:00,Cellarbrations,Q109807592
45068,cellarbrations_au,CELLARBRATIONS AT MAREEBA PLAZA,,MAREEBA,QLD,,AU,+61 7 4092 5640,,Mo 09:00-18:00; Tu-We 09:00-19:00; Th 09:00-21:00; Fr 09:00-19:00; Sa 09:00-17:00; Su 09:00-18:00,Cellarbrations,Q109807592
4482,coles_au,Coles Mareeba,,Mareeba,QLD,,AU,+61 7 4017 0800,,,Coles Supermarkets,Q1108172
1752,coles_au,Coles Express Mareeba,,Mareeba,QLD,,AU,+61 7 3734 0748,,,Coles Express,Q5144653
8584,coles_au,The Anthill Barn,,Mareeba,QLD,,AU,+61 7 3726 9644,,,Liquorland,Q2283837
481202,commonwealth_bank_au,Mareeba,,Mareeba,QLD,,AU,,,,Commonwealth Bank,Q285328
481201,commonwealth_bank_au,Mareeba,,Mareeba,QLD,,AU,,,,Commonwealth Bank,Q285328
6100036,exxonmobil,Mobil Mareeba,,Mareeba,QLD,,AU,+61 7 4092 1373,https://www.mobil.com.au/en-au/find-station/mobil-mareeba-qld-mareeba-6100036,24/7,Mobil,Q109676002
9501379,mcdonalds_qstore,MAREEBA,,Mareeba,QLD,,AU,+61 7 4092 1495,,24/7,McDonald's,Q38076
10110630,shell,SHELL COLES EXPRESS MAREEBA,,MAREEBA,QLD,,AU,+61 7 3734 0748,https://find.shell.com/au/fuel/10110630-shell-coles-express-mareeba,,Shell,Q110716465
4616,sportspower_au,Mareeba,,Mareeba,QLD,,AU,+61 7 4092 1469,https://www.sportspower.com.au/pages/sportspower-mareeba,Mo-Fr 08:30-17:00; Sa 08:30-16:30,SportsPower,Q117747652
4480,tradelink_au,Mareeba,"34 James Street, Mareeba QLD 4880",Mareeba,QLD,,AU,+61 7 4058 5820,,Mo-Fr 07:00-16:30; Sa 08:00-11:00,Tradelink,Q120648432
,tyrepower_au,Mareeba Tyrepower,,Mareeba,QLD,,AU,+61 7 4092 3300,https://mareebatyrepower.com.au/,,Tyrepower,Q108855867
,visa,,,TOLGA,QLD,,AU,,,,,
,visa,,,MAREEBA,QLD,,AU,,,,,
,visa,,,MAREEBA,QLD,,AU,,,,,
,visa,,,MAREEBA,QLD,,AU,,,,,
,visa,,,MAREEBA,QLD,,AU,,,,,
,visa,,,MAREEBA,QLD,,AU,,,,,
0a4d23745121e7260cab6e626808269a,western_union,AUSTRALIA POST,,Mareeba,QLD,,AU,+61 1800 501 500,https://location.westernunion.com/au/qld/mareeba/0a4d23745121e7260cab6e626808269a,Mo-Fr 09:00-17:00; Sa 09:00-12:30,Western Union,Q861042
