Ref,Spider,Name,Address,City,State,Zipcode,Country,Phone,Website,Hours,Brand,WikiData
BIA-88,aldi_sud_hu,ALDI,"Kaszap utca 31., Hódmezővásárhely, 6800",Hódmezővásárhely,,,HU,+36 80 088 264,,Mo-Sa 07:00-20:00; Su 07:00-19:00,ALDI,Q41171672
945,ccc,CCC Hódmezővásárhely Tesco,,Hódmezővásárhely,,,HU,+36 30 703 5176,https://ccc.eu/hu/market/ccc-hodmezovasarhely-tesco,"Sa 09:00-18:00,09:00-20:00",CCC,Q11788344
hu:317,dm,dm drogerie markt Kft.,,Hódmezővásárhely,,,HU,+36 30 400 7455,https://www.dm.hu/store/u0d5/hodmezovasarhely/kaszap-utca-20,Mo-Sa 09:00-19:00,dm,Q266572
HU0351,hm,Tesco Hódmezővásárhely,,Hódmezovásárhely,,,HU,+36 62 535 610,,Mo-Sa 09:00-20:00; Su 09:00-19:00,H&M,Q188326
H818,jysk,Hódmezővásárhely,,Hódmezővásárhely,,,HU,+36 20 279 9283,https://jysk.hu/aruhazak?storeId=H818,Mo-Fr 09:00-19:00; Sa 09:00-18:00; Su 09:00-16:00,JYSK,Q138913
5482,kik,KiK,,Hódmezővásárhely,,,HU,+36 62 624 863,,Mo-Sa 09:00-19:00; Su 09:00-18:00,KiK,Q883965
103,lidl_hu,Lidl,,Hódmezővásárhely,,,HU,,,Mo-Tu 07:00-21:00; Th-Fr 07:00-21:00; Sa 07:00-19:00,Lidl,Q151954
1198709,mol,Hódmezővásárhely; Tóalj út,Tóalj út,Hódmezővásárhely,,,HU,+36 62 241 384;+36 20 218 9338,,Mo-Sa 06:00-21:00,MOL,Q549181
1198347,mol,Hódmezővásárhely; Szántó Kovács János út 170.,Szántó Kovács János út 170.,Hódmezővásárhely,,,HU,+36 62 248 902;+36 20 218 1478,,Mo-Sa 06:00-20:00,MOL,Q549181
5201,mueller,Müller,,Hódmezővásárhely,,,HU,+36 62 535 510,https://www.mueller.co.hu/mueller-uezletek/hodmezovasarhely/kaszap-utca-20/,,Müller,Q1958759
HU.1913.8,omv,OMV,,Hódmezővásárhely,,,HU,+36 62 246 710,,Mo-Su 06:00-22:00,OMV,Q168238
HU_EXT_00201,totalenergies,Hódmezővásárhely 1,,Hódmezővásárhely,,,HU,,https://store.totalenergies.fr/en_EN/HU_EXT_00201,,MOL,Q549181
HU_EXT_00202,totalenergies,Hódmezővásárhely 2,,Hódmezővásárhely,,,HU,,https://store.totalenergies.fr/en_EN/HU_EXT_00202,,MOL,Q549181
,visa,,,HODMEZOVASARHELY,,,HU,,,,,
,visa,,,HODMEZOVASARHELY,,,HU,,,,,
,visa,,,HODMEZOVASARHELY,,,HU,,,,,
,visa,,,HODMEZOVASARHELY,,,HU,,,,,
,visa,,,HODMEZOVASARHELY,,,HU,,,,,
,visa,,,HODMEZOVASARHELY,,,HU,,,,,
,visa,,,HODMEZOVASARHELY,,,HU,,,,,
,visa,,,HODMEZOVASARHELY,,,HU,,,,,
,visa,,,HODMEZOVASARHELY,,,HU,,,,,
O6609,yettel_hu,Yettel Hódmezõvásárhely,,Hódmezõvásárhely,,,HU,+36 20 852 5765,,Mo-Fr 09:00-17:00; Sa 09:00-12:00,Yettel,Q268578
