Ref,Spider,Name,Address,City,State,Zipcode,Country,Phone,Website,Hours,Brand,WikiData
rs:16,dm,dm drogerie markt doo,,Užice,,,RS,+381 31 513736,https://www.dm.rs/store/j00g/uzice/dimitrija-tucovica-149,Mo-Fr 08:00-21:00; Sa 08:00-18:00; Su 09:00-15:00,dm,Q266572
Y135,jysk,"Nest, Užice",,Užice,,,RS,+381 11 6555945,https://jysk.rs/prodavnice?storeId=Y135,Mo-Su 09:00-21:00,JYSK,Q138913
71874948,moneygram,PE POST OF SERBIA BELGRADE - #31000 - U,,UZICE,,,RS,+381 31 590874,,Mo-Fr 07:00-19:00; Sa 07:00-15:00; Su 00:00-24:00,MoneyGram,Q1944412
72188400,moneygram,MONETA-BNS FASHION,,UZICE,,,RS,+381 31 532942,,Mo-Fr 08:00-18:00; Sa 08:00-13:00; Su 00:00-24:00,MoneyGram,Q1944412
73623728,moneygram,DIPAL,,UZICE,,,RS,+381 64 2882792,,Mo-Fr 08:00-18:00; Sa 08:00-12:00; Su 00:00-24:00,MoneyGram,Q1944412
68802486,moneygram,SBERBANK  - UZICE,,UZICE,,,RS,19909,,Mo-Fr 08:00-16:00; Sa-Su 00:00-24:00,MoneyGram,Q1944412
71182601,moneygram,MONETA - PIGAL - UZICE,,UZICE,,,RS,+381 63 333660,,Mo-Fr 07:00-20:00; Sa 08:00-16:00; Su 00:00-24:00,MoneyGram,Q1944412
RSH31000,neuroth,Neuroth,"Lipa 20, 31000 Uzice, RS",Uzice,,,RS,+381 31 3105260,https://rs.neuroth.com/lokacije/lipa-20-uzice/,Mo-Tu 08:00-16:00; We 10:00-18:00; Th-Fr 08:00-16:00,Neuroth,Q15836645
5b3cb3fac00458481b437562,newyorker,NEW YORKER,"Dimitrija Tucovica 48, 31000 Užice",Užice,,,RS,+381 31 525610,,Mo-Fr 08:30-21:00; Sa 08:30-18:00,New Yorker,Q706421
RS.2410.8,omv,OMV,,Uzice,,,RS,+381 31 561496,,24/7,OMV,Q168238
89150001_001-renault,renault,NOVI B AUTO,,UŽICE,,,RS,+381 31 572767,,,Renault,Q6686
89150001_001-dacia,renault,NOVI B AUTO,,UŽICE,,,RS,+381 31 572767,,,Dacia,Q27460
N590738,united_colors_of_benetton,Benetton Uzice,,UZICE,,,RS,+381 31 554533,,,United Colors of Benetton,Q817139
,visa,,,UZICE,,,RS,,,,,
,visa,,,UZICE,,,RS,,,,,
,visa,,,UZICE,,,RS,,,,,
,visa,,,UZICE,,,RS,,,,,
,visa,,,UZICE,,,RS,,,,,
,visa,,,UZICE,,,RS,,,,,
,visa,,,UZICE,,,RS,,,,,
,visa,,,UZICE,,,RS,,,,,
,visa,,,UZICE,,,RS,,,,,
,visa,,,UZICE,,,RS,,,,,
270,yettel_rs,Yettel,,Užice ,,,RS,,,Mo-Fr 08:00-20:00; Sa 08:00-16:00,Yettel,Q1780171
