Ref,Spider,Name,Address,City,State,Zipcode,Country,Phone,Website,Hours,Brand,WikiData
1235,first_cash,First Cash Pawn,,Saltillo,Coahuila,,MX,+52 844 164 5537,,,First Cash Pawn,
,visa,,,SALTILLO,COAHUILA,,MX,,,,,
,visa,,,SALTILLO,COAHUILA,,MX,,,,,
4b9f6cd7bce6362a4faf13a187c39c00,western_union,AURRERA EXPRESS LA FUENTE 1270,,Saltillo,COAHUILA,,MX,+52 800 833 4700,https://location.westernunion.com/mx/coahuila/saltillo/4b9f6cd7bce6362a4faf13a187c39c00,Mo-Su 08:00-22:00,Western Union,Q861042
f44792ea6c46e5ecb5f8bea9c35edaf6,western_union,AURRERA EXPRESS LA FUENTE 1270,,Saltillo,COAHUILA,,MX,+52 800 833 4700,https://location.westernunion.com/mx/coahuila/saltillo/f44792ea6c46e5ecb5f8bea9c35edaf6,Mo-Su 08:00-22:00,Western Union,Q861042
6aacd3d39fe59d1f8f93c08b342cdc64,western_union,AURRERA EXPRESS LA FUENTE 1270,,Saltillo,COAHUILA,,MX,+52 800 833 4700,https://location.westernunion.com/mx/coahuila/saltillo/6aacd3d39fe59d1f8f93c08b342cdc64,Mo-Su 08:00-22:00,Western Union,Q861042
c1c54fd1bd8aad02c5b4d69f94c52ddf,western_union,FARM GUAD GUADALUPE VICTORIA COAH,,Saltillo,COAHUILA,,MX,+52 800 833 4700,https://location.westernunion.com/mx/coahuila/saltillo/c1c54fd1bd8aad02c5b4d69f94c52ddf,Mo-Su 08:00-20:00,Western Union,Q861042
eecec3057bd33f6dd636e3698973a7ab,western_union,FARM GUAD GUADALUPE VICTORIA COAH,,Saltillo,COAHUILA,,MX,+52 800 833 4700,https://location.westernunion.com/mx/coahuila/saltillo/eecec3057bd33f6dd636e3698973a7ab,Mo-Su 08:00-20:00,Western Union,Q861042
22b3030f81e49d4a07794274a02f3482,western_union,FARM GUAD GUADALUPE VICTORIA COAH,,Saltillo,COAHUILA,,MX,+52 800 833 4700,https://location.westernunion.com/mx/coahuila/saltillo/22b3030f81e49d4a07794274a02f3482,Mo-Su 08:00-20:00,Western Union,Q861042
aba7e860589a1bd5054b83680b7488ee,western_union,FARM GUAD MUZQUIZ OTE SALTILLO,,Saltillo,COAHUILA,,MX,+52 800 833 4700,https://location.westernunion.com/mx/coahuila/saltillo/aba7e860589a1bd5054b83680b7488ee,Mo-Su 08:00-20:00,Western Union,Q861042
417ff03cf81f3d25c4696c30dcb5c9e8,western_union,FARM GUAD MUZQUIZ OTE SALTILLO,,Saltillo,COAHUILA,,MX,+52 800 833 4700,https://location.westernunion.com/mx/coahuila/saltillo/417ff03cf81f3d25c4696c30dcb5c9e8,Mo-Su 08:00-20:00,Western Union,Q861042
8c06f20d1bdf027b56b07572f3eee271,western_union,FARM GUAD MUZQUIZ OTE SALTILLO,,Saltillo,COAHUILA,,MX,+52 800 833 4700,https://location.westernunion.com/mx/coahuila/saltillo/8c06f20d1bdf027b56b07572f3eee271,Mo-Su 08:00-20:00,Western Union,Q861042
f4b70d2ba158284e863105a489bf455e,western_union,FARM GUAD CALLE 17 SALTILLO,,Saltillo,COAHUILA,,MX,+52 800 833 4700,https://location.westernunion.com/mx/coahuila/saltillo/f4b70d2ba158284e863105a489bf455e,Mo-Su 08:00-20:00,Western Union,Q861042
1ecdba7c236236aaf9fdb31d523dfd91,western_union,FARM GUAD CALLE 17 SALTILLO,,Saltillo,COAHUILA,,MX,+52 800 833 4700,https://location.westernunion.com/mx/coahuila/saltillo/1ecdba7c236236aaf9fdb31d523dfd91,Mo-Su 08:00-20:00,Western Union,Q861042
0b9671b5b0394a27204cf7d17850a4e5,western_union,FARM GUAD CALLE 17 SALTILLO,,Saltillo,COAHUILA,,MX,+52 800 833 4700,https://location.westernunion.com/mx/coahuila/saltillo/0b9671b5b0394a27204cf7d17850a4e5,Mo-Su 08:00-20:00,Western Union,Q861042
4a509a0e70a438afa922a82de2fcc0e2,western_union,AURRERA EXPRESS FRACC MORELOS 2339,,Saltillo,COAHUILA,,MX,+52 800 833 4700,https://location.westernunion.com/mx/coahuila/saltillo/4a509a0e70a438afa922a82de2fcc0e2,Mo-Su 08:00-22:00,Western Union,Q861042
48224c5ed0f9643835adac52be16c1ff,western_union,AURRERA EXPRESS FRACC MORELOS 2339,,Saltillo,COAHUILA,,MX,+52 800 833 4700,https://location.westernunion.com/mx/coahuila/saltillo/48224c5ed0f9643835adac52be16c1ff,Mo-Su 08:00-22:00,Western Union,Q861042
988ca83d2106c7f5d7223de5d3c59170,western_union,AURRERA EXPRESS FRACC MORELOS 2339,,Saltillo,COAHUILA,,MX,+52 800 833 4700,https://location.westernunion.com/mx/coahuila/saltillo/988ca83d2106c7f5d7223de5d3c59170,Mo-Su 08:00-22:00,Western Union,Q861042
ef931fed4f8110c4c21d044070396a32,western_union,FARM GUAD PROLOF OTILIO GONZALEZ,,Saltillo,COAHUILA,,MX,+52 800 833 4700,https://location.westernunion.com/mx/coahuila/saltillo/ef931fed4f8110c4c21d044070396a32,Mo-Su 08:00-20:00,Western Union,Q861042
02ebbbce84938fce56f61de3be54cc48,western_union,FARM GUAD PROLOF OTILIO GONZALEZ,,Saltillo,COAHUILA,,MX,+52 800 833 4700,https://location.westernunion.com/mx/coahuila/saltillo/02ebbbce84938fce56f61de3be54cc48,Mo-Su 08:00-20:00,Western Union,Q861042
f286a8fbd9c7187c37eeed809453b5ba,western_union,FARM GUAD PROLOF OTILIO GONZALEZ,,Saltillo,COAHUILA,,MX,+52 800 833 4700,https://location.westernunion.com/mx/coahuila/saltillo/f286a8fbd9c7187c37eeed809453b5ba,Mo-Su 08:00-20:00,Western Union,Q861042
