Ref,Spider,Name,Address,City,State,Zipcode,Country,Phone,Website,Hours,Brand,WikiData
IT518042,adidas,"adidas Brand Center Rome, Via del Corso",,Rome,,,IT,,https://www.adidas.co.uk/storefront/IT518042-rome-via-del-corso-132-adidas-brand-center-rome-via-del-corso,,Adidas,Q3895
CKIT0095,calvin_klein,Calvin Klein Underwear,,Rome,,,IT,+39 06 6938 0091,,Mo-Su 10:00-20:00,Calvin Klein,Q1068628
roma/8661,claires,Acquista piercing all'orecchio e gioielli presso Rome Via del Corso,,Roma,,,IT,0000 00 00 00 00,https://stores.claires.com/it/it-62/roma/8661.html,Mo-Su 10:00-20:00,Claire's,Q2974996
103546,geox,Geox ROMA,,ROMA,,,IT,+39 06 6889 2720,https://www.geox.com/int/storedetails?StoreID=103546,Mo-Su 10:00-19:30,Geox,Q588001
ROMBG,marriott,Bulgari Hotel Roma,,Rome,,,IT,+39 06 3608 0400,https://www.marriott.com/ROMBG,,Bulgari Hotels,Q91602871
ROMPV,marriott,"Palazzo Velabro, a Member of Design Hotels™",,Roma,,,IT,+39 06 9761 9197,https://www.marriott.com/ROMPV,,Design Hotels,Q5264274
ROMDU,marriott,"Elizabeth Unique Hotel, a Member of Design Hotels™",,Rome,,,IT,+39 06 322 3633,https://www.marriott.com/ROMDU,,Design Hotels,Q5264274
ROMDS,marriott,"G-Rough, Rome, a Member of Design Hotels™",,Rome,,,IT,+39 06 6880 1085,https://www.marriott.com/ROMDS,,Design Hotels,Q5264274
71948942,moneygram,POSTE ITALIANE,,ROMA,,,IT,667606788,,Mo-Fr 09:00-13:30; Sa-Su 00:00-24:00,MoneyGram,Q1944412
40890393,moneygram,POSTE ITALIANE,,ROMA,,,IT,+39 06 6840 2920,,Mo-Fr 08:20-13:35; Sa 08:20-12:35; Su 00:00-24:00,MoneyGram,Q1944412
41058943,moneygram,POSTE ITALIANE,,ROMA,,,IT,+39 06 6840 9220,,Mo-Fr 08:20-13:35; Sa 08:20-12:35; Su 00:00-24:00,MoneyGram,Q1944412
40890034,moneygram,POSTE ITALIANE,,ROMA,,,IT,+39 06 6840 5020,,Mo-Fr 08:20-19:05; Sa 08:20-12:35; Su 00:00-24:00,MoneyGram,Q1944412
41052402,moneygram,POSTE ITALIANE,,ROMA,,,IT,+39 06 686 9500,,Mo-Fr 08:00-19:00; Sa 08:30-12:00; Su 00:00-24:00,MoneyGram,Q1944412
42182928,moneygram,POSTE ITALIANE,,ROMA,,,IT,+39 06 6840 2520,,Mo-Fr 08:20-19:05; Sa 08:20-12:35; Su 00:00-24:00,MoneyGram,Q1944412
41052305,moneygram,POSTE ITALIANE,,ROMA,,,IT,+39 06 6760 3470,,Mo-Fr 09:00-17:00; Sa-Su 00:00-24:00,MoneyGram,Q1944412
621acdad-ce64-481c-a98e-e8752239bf8d,nike,Nike Store Rome Via Del Corso (Partnered),,Roma,,,IT,+39 06 321 4130,https://www.nike.com/retail/s/nike-store-rome-via-del-corso,Mo-Su 10:00-21:00,Nike,Q483915
https://www.stroilioro.com/it_IT/gioiellerie-stroili/dettagli-negozio/?storeID=0414,stroili_oro_it,Stroili - Gioielleria Stroili Roma Via del Corso - 0414,,ROMA,,,IT,+39 06 6979 7510,https://www.stroilioro.com/it_IT/gioiellerie-stroili/dettagli-negozio/?storeID=0414,Mo-Su 10:00-20:00,Stroili Oro,Q106611306
IT_EXT_02233,totalenergies,ISOLA POSTPAY,,ROMA,,,IT,,https://store.totalenergies.fr/en_EN/IT_EXT_02233,,TotalErg,Q3995933
N110662,united_colors_of_benetton,Benetton Roma,,ROMA,,,IT,+39 06 6932 6043,,Mo-Su 10:00-20:00,United Colors of Benetton,Q817139
N110899,united_colors_of_benetton,Benetton Rome,,Rome,,,IT,+39 06 6880 3649,,Mo-Su 10:00-20:00,United Colors of Benetton,Q817139
,visa,,,ROMA CENTRO M.BENI C,,,IT,,,,,
,visa,,,ROMA,,,IT,,,,,
,visa,,,ROMA,,,IT,,,,,
,visa,,,ROMA,,,IT,,,,,
,visa,,,ROMA,,,IT,,,,,
,visa,,,ROMA,,,IT,,,,,
,visa,,,ROMA,,,IT,,,,,
,visa,,,ROMA,,,IT,,,,,
,visa,,,ROMA,,,IT,,,,,
,visa,,,ROMA,,,IT,,,,,
,visa,,,ROMA CENTRO AG.6,,,IT,,,,,
,visa,,,ROMA,,,IT,,,,,
,visa,,,ROMA,,,IT,,,,,
,visa,,,ROMA,,,IT,,,,,
,visa,,,ROMA,,,IT,,,,,
,visa,,,ROMA,,,IT,,,,,
,visa,,,ROMA,,,IT,,,,,
,visa,,,ROMA,,,IT,,,,,
,visa,,,ROMA,,,IT,,,,,
,visa,,,ROMA,,,IT,,,,,
,visa,,,ROMA,,,IT,,,,,
,visa,,,ROMA,,,IT,,,,,
,visa,,,ROMA,,,IT,,,,,
,visa,,,ROMA,,,IT,,,,,
,visa,,,ROMA,,,IT,,,,,
,visa,,,ROMA,,,IT,,,,,
,visa,,,ROMA,,,IT,,,,,
,visa,,,ROMA,,,IT,,,,,
,visa,,,ROMA,,,IT,,,,,
,visa,,,ROMA,,,IT,,,,,
,visa,,,ROMA,,,IT,,,,,
,visa,,,ROMA CENTRO AG.6,,,IT,,,,,
,visa,,,ROMA,,,IT,,,,,
,visa,,,ROMA,,,IT,,,,,
,visa,,,ROMA,,,IT,,,,,
,visa,,,ROMA,,,IT,,,,,
,visa,,,ROMA,,,IT,,,,,
,visa,,,ROMA,,,IT,,,,,
,visa,,,ROMA,,,IT,,,,,
,visa,,,ROMA,,,IT,,,,,
,visa,,,ROMA,,,IT,,,,,
,visa,,,ROMA,,,IT,,,,,
,visa,,,ROMA,,,IT,,,,,
,visa,,,ROMA,,,IT,,,,,
,visa,,,ROMA,,,IT,,,,,
,visa,,,ROMA,,,IT,,,,,
,visa,,,ROMA,,,IT,,,,,
,visa,,,ROMA,,,IT,,,,,
,visa,,,ROMA,,,IT,,,,,
,visa,,,ROMA,,,IT,,,,,
,visa,,,ROMA,,,IT,,,,,
,visa,,,ROMA,,,IT,,,,,
,visa,,,ROMA,,,IT,,,,,
,visa,,,ROMA,,,IT,,,,,
,visa,,,ROMA,,,IT,,,,,
,visa,,,ROMA,,,IT,,,,,
,visa,,,ROMA,,,IT,,,,,
,visa,,,ROMA,,,IT,,,,,
,visa,,,ROMA,,,IT,,,,,
,visa,,,ROMA,,,IT,,,,,
,visa,,,ROMA,,,IT,,,,,
,visa,,,ROMA,,,IT,,,,,
,visa,,,ROMA,,,IT,,,,,
,visa,,,ROMA,,,IT,,,,,
,visa,,,ROMA,,,IT,,,,,
,visa,,,ROMA,,,IT,,,,,
,visa,,,ROMA,,,IT,,,,,
,visa,,,ROMA,,,IT,,,,,
,visa,,,ROMA,,,IT,,,,,
,visa,,,ROMA,,,IT,,,,,
,visa,,,ROMA,,,IT,,,,,
,visa,,,ROMA,,,IT,,,,,
,visa,,,ROMA,,,IT,,,,,
,visa,,,ROMA,,,IT,,,,,
,visa,,,ROMA,,,IT,,,,,
,visa,,,ROMA,,,IT,,,,,
,visa,,,ROMA,,,IT,,,,,
,visa,,,ROMA,,,IT,,,,,
,visa,,,ROMA,,,IT,,,,,
,visa,,,ROMA,,,IT,,,,,
,visa,,,ROMA,,,IT,,,,,
,visa,,,ROMA,,,IT,,,,,
,visa,,,ROMA,,,IT,,,,,
,visa,,,ROMA,,,IT,,,,,
,visa,,,ROMA,,,IT,,,,,
,visa,,,ROME,,,IT,,,,,
,visa,,,ROMA,,,IT,,,,,
,visa,,,ROMA,,,IT,,,,,
,visa,,,ROMA,,,IT,,,,,
,visa,,,ROMA,,,IT,,,,,
,visa,,,ROMA,,,IT,,,,,
,visa,,,ROMA,,,IT,,,,,
,visa,,,ROMA,,,IT,,,,,
,visa,,,ROMA,,,IT,,,,,
,visa,,,ROMA,,,IT,,,,,
,visa,,,ROMA,,,IT,,,,,
,visa,,,ROMA,,,IT,,,,,
,visa,,,ROMA,,,IT,,,,,
,visa,,,ROMA,,,IT,,,,,
,visa,,,ROMA,,,IT,,,,,
,visa,,,ROMA,,,IT,,,,,
,visa,,,ROMA,,,IT,,,,,
,visa,,,ROMA,,,IT,,,,,
,visa,,,ROMA,,,IT,,,,,
,visa,,,ROMA,,,IT,,,,,
,visa,,,ROMA,,,IT,,,,,
,visa,,,ROMA,,,IT,,,,,
,visa,,,ROMA,,,IT,,,,,
,visa,,,ROMA,,,IT,,,,,
,visa,,,ROMA,,,IT,,,,,
,visa,,,ROMA,,,IT,,,,,
,visa,,,ROMA,,,IT,,,,,
,visa,,,ROMA,,,IT,,,,,
,visa,,,ROMA,,,IT,,,,,
,visa,,,ROMA,,,IT,,,,,
,visa,,,ROMA,,,IT,,,,,
,visa,,,ROMA,,,IT,,,,,
,visa,,,ROMA,,,IT,,,,,
,visa,,,ROMA,,,IT,,,,,
,visa,,,ROMA,,,IT,,,,,
,visa,,,ROMA,,,IT,,,,,
,visa,,,ROMA,,,IT,,,,,
,visa,,,ROMA,,,IT,,,,,
,visa,,,ROMA,,,IT,,,,,
,visa,,,ROMA,,,IT,,,,,
,visa,,,ROMA,,,IT,,,,,
,visa,,,ROMA,,,IT,,,,,
,visa,,,ROMA,,,IT,,,,,
,visa,,,ROMA,,,IT,,,,,
,visa,,,ROMA,,,IT,,,,,
,visa,,,ROMA,,,IT,,,,,
,visa,,,ROMA,,,IT,,,,,
,visa,,,ROMA,,,IT,,,,,
,visa,,,ROMA,,,IT,,,,,
,visa,,,ROMA,,,IT,,,,,
,visa,,,ROMA,,,IT,,,,,
,visa,,,ROMA,,,IT,,,,,
,visa,,,ROMA,,,IT,,,,,
,visa,,,ROMA,,,IT,,,,,
,visa,,,ROMA,,,IT,,,,,
,visa,,,ROMA,,,IT,,,,,
,visa,,,ROMA,,,IT,,,,,
,visa,,,ROMA,,,IT,,,,,
,visa,,,ROMA,,,IT,,,,,
,visa,,,ROMA,,,IT,,,,,
,visa,,,ROMA,,,IT,,,,,
,visa,,,ROMA,,,IT,,,,,
,visa,,,ROMA,,,IT,,,,,
,visa,,,ROMA,,,IT,,,,,
,visa,,,ROMA,,,IT,,,,,
,visa,,,ROMA,,,IT,,,,,
,visa,,,ROMA,,,IT,,,,,
,visa,,,ROMA,,,IT,,,,,
,visa,,,ROMA,,,IT,,,,,
,visa,,,ROMA,,,IT,,,,,
,visa,,,ROMA,,,IT,,,,,
,visa,,,ROMA,,,IT,,,,,
,visa,,,ROMA,,,IT,,,,,
,visa,,,ROMA,,,IT,,,,,
,visa,,,ROMA,,,IT,,,,,
,visa,,,ROMA,,,IT,,,,,
,visa,,,ROMA CENTRO AG.15,,,IT,,,,,
,visa,,,ROMA,,,IT,,,,,
,visa,,,ROMA,,,IT,,,,,
,visa,,,ROMA,,,IT,,,,,
,visa,,,ROMA,,,IT,,,,,
,visa,,,ROMA,,,IT,,,,,
,visa,,,ROMA,,,IT,,,,,
,visa,,,ROMA,,,IT,,,,,
,visa,,,ROMA,,,IT,,,,,
,visa,,,ROMA,,,IT,,,,,
,visa,,,ROMA,,,IT,,,,,
,visa,,,ROMA,,,IT,,,,,
,visa,,,ROMA,,,IT,,,,,
,visa,,,ROMA,,,IT,,,,,
,visa,,,ROMA,,,IT,,,,,
,visa,,,ROMA,,,IT,,,,,
,visa,,,ROMA,,,IT,,,,,
,visa,,,ROMA,,,IT,,,,,
,visa,,,ROMA,,,IT,,,,,
,visa,,,ROMA,,,IT,,,,,
,visa,,,ROMA,,,IT,,,,,
,visa,,,ROMA,,,IT,,,,,
,visa,,,ROMA,,,IT,,,,,
,visa,,,ROMA,,,IT,,,,,
,visa,,,ROMA,,,IT,,,,,
,visa,,,ROMA,,,IT,,,,,
,visa,,,ROMA,,,IT,,,,,
,visa,,,ROMA,,,IT,,,,,
,visa,,,ROMA,,,IT,,,,,
,visa,,,ROMA,,,IT,,,,,
,visa,,,ROMA,,,IT,,,,,
,visa,,,ROMA,,,IT,,,,,
,visa,,,ROMA,,,IT,,,,,
,visa,,,ROMA,,,IT,,,,,
,visa,,,ROMA,,,IT,,,,,
,visa,,,ROMA,,,IT,,,,,
,visa,,,ROMA,,,IT,,,,,
,visa,,,ROMA,,,IT,,,,,
,visa,,,ROMA,,,IT,,,,,
,visa,,,RM CENTRO CORSO,,,IT,,,,,
,visa,,,ROMA,,,IT,,,,,
,visa,,,RM CENTRO CORSO,,,IT,,,,,
,visa,,,ROMA,,,IT,,,,,
,visa,,,ROMA,,,IT,,,,,
,visa,,,ROMA,,,IT,,,,,
,visa,,,ROMA,,,IT,,,,,
,visa,,,ROMA,,,IT,,,,,
,visa,,,ROMA,,,IT,,,,,
,visa,,,ROMA,,,IT,,,,,
