Ref,Spider,Name,Address,City,State,Zipcode,Country,Phone,Website,Hours,Brand,WikiData
https://stores.advanceautoparts.com/ne/scottsbluff/805-w-27th-st,advance_auto_parts_us,Advance Auto Parts,,Scottsbluff,NE,,US,+1 308-632-4142,https://stores.advanceautoparts.com/ne/scottsbluff/805-w-27th-st,Mo-Sa 07:30-21:00; Su 09:00-20:00,Advance Auto Parts,Q4686051
3938,anytime_fitness,Anytime Fitness,,Scottsbluff,NE,,US,+1 308-633-1000,https://www.anytimefitness.com/gyms/3938/scottsbluff-ne-69361/,,Anytime Fitness,Q4778364
https://restaurants.applebees.com/en-us/ne/scottsbluff/2302-frontage-rd.-monument-mall-78042,applebees,Connect with this Applebee's,,Scottsbluff,NE,,US,+1 308-635-7750,https://restaurants.applebees.com/en-us/ne/scottsbluff/2302-frontage-rd.-monument-mall-78042,Mo-Su 11:00-24:00,Applebees,Q621532
https://stores.ashleyfurniture.com/store/us/nebraska/scottsbluff/7710000269/,ashley_furniture,"Ashley Store Scottsbluff, NE",,Scottsbluff,NE,,US,+1 308-635-3115,https://stores.ashleyfurniture.com/store/us/nebraska/scottsbluff/7710000269/,,Ashley Furniture,Q4805437
85818,asics_us,Dunham's Sports,2410 Frontage Rd #64A,Scottsbluff,NE,,US,+1 308-220-0071,,,asics,Q327247
15685,asics_us,Hibbett Sports,1508 E 20th Street,Scottsbluff,NE,,US,+1 308-220-0521,,,asics,Q327247
21993,asics_us,Brown's Shoe Fit Scottsbluff,1720 Broadway,Scottsbluff,NE,,US,+1 308-632-6665,,Mo-Sa 09:00-17:30,asics,Q327247
1657,autozone_us,AutoZone Auto Parts Scottsbluff,,Scottsbluff,NE,,US,+1 308-635-1113,https://www.autozone.com/locations/ne/scottsbluff/2721-ave-b.html,Mo-Sa 08:00-21:00; Su 08:30-20:00,AutoZone,Q4826087
BBW01304,bathandbodyworks_us,UPTOWN SCOTTSBLUFF,,SCOTTSBLUFF,NE,,US,+1 308-635-7200,,Mo-Sa 10:00-19:00; Su 12:00-18:00,Bath & Body Works,Q810773
15750,bluerhino,Walmart #0867,,Scottsbluff,NE,,US,+1 308-632-2666,,,Blue Rhino,Q65681213
215199,bluerhino,Short Stop C Mart,,Scottsbluff,NE,,US,+1 308-631-4971,,,Blue Rhino,Q65681213
154688,bluerhino,Walgreens #7383,,SCOTTSBLUFF,NE,,US,+1 308-635-3296,,,Blue Rhino,Q65681213
148531,bluerhino,Scottsbluff Watering Hole,,Scottsbluff,NE,,US,+1 308-630-0500,,,Blue Rhino,Q65681213
161303,bluerhino,Big Bat's,,Scottsbluff,NE,,US,+1 308-635-2778,,,Blue Rhino,Q65681213
180408,bluerhino,East O Watering Hole,,Scottsbluff,NE,,US,+1 308-632-3268,,,Blue Rhino,Q65681213
81121,bluerhino,Gasamat #011,,Scottsbluff,NE,,US,+1 308-635-1076,,,Blue Rhino,Q65681213
164551,bluerhino,Family Dollar #07573,,SCOTTSBLUFF,NE,,US,+1 308-562-6003,,,Blue Rhino,Q65681213
201823,bluerhino,Menards - SCOTTSBLUFF #3260,,SCOTTSBLUFF,NE,,US,+1 308-630-0054,,,Blue Rhino,Q65681213
119455,bluerhino,Bomgaar's #053,,Scottsbluff,NE,,US,+1 308-635-8500,,,Blue Rhino,Q65681213
https://local.buckle.com/ne/scottsbluff/clothing-9.html,buckle_us,Scottsbluff Men’s & Women’s Clothing,,Scottsbluff,NE,,US,+1 308-632-5772,https://local.buckle.com/ne/scottsbluff/clothing-9.html,Mo-Sa 10:00-19:00; Su 12:00-18:00,Buckle,Q4983306
20729,burgerking,Burger King,,Scottsbluff,NE,,US,+1 866-394-2493,https://www.bk.com/store-locator/store/restaurant_21432,Mo-Su 06:00-22:00,Burger King,Q177054
3845,cenex,Panhandle Coop Assoc,,Scottsbluff,NE,,US,+1 308-635-3302,,24/7,Cenex,Q62127191
9679,cenex,Panhandle Coop Assn,,Scottsbluff,NE,,US,+1 308-632-5302,,24/7,Cenex,Q62127191
10479,chevrolet,"TEAM CHEVROLET, GMC",,Scottsbluff,NE,,US,+1 308-632-2173,https://www.teamchevroletgmc.com,Mo-Sa 08:00-18:00,Chevrolet,Q29570
701.860.0002,chilis,Scottsbluff,,Scottsbluff,NE,,US,+1 308-633-1580,https://www.chilis.com/locations/us/nebraska/scottsbluff/scottsbluff/,Mo-Th 11:00-22:00; Fr-Sa 11:00-23:00; Su 11:00-22:00,Chili's,Q1072948
67985,citi,ATM PLATTE VALLEY BAN,,Scottsbluff,NE,,US,,,,Citibank,Q857063
66596,citi,ATM Northgate Ampride,,Scottsbluff,NE,,US,,,,Citibank,Q857063
67980,citi,ATM PLATTE VALLEY BAN,,Scottsbluff,NE,,US,,,,Citibank,Q857063
88782,citi,ATM Walgreens,,Scottsbluff,NE,,US,,,,Citibank,Q857063
73783,citi,ATM RIVERSTONE BANK,,Scottsbluff,NE,,US,,,,Citibank,Q857063
73784,citi,ATM RIVERSTONE BANK,,Scottsbluff,NE,,US,,,,Citibank,Q857063
55842,citi,ATM FIRST INTERSTATE BANK,,Scottsbluff,NE,,US,,,,Citibank,Q857063
64448,citi,ATM Main Street Market,,Scottsbluff,NE,,US,,,,Citibank,Q857063
67996,citi,ATM Plaza Ampride,,Scottsbluff,NE,,US,,,,Citibank,Q857063
67988,citi,ATM PLATTE VALLEY BAN,,Scottsbluff,NE,,US,,,,Citibank,Q857063
67974,citi,ATM PLATTE VALLEY BAN,,Scottsbluff,NE,,US,,,,Citibank,Q857063
67970,citi,ATM PLATTE VALLEY BAN,,Scottsbluff,NE,,US,,,,Citibank,Q857063
81617,citi,ATM Target,,Scottsbluff,NE,,US,,,,Citibank,Q857063
70189645,cricket_wireless,Cricket Wireless Authorized Retailer,,Scottsbluff,NE,,US,+1 308-562-3860,https://www.cricketwireless.com/stores/ll/US/NE/Scottsbluff/202-W-27th-St,Mo-Fr 10:00-19:00; Sa 10:00-18:00; Su 12:00-17:00,Cricket Wireless,Q5184987
348,culvers_us,"Culver's of Scottsbluff, NE - Ave B",,Scottsbluff,NE,,US,+1 308-220-0045,http://www.culvers.com/restaurants/scottsbluff,Mo-Fr 10:00-22:00; Su 10:00-22:00,Culver's,Q1143589
6155,dominos_pizza_us,Domino's Pizza,,Scottsbluff,NE,,US,+1 308-635-0330,https://pizza.dominos.com/nebraska/scottsbluff/1015-w-27th-st,Mo-Th 10:00-24:00; Fr-Sa 10:00-01:00; Su 10:00-24:00,Domino's,Q839466
226,dunhams_sports_us,SCOTTSBLUFF NE,,SCOTTSBLUFF,NE,,US,+1 308-220-0071,https://www.dunhamssports.com/store-details?storeID=226,Mo-Sa 09:00-21:00; Su 10:00-19:00,Dunham's Sports,Q5315238
https://www.edwardjones.com/us-en/financial-advisor/dail-eastman,edwardjones,Dail D Eastman,,Scottsbluff,NE,,US,+1 308-635-1599,https://www.edwardjones.com/us-en/financial-advisor/dail-eastman,Mo-Th 08:30-16:30; Fr 08:30-14:00,Edward Jones,Q5343830
E16374,enterprise,Scottsbluff Western Nebraska Reg. Airport,,Scottsbluff,NE,,US,+1 308-635-7300,,,Enterprise Rent-A-Car,Q17085454
365,first_cash,First Cash Pawn,,Scottsbluff,NE,,US,+1 308-635-7972,,,First Cash Pawn,
Motorcraft3853USAEnglish,ford,Slafter Oil Company,,Nebraska,NE,,US,,,,Ford,Q44294
Motorcraft3859USAEnglish,ford,"Fremont Motor Scottsbluff, LLC",,Nebraska,NE,,US,+1 308-635-3701,,,Ford,Q44294
https://www.ford.com/dealerships/dealer-details/ne/scottsbluff/transwest-ford-llc/,ford_dealers_us,"Transwest Ford , LLC",,Scottsbluff,NE,,US,+1 307-338-2478,https://www.ford.com/dealerships/dealer-details/ne/scottsbluff/transwest-ford-llc/,Mo-Fr 08:00-18:00; Sa 09:00-17:00,Ford Motor Company,Q44294
ad1adb75-458a-e111-8dde-005056934050,goodwill,Scottsbluff Store,,Scottsbluff,NE,,US,+1 308-632-3949,https://www.goodwill.org/locator/location/?store=YWQxYWRiNzUtNDU4YS1lMTExLThkZGUtMDA1MDU2OTM0MDUw&lat=NDEuODY2OA==&lng=LTEwMy42NDQzMQ==,,Goodwill,Q5583655
https://salons.greatclips.com/us/ne/scottsbluff/3410-ave-i,greatclips,Great Clips,,Scottsbluff,NE,,US,+1 308-632-2167,https://salons.greatclips.com/us/ne/scottsbluff/3410-ave-i,Mo-Fr 09:00-19:00; Sa 08:00-18:00; Su 10:00-17:00,Great Clips,Q5598967
https://www.harborfreight.com/storelocator/2302-frontage-road-ste-66-scottsbluff-69361?number=3017,harborfreight,"Harbor Freight Tools Scottsbluff, NE",,Scottsbluff,NE,,US,+1 308-562-2525,https://www.harborfreight.com/storelocator/2302-frontage-road-ste-66-scottsbluff-69361?number=3017,Mo-Sa 08:00-20:00; Su 09:00-18:00,Harbor Freight Tools,Q5654601
bffnehx-hampton-suites-scottsbluff-conference-center,hilton,Hampton Inn & Suites Scottsbluff-Conference Center,,,NE,,US,+1 308-635-5200,https://www.hilton.com/ar/hotels/bffnehx-hampton-suites-scottsbluff-conference-center/,,Hampton by Hilton,Q5646230
27346,h_r_block,H&R Block,,Scottsbluff,NE,,US,+1 308-632-4211,https://www.hrblock.com/local-tax-offices/nebraska/scottsbluff/302-w-27th/27346/,,H&R Block,Q5627799
https://locations.jimmyjohns.com/ne/scottsbluff/sandwiches-1398.html,jimmy_johns,Jimmy John's,,Scottsbluff,NE,,US,+1 308-220-0509,https://locations.jimmyjohns.com/ne/scottsbluff/sandwiches-1398.html,,Jimmy John's,Q1689380
https://locations.kfc.com/#11246898,kfc,Chicken Nuggets Near Scottsbluff,,Scottsbluff,NE,,US,,https://locations.kfc.com/ne/scottsbluff/828-w-27th-street/chickennugget,Mo-Tu 11:00-21:30; We 11:00-14:00; Th-Su 11:00-21:30,KFC,Q524757
96005,little_free_library,Educational Service Unit #13 #96005 Scottsbluff NE,,Scottsbluff,NE,,US,,,,Little Free Library,Q6650101
44640,little_free_library,Jeanne Laessle #44640 Scottsbluff NE,,Scottsbluff,NE,,US,,,,Little Free Library,Q6650101
2345,little_free_library,Tiffany Schank #2345 Scottsbluff NE,,Scottsbluff,NE,,US,,,,Little Free Library,Q6650101
100500,little_free_library,Fair Weather LFL #100500 Scottsbluff NE,,Scottsbluff,NE,,US,,,,Little Free Library,Q6650101
31482,little_free_library,Little Free Library #31482 Scottsbluff NE,,Scottsbluff,NE,,US,,,,Little Free Library,Q6650101
BFFFI,marriott,Fairfield Inn & Suites Scottsbluff,,Scottsbluff,NE,,US,+1 308-633-3500,https://www.marriott.com/BFFFI,,Fairfield by Marriott,Q5430314
https://locations.maurices.com/#11688675,maurices,maurices Walmart Center,,Scottsbluff,NE,,US,+1 308-635-7622,https://locations.maurices.com/us/ne/scottsbluff/3506-ave-i,Mo-Sa 10:00-20:00; Su 11:00-18:00,maurices,Q6793571
3260,menards,SCOTTSBLUFF,"2401 DELTA DR, SCOTTSBLUFF, NE 69361",SCOTTSBLUFF,NE,,US,,https://www.menards.com/main/storeDetails.html?store=3260,,Menards,Q1639897
71481344,moneygram,WAL-MART - #867,,SCOTTSBLUFF,NE,,US,+1 308-632-2666,,Mo-Sa 08:00-20:00; Su 10:00-18:00,MoneyGram,Q1944412
https://locations.oreillyauto.com/ne/scottsbluff/check-engine-light-testing-4486.html,oreilly,Your Scottsbluff O'Reilly Auto Parts Store,,Scottsbluff,NE,,US,+1 308-632-8005,https://locations.oreillyauto.com/ne/scottsbluff/check-engine-light-testing-4486.html,Mo-Sa 07:30-21:00; Su 09:00-20:00,O'Reilly Auto Parts,Q7071951
https://locations.oreillyauto.com/ne/scottsbluff/wiper-installation-4486.html,oreilly,Your Scottsbluff O'Reilly Auto Parts Store,,Scottsbluff,NE,,US,+1 308-632-8005,https://locations.oreillyauto.com/ne/scottsbluff/wiper-installation-4486.html,Mo-Sa 07:30-21:00; Su 09:00-20:00,O'Reilly Auto Parts,Q7071951
https://locations.oreillyauto.com/ne/scottsbluff/battery-testing-4486.html,oreilly,Your Scottsbluff O'Reilly Auto Parts Store,,Scottsbluff,NE,,US,+1 308-632-8005,https://locations.oreillyauto.com/ne/scottsbluff/battery-testing-4486.html,Mo-Sa 07:30-21:00; Su 09:00-20:00,O'Reilly Auto Parts,Q7071951
https://locations.oreillyauto.com/ne/scottsbluff/autopartes-4486.html,oreilly,Tu tienda O'Reilly Auto Parts en Scottsbluff,,Scottsbluff,NE,,US,+1 308-632-8005,https://locations.oreillyauto.com/ne/scottsbluff/autopartes-4486.html,Mo-Sa 07:30-21:00; Su 09:00-20:00,O'Reilly Auto Parts,Q7071951
https://locations.papamurphys.com/#15430335,papamurphys,Pizza Takeout & Delivery,,Scottsbluff,NE,,US,+1 308-635-7755,https://locations.papamurphys.com/ne/scottsbluff/2801-avenue-b,Mo-Su 10:00-20:00,Papa Murphy's,Q7132349
ne_scottsbluff_726-w-27th-st,pizza_hut_us,726 W 27th St,,Scottsbluff,NE,,US,+1 308-632-3022,https://locations.pizzahut.com/ne/scottsbluff/726-w-27th-st,,Pizza Hut,Q191615
home-depot-3210-12942,ppgpaints,HOME DEPOT 3210,,"Scottsbluff, ",NE,,US,+1 308-630-2398,https://www.ppgpaints.com/store-locator/us/nebraska/scottsbluff-paint-stores/home-depot-3210-12942,,PPG Paints,Q83891559
https://locations.qdoba.com/us/ne/scottsbluff/837-w-27th-st.html,qdoba,QDOBA Scottsbluff,,Scottsbluff,NE,,US,+1 308-633-9067,https://locations.qdoba.com/us/ne/scottsbluff/837-w-27th-st.html,Mo-Su 10:30-21:00,Qdoba,Q1363885
3594,rentacenter,Rent-A-Center,,Scottsbluff,NE,,US,+1 308-632-2788,https://locations.rentacenter.com/nebraska/scottsbluff/3410-ave-i/,Mo-Sa 10:00-18:00,Rent-A-Center,Q7313497
https://local.pharmacy.safeway.com/#5673741,safeway,Safeway Pharmacy,,Scottsbluff,NE,,US,+1 308-635-1444,https://local.pharmacy.safeway.com/safeway/ne/scottsbluff/601-broadway.html,,Safeway,Q1508234
https://local.safeway.com/#5604689,safeway,Safeway,,Scottsbluff,NE,,US,+1 308-635-1232,https://local.safeway.com/safeway/ne/scottsbluff/601-broadway.html,,Safeway,Q1508234
https://stores.saloncentric.com/#29173687,salon_centric_us,SalonCentric,,,NE,,US,+1 308-632-8326,https://stores.saloncentric.com/ne/scottsbluff/4707,Mo 08:00-18:30; Tu-Fr 08:00-18:00; Sa 08:30-16:00,SalonCentric,Q124339481
160,scooters_coffee_us,Hwy 26 & Ave. B,,Scottsbluff,NE,,US,+1 308-633-0013,,Mo-Fr 06:00-19:00; Sa-Su 07:00-19:00,Scooter's Coffee,Q117280308
258,scooters_coffee_us,Overland & Avenue I,,Scottsbluff,NE,,US,+1 308-633-0013,,Mo-Fr 06:00-19:00; Sa-Su 07:00-19:00,Scooter's Coffee,Q117280308
https://stations.sinclairoil.com/ne/scottsbluff/2319-east-overland,sinclair_us,Sinclair Gas Station,,Scottsbluff,NE,,US,+1 308-633-6690,https://stations.sinclairoil.com/ne/scottsbluff/2319-east-overland,Mo-Su 05:00-23:00,Sinclair,Q1290900
https://stations.sinclairoil.com/ne/scottsbluff/902-w-overland,sinclair_us,Sinclair Gas Station,,Scottsbluff,NE,,US,+1 308-635-2778,https://stations.sinclairoil.com/ne/scottsbluff/902-w-overland,Mo-Su 05:00-23:00,Sinclair,Q1290900
https://stations.sinclairoil.com/ne/scottsbluff/837-w-27th-st,sinclair_us,Sinclair Gas Station,,Scottsbluff,NE,,US,+1 308-633-3595,https://stations.sinclairoil.com/ne/scottsbluff/837-w-27th-st,Mo-Su 05:00-23:00,Sinclair,Q1290900
1711-frontage-road,staples,"Staples Scottsbluff, NE",,Scottsbluff,NE,,US,,https://stores.staples.com/ne/scottsbluff/1711-frontage-road,Mo-Fr 09:00-20:00; Sa 10:00-19:00; Su 10:00-18:00,Staples,Q785943
https://restaurants.subway.com/#14903976,subway,Subway,,Scottsbluff Scotts Bluff,NE,,US,+1 308-632-3005,https://restaurants.subway.com/united-states/ne/scottsbluff/814-w-27th-st,Mo-Sa 09:00-22:30; Su 09:00-21:00,Subway,Q244457
https://locations.tacobell.com/#1019739965,taco_bell,Taco Bell,,Scottsbluff,NE,,US,+1 308-562-3878,https://locations.tacobell.com/ne/scottsbluff/806-w-27th-st.html,,Taco Bell,Q752941
583803,taco_johns_us,Scottsbluff,"3206 Ave I, Scottsbluff NE 69361",Scottsbluff,NE,,US,+1 308-633-3100,https://locations.tacojohns.com/ne/scottsbluff/3206-ave-i/,Mo-Th 06:00-23:00; Fr-Sa 06:00-00:00; Su 07:00-23:00,Taco John's,Q7673962
1381021,usps,SCOTTSBLUFF,,SCOTTSBLUFF,NE,,US,+1 308-635-1121,,Mo-Fr 08:30-16:30; Sa 09:15-11:00,United States Postal Service,Q668687
6936100031,usps_collection_boxes,USPS COLLECTION BOX - BLUE BOX,112 W 20TH ST,SCOTTSBLUFF,NE,,US,,,,United States Postal Service,Q668687
6936100032,usps_collection_boxes,USPS COLLECTION BOX - BLUE BOX,112 W 20TH ST,SCOTTSBLUFF,NE,,US,,,,United States Postal Service,Q668687
6936100035,usps_collection_boxes,USPS COLLECTION BOX - PO LOBBY,112 W 20TH ST,SCOTTSBLUFF,NE,,US,,,,United States Postal Service,Q668687
6936100036,usps_collection_boxes,USPS COLLECTION BOX - PO LOBBY,112 W 20TH ST,SCOTTSBLUFF,NE,,US,,,,United States Postal Service,Q668687
6936100038,usps_collection_boxes,USPS COLLECTION BOX - PO LOBBY,112 W 20TH ST,SCOTTSBLUFF,NE,,US,,,,United States Postal Service,Q668687
6936100026,usps_collection_boxes,USPS COLLECTION BOX - BLUE BOX,1601 E 27TH ST,SCOTTSBLUFF,NE,,US,,,,United States Postal Service,Q668687
R00000188181,verizon_us,Scottsbluff,,Scottsbluff,NE,,US,+1 308-632-2036,https://www.verizon.com/stores/details/nebraska/scottsbluff/scottsbluff-334067/,Mo-Fr 09:00-18:00; Sa 09:00-17:00; Su 10:00-17:00,Verizon,Q919641
,visa,,,NORTH PLATTE,NE,,US,,,,,
,visa,,,SCOTTSBLUFF,NE,,US,,,,,
,visa,,,SCOTTSBLUFF,NE,,US,,,,,
,visa,,,SCOTTSBLUFF,NE,,US,,,,,
,visa,,,SCOTTSBLUFF,NE,,US,,,,,
,visa,,,SCOTTSBLUFF,NE,,US,,,,,
,visa,,,SCOTTSBLUFF,NE,,US,,,,,
,visa,,,SCOTTSBLUFF,NE,,US,,,,,
,visa,,,SCOTTSBLUFF,NE,,US,,,,,
,visa,,,SCOTTSBLUFF,NE,,US,,,,,
,visa,,,SCOTTSBLUFF,NE,,US,,,,,
,visa,,,SCOTTSBLUFF,NE,,US,,,,,
,visa,,,SCOTTSBLUFF,NE,,US,,,,,
,visa,,,SCOTTSBLUFF,NE,,US,,,,,
,visa,,,SCOTTSBLUFF,NE,,US,,,,,
,visa,,,SCOTTSBLUFF,NE,,US,,,,,
,visa,,,SCOTTSBLUFF,NE,,US,,,,,
,visa,,,SCOTTSBLUFF,NE,,US,,,,,
,visa,,,SCOTTSBLUFF,NE,,US,,,,,
,visa,,,SCOTTSBLUFF,NE,,US,,,,,
,visa,,,SCOTTSBLUFF,NE,,US,,,,,
,visa,,,SCOTTSBLUFF,NE,,US,,,,,
,visa,,,SCOTTSBLUFF,NE,,US,,,,,
,visa,,,SCOTTSBLUFF,NE,,US,,,,,
,visa,,,SCOTTSBLUFF,NE,,US,,,,,
,visa,,,SCOTTSBLUFF,NE,,US,,,,,
,visa,,,SCOTTSBLUFF,NE,,US,,,,,
,visa,,,SCOTTSBLUFF,NE,,US,,,,,
,visa,,,SCOTTSBLUFF,NE,,US,,,,,
,visa,,,SCOTTSBLUFF,NE,,US,,,,,
,visa,,,SCOTTSBLUFF,NE,,US,,,,,
,visa,,,SCOTTSBLUFF,NE,,US,,,,,
,visa,,,SCOTTSBLUFF,NE,,US,,,,,
,visa,,,SCOTTSBLUFF,NE,,US,,,,,
,visa,,,SCOTTSBLUFF,NE,,US,,,,,
,visa,,,SCOTTSBLUFF,NE,,US,,,,,
,visa,,,SCOTTSBLUFF,NE,,US,,,,,
,visa,,,SCOTTSBLUFF,NE,,US,,,,,
,visa,,,SCOTTSBLUFF,NE,,US,,,,,
,visa,,,SCOTTSBLUFF,NE,,US,,,,,
,visa,,,SCOTTSBLUFF,NE,,US,,,,,
,visa,,,SCOTTSBLUFF,NE,,US,,,,,
,visa,,,SCOTTSBLUFF,NE,,US,,,,,
,visa,,,SCOTTSBLUFF,NE,,US,,,,,
,visa,,,SCOTTSBLUFF,NE,,US,,,,,
,visa,,,SCOTTSBLUFF,NE,,US,,,,,
,visa,,,SCOTTSBLUFF,NE,,US,,,,,
,visa,,,SCOTTSBLUFF,NE,,US,,,,,
https://www.walgreens.com/locator/walgreens-205+w+27th+st-scottsbluff-ne-69361/id=7383,walgreens,Walgreens,,Scottsbluff,NE,,US,+1 308-635-3296,https://www.walgreens.com/locator/walgreens-205+w+27th+st-scottsbluff-ne-69361/id=7383,Mo-Su 07:00-23:00,Walgreens,Q1591889
