Ref,Spider,Name,Address,City,State,Zipcode,Country,Phone,Website,Hours,Brand,WikiData
https://www.academy.com/storelocator/#8745657,academy_us,Academy Sports + Outdoors,,Jacksonville,FL,,US,+1 904-564-5010,https://www.academy.com/storelocator/florida/jacksonville/store-0104,Mo-Th 09:00-21:00; Fr 09:00-22:00; Sa 08:00-22:00; Su 09:00-21:00,Academy Sports + Outdoors,Q4671380
https://stores.advanceautoparts.com/fl/jacksonville/9737-fort-caroline-rd,advance_auto_parts_us,Advance Auto Parts,,Jacksonville,FL,,US,+1 904-641-2020,https://stores.advanceautoparts.com/fl/jacksonville/9737-fort-caroline-rd,Mo-Sa 07:30-21:00; Su 09:00-20:00,Advance Auto Parts,Q4686051
https://stores.advanceautoparts.com/fl/jacksonville/12801-atlantic-blvd,advance_auto_parts_us,Advance Auto Parts,,Jacksonville,FL,,US,+1 904-220-2006,https://stores.advanceautoparts.com/fl/jacksonville/12801-atlantic-blvd,Mo-Sa 07:30-21:00; Su 09:00-20:00,Advance Auto Parts,Q4686051
https://stores.advanceautoparts.com/fl/jacksonville/10014-atlantic-blvd,advance_auto_parts_us,Advance Auto Parts,,Jacksonville,FL,,US,+1 904-724-4643,https://stores.advanceautoparts.com/fl/jacksonville/10014-atlantic-blvd,Mo-Sa 07:30-22:00; Su 08:00-21:00,Advance Auto Parts,Q4686051
https://stores.aldi.us/#9747188,aldi_sud_us,ALDI  9337 Atlantic Blvd.,,Jacksonville,FL,,US,+1 888-474-1106,https://stores.aldi.us/fl/jacksonville/9337-atlantic-blvd,Mo-Su 09:00-20:00,ALDI,Q41171672
https://locations.arbys.com/fl/jacksonville/9361-atlantic-blvd.html,arbys_us,"Arby's Fast-Food Drive Through Near You in Jacksonville, FL",,Jacksonville,FL,,US,+1 904-727-9213,https://locations.arbys.com/fl/jacksonville/9361-atlantic-blvd.html,Mo-We 10:00-23:00; Th-Sa 10:00-24:00; Su 10:00-23:00,Arby's,Q630866
https://stores.ashleyfurniture.com/store/us/florida/jacksonville/9000170255/,ashley_furniture,"Ashley Outlet Jacksonville, FL",,Jacksonville,FL,,US,+1 904-551-4162,https://stores.ashleyfurniture.com/store/us/florida/jacksonville/9000170255/,,Ashley Furniture,Q4805437
12429,asics_us,Academy Sports + Outdoors,11901 Atlantic Boulevard ,Jacksonville,FL,,US,+1 904-564-5010,,,asics,Q327247
62170,asics_us,Shoe Carnival,11824 Atlantic Blvd,Jacksonville,FL,,US,+1 904-642-2017,,,asics,Q327247
95169,att_us,REGENCY PARK,,Jacksonville,FL,,US,+1 904-725-1134,https://www.att.com/stores/florida/jacksonville/95169,Mo-Sa 10:00-20:00; Su 10:00-18:00,AT&T,Q298594
USAA05A54,audi,Audi Jacksonville,"11401 Atlantic Blvd, Jacksonville, FL 32225",Jacksonville,FL,,US,+1 904-367-3700,,,Audi,Q23317
3821,autozone_us,AutoZone Auto Parts Jacksonville,,Jacksonville,FL,,US,+1 904-724-5174,https://www.autozone.com/locations/fl/jacksonville/9805-atlantic-blvd.html,Mo-Sa 07:00-22:00; Su 08:00-22:00,AutoZone,Q4826087
https://www.avis.com/en/locations/us/fl/jacksonville/j3x,avis,Avis U S A Jacksonville,,Jacksonville,FL,,US,+1 904-641-1163,https://www.avis.com/en/locations/us/fl/jacksonville/j3x,Mo-Fr 08:00-18:00; Sa 08:00-16:00; Su 10:00-16:00,Avis,Q791136
https://www.banfield.com/locations/veterinarians/fl/jacksonville/jac,banfield_pet_hospital,Jacksonville (Regency Square Mall),,Jacksonville,FL,,US,+1 904-725-5324,https://www.banfield.com/locations/veterinarians/fl/jacksonville/jac,Mo-Fr 08:00-18:00; Sa 08:00-17:00; Su 00:00-24:00,Banfield Pet Hospital,Q2882416
https://locators.bankofamerica.com/fl/jacksonville/financial-centers-jacksonville-12209.html,bankofamerica,Bank of America Financial Center & Drive-Thru ATM | Regency,,Jacksonville,FL,,US,+1 904-724-4445,https://locators.bankofamerica.com/fl/jacksonville/financial-centers-jacksonville-12209.html,Mo-Fr 09:00-17:00; Sa 09:00-14:00,Bank of America,Q487907
https://locators.bankofamerica.com/fl/jacksonville/financial-centers-jacksonville-12097.html,bankofamerica,Bank of America Financial Center with Drive-Thru ATM & Teller Services | Harbour Place,,Jacksonville,FL,,US,+1 904-221-0338,https://locators.bankofamerica.com/fl/jacksonville/financial-centers-jacksonville-12097.html,Mo-Fr 10:00-16:00,Bank of America,Q487907
https://locations.baskinrobbins.com/fl/jacksonville/3031-monument-rd-352469-br,baskin_robbins_us,Baskin-Robbinsâ„¢,,Jacksonville,FL,,US,+1 904-683-5522,https://locations.baskinrobbins.com/fl/jacksonville/3031-monument-rd-352469-br,Mo-Su 05:00-21:00,Baskin-Robbins,Q584601
BBW02843,bathandbodyworks_us,SOUTHSIDE COMMONS,,JACKSONVILLE,FL,,US,+1 904-596-9968,,Mo-Sa 09:00-21:00; Su 10:00-18:00,Bath & Body Works,Q810773
632,bealls_us,Bealls,,Jacksonville,FL,,US,+1 904-722-0780,https://stores.bealls.com/fl/jacksonville/clothing-store-632.html,Mo-Th 09:00-21:00; Fr-Sa 09:00-21:30; Su 10:00-20:00,Bealls,Q4876153
https://stores.bestbuy.com/fl/jacksonville/9355-atlantic-blvd-429.html,bestbuy,Best Buy Jacksonville,,Jacksonville,FL,,US,+1 904-725-7500,https://stores.bestbuy.com/fl/jacksonville/9355-atlantic-blvd-429.html,,Best Buy,Q533415
https://local.biglots.com/#13190264,biglots,Big Lots - Northeast Jacksonville,,Jacksonville,FL,,US,+1 904-762-1964,https://local.biglots.com/fl/jacksonville/9119-merrill-rd,Mo-Sa 09:00-21:00; Su 10:00-19:00,Big Lots,Q4905973
0108,bjswholesale,Jacksonville - Atlantic Blvd ,,Jacksonville,FL,,US,+1 904-221-2444,https://www.bjs.com/mapDetail;city=0108,Mo-Sa 08:00-21:00,BJ's Wholesale,Q4835754
241602,bluerhino,Circle K #2709210,,Jacksonville,FL,,US,+1 904-667-4290,,,Blue Rhino,Q65681213
723,bluerhino,Lowe's #503,,Jacksonville,FL,,US,+1 904-855-8088,,,Blue Rhino,Q65681213
144300,bluerhino,Speedway #6437,,Jacksonville,FL,,US,+1 904-721-2001,,,Blue Rhino,Q65681213
29485,bluerhino,Gate Food Post #1110,,Jacksonville,FL,,US,+1 904-721-8703,,,Blue Rhino,Q65681213
59433,bluerhino,Gate Food Post #1203,,Jacksonville,FL,,US,+1 904-722-1928,,,Blue Rhino,Q65681213
734,bluerhino,Walmart #1444,,Jacksonville,FL,,US,+1 904-721-4941,,,Blue Rhino,Q65681213
238407,bluerhino,Circle K #2726236,,Jacksonville,FL,,US,+1 904-721-8726,,,Blue Rhino,Q65681213
175848,bluerhino,Winn Dixie #0054 - Jacksonville,,Jacksonville,FL,,US,+1 904-646-0771,,,Blue Rhino,Q65681213
140719,bluerhino,Gate Food Post #1219,,Jacksonville,FL,,US,+1 904-998-7126,,,Blue Rhino,Q65681213
61622,bluerhino,Walmart #5054,,Jacksonville,FL,,US,+1 904-641-8088,,,Blue Rhino,Q65681213
153546,bluerhino,Walgreens #06384,,Jacksonville,FL,,US,+1 904-221-8717,,,Blue Rhino,Q65681213
154021,bluerhino,Walgreens #10286,,Jacksonville,FL,,US,+1 904-646-1770,,,Blue Rhino,Q65681213
238347,bluerhino,Circle K #2721137,,Jacksonville,FL,,US,+1 904-221-3313,,,Blue Rhino,Q65681213
175823,bluerhino,Winn Dixie #0174 - Jacksonville,,Jacksonville,FL,,US,+1 904-221-3062,,,Blue Rhino,Q65681213
67078,bluerhino,Lowe's #1699,,Jacksonville,FL,,US,+1 904-486-4701,,,Blue Rhino,Q65681213
154966,bluerhino,Walgreens #4056,,JACKSONVILLE,FL,,US,+1 904-220-6606,,,Blue Rhino,Q65681213
28644,bluerhino,First Coast Shell #1016,,Jacksonville,FL,,US,+1 904-220-7865,,,Blue Rhino,Q65681213
46778_4,bmw_group,"Tom Bush BMW Jacksonville, Certified Collision Repair Center",,Jacksonville,FL,,US,+1 904-743-1144,,,BMW,Q26678
46778_05,bmw_group,Tom Bush MINI,,Jacksonville,FL,,US,+1 877-557-0033,https://www.tombushmini.com,,Mini,Q116232
46778_01,bmw_group,Tom Bush BMW Jacksonville,,Jacksonville,FL,,US,+1 904-725-0911,https://www.tombushbmw.com,,BMW,Q26678
26882196979213222500100000000000,bp,BP,,Jacksonville,FL,,US,+1 904-410-7949,,Mo-Su 06:00-22:00,BP,Q152057
16558607877003222500100000000000,bp,BP,,Jacksonville,FL,,US,+1 904-724-9078,,24/7,BP,Q152057
52501406366753222500100000000000,bp,BP,,Jacksonville,FL,,US,+1 904-329-1548,,Mo-Su 07:00-22:00,BP,Q152057
60327950425473222500100000000000,bp,BP,,Jacksonville,FL,,US,+1 904-220-7861,,Mo-Su 06:00-22:00,BP,Q152057
https://stores.catofashions.com/#26559713,cato_us,Cato,,,FL,,US,+1 904-744-6803,https://stores.catofashions.com/fl/jacksonville/9119-merrill-road,Mo-Sa 10:00-19:00; Su 13:00-18:00,Cato,Q16956136
2051561,chase_us,DU WITH CANOPY IN PARKING LOT - 407833,,JACKSONVILLE,FL,,US,+1 800-935-9935,https://locator.chase.com/fl/jacksonville/9824-atlantic-blvd,,Chase,Q524629
2042902,chase_us,Atlantic and Hodges - New branch,,Jacksonville,FL,,US,+1 904-513-5686,https://locator.chase.com/fl/jacksonville/13245-atlantic-blvd,Mo-Fr 09:00-17:00,Chase,Q524629
26341,chevrolet,"GEORGE MOORE CHEVROLET, INC.",,Jacksonville,FL,,US,+1 877-454-1816,https://www.moorechevy.com,Mo-Fr 08:30-20:00; Sa 08:30-18:00,Chevrolet,Q29570
001.005.0946,chilis,Atlantic Beach,,Jacksonville,FL,,US,+1 904-220-2136,https://www.chilis.com/locations/us/florida/jacksonville/atlantic-beach/,Mo-Th 11:00-23:00; Fr-Sa 11:00-24:00; Su 11:00-23:00,Chili's,Q1072948
001.005.0251,chilis,Regency,,Jacksonville,FL,,US,+1 904-725-3450,https://www.chilis.com/locations/us/florida/jacksonville/regency/,Mo-Th 11:00-23:00; Fr-Sa 11:00-24:00; Su 11:00-23:00,Chili's,Q1072948
fl_jacksonville_9395-atlantic-blvd,chipotle, ,,Jacksonville,FL,,US,+1 904-721-5658,https://locations.chipotle.com/fl/jacksonville/9395-atlantic-blvd,,Chipotle,Q465751
fl_jacksonville_11919-atlantic-blvd,chipotle, ,,Jacksonville,FL,,US,+1 904-893-4518,https://locations.chipotle.com/fl/jacksonville/11919-atlantic-blvd,,Chipotle,Q465751
https://locations.chuckecheese.com/us/fl/jacksonville/9820-atlantic-blvd.,chuckecheese,Chuck E. Cheese,,Jacksonville,FL,,US,+1 904-724-8988,https://locations.chuckecheese.com/us/fl/jacksonville/9820-atlantic-blvd.,Mo-Fr 11:00-21:00; Sa 10:00-22:00; Su 11:00-21:00,Chuck E. Cheese,Q2438391
fl-jacksonville/cinemark-jacksonville-atlantic-north-and-xd,cinemark,Cinemark Jacksonville Atlantic North and XD,,Jacksonville,FL,,US,+1 904-915-2091,https://www.cinemark.com/theatres/fl-jacksonville/cinemark-jacksonville-atlantic-north-and-xd,,Cinemark,Q707530
39993,citi,ATM Circle K,,Jacksonville,FL,,US,,,,Citibank,Q857063
47359,citi,ATM CVS,,Jacksonville,FL,,US,,,,Citibank,Q857063
69529,citi,ATM PNC AT WAWA,,Jacksonville,FL,,US,,,,Citibank,Q857063
95465,citi,ATM Winn Dixie,,Jacksonville,FL,,US,,,,Citibank,Q857063
79294,citi,ATM Speedway,,Jacksonville,FL,,US,,,,Citibank,Q857063
75750,citi,ATM Shell #1006,,Jacksonville,FL,,US,,,,Citibank,Q857063
40482,citi,ATM Circle K,,Jacksonville,FL,,US,,,,Citibank,Q857063
30759,citi,ATM 7ELEVEN-FCTI,,Jacksonville,FL,,US,,,,Citibank,Q857063
95438,citi,ATM Winn Dixie,,Jacksonville,FL,,US,,,,Citibank,Q857063
87126,citi,ATM Walgreens,,Jacksonville,FL,,US,,,,Citibank,Q857063
79353,citi,ATM Speedway,,Jacksonville,FL,,US,,,,Citibank,Q857063
40569,citi,ATM Circle K,,Jacksonville,FL,,US,,,,Citibank,Q857063
87398,citi,ATM Walgreens,,Jacksonville,FL,,US,,,,Citibank,Q857063
82609,citi,ATM Target,,Jacksonville,FL,,US,,,,Citibank,Q857063
47729,citi,ATM CVS,,Jacksonville,FL,,US,,,,Citibank,Q857063
75753,citi,ATM Shell #1016,,Jacksonville,FL,,US,,,,Citibank,Q857063
,credit_union_us,121 Financial CU,,Jacksonville,FL,,US,+1 904-723-6300,,Mo-Th 09:00-05:00; Fr 09:00-06:00; Sa 09:00-01:00,,
,credit_union_us,First Florida CU,,Jacksonville,FL,,US,,,Mo-Th 09:00-05:00; Fr 09:00-06:00; Sa 09:00-12:00,,
,credit_union_us,Self-Help CU,,Jacksonville,FL,,US,+1 904-360-5100,,Mo-Tu 09:00-05:00; We 10:00-05:00; Th-Fr 09:00-05:00,,
80338514,cricket_wireless,Cricket Wireless Authorized Retailer,,Jacksonville,FL,,US,+1 904-300-3444,https://www.cricketwireless.com/stores/ll/US/FL/Jacksonville/9788-Atlantic-Blvd,Mo-Sa 10:00-20:00; Su 12:00-18:00,Cricket Wireless,Q5184987
80193691,cricket_wireless,Cricket Wireless Authorized Retailer,,Jacksonville,FL,,US,+1 904-717-1687,https://www.cricketwireless.com/stores,Mo-Sa 10:00-19:00; Su 12:00-18:00,Cricket Wireless,Q5184987
431,crunch_fitness,Crunch Fitness,,Jacksonville,FL,,US,+1 904-328-3439,https://www.crunch.com/locations/harbour-village,,Crunch Fitness,Q5190093
515,crunch_fitness,Crunch Fitness,,Jacksonville,FL,,US,+1 904-456-1300,https://www.crunch.com/locations/regency-park,,Crunch Fitness,Q5190093
860,culvers_us,"Culver's of Jacksonville, FL - Monument Rd",,Jacksonville,FL,,US,+1 904-516-4117,http://www.culvers.com/restaurants/jacksonville-fl-monument-rd,Mo-Fr 10:30-22:00; Su 10:30-22:00,Culver's,Q1143589
3957,cvs_us,CVS Pharmacy,,Jacksonville,FL,,US,+1 904-221-0024,https://www.cvs.com/store-locator/jacksonville-fl-pharmacies/13170-atlantic-blvd-suite-47-jacksonville-fl-32225/storeid=3957,Mo-Fr 08:00-22:00; Sa 08:00-21:00; Su 09:00-21:00,CVS Pharmacy,Q2078880
3658,cvs_us,CVS Pharmacy,,Jacksonville,FL,,US,+1 904-642-7460,https://www.cvs.com/store-locator/jacksonville-fl-pharmacies/11900-mccormick-rd-jacksonville-fl-32225/storeid=3658,Mo-Sa 08:00-22:00; Su 09:00-21:00,CVS Pharmacy,Q2078880
16177,cvs_us,CVS Pharmacy,,Jacksonville,FL,,US,+1 904-722-8573,https://www.cvs.com/store-locator/jacksonville-fl-pharmacies/444-monument-rd-jacksonville-fl-32225/storeid=16177,"Mo-Fr 09:00-13:30,14:00-19:00; Sa 09:00-13:30,14:00-17:00; Su 11:00-13:30,14:00-17:00",CVS Pharmacy,Q2078880
248007,dennys,Denny's,,Jacksonville,FL,,US,+1 904-928-0169,https://locations.dennys.com/FL/JACKSONVILLE/248007,24/7,Denny's,Q1189695
0511,dillards,"Dillard's Regency Square Mall in Jacksonville, Florida",,Jacksonville,FL,,US,+1 904-721-9166,https://www.dillards.com/stores/florida/regency-square-mall-jacksonville/0511,Tu-Sa 12:00-19:00; Su 12:00-18:00,Dillard's,Q844805
3800,dominos_pizza_us,Domino's Pizza,,Jacksonville,FL,,US,+1 904-724-7206,https://pizza.dominos.com/florida/jacksonville/1301-monument-rd-suite-25,Mo-Th 10:00-24:00; Fr-Sa 10:00-01:00; Su 10:00-24:00,Domino's,Q839466
354489,dunkin_us,Dunkin',,Jacksonville,FL,,US,+1 904-423-1151,https://locations.dunkindonuts.com/en/fl/jacksonville/12740-atlantic-blvd/354489,Mo-Su 05:00-21:00,Dunkin',Q847743
352469,dunkin_us,Dunkin',,Jacksonville,FL,,US,+1 904-683-5522,https://locations.dunkindonuts.com/en/fl/jacksonville/3031-monument-rd/352469,Mo-Su 05:00-21:00,Dunkin',Q847743
306045,dunkin_us,Dunkin',,Jacksonville,FL,,US,+1 904-642-2205,https://locations.dunkindonuts.com/en/fl/jacksonville/10379-atlantic-blvd/306045,Mo-Su 05:00-19:00,Dunkin',Q847743
https://www.edwardjones.com/us-en/financial-advisor/craig-dekshenieks,edwardjones,Craig A Dekshenieks,,Jacksonville,FL,,US,+1 904-221-8501,https://www.edwardjones.com/us-en/financial-advisor/craig-dekshenieks,,Edward Jones,Q5343830
E14306,enterprise,Jacksonville Regency,,Jacksonville,FL,,US,+1 904-641-8855,,,Enterprise Rent-A-Car,Q17085454
E14354,enterprise,Jacksonville Sandalwood,,Jacksonville,FL,,US,+1 904-265-3750,,,Enterprise Rent-A-Car,Q17085454
1000000697,extra_space_storage,Jacksonville self storage at 100 Girvin Rd,,Jacksonville,FL,,US,+1 904-221-8580,https://www.extraspace.com/storage/facilities/us/florida/jacksonville/1000000697/,Mo-Fr 09:30-18:00; Sa 09:00-17:30,Extra Space Storage,Q5422162
1000000512,extra_space_storage,Jacksonville self storage at 790 Monument Rd,,Jacksonville,FL,,US,+1 904-725-0749,https://www.extraspace.com/storage/facilities/us/florida/jacksonville/1000000512/,Mo-Fr 09:30-18:00; Sa 09:00-17:30,Extra Space Storage,Q5422162
7571,extra_space_storage,Jacksonville Self Storage at 45 Jefferson Rd,,Jacksonville,FL,,US,+1 904-420-2270,https://www.extraspace.com/storage/facilities/us/florida/jacksonville/7571/,Mo-Fr 09:30-18:00; Sa 09:00-17:30,Extra Space Storage,Q5422162
200321734,exxonmobil,CIRCLE K 2726182,,JACKSONVILLE,FL,,US,+1 904-641-4671,https://www.exxon.com/en/find-station/mobil-jacksonville-fl-circlek2726182-200321734,Mo-Su 06:00-23:00,Mobil,Q109676002
200321669,exxonmobil,CIRCLE K 2726517,,JACKSONVILLE,FL,,US,+1 904-646-4050,https://www.exxon.com/en/find-station/mobil-jacksonville-fl-circlek2726517-200321669,24/7,Mobil,Q109676002
30011,family_dollar_us,FAMILY DOLLAR #10011,,Jacksonville,FL,,US,+1 904-539-9092,https://www.familydollar.com/locations/fl/jacksonville/30011/,Mo-Sa 09:00-22:00; Su 09:00-21:00,Family Dollar,Q5433101
https://local.fedex.com/#25197787,fedex,,,Jacksonville,FL,,US,+1 800-463-3339,https://local.fedex.com/en-us/fl/jacksonville/fwy5t,,FedEx,Q459477
https://local.fedex.com/#25198707,fedex,,,Jacksonville,FL,,US,+1 800-463-3339,https://local.fedex.com/en-us/fl/jacksonville/f4wu1,,FedEx,Q459477
https://local.fedex.com/#25205252,fedex,,,Jacksonville,FL,,US,+1 800-463-3339,https://local.fedex.com/en-us/fl/jacksonville/f1f79,,FedEx,Q459477
https://local.fedex.com/#25458268,fedex,,,Jacksonville,FL,,US,+1 800-463-3339,https://local.fedex.com/en-us/fl/jacksonville/82977,,FedEx,Q459477
https://local.fedex.com/#27997161,fedex,FedEx Authorized ShipCenter,,Jacksonville,FL,,US,+1 904-300-3023,https://local.fedex.com/en-us/fl/jacksonville/00u6v,,FedEx,Q459477
https://locations.53.com/#3034460,fifththirdbank,Fifth Third Bank Regency,,Jacksonville,FL,,US,+1 904-414-8579,https://locations.53.com/fl/jacksonville/9245-atlantic-boulevard.html,Mo-Th 09:00-17:00; Fr 09:00-18:00; Sa 09:00-12:00,Fifth Third Bank,Q1411810
https://locations.53.com/#3034006,fifththirdbank,Fifth Third Bank Merrill Road,,Jacksonville,FL,,US,+1 904-483-4280,https://locations.53.com/fl/jacksonville/9125-merrill-road.html,Mo-Th 09:00-17:00; Fr 09:00-18:00; Sa 09:00-12:00,Fifth Third Bank,Q1411810
14230,firestone_auto_care,Firestone Complete Auto Care,,Jacksonville,FL,,US,+1 904-404-7349,https://local.firestonecompleteautocare.com/florida/jacksonville/9501-arlington-expy/,,Firestone,Q420837
https://locations.fivebelow.com/fl/jacksonville/660-commerce-center-drive,five_below,Five Below Southside Commons,,Jacksonville,FL,,US,,https://locations.fivebelow.com/fl/jacksonville/660-commerce-center-drive,Mo-Sa 10:00-20:00; Su 11:00-18:00,Five Below,Q5455836
https://stores.footlocker.com/fl/jacksonville/9402-9406-arlington-exp-10534.html,footlocker,"Foot Locker in Jacksonville: Jacksonville, Florida | Approved | Own It",,Jacksonville,FL,,US,+1 904-723-0163,https://stores.footlocker.com/fl/jacksonville/9402-9406-arlington-exp-10534.html,Mo-Sa 11:00-19:00; Su 12:00-18:00,Foot Locker,Q63335
Motorcraft886USAEnglish,ford,Mike Davidson Ford,,Florida,FL,,US,+1 904-725-3060,,,Ford,Q44294
https://www.ford.com/dealerships/dealer-details/fl/jacksonville/coggin-ford/,ford_dealers_us,Coggin Ford,,Jacksonville,FL,,US,+1 904-893-2735,https://www.ford.com/dealerships/dealer-details/fl/jacksonville/coggin-ford/,Mo-Sa 09:00-19:00; Su 11:00-17:00,Ford Motor Company,Q44294
100215,fresenius_kidney_care_us,Fresenius Kidney Care Regency,,Jacksonville,FL,,US,+1 800-881-5101,https://www.freseniuskidneycare.com/dialysis-centers/florida/100215,Mo 05:00-16:30; We 05:00-16:30; Fr 05:00-16:30,,
5742,gamestop_us,Kernan Village,,Jacksonville,FL,,US,+1 904-998-8844,https://www.gamestop.com/search/?store=5742,Mo-Th 12:00-20:00; Fr-Sa 11:00-21:00; Su 11:00-20:00,GameStop,Q202210
https://stores.gnc.com/#1025844773,gnc,GNC Atlantic North,,,FL,,US,+1 904-516-4771,https://stores.gnc.com/all-stores-florida/jacksonville/11919-atlantic-boulevard,Mo-Sa 09:00-20:00; Su 11:00-18:00,GNC,Q4808595
https://www.goldencorral.com/locations/location-detail/632/golden-corral-merrill-rd/,golden_corral,"Golden Corral 632, Jacksonville, FL",,Jacksonville,FL,,US,+1 904-328-6500,https://www.goldencorral.com/locations/location-detail/632/golden-corral-merrill-rd/,,Golden Corral,Q4039560
2e85e219-e985-eb11-80f0-00505689ac90,goodwill,Cobblestone,,Jacksonville,FL,,US,+1 904-454-4470,https://www.goodwill.org/locator/location/?store=MmU4NWUyMTktZTk4NS1lYjExLTgwZjAtMDA1MDU2ODlhYzkw&lat=MzAuMzYyMDQ=&lng=LTgxLjUwMjcy,,Goodwill,Q5583655
cfa7c1da-29c4-ed11-8108-00505689ac90,goodwill,Kernan & McCormick,,Jacksonville,FL,,US,+1 904-441-1361,https://www.goodwill.org/locator/location/?store=Y2ZhN2MxZGEtMjljNC1lZDExLTgxMDgtMDA1MDU2ODlhYzkw&lat=MzAuMzU5Mg==&lng=LTgxLjQ5MDA5,,Goodwill,Q5583655
2fdfb599-458a-e111-8dde-005056934050,goodwill,San Pablo Donation Center,,Jacksonville,FL,,US,+1 904-220-5200,https://www.goodwill.org/locator/location/?store=MmZkZmI1OTktNDU4YS1lMTExLThkZGUtMDA1MDU2OTM0MDUw&lat=MzAuMzIwMDY=&lng=LTgxLjQ1MTU3,,Goodwill,Q5583655
6cba0a34-458a-e111-8dde-005056934050,goodwill,Hodges Point Donation Center,,Jacksonville,FL,,US,+1 904-992-4705,https://www.goodwill.org/locator/location/?store=NmNiYTBhMzQtNDU4YS1lMTExLThkZGUtMDA1MDU2OTM0MDUw&lat=MzAuMjg3NTI=&lng=LTgxLjQ2Mg==,,Goodwill,Q5583655
https://www.goodyearautoservice.com/en_US/location/Jacksonville-FL-32225-US-000902458,goodyear_us,"Goodyear Auto Service - Queens Harbor, Jacksonville, FL | Oil, Brakes & Repairs | #000902458",,Jacksonville,FL,,US,+1 904-220-4929,https://www.goodyearautoservice.com/en_US/location/Jacksonville-FL-32225-US-000902458,Mo-Sa 07:00-18:00; Su 08:00-17:00,Goodyear,Q620875
https://www.goodyearautoservice.com/en_US/location/Jacksonville-FL-32225-US-000902587,goodyear_us,"Goodyear Auto Service - Regency Mall, Jacksonville, FL | Oil, Brakes & Repairs | #000902587",,Jacksonville,FL,,US,+1 904-724-5111,https://www.goodyearautoservice.com/en_US/location/Jacksonville-FL-32225-US-000902587,Mo-Sa 08:00-18:00,Goodyear,Q620875
https://salons.greatclips.com/us/fl/jacksonville/3031-monument-rd,greatclips,Great Clips,,Jacksonville,FL,,US,+1 904-250-5445,https://salons.greatclips.com/us/fl/jacksonville/3031-monument-rd,Mo-Sa 09:00-19:00; Su 10:00-18:00,Great Clips,Q5598967
https://salons.greatclips.com/us/fl/jacksonville/11957-atlantic-blvd,greatclips,Great Clips,,Jacksonville,FL,,US,+1 904-646-0750,https://salons.greatclips.com/us/fl/jacksonville/11957-atlantic-blvd,Mo-Fr 08:00-19:00; Sa 08:00-17:00; Su 09:00-16:00,Great Clips,Q5598967
1501526,hardees_us,Hardee's,,Jacksonville,FL,,US,+1 904-745-1629,https://locations.hardees.com/fl/jacksonville/9111-merrill-road,,Hardee's,Q1585088
1501531,hardees_us,Hardee's,,Jacksonville,FL,,US,+1 904-221-7136,https://locations.hardees.com/fl/jacksonville/12771-atlantic-blvd,,Hardee's,Q1585088
jaxrshx-hampton-jacksonville-east-regency-square,hilton,Hampton Inn Jacksonville East Regency Square,,,FL,,US,+1 904-722-8881,https://www.hilton.com/ar/hotels/jaxrshx-hampton-jacksonville-east-regency-square/,,Hampton by Hilton,Q5646230
307,honey_baked,HoneyBaked of Jacksonville,,Jacksonville,FL,,US,+1 904-725-2025,https://www.honeybaked.com/stores/307,,Honey Baked Ham,Q5893363
8719,h_r_block,H&R Block,,Jacksonville,FL,,US,+1 904-721-3798,https://www.hrblock.com/local-tax-offices/florida/jacksonville/9394-arlington-expy/8719/,,H&R Block,Q5627799
8721,h_r_block,H&R Block,,Jacksonville,FL,,US,+1 904-743-9889,https://www.hrblock.com/local-tax-offices/florida/jacksonville/9119-merrill-rd-ste-7/8721/,,H&R Block,Q5627799
9990,h_r_block,H&R Block,,Jacksonville,FL,,US,+1 904-642-2058,https://www.hrblock.com/local-tax-offices/florida/jacksonville/cobblestone-crossing/9990/,,H&R Block,Q5627799
9808,h_r_block,H&R Block,,Jacksonville,FL,,US,+1 904-220-2114,https://www.hrblock.com/local-tax-offices/florida/jacksonville/girvin-plaza/9808/,,H&R Block,Q5627799
https://office.jacksonhewitt.com/#27577899,jackson_hewitt,Jackson Hewitt,,Jacksonville,FL,,US,+1 904-299-3027,https://office.jacksonhewitt.com/tax-preparation-services-locations/en/fl/jacksonville/9890-hutchinson-park-drive/51444,Mo-Sa 11:00-19:00; Su 12:00-16:00,Jackson Hewitt,Q6117132
https://office.jacksonhewitt.com/#27576920,jackson_hewitt,Jackson Hewitt,,Jacksonville,FL,,US,+1 904-299-3029,https://office.jacksonhewitt.com/tax-preparation-services-locations/en/fl/jacksonville/11900-atlantic-blvd/55054,Mo-Sa 11:00-19:00; Su 12:00-16:00,Jackson Hewitt,Q6117132
https://locations.kfc.com/#11247536,kfc,Chicken Nuggets Near Jacksonville,,Jacksonville,FL,,US,,https://locations.kfc.com/fl/jacksonville/9551-regency-square-blvd-north/chickennugget,Mo-Su 10:00-24:00,KFC,Q524757
301930,kindercare,Arlington KinderCare,,Jacksonville,FL,,US,,https://www.kindercare.com/our-centers/jacksonville/fl/301930,,KinderCare Learning Centers,Q6410551
786,kohls_us,Kohl's,,Jacksonville,FL,,US,+1 904-646-1813,https://www.kohls.com/stores/fl/jacksonville-786.shtml,Mo-Sa 09:00-21:00; Su 09:00-20:00,Kohl's,Q967265
JAXNE,marriott,Courtyard Jacksonville I-295/East Beltway,,Jacksonville,FL,,US,+1 904-247-6782,https://www.marriott.com/JAXNE,,Courtyard by Marriott,Q1053170
https://locations.massageenvy.com/#1773510,massage_envy,Massage Envy Harbour Village MM# 39647,,Jacksonville,FL,,US,+1 904-394-2500,https://locations.massageenvy.com/florida/jacksonville/13475-atlantic-blvd.html,Mo-Fr 08:00-22:00; Sa 08:00-20:00; Su 10:00-18:00,Massage Envy,Q10327170
17708,mattress_firm_us,Mattress Firm Clearance Center Regency,,Jacksonville,FL,,US,+1 904-725-3616,https://www.mattressfirm.com/en-us/stores/fl/jacksonville/016009/,,Mattress Firm Clearance,Q6791878
18603,mattress_firm_us,Mattress Firm Atlantic West,,Jacksonville,FL,,US,+1 904-641-5741,https://www.mattressfirm.com/en-us/stores/fl/jacksonville/016037/,,Mattress Firm,Q6791878
https://locations.moes.com/#265,moes,Moe's Southwest Grill,,Jacksonville,FL,,US,+1 904-727-9299,https://locations.moes.com/fl/jacksonville/9301-atlantic-blvd,Mo-Su 10:30-22:00,Moe's Southwest Grill,Q6889938
https://locations.moes.com/#241,moes,Moe's Southwest Grill,,Jacksonville,FL,,US,+1 904-220-9090,https://locations.moes.com/fl/jacksonville/12959-atlantic-blvd,Mo-Su 10:30-22:00,Moe's Southwest Grill,Q6889938
71474270,moneygram,WAL-MART - #5054,,JACKSONVILLE,FL,,US,+1 904-641-8088,,Mo-Sa 08:00-20:00; Su 10:00-18:00,MoneyGram,Q1944412
66030700,moneygram,CVS - #3658,,JACKSONVILLE,FL,,US,+1 904-642-7460,,Mo-Sa 09:00-21:00; Su 10:00-18:00,MoneyGram,Q1944412
6941,murphy_usa_us,,,Jacksonville,FL,,US,+1 904-299-4621,,Mo-Su 05:30-00:00,Murphy USA,Q19604459
13170-atlantic-blvd,my_eye_dr,,,Jacksonville,FL,,US,+1 904-221-6500,https://locations.myeyedr.com/fl/jacksonville/13170-atlantic-blvd,,MyEyeDr.,Q117864710
NNA19113,nissan_europe,COGGIN NISSAN,,JACKSONVILLE,FL,,US,+1 904-642-7900,https://www.cogginnissanatlantic.com,Mo-Sa 09:00-20:00; Su 12:00-18:00,Nissan,Q20165
221,ollies_bargain_outlet,Ollie's Bargain Outlet,,Jacksonville,FL,,US,+1 904-805-8861,https://www.ollies.us/locations/9400-atlantic-blvd-jacksonville-fl/,Mo-Sa 09:00-21:00; Su 10:00-19:00,Ollie's Bargain Outlet,Q7088304
https://locations.oreillyauto.com/fl/jacksonville/check-engine-light-testing-4467.html,oreilly,Your Jacksonville O'Reilly Auto Parts Store,,Jacksonville,FL,,US,+1 904-564-1272,https://locations.oreillyauto.com/fl/jacksonville/check-engine-light-testing-4467.html,Mo-Sa 07:30-21:00; Su 09:00-20:00,O'Reilly Auto Parts,Q7071951
https://locations.oreillyauto.com/fl/jacksonville/battery-testing-4467.html,oreilly,Your Jacksonville O'Reilly Auto Parts Store,,Jacksonville,FL,,US,+1 904-564-1272,https://locations.oreillyauto.com/fl/jacksonville/battery-testing-4467.html,Mo-Sa 07:30-21:00; Su 09:00-20:00,O'Reilly Auto Parts,Q7071951
https://locations.oreillyauto.com/fl/jacksonville/wiper-installation-4467.html,oreilly,Your Jacksonville O'Reilly Auto Parts Store,,Jacksonville,FL,,US,+1 904-564-1272,https://locations.oreillyauto.com/fl/jacksonville/wiper-installation-4467.html,Mo-Sa 07:30-21:00; Su 09:00-20:00,O'Reilly Auto Parts,Q7071951
https://locations.oreillyauto.com/fl/jacksonville/autopartes-4467.html,oreilly,Tu tienda O'Reilly Auto Parts en Jacksonville,,Jacksonville,FL,,US,+1 904-564-1272,https://locations.oreillyauto.com/fl/jacksonville/autopartes-4467.html,Mo-Sa 07:30-21:00; Su 09:00-20:00,O'Reilly Auto Parts,Q7071951
https://locations.outback.com/#15502459,outbacksteakhouse,Outback Steakhouse,,Jacksonville,FL,,US,+1 904-220-5899,https://locations.outback.com/florida/jacksonville/13245-atlantic-boulevard,Mo-Th 11:00-22:00; Fr-Sa 11:00-22:30; Su 11:00-21:30,Outback Steakhouse,Q1064893
113188,pandaexpress,Atlantic Blvd & Marketplace Dr,,Jacksonville,FL,,US,+1 904-717-3668,https://www.pandaexpress.com/locations/fl/jacksonville/11929-atlantic-blvd,Mo-Th 10:00-22:00; Fr-Sa 10:00-22:30; Su 10:00-22:00,Panda Express,Q1358690
us40a204ad,pandora,About Pandora Jewelry Authorized Retailer - Lucy&#039;s Gift Boutique / Harbour Place,,Jacksonville,FL,,US,+1 904-221-2693,https://stores.pandora.net/fl/jacksonville/pandora-jewelry-us40a204ad.html,,Pandora,Q2241604
https://locations.papamurphys.com/#15430019,papamurphys,Pizza Takeout & Delivery,,Jacksonville,FL,,US,+1 904-220-3588,https://locations.papamurphys.com/fl/jacksonville/13170-atlantic-blvd,Mo-Th 11:00-20:00; Fr-Sa 11:00-21:00; Su 11:00-20:00,Papa Murphy's,Q7132349
https://locations.papajohns.com/#10693368,papa_johns,Papa John's,,Jacksonville,FL,,US,+1 904-641-7272,https://locations.papajohns.com/united-states/fl/32225/jacksonville/10750-atlantic-blvd,Mo-Th 10:00-24:00; Fr-Sa 10:00-01:00; Su 11:00-23:00,Papa John's Pizza,Q2759586
1233,party_city,THE PARK AT REGENCY,,Jacksonville,FL,,US,+1 904-870-9464,https://stores.partycity.com/us/fl/jacksonville/party-store-pc1233.html,,Party City,Q7140896
740168,penske,Home Depot #0272,,JACKSONVILLE,FL,,US,+1 904-726-5881,https://www.pensketruckrental.com/locations/us/florida/jacksonville/740168/,,Penske,Q81234570
146,pinch_a_penny_us,Pinch A Penny,,Jacksonville,FL,,US,+1 904-220-9490,https://pinchapenny.com/stores/jacksonville-fl-146,Mo-Fr 09:00-18:00; Sa 09:00-17:00; Su 11:00-16:00,Pinch A Penny,Q121436109
fl_jacksonville_2771-monument-rd,pizza_hut_us,2771 Monument Rd,,Jacksonville,FL,,US,+1 904-641-4333,https://locations.pizzahut.com/fl/jacksonville/2771-monument-rd,,Pizza Hut,Q191615
fl_jacksonville_11567-atlantic-blvd,pizza_hut_us,11567 Atlantic Blvd.,,Jacksonville,FL,,US,,https://locations.pizzahut.com/fl/jacksonville/11567-atlantic-blvd,,Pizza Hut,Q191615
restaurant_235633,popeyes_us_fr,Popeyes,"9309 Merrill Rd Jacksonville, Florida 32225 - USA",Jacksonville,FL,,US,+1 904-456-2286,https://www.popeyes.com/store-locator/store/restaurant_235633,Mo-Th 10:00-22:00; Fr-Sa 10:00-23:00; Su 10:00-22:00,Popeyes,Q1330910
home-depot-6974-13926,ppgpaints,HOME DEPOT 6974,,"Jacksonville, ",FL,,US,+1 904-247-7225,https://www.ppgpaints.com/store-locator/us/florida/jacksonville-paint-stores/home-depot-6974-13926,,PPG Paints,Q83891559
home-depot-6365-13880,ppgpaints,HOME DEPOT 6365,,"Jacksonville, ",FL,,US,+1 904-220-0822,https://www.ppgpaints.com/store-locator/us/florida/jacksonville-paint-stores/home-depot-6365-13880,,PPG Paints,Q83891559
home-depot-0272-13801,ppgpaints,HOME DEPOT 0272,,"Jacksonville, ",FL,,US,+1 904-727-7574,https://www.ppgpaints.com/store-locator/us/florida/jacksonville-paint-stores/home-depot-0272-13801,,PPG Paints,Q83891559
https://www.racetrac.com/locations/florida/jacksonville/atlantic-marketplace,racetrac_us,RaceTrac,,Jacksonville,FL,,US,+1 904-646-2947,https://www.racetrac.com/locations/florida/jacksonville/atlantic-marketplace,,RaceTrac,Q735942
7303,rentacenter,Rent-A-Center,,Jacksonville,FL,,US,+1 904-725-0025,https://locations.rentacenter.com/florida/jacksonville/9400-atlantic-blvd/,Mo-Fr 10:00-18:00; Sa 09:00-17:00,Rent-A-Center,Q7313497
10189566,rooms_to_go_us,Rooms To Go - Regency,,Jacksonville,FL,,US,+1 904-720-0266,,,Rooms To Go,Q7366329
10189567,rooms_to_go_us,Rtg Kids - Regency,,Jacksonville,FL,,US,+1 904-720-0266,,,Rooms to Go Kids,Q119443278
975,ross_dress_for_less_us,Jacksonville Regency,,Jacksonville,FL,,US,+1 904-725-3204,,Mo-Su 09:00-22:00,Ross Dress for Less,Q3442791
728,ross_dress_for_less_us,East Jacksonville,,Jacksonville,FL,,US,+1 904-928-3191,,Mo-Th 09:00-22:30; Fr-Sa 09:00-23:00; Su 09:00-22:00,Ross Dress for Less,Q3442791
4272,ruby_tuesday_us,Ruby Tuesday,1022 HOSPITALITY LANE JACKSONVILLE FL 32225,Jacksonville,FL,,US,+1 904-727-7017,,Mo-Th 11:00-22:00; Fr-Sa 11:00-23:00; Su 11:00-22:00,Ruby Tuesday,Q7376400
https://stores.saloncentric.com/#29173536,salon_centric_us,SalonCentric,,,FL,,US,+1 904-721-9933,https://stores.saloncentric.com/fl/jacksonville/1104,Mo 08:00-18:30; Tu-Fr 08:00-18:00; Sa 08:30-16:00; Su 12:00-16:00,SalonCentric,Q124339481
35990,seven_eleven_ca_us,7-11 Str   50 Kernan Blvd N,,Jacksonville,FL,,US,+1 904-642-0887,https://www.7-eleven.com/locations/fl/jacksonville/50-kernan-blvd-n-35990,,7-Eleven,Q259340
142,shoe_carnival_us,Shoe Carnival,,Jacksonville,FL,,US,+1 904-642-2017,https://stores.shoecarnival.com/fl/jacksonville/shoe-store-jacksonville-fl-142.html,Mo-Sa 10:00-21:00; Su 11:00-19:00,Shoe Carnival,Q7500007
310,steak_n_shake,Steak n Shake,,Jacksonville,FL,,US,+1 904-725-5175,https://www.steaknshake.com/locations/fl-jacksonville-regency-square-boulevard-n/,,Steak N Shake,Q7605233
https://restaurants.subway.com/#14908066,subway,Subway Regency Square Shopping Center,,Jacksonville Duval,FL,,US,+1 904-724-2120,https://restaurants.subway.com/united-states/fl/jacksonville/9585-n-regency-square-blvd,Mo-Th 09:00-22:00; Fr-Sa 09:00-23:00; Su 09:00-22:00,Subway,Q244457
https://restaurants.subway.com/#14908318,subway,Subway Merrill Publix Plaza,,Jacksonville Duval,FL,,US,+1 904-744-5604,https://restaurants.subway.com/united-states/fl/jacksonville/9100-merrill-road,Mo-Sa 08:00-22:00; Su 09:00-21:00,Subway,Q244457
https://restaurants.subway.com/#14897171,subway,Subway Cobblestone Crossing Shop Ctr,,Jacksonville Duval,FL,,US,+1 904-642-8102,https://restaurants.subway.com/united-states/fl/jacksonville/2771-monument-rd,Mo-Th 09:00-22:00; Fr-Sa 09:00-23:00; Su 09:00-22:00,Subway,Q244457
https://restaurants.subway.com/#14906821,subway,Subway Kwik Trip C-Store,,Jacksonville Duval,FL,,US,+1 904-646-1858,https://restaurants.subway.com/united-states/fl/jacksonville/1554-st-johns-bluff,,Subway,Q244457
https://restaurants.subway.com/#14908991,subway,Subway Harbour Place Shopping Ctr,,Jacksonville Duval,FL,,US,+1 904-221-9170,https://restaurants.subway.com/united-states/fl/jacksonville/13170-atlantic-blvd,Mo-Fr 07:00-21:00; Sa-Su 08:00-20:30,Subway,Q244457
80395,supercuts,Kernan Village,11900 Atlantic Blvd Ste 219,Jacksonville,FL,,US,+1 904-564-2210,https://www.supercuts.com/checkin/80395,Mo-Fr 09:00-19:00; Sa 09:00-18:00; Su 09:00-17:00,Supercuts,Q7643239
https://locations.tacobell.com/#6141679,taco_bell,Taco Bell,,Jacksonville,FL,,US,+1 904-724-5246,https://locations.tacobell.com/fl/jacksonville/9341-atlantic-blvd.html,Mo-Th 08:00-01:00; Fr-Sa 08:00-02:00; Su 08:00-01:00,Taco Bell,Q752941
https://locations.tacobell.com/#6146521,taco_bell,Taco Bell,,Jacksonville,FL,,US,+1 904-221-9255,https://locations.tacobell.com/fl/jacksonville/13160-atlantic-blvd.html,Mo-Th 09:00-03:00; Fr-Sa 09:00-04:00; Su 09:00-03:00,Taco Bell,Q752941
28781,tjx,Jacksonville,11824 Atlantic Blvd. Suite 300,Jacksonville,FL,,US,+1 904-646-1989,,Mo-Sa 09:30-21:30; Su 10:00-20:00,HomeGoods,Q5887941
08272,tjx,Jacksonville,11824 Atlantic Boulevard,Jacksonville,FL,,US,+1 904-998-1233,,Mo-Sa 09:30-21:30; Su 10:00-20:00,TJ Maxx,Q10860683
8790,tmobile_us,Regency Point,,Jacksonville,FL,,US,+1 904-722-9251,https://www.t-mobile.com/store-locator/fl/jacksonville/regency-point,,T-Mobile,Q3511885
2ISN,tmobile_us,Atlantic Blvd & The Woods Dr,,Jacksonville,FL,,US,+1 904-220-8880,https://www.t-mobile.com/store-locator/fl/jacksonville/atlantic-blvd-the-woods-dr,,T-Mobile,Q3511885
1373697,usps,MONUMENT,,JACKSONVILLE,FL,,US,+1 904-641-9676,,Mo-Fr 08:30-17:00; Sa 09:00-13:00,United States Postal Service,Q668687
3222500032,usps_collection_boxes,USPS COLLECTION BOX - BLUE BOX,9100 MERRILL RD,JACKSONVILLE,FL,,US,,,,United States Postal Service,Q668687
3222500026,usps_collection_boxes,USPS COLLECTION BOX - BLUE BOX,12261 HIDDEN HILLS DR,JACKSONVILLE,FL,,US,,,,United States Postal Service,Q668687
3222500050,usps_collection_boxes,USPS COLLECTION BOX - PO LOBBY,10990 FORT CAROLINE RD,JACKSONVILLE,FL,,US,,,,United States Postal Service,Q668687
3222500051,usps_collection_boxes,USPS COLLECTION BOX - PO LOBBY,10990 FORT CAROLINE RD,JACKSONVILLE,FL,,US,,,,United States Postal Service,Q668687
3222500063,usps_collection_boxes,USPS COLLECTION BOX - PO LOBBY,10990 FORT CAROLINE RD,JACKSONVILLE,FL,,US,,,,United States Postal Service,Q668687
3222500042,usps_collection_boxes,USPS COLLECTION BOX - APC,10990 FORT CAROLINE RD,JACKSONVILLE,FL,,US,,,,United States Postal Service,Q668687
3222500001,usps_collection_boxes,USPS COLLECTION BOX - BLUE BOX,10990 FORT CAROLINE RD,JACKSONVILLE,FL,,US,,,,United States Postal Service,Q668687
3222500033,usps_collection_boxes,USPS COLLECTION BOX - BLUE BOX,12495 MISSION HILLS DR S,JACKSONVILLE,FL,,US,,,,United States Postal Service,Q668687
3222500045,usps_collection_boxes,USPS COLLECTION BOX - BLUE BOX,9487 REGENCY SQUARE BLVD,JACKSONVILLE,FL,,US,,,,United States Postal Service,Q668687
3222500037,usps_collection_boxes,USPS COLLECTION BOX - BLUE BOX,9550 REGENCY SQUARE BLVD,JACKSONVILLE,FL,,US,,,,United States Postal Service,Q668687
3222500004,usps_collection_boxes,USPS COLLECTION BOX - BLUE BOX,9378 ARLINGTON EXPY,JACKSONVILLE,FL,,US,,,,United States Postal Service,Q668687
3222500039,usps_collection_boxes,USPS COLLECTION BOX - BLUE BOX,9570 REGENCY SQUARE BLVD,JACKSONVILLE,FL,,US,,,,United States Postal Service,Q668687
3222500035,usps_collection_boxes,USPS COLLECTION BOX - BLUE BOX,958 SAINT JOHNS BLUFF RD N,JACKSONVILLE,FL,,US,,,,United States Postal Service,Q668687
3222500048,usps_collection_boxes,USPS COLLECTION BOX - BLUE BOX,241 QUEENS HARBOR BLVD,JACKSONVILLE,FL,,US,,,,United States Postal Service,Q668687
3222500014,usps_collection_boxes,USPS COLLECTION BOX - BLUE BOX,13170 ATLANTIC BLVD,JACKSONVILLE,FL,,US,,,,United States Postal Service,Q668687
R00000003270,verizon_us,Regency,,Jacksonville,FL,,US,+1 904-721-4970,https://www.verizon.com/stores/details/florida/jacksonville/regency-308316/,Mo-Sa 10:00-19:00; Su 10:00-17:00,Verizon,Q919641
,visa,,,JACKSONVILLE,FL,,US,,,,,
,visa,,,JACKSONVILLE,FL,,US,,,,,
,visa,,,JACKSONVILLE,FL,,US,,,,,
,visa,,,JACKSONVILLE,FL,,US,,,,,
,visa,,,JACKSONVILLE,FL,,US,,,,,
,visa,,,JACKSONVILLE,FL,,US,,,,,
,visa,,,JACKSONVILLE,FL,,US,,,,,
,visa,,,JACKSONVILLE,FL,,US,,,,,
,visa,,,JACKSONVILLE,FL,,US,,,,,
,visa,,,JACKSONVILLE,FL,,US,,,,,
,visa,,,JACKSONVILLE,FL,,US,,,,,
,visa,,,JACKSONVILLE,FL,,US,,,,,
,visa,,,JACKSONVILLE,FL,,US,,,,,
,visa,,,JACKSONVILLE,FL,,US,,,,,
,visa,,,JACKSONVILLE,FL,,US,,,,,
,visa,,,JACKSONVILLE,FL,,US,,,,,
,visa,,,JACKSONVILLE,FL,,US,,,,,
,visa,,,JACKSONVILLE,FL,,US,,,,,
,visa,,,JACKSONVILLE,FL,,US,,,,,
,visa,,,JACKSONVILLE,FL,,US,,,,,
,visa,,,JACKSONVILLE,FL,,US,,,,,
,visa,,,JACKSONVILLE,FL,,US,,,,,
,visa,,,JACKSONVILLE,FL,,US,,,,,
,visa,,,JACKSONVILLE,FL,,US,,,,,
,visa,,,JACKSONVILLE,FL,,US,,,,,
,visa,,,JACKSONVILLE,FL,,US,,,,,
,visa,,,JACKSONVILLE,FL,,US,,,,,
,visa,,,JACKSONVILLE,FL,,US,,,,,
,visa,,,JACKSONVILLE,FL,,US,,,,,
,visa,,,JACKSONVILLE,FL,,US,,,,,
,visa,,,JACKSONVILLE,FL,,US,,,,,
,visa,,,JACKSONVILLE,FL,,US,,,,,
,visa,,,JACKSONVILLE,FL,,US,,,,,
,visa,,,JACKSONVILLE,FL,,US,,,,,
,visa,,,JACKSONVILLE,FL,,US,,,,,
,visa,,,JACKSONVILLE,FL,,US,,,,,
,visa,,,JACKSONVILLE,FL,,US,,,,,
,visa,,,JACKSONVILLE,FL,,US,,,,,
,visa,,,JACKSONVILLE,FL,,US,,,,,
,visa,,,JACKSONVILLE,FL,,US,,,,,
,visa,,,JACKSONVILLE,FL,,US,,,,,
,visa,,,JACKSONVILLE,FL,,US,,,,,
,visa,,,JACKSONVILLE,FL,,US,,,,,
,visa,,,JACKSONVILLE,FL,,US,,,,,
,visa,,,JACKSONVILLE,FL,,US,,,,,
,visa,,,JACKSONVILLE,FL,,US,,,,,
,visa,,,JACKSONVILLE,FL,,US,,,,,
,visa,,,JACKSONVILLE,FL,,US,,,,,
,visa,,,JACKSONVILLE,FL,,US,,,,,
,visa,,,JACKSONVILLE,FL,,US,,,,,
,visa,,,JACKSONVILLE,FL,,US,,,,,
,visa,,,JACKSONVILLE,FL,,US,,,,,
,visa,,,JACKSONVILLE,FL,,US,,,,,
,visa,,,JACKSONVILLE,FL,,US,,,,,
,visa,,,JACKSONVILLE,FL,,US,,,,,
,visa,,,JACKSONVILLE,FL,,US,,,,,
,visa,,,JACKSONVILLE,FL,,US,,,,,
,visa,,,JACKSONVILLE,FL,,US,,,,,
,visa,,,JACKSONVILLE,FL,,US,,,,,
,visa,,,JACKSONVILLE,FL,,US,,,,,
,visa,,,JACKSONVILLE,FL,,US,,,,,
,visa,,,JACKSONVILLE,FL,,US,,,,,
,visa,,,JACKSONVILLE,FL,,US,,,,,
,visa,,,JACKSONVILLE,FL,,US,,,,,
,visa,,,JACKSONVILLE,FL,,US,,,,,
,visa,,,JACKSONVILLE,FL,,US,,,,,
,visa,,,JACKSONVILLE,FL,,US,,,,,
,visa,,,JACKSONVILLE,FL,,US,,,,,
,visa,,,JACKSONVILLE,FL,,US,,,,,
,visa,,,JACKSONVILLE,FL,,US,,,,,
,visa,,,JACKSONVILLE,FL,,US,,,,,
,visa,,,JACKSONVILLE,FL,,US,,,,,
,visa,,,JACKSONVILLE,FL,,US,,,,,
,visa,,,JACKSONVILLE,FL,,US,,,,,
,visa,,,JACKSONVILLE,FL,,US,,,,,
,visa,,,JACKSONVILLE,FL,,US,,,,,
,visa,,,JACKSONVILLE,FL,,US,,,,,
,visa,,,JACKSONVILLE,FL,,US,,,,,
,visa,,,JACKSONVILLE,FL,,US,,,,,
,visa,,,JACKSONVILLE,FL,,US,,,,,
,visa,,,JACKSONVILLE,FL,,US,,,,,
,visa,,,JACKSONVILLE,FL,,US,,,,,
,visa,,,JACKSONVILLE,FL,,US,,,,,
,visa,,,JACKSONVILLE,FL,,US,,,,,
,visa,,,JACKSONVILLE,FL,,US,,,,,
,visa,,,JACKSONVILLE,FL,,US,,,,,
,visa,,,JACKSONVILLE,FL,,US,,,,,
,visa,,,JACKSONVILLE,FL,,US,,,,,
,visa,,,JACKSONVILLE,FL,,US,,,,,
,visa,,,JACKSONVILLE,FL,,US,,,,,
,visa,,,JACKSONVILLE,FL,,US,,,,,
,visa,,,JACKSONVILLE,FL,,US,,,,,
,visa,,,JACKSONVILLE,FL,,US,,,,,
,visa,,,JACKSONVILLE,FL,,US,,,,,
,visa,,,JACKSONVILLE,FL,,US,,,,,
,visa,,,JACKSONVILLE,FL,,US,,,,,
,visa,,,JACKSONVILLE,FL,,US,,,,,
329,visionworks,Visionworks Regency,,Jacksonville,FL,,US,+1 904-721-7665,https://locations.visionworks.com/ll/US/FL/Jacksonville/9480-Arlington-Expressway,Mo-Sa 10:00-18:00,Visionworks,Q5422607
1962,waffle_house_us,Waffle House #1962,,JACKSONVILLE,FL,,US,+1 904-564-2040,https://locations.wafflehouse.com/jacksonville-fl-1962,24/7,Waffle House,Q1701206
https://www.walgreens.com/locator/walgreens-12230+atlantic+blvd-jacksonville-fl-32225/id=6384,walgreens,Walgreens,,Jacksonville,FL,,US,+1 904-221-1546,https://www.walgreens.com/locator/walgreens-12230+atlantic+blvd-jacksonville-fl-32225/id=6384,Mo-Su 07:00-22:00,Walgreens,Q1591889
https://www.walgreens.com/locator/walgreens-13255+atlantic+blvd-jacksonville-fl-32225/id=4056,walgreens,Walgreens,,Jacksonville,FL,,US,+1 904-220-6606,https://www.walgreens.com/locator/walgreens-13255+atlantic+blvd-jacksonville-fl-32225/id=4056,Mo-Su 07:00-24:00,Walgreens,Q1591889
https://www.walgreens.com/locator/walgreens-12002+mccormick+rd-jacksonville-fl-32225/id=10286,walgreens,Walgreens,,Jacksonville,FL,,US,+1 904-646-1770,https://www.walgreens.com/locator/walgreens-12002+mccormick+rd-jacksonville-fl-32225/id=10286,Mo-Su 06:00-23:00,Walgreens,Q1591889
1001__MONUMENT__RD_JACKSONVILLE_FL_32225,wellsfargo,,1001 MONUMENT RD,JACKSONVILLE,FL,,US,+1 800-869-3557,https://www.wellsfargo.com/locator/bank/1001__MONUMENT__RD_JACKSONVILLE_FL_32225/,,Wells Fargo,Q744149
9580__REGENCY__SQUARE__BLVD_JACKSONVILLE_FL_32225,wellsfargo,Wells Fargo,9580 REGENCY SQUARE BLVD,JACKSONVILLE,FL,,US,+1 904-367-5498,https://www.wellsfargo.com/locator/bank/9580__REGENCY__SQUARE__BLVD_JACKSONVILLE_FL_32225/,Mo-Th 09:00-16:00,Wells Fargo,Q744149
13166__ATLANTIC__BLVD_JACKSONVILLE_FL_32225,wellsfargo,Wells Fargo,13166 ATLANTIC BLVD,JACKSONVILLE,FL,,US,+1 904-367-5720,https://www.wellsfargo.com/locator/bank/13166__ATLANTIC__BLVD_JACKSONVILLE_FL_32225/,Mo-Th 09:00-16:00,Wells Fargo,Q744149
11040__MCCORMICK__RD_JACKSONVILLE_FL_32225,wellsfargo,,11040 MCCORMICK RD,JACKSONVILLE,FL,,US,+1 800-869-3557,https://www.wellsfargo.com/locator/bank/11040__MCCORMICK__RD_JACKSONVILLE_FL_32225/,,Wells Fargo,Q744149
10044__ATLANTIC__BLVD_JACKSONVILLE_FL_32225,wellsfargo,,10044 ATLANTIC BLVD,JACKSONVILLE,FL,,US,+1 800-869-3557,https://www.wellsfargo.com/locator/bank/10044__ATLANTIC__BLVD_JACKSONVILLE_FL_32225/,,Wells Fargo,Q744149
https://locations.wendys.com/#9253156,wendys,"Wendy's Girvin in Jacksonville, FL",,Jacksonville,FL,,US,+1 904-221-6466,https://locations.wendys.com/united-states/fl/jacksonville/12911-atlantic-blvd,"Mo-Su 06:30-10:30,06:30-22:00",Wendy's,Q550258
fe084f48f80e1d5f70af61c5845e2fe6,western_union,7-ELEVEN/SPEEDWAY #43330,,Jacksonville,FL,,US,+1 904-721-2001,https://location.westernunion.com/us/fl/jacksonville/fe084f48f80e1d5f70af61c5845e2fe6,,Western Union,Q861042
e218e228947d6d845c005cf011ac6f1f,western_union,ADVANCE AMERICA #00564,,Jacksonville,FL,,US,+1 904-745-8155,https://location.westernunion.com/us/fl/jacksonville/e218e228947d6d845c005cf011ac6f1f,Mo-Th 10:00-18:00; Fr-Sa 09:00-18:00,Western Union,Q861042
38b1548e5e46c00e6bf0c1429e75ec0a,western_union,WALMART #001444,,Jacksonville,FL,,US,+1 904-721-4941,https://location.westernunion.com/us/fl/jacksonville/38b1548e5e46c00e6bf0c1429e75ec0a,Mo-Sa 08:00-20:00; Su 10:00-18:00,Western Union,Q861042
9fe38b982d23e56b3a4ae10e56e05b89,western_union,WOODFOREST #8295,,Jacksonville,FL,,US,+1 904-717-0964,https://location.westernunion.com/us/fl/jacksonville/9fe38b982d23e56b3a4ae10e56e05b89,Mo-We 10:00-18:00; Th-Fr 10:00-19:00; Sa 10:00-18:00,Western Union,Q861042
44ae5b0d75401d1a0fadcf652ccbd6b7,western_union,THE CHECK CASHING STORE #399,,Jacksonville,FL,,US,+1 904-725-9115,https://location.westernunion.com/us/fl/jacksonville/44ae5b0d75401d1a0fadcf652ccbd6b7,Mo-Th 10:00-18:00; Fr 10:00-19:00; Sa 10:00-16:00,Western Union,Q861042
1004b25ee574b289dde2e95c5c6923cc,western_union,WALMART #005054,,Jacksonville,FL,,US,+1 904-641-8088,https://location.westernunion.com/us/fl/jacksonville/1004b25ee574b289dde2e95c5c6923cc,Mo-Sa 08:00-20:00; Su 10:00-18:00,Western Union,Q861042
3fe4be8a02e2353d0cf320fe852106b4,western_union,ADVANCE AMERICA #03887,,Jacksonville,FL,,US,+1 904-220-1204,https://location.westernunion.com/us/fl/jacksonville/3fe4be8a02e2353d0cf320fe852106b4,Mo-Th 10:00-18:00; Fr-Sa 09:00-18:00,Western Union,Q861042
https://locations.whataburger.com/fl/jacksonville/11559-atlantic-blvd.html,whataburger,Atlantic Blvd & Kernan Blvd N,11559 Atlantic Blvd,Jacksonville,FL,,US,,https://locations.whataburger.com/fl/jacksonville/11559-atlantic-blvd.html,,Whataburger,Q376627
76746,wingstop,Wingstop Jacksonville Arlington Expy,9416 Arlington Expy,Jacksonvile,FL,,US,+1 904-901-9464,,,Wingstop,Q8025339
132535,wingstop,Wingstop Jacksonville Monument Road,2771 Monument Road,Jacksonville,FL,,US,+1 904-512-7383,,,Wingstop,Q8025339
54,winndixie,MONUMENT POINT,1531 MONUMENT ROAD,JACKSONVILLE,FL,,US,+1 904-646-0771,https://www.winndixie.com/storedetails/jacksonville/fl?search=54,,Winn Dixie,Q1264366
174,winndixie,GIRVIN PLAZA,12777 ATLANTIC BLVD.,JACKSONVILLE,FL,,US,+1 904-221-3062,https://www.winndixie.com/storedetails/jacksonville/fl?search=174,,Winn Dixie,Q1264366
