Ref,Spider,Name,Address,City,State,Zipcode,Country,Phone,Website,Hours,Brand,WikiData
108,anytime_fitness,Anytime Fitness,,Orting,WA,,US,+1 360-893-2443,https://www.anytimefitness.com/gyms/108/orting-wa-98360/,,Anytime Fitness,Q4778364
30391,bluerhino,Orting Texaco,,Orting,WA,,US,+1 360-893-6210,,,Blue Rhino,Q65681213
357497,chevron,Texaco Station #357497,221 WASHINGTON AVENUE,ORTING,WA,,US,+1 360-893-6210,,,Chevron,Q319642
https://www.edwardjones.com/us-en/financial-advisor/steve-koleszar,edwardjones,Steve Koleszar,,Orting,WA,,US,+1 360-893-1787,https://www.edwardjones.com/us-en/financial-advisor/steve-koleszar,Mo-Th 07:30-16:30; Fr 07:30-14:00,Edward Jones,Q5343830
https://local.fedex.com/#25477332,fedex,,,Orting,WA,,US,+1 800-463-3339,https://local.fedex.com/en-us/wa/orting/tcmba,,FedEx,Q459477
18009,h_r_block,H&R Block,,Orting,WA,,US,+1 360-893-8967,https://www.hrblock.com/local-tax-offices/washington/orting/211-washington-ave-n/18009/,,H&R Block,Q5627799
89886,little_free_library,High Cedars Little Free Library #89886 Orting WA,,Orting,WA,,US,,,,Little Free Library,Q6650101
70871,little_free_library,Rosario Casamayor #70871 Orting WA,,Orting,WA,,US,,,,Little Free Library,Q6650101
125374,little_free_library,Meadows at Orting #125374 Orting WA,,Orting,WA,,US,,,,Little Free Library,Q6650101
https://locations.oreillyauto.com/wa/orting/battery-testing-4940.html,oreilly,Your Orting O'Reilly Auto Parts Store,,Orting,WA,,US,+1 360-872-6405,https://locations.oreillyauto.com/wa/orting/battery-testing-4940.html,Mo-Sa 07:30-21:00; Su 08:00-20:00,O'Reilly Auto Parts,Q7071951
https://locations.oreillyauto.com/wa/orting/wiper-installation-4940.html,oreilly,Your Orting O'Reilly Auto Parts Store,,Orting,WA,,US,+1 360-872-6405,https://locations.oreillyauto.com/wa/orting/wiper-installation-4940.html,Mo-Sa 07:30-21:00; Su 08:00-20:00,O'Reilly Auto Parts,Q7071951
https://locations.oreillyauto.com/wa/orting/autopartes-4940.html,oreilly,Tu tienda O'Reilly Auto Parts en Orting,,Orting,WA,,US,+1 360-872-6405,https://locations.oreillyauto.com/wa/orting/autopartes-4940.html,Mo-Sa 07:30-21:00; Su 08:00-20:00,O'Reilly Auto Parts,Q7071951
https://locations.papamurphys.com/#15430563,papamurphys,Pizza Takeout & Delivery,,Orting,WA,,US,+1 360-893-4040,https://locations.papamurphys.com/wa/orting/215-whitesell-street-north-west,Mo-Su 10:00-20:00,Papa Murphy's,Q7132349
wa_orting_211-washington-ave-n,pizza_hut_us,211 Washington Ave N,,Orting,WA,,US,+1 360-893-7499,https://locations.pizzahut.com/wa/orting/211-washington-ave-n,,Pizza Hut,Q191615
https://local.pharmacy.safeway.com/#5673401,safeway,Safeway Pharmacy,,Orting,WA,,US,+1 360-893-0843,https://local.pharmacy.safeway.com/safeway/wa/orting/215-whitesell-st-nw.html,,Safeway,Q1508234
https://local.safeway.com/#5604270,safeway,Safeway,,Orting,WA,,US,+1 360-893-0840,https://local.safeway.com/safeway/wa/orting/215-whitsell-st-nw.html,,Safeway,Q1508234
https://local.fuel.safeway.com/#9073416,safeway,Safeway Fuel Station,,Orting,WA,,US,+1 360-893-0840,https://local.fuel.safeway.com/safeway/wa/orting/315-washington-ave-n.html,Mo-Su 07:00-22:00,Safeway,Q1508234
https://restaurants.subway.com/#14908218,subway,Subway Pioneer Village S/C,,Orting Pierce,WA,,US,+1 360-893-0388,https://restaurants.subway.com/united-states/wa/orting/215-whitesell-st,Mo-Su 08:30-21:30,Subway,Q244457
1376333,usps,ORTING,,ORTING,WA,,US,+1 360-893-5290,,Mo-Fr 09:00-17:00,United States Postal Service,Q668687
9836000002,usps_collection_boxes,USPS COLLECTION BOX - PO LOBBY,117 VAN SCOYOC AVE SW,ORTING,WA,,US,,,,United States Postal Service,Q668687
9836000001,usps_collection_boxes,USPS COLLECTION BOX - BLUE BOX,117 VAN SCOYOC AVE SW,ORTING,WA,,US,,,,United States Postal Service,Q668687
9836000000,usps_collection_boxes,USPS COLLECTION BOX - PO LOBBY,117 VAN SCOYOC AVE SW,ORTING,WA,,US,,,,United States Postal Service,Q668687
A00000252584,verizon_us,Victra Orting,,Orting,WA,,US,+1 360-284-3065,https://www.verizon.com/stores/details/washington/orting/victra-orting-1734722/,Mo-Fr 11:00-19:00; Sa 10:00-17:00,Verizon,Q919641
,visa,,,ORTING,WA,,US,,,,,
,visa,,,ORTING,WA,,US,,,,,
,visa,,,ORTING,WA,,US,,,,,
,visa,,,ORTING,WA,,US,,,,,
,visa,,,ORTING,WA,,US,,,,,
,visa,,,ORTING,WA,,US,,,,,
,visa,,,ORTING,WA,,US,,,,,
,visa,,,ORTING,WA,,US,,,,,
,visa,,,PORT ANGELES,WA,,US,,,,,
