Ref,Spider,Name,Address,City,State,Zipcode,Country,Phone,Website,Hours,Brand,WikiData
2109,autozone_us,AutoZone Auto Parts Romulus,,Romulus,MI,,US,+1 734-721-2873,https://www.autozone.com/locations/mi/romulus/35353-van-born-rd.html,Mo-Sa 08:00-21:00; Su 08:30-20:00,AutoZone,Q4826087
https://www.avis.com/en/locations/us/mi/idsys-romulus/v6t,avis,Avis U S A IDSYS/Romulus,,IDSYS/Romulus,MI,,US,+1 734-942-3450,https://www.avis.com/en/locations/us/mi/idsys-romulus/v6t,Mo-Su 05:00-01:00,Avis,Q791136
137329,bluerhino,Speedway #8834,,Romulus,MI,,US,+1 734-284-3815,,,Blue Rhino,Q65681213
46984,bobevans_us,Romulus,,Romulus,MI,,US,+1 734-326-2450,https://www.bobevans.com/locations/romulus,Mo-Su 07:00-21:00,Bob Evans,Q4932386
128198,bp,BP,,Romulus,MI,,US,+1 734-955-1109,,,BP,Q152057
22000966050244817400100000000000,bp,BP,,Romulus,MI,,US,+1 734-941-1510,,24/7,BP,Q152057
121558,bp,BP,,Romulus,MI,,US,+1 734-753-0534,,,BP,Q152057
128882,bp,Amoco,,Brownstown,MI,,US,+1 313-475-2677,,Mo-Th 06:00-22:00; Fr-Sa 06:00-23:00; Su 06:00-22:00,BP,Q152057
121562,bp,BP,,Romulus,MI,,US,+1 734-406-6433,,,BP,Q152057
127967,bp,Amoco,,Brownstown,MI,,US,+1 734-284-3815,,,BP,Q152057
41816653050014817400100000000000,bp,BP,,Romulus,MI,,US,+1 734-479-1108,,24/7,BP,Q152057
25673180813414817400100000000000,bp,BP,,Romulus,MI,,US,+1 734-728-6677,,24/7,BP,Q152057
8732,burgerking,Burger King,,Romulus,MI,,US,+1 734-995-2834,https://www.bk.com/store-locator/store/restaurant_4917,Mo-Fr 07:00-17:00; Sa 08:00-19:00; Su 07:00-19:00,Burger King,Q177054
79217,citi,ATM Speedway,,Romulus,MI,,US,,,,Citibank,Q857063
79670,citi,ATM SPEEDWAY #8834,,Romulus,MI,,US,,,,Citibank,Q857063
28639,citi,ATM 7ELEVEN-FCTI,,Romulus,MI,,US,,,,Citibank,Q857063
54746,citi,ATM FAMILY DOLLAR #6124,,Romulas,MI,,US,,,,Citibank,Q857063
50591,citi,ATM CVS,,Romulus,MI,,US,,,,Citibank,Q857063
29777,citi,ATM 7ELEVEN-FCTI,,Romulus,MI,,US,,,,Citibank,Q857063
ATM-2485,citizens_us,,,Brownstown Township,MI,,US,,,,Citizens,Q5122694
ATM-2345,citizens_us,,,Romulus,MI,,US,,,,Citizens,Q5122694
8b7065a4-bd86-4337-972f-fd8374eeeb0b,concentra_us,Airport Romulus,,Romulus,MI,,US,,https://www.concentra.com/urgent-care-centers/michigan/detroit/airport-romulus-urgent-care/,,Concentra,Q5158304
,credit_union_us,Public Service CU,,Romulus,MI,,US,+1 734-641-8400,,Mo-Th 09:00-05:00; Fr 08:00-05:00; Sa 09:00-01:00,,
211,cvs_us,CVS Pharmacy,,Brownstown,MI,,US,+1 734-941-2067,https://www.cvs.com/store-locator/brownstown-mi-pharmacies/18900-telegraph-rd-brownstown-mi-48174/storeid=211,Mo-Su 08:00-22:00,CVS Pharmacy,Q2078880
11249,cvs_us,CVS Pharmacy,,Romulus,MI,,US,+1 734-941-0755,https://www.cvs.com/store-locator/romulus-mi-pharmacies/36567-goddard-rd-romulus-mi-48174/storeid=11249,Mo-Fr 09:00-20:00; Sa-Su 09:00-19:00,CVS Pharmacy,Q2078880
https://locations.us.express.dhl.com/#8427407,dhl_express_us_ca,DHL Express ServicePoint Detroit,,,MI,,US,+1 800-225-5345,https://locations.us.express.dhl.com/mi/detroit/6340-middlebelt-road,Mo-Fr 09:00-19:00,DHL,Q489815
E1204T,enterprise,Romulus Truck,,Romulus,MI,,US,+1 734-942-3214,,,Enterprise Rent-A-Car,Q17085454
200326118,exxonmobil,AIRPORT FUEL STOP,,ROMULUS,MI,,US,,https://www.exxon.com/en/find-station/mobil-romulus-mi-airportfuelstop-200326118,24/7,Mobil,Q109676002
200321197,exxonmobil,7-ELEVEN 33142,,ROMULUS,MI,,US,+1 734-727-0908,https://www.exxon.com/en/find-station/mobil-romulus-mi-7eleven33142-200321197,24/7,Mobil,Q109676002
200321194,exxonmobil,7-ELEVEN 33136,,ROMULUS,MI,,US,+1 734-955-1143,https://www.exxon.com/en/find-station/mobil-romulus-mi-7eleven33136-200321194,24/7,Mobil,Q109676002
200314460,exxonmobil,ZOUROB MOBIL,,ROMULUS,MI,,US,+1 734-942-0088,https://www.exxon.com/en/find-station/mobil-romulus-mi-zourobmobil-200314460,24/7,Mobil,Q109676002
29036,family_dollar_us,FAMILY DOLLAR #9036,,Romulus,MI,,US,+1 734-857-1644,https://www.familydollar.com/locations/mi/romulus/29036/,Mo-Sa 09:00-22:00; Su 09:00-21:00,Family Dollar,Q5433101
1047,fresenius_kidney_care_us,Fresenius Kidney Care Romulus,,Romulus,MI,,US,+1 800-881-5101,https://www.freseniuskidneycare.com/dialysis-centers/michigan/1047,Mo 06:00-17:00; We 06:00-17:00; Fr 06:00-17:00,,
dethses-embassy-suites-detroit-metro-airport,hilton,Embassy Suites by Hilton Detroit Metro Airport,,,MI,,US,+1 734-728-9200,https://www.hilton.com/ar/hotels/dethses-embassy-suites-detroit-metro-airport/,,Embassy Suites,Q5369524
https://locations.jimmyjohns.com/mi/romulus/sandwiches-3469.html,jimmy_johns,Jimmy John's,,Romulus,MI,,US,+1 734-992-6170,https://locations.jimmyjohns.com/mi/romulus/sandwiches-3469.html,,Jimmy John's,Q1689380
155677,marathon_petroleum_us,METRO FUEL SERVICES LLC,,ROMULUS,MI,,US,+1 734-727-1580,,,Marathon,Q458363
157476,marathon_petroleum_us,9215 GAS AND GO INC,,ROMULUS,MI,,US,+1 734-532-4949,,,Marathon,Q458363
160597,marathon_petroleum_us,MADCO TRUCK PLAZA INC,,ROMULUS,MI,,US,+1 313-292-2500,,,Marathon,Q458363
159226,marathon_petroleum_us,Romulus Fuel Mart LLC,,ROMULUS,MI,,US,+1 734-895-7195,,,Marathon,Q458363
DTWCA,marriott,Courtyard Detroit Metro Airport Romulus,,Romulus,MI,,US,+1 734-721-3200,https://www.marriott.com/DTWCA,,Courtyard by Marriott,Q1053170
DTWDE,marriott,Delta Hotels Detroit Metro Airport,,Romulus,MI,,US,+1 734-721-3315,https://www.marriott.com/DTWDE,,Delta Hotels,Q5254663
DTWFR,marriott,Fairfield Inn & Suites Detroit Metro Airport Romulus,,Romulus,MI,,US,+1 734-467-7601,https://www.marriott.com/DTWFR,,Fairfield by Marriott,Q5430314
DTWFP,marriott,Four Points by Sheraton Detroit Metro Airport,,Romulus,MI,,US,+1 734-729-9000,https://www.marriott.com/DTWFP,,Four Points by Sheraton,Q1439966
DTWRM,marriott,Detroit Metro Airport Marriott,,Romulus,MI,,US,+1 734-729-7555,https://www.marriott.com/DTWRM,,Marriott Hotels & Resorts,Q3918608
DTWAS,marriott,SpringHill Suites Detroit Metro Airport Romulus,,Romulus,MI,,US,+1 734-326-7500,https://www.marriott.com/DTWAS,,SpringHill Suites,Q7580351
DTWMS,marriott,Sheraton Detroit Metro Airport,,Romulus,MI,,US,+1 734-729-2600,https://www.marriott.com/DTWMS,,Sheraton Hotels and Resorts,Q634831
663610,penske,Penske Romulus Mi,,ROMULUS,MI,,US,+1 734-784-2584,https://www.pensketruckrental.com/locations/us/michigan/romulus/663610/,,Penske,Q81234570
pro-hardwareincromulus-38610,ppgpaints,PRO HARDWAREINC/ROMULUS*,,"Romulus, ",MI,,US,,https://www.ppgpaints.com/store-locator/us/michigan/romulus-paint-stores/pro-hardwareincromulus-38610,,PPG Paints,Q83891559
https://restaurants.subway.com/#14908641,subway,Subway,,Romulus Wayne,MI,,US,+1 734-595-6711,https://restaurants.subway.com/united-states/mi/romulus/7630-merriman-rd,Mo-Su 09:00-22:00,Subway,Q244457
https://restaurants.subway.com/#14907955,subway,Subway Van Born Diesel C-Store/,,Romulus Wayne,MI,,US,+1 734-721-0611,https://restaurants.subway.com/united-states/mi/romulus/5820-middlebelt-road,Mo-Fr 08:00-22:00; Sa 10:00-21:00; Su 10:00-20:00,Subway,Q244457
https://restaurants.subway.com/#14913309,subway,Subway Madco Truck Stop,,Romulus Wayne,MI,,US,+1 313-299-0779,https://restaurants.subway.com/united-states/mi/romulus/27416-ecorse-road,Mo-Fr 08:00-21:00; Sa 09:00-18:00,Subway,Q244457
https://restaurants.subway.com/#14913722,subway,Subway,,Romulus Wayne,MI,,US,+1 734-941-9419,https://restaurants.subway.com/united-states/mi/romulus/35427-goddard-rd,Mo-Su 09:00-21:00,Subway,Q244457
https://restaurants.subway.com/#14904871,subway,Subway,,Romulus Wayne,MI,,US,+1 734-955-1948,https://restaurants.subway.com/united-states/mi/romulus/30795-eureka-rd,Mo-Su 10:00-20:00,Subway,Q244457
0713454700,sunoco_us,Sunoco,,ROMULUS,MI,,US,+1 734-729-7079,,,Sunoco,Q1423218
https://locations.tacobell.com/#3917290,taco_bell,Taco Bell,,Romulus,MI,,US,+1 734-955-9072,https://locations.tacobell.com/mi/romulus/9920-wayne-rd.html,Mo-Su 08:00-00:30,Taco Bell,Q752941
https://locations.tacobell.com/#70724089,taco_bell,Taco Bell,,Brownstown,MI,,US,+1 734-407-7746,https://locations.tacobell.com/mi/brownstown/18880-telegraph-rd-.html,Mo-Su 07:00-02:00,Taco Bell,Q752941
1379814,usps,ROMULUS,,ROMULUS,MI,,US,+1 734-941-3439,,Mo-Fr 09:00-17:00,United States Postal Service,Q668687
4817400033,usps_collection_boxes,USPS COLLECTION BOX - BLUE BOX,27427 LEGRANDE BLVD,ROMULUS,MI,,US,,,,United States Postal Service,Q668687
4817400023,usps_collection_boxes,USPS COLLECTION BOX - BLUE BOX,23850 VALLEY DR,ROMULUS,MI,,US,,,,United States Postal Service,Q668687
4817400034,usps_collection_boxes,USPS COLLECTION BOX - BLUE BOX,11400 METRO AIRPORT CENTER DR,ROMULUS,MI,,US,,,,United States Postal Service,Q668687
4817400001,usps_collection_boxes,USPS COLLECTION BOX - BLUE BOX,11000 HUNT,ROMULUS,MI,,US,,,,United States Postal Service,Q668687
4817400041,usps_collection_boxes,USPS COLLECTION BOX - PO LOBBY,11000 HUNT ST,ROMULUS,MI,,US,,,,United States Postal Service,Q668687
4817400020,usps_collection_boxes,USPS COLLECTION BOX - BLUE BOX,10421 MIDDLEBELT RD,ROMULUS,MI,,US,,,,United States Postal Service,Q668687
,visa,,,ROMULUS,MI,,US,,,,,
,visa,,,ROMULUS,MI,,US,,,,,
,visa,,,ROMULUS,MI,,US,,,,,
,visa,,,BROWNSTOWN,MI,,US,,,,,
,visa,,,BROWNSTOWN,MI,,US,,,,,
,visa,,,BROWNSTOWN TOWNSHIP,MI,,US,,,,,
,visa,,,BROWNSTOWN,MI,,US,,,,,
,visa,,,ROMULUS,MI,,US,,,,,
,visa,,,ROMULUS,MI,,US,,,,,
,visa,,,ROMULUS,MI,,US,,,,,
,visa,,,ROMULUS,MI,,US,,,,,
,visa,,,ROMULUS,MI,,US,,,,,
,visa,,,ROMULUS,MI,,US,,,,,
,visa,,,ROMULUS,MI,,US,,,,,
,visa,,,ROMULUS,MI,,US,,,,,
,visa,,,ROMULUS,MI,,US,,,,,
,visa,,,ROMULUS,MI,,US,,,,,
,visa,,,ROMULUS,MI,,US,,,,,
,visa,,,ROMULUS,MI,,US,,,,,
,visa,,,ROMULUS,MI,,US,,,,,
,visa,,,ROMULUS,MI,,US,,,,,
,visa,,,ROMULUS,MI,,US,,,,,
,visa,,,ROMULUS,MI,,US,,,,,
,visa,,,ROMULUS,MI,,US,,,,,
,visa,,,ROMULUS,MI,,US,,,,,
,visa,,,ROMULUS,MI,,US,,,,,
,visa,,,ROMULUS,MI,,US,,,,,
,visa,,,ROMULUS,MI,,US,,,,,
,visa,,,ROMULUS,MI,,US,,,,,
,visa,,,ROMULUS,MI,,US,,,,,
,visa,,,ROMULUS,MI,,US,,,,,
,visa,,,ROMULUS,MI,,US,,,,,
,visa,,,ROMULUS,MI,,US,,,,,
,visa,,,ROMULUS,MI,,US,,,,,
,visa,,,ROMULUS,MI,,US,,,,,
,visa,,,ROMULUS,MI,,US,,,,,
,visa,,,ROMULUS,MI,,US,,,,,
,visa,,,ROMULUS,MI,,US,,,,,
,visa,,,ROMULUS,MI,,US,,,,,
,visa,,,ROMULUS,MI,,US,,,,,
,visa,,,ROMULUS,MI,,US,,,,,
,visa,,,ROMULUS,MI,,US,,,,,
,visa,,,ROMULUS,MI,,US,,,,,
,visa,,,ROMULUS,MI,,US,,,,,
,visa,,,ROMULUS,MI,,US,,,,,
,visa,,,ROMULUS,MI,,US,,,,,
,visa,,,ROMULUS,MI,,US,,,,,
,visa,,,ROMULUS,MI,,US,,,,,
,visa,,,ROMULUS,MI,,US,,,,,
,visa,,,ROMULUS,MI,,US,,,,,
,visa,,,ROMULUS,MI,,US,,,,,
,visa,,,ROMULUS,MI,,US,,,,,
,visa,,,ROMULUS,MI,,US,,,,,
,visa,,,ROMULUS,MI,,US,,,,,
,visa,,,ROMULUS,MI,,US,,,,,
,visa,,,ROMULUS,MI,,US,,,,,
,visa,,,ROMULUS,MI,,US,,,,,
,visa,,,ROMULUS,MI,,US,,,,,
,visa,,,ROMULUS,MI,,US,,,,,
,visa,,,ROMULUS,MI,,US,,,,,
,visa,,,ROMULUS,MI,,US,,,,,
,visa,,,ROMULUS,MI,,US,,,,,
,visa,,,ROMULUS,MI,,US,,,,,
,visa,,,ROMULUS,MI,,US,,,,,
,visa,,,ROMULUS,MI,,US,,,,,
,visa,,,ROMULUS,MI,,US,,,,,
,visa,,,ROMULUS,MI,,US,,,,,
,visa,,,ROMULUS,MI,,US,,,,,
,visa,,,ROMULUS,MI,,US,,,,,
,visa,,,ROMULUS,MI,,US,,,,,
,visa,,,ROMULUS,MI,,US,,,,,
,visa,,,ROMULUS,MI,,US,,,,,
,visa,,,ROMULUS,MI,,US,,,,,
,visa,,,ROMULUS,MI,,US,,,,,
,visa,,,ROMULUS,MI,,US,,,,,
,visa,,,ROMULUS,MI,,US,,,,,
,visa,,,ROMULUS,MI,,US,,,,,
,visa,,,ROMULUS,MI,,US,,,,,
,visa,,,ROMULUS,MI,,US,,,,,
,visa,,,ROMULUS,MI,,US,,,,,
,visa,,,ROMULUS,MI,,US,,,,,
,visa,,,ROMULUS,MI,,US,,,,,
,visa,,,ROMULUS,MI,,US,,,,,
,visa,,,ROMULUS,MI,,US,,,,,
,visa,,,ROMULUS,MI,,US,,,,,
,visa,,,ROMULUS,MI,,US,,,,,
,visa,,,ROMULUS,MI,,US,,,,,
,visa,,,ROMULUS,MI,,US,,,,,
,visa,,,ROMULUS,MI,,US,,,,,
,visa,,,ROMULAS,MI,,US,,,,,
,visa,,,ROMILLUS,MI,,US,,,,,
,visa,,,ROMULUS,MI,,US,,,,,
,visa,,,ROMULUS,MI,,US,,,,,
,visa,,,ROMULUS,MI,,US,,,,,
,visa,,,ROMULUS,MI,,US,,,,,
,visa,,,ROMULUS,MI,,US,,,,,
,visa,,,ROMULUS,MI,,US,,,,,
,visa,,,ROMULUS,MI,,US,,,,,
,visa,,,ROMULUS,MI,,US,,,,,
,visa,,,ROMULUS,MI,,US,,,,,
,visa,,,ROMULUS,MI,,US,,,,,
,visa,,,ROMULUS,MI,,US,,,,,
,visa,,,ROMULUS,MI,,US,,,,,
,visa,,,ROMULUS,MI,,US,,,,,
,visa,,,ROMULUS,MI,,US,,,,,
,visa,,,ROMULUS,MI,,US,,,,,
,visa,,,ROMULUS,MI,,US,,,,,
,visa,,,ROMULUS,MI,,US,,,,,
https://locations.wendys.com/#9255340,wendys,"Wendy's 9859 Middlebelt Road in Romulus, MI",,Romulus,MI,,US,+1 734-946-1150,https://locations.wendys.com/united-states/mi/romulus/9859-middlebelt-road,"Mo-Su 06:30-10:30,09:00-22:00",Wendy's,Q550258
