Ref,Spider,Name,Address,City,State,Zipcode,Country,Phone,Website,Hours,Brand,WikiData
7352,aaa,Schwegler Insurance Agency,,Plymouth,MI,,US,+1 734-453-2100,,,American Automobile Association,Q463436
8060,aaa,Qureshi Insurance Agency LLC,,Plymouth,MI,,US,,,,American Automobile Association,Q463436
https://locations.arbys.com/mi/plymouth/575-ann-arbor-rd-w.html,arbys_us,"Arby's Fast-Food Drive Through Near You in Plymouth, MI",,Plymouth,MI,,US,+1 734-459-6765,https://locations.arbys.com/mi/plymouth/575-ann-arbor-rd-w.html,Mo-Th 10:00-23:00; Fr-Sa 10:00-24:00; Su 10:00-23:00,Arby's,Q630866
4382,autozone_us,AutoZone Auto Parts Plymouth,,Plymouth,MI,,US,+1 734-781-9878,https://www.autozone.com/locations/mi/plymouth/1423-ann-arbor-rd.html,Mo-Sa 08:00-20:00; Su 09:00-20:00,AutoZone,Q4826087
https://locators.bankofamerica.com/mi/plymouth/financial-centers-plymouth-16283.html,bankofamerica,Bank of America Financial Center & Drive-Thru ATM | Plymouth Township,,Plymouth,MI,,US,+1 734-459-8666,https://locators.bankofamerica.com/mi/plymouth/financial-centers-plymouth-16283.html,Mo-Fr 10:00-16:00,Bank of America,Q487907
https://locators.bankofamerica.com/mi/plymouth/financial-centers-plymouth-16210.html,bankofamerica,Bank of America Financial Center & Drive-Thru ATM | 5 Mile/Beck,,Plymouth,MI,,US,+1 734-737-0420,https://locators.bankofamerica.com/mi/plymouth/financial-centers-plymouth-16210.html,Mo-Fr 10:00-16:00,Bank of America,Q487907
481,batteriesplus,Shop our Plymouth store Today,,Plymouth,MI,,US,+1 734-254-9815,https://www.batteriesplus.com/store-locator/mi/plymouth/batteries-plus-481,Mo-Fr 08:00-19:00; Sa 09:00-19:00; Su 10:00-18:00,Batteries Plus Bulbs,Q17005157
450,biggby_coffee_us,Biggby Coffee,400 W Ann Arbor Rd Plymouth MI 48170,Plymouth,MI,,US,+1 734-620-3635,,Mo-Sa 06:00-19:00; Su 07:00-17:00,Biggby Coffee,Q4906876
73317,bluerhino,Speedway #8820,,Plymouth,MI,,US,+1 734-455-3240,,,Blue Rhino,Q65681213
50335_1,bmw_group,BMW Motorcycles of South East Michigan,,Plymouth,MI,,US,+1 734-453-0500,https://www.bmwmcsem.com,,BMW Motorrad,Q249173
128416,bp,Amoco,,Plymouth,MI,,US,+1 734-667-1699,,,BP,Q152057
40658392086004817000100000000000,bp,BP,,Plymouth,MI,,US,+1 734-459-5944,,24/7,BP,Q152057
3923,burgerking,Burger King,,Plymouth,MI,,US,+1 734-270-6040,https://www.bk.com/store-locator/store/restaurant_2174,Mo-Th 07:00-21:00; Fr-Sa 07:00-22:00; Su 07:00-21:00,Burger King,Q177054
20023,cadillac,SUBURBAN CADILLAC OF PLYMOUTH,,Plymouth,MI,,US,+1 734-453-7500,https://www.suburbancadillacofplymouth.com/,Mo 09:00-20:00; Tu-We 09:00-18:00; Th 09:00-20:00; Fr 09:00-18:00; Sa 09:00-14:00,Cadillac,Q27436
2041988,chase_us,North Territorial Sheldon - New branch,,Plymouth,MI,,US,+1 734-454-7759,https://locator.chase.com/mi/plymouth/235-n-sheldon-rd,Mo-Fr 09:00-17:00; Sa 09:00-14:00,Chase,Q524629
44251,chevrolet,LAFONTAINE CHEVROLET PLYMOUTH,,Plymouth,MI,,US,+1 734-228-4706,https://www.lafontainechevroletplymouth.com/,Mo 09:00-21:00; Tu-We 09:00-18:00; Th 09:00-21:00; Fr 09:00-18:00; Sa 10:00-04:00,Chevrolet,Q29570
mi_plymouth-township_40815-ann-arbor-road,chipotle, ,,Plymouth Township,MI,,US,+1 734-259-2295,https://locations.chipotle.com/mi/plymouth-township/40815-ann-arbor-road,,Chipotle,Q465751
51408,citi,ATM CVS,,Plymouth Township,MI,,US,,,,Citibank,Q857063
79418,citi,ATM SPEEDWAY #2203,,Plymouth,MI,,US,,,,Citibank,Q857063
77054,citi,ATM Speedway,,Plymouth,MI,,US,,,,Citibank,Q857063
50897,citi,ATM CVS,,Plymouth,MI,,US,,,,Citibank,Q857063
76573,citi,ATM Speedway,,Plymouth,MI,,US,,,,Citibank,Q857063
71722,citi,ATM QUICK PIKMARKET,,Plymouth,MI,,US,,,,Citibank,Q857063
79663,citi,ATM SPEEDWAY #8820,,Plymouth,MI,,US,,,,Citibank,Q857063
47863,citi,ATM CVS,,Plymouth,MI,,US,,,,Citibank,Q857063
26152,citi,ATM 7ELEVEN-FCTI,,Plymouth,MI,,US,,,,Citibank,Q857063
77009,citi,ATM Speedway,,Plymouth,MI,,US,,,,Citibank,Q857063
79479,citi,ATM SPEEDWAY #2355,,Plymouth,MI,,US,,,,Citibank,Q857063
61405,citi,ATM Kroger,,Plymouth,MI,,US,,,,Citibank,Q857063
800761,citizens_us,Citizens 5 Mile-Sheldon,,Plymouth Township,MI,,US,+1 734-254-9220,,Mo-Fr 09:00-16:00; Sa 09:00-12:00,Citizens,Q5122694
800772,citizens_us,Citizens Plymouth MI,,Plymouth,MI,,US,+1 734-453-7400,,Mo-Fr 09:00-16:00; Sa 09:00-12:00,Citizens,Q5122694
ATM-806,citizens_us,,,Plymouth Township,MI,,US,+1 734-254-9220,,24/7,Citizens,Q5122694
ATM-813,citizens_us,,,Plymouth,MI,,US,+1 734-453-7400,,24/7,Citizens,Q5122694
ATM-2400,citizens_us,,,Plymouth,MI,,US,,,,Citizens,Q5122694
ATM-2439,citizens_us,,,Northville,MI,,US,,,,Citizens,Q5122694
ATM-2454,citizens_us,,,Plymouth,MI,,US,,,,Citizens,Q5122694
8077,cvs_us,CVS Pharmacy,,Plymouth,MI,,US,+1 734-455-7981,https://www.cvs.com/store-locator/plymouth-mi-pharmacies/40900-ann-arbor-rd-east-plymouth-mi-48170/storeid=8077,Mo-Sa 07:00-23:00; Su 08:00-23:00,CVS Pharmacy,Q2078880
8085,cvs_us,CVS Pharmacy,,Plymouth,MI,,US,+1 734-453-5807,https://www.cvs.com/store-locator/plymouth-mi-pharmacies/1400-s-sheldon-road-plymouth-mi-48170/storeid=8085,Mo-Su 07:00-00:00,CVS Pharmacy,Q2078880
8208,cvs_us,CVS Pharmacy,,Plymouth,MI,,US,+1 734-354-9220,https://www.cvs.com/store-locator/plymouth-mi-pharmacies/49485-ann-arbor-rd-w-plymouth-mi-48170/storeid=8208,Mo-Su 08:00-22:00,CVS Pharmacy,Q2078880
1041,dominos_pizza_us,Domino's Pizza,,Plymouth,MI,,US,+1 734-207-1000,https://pizza.dominos.com/michigan/plymouth/1043-ann-arbor-road,Mo-Th 10:30-24:00; Fr-Sa 10:30-01:00; Su 10:30-24:00,Domino's,Q839466
259033467753805017,dominos_pizza_us,Domino's Pizza,,Plymouth,MI,,US,undefined,https://pizza.dominos.com/michigan/plymouth/1043-ann-arbor-rd,,Domino's,Q839466
302232,dunkin_us,Dunkin',,Plymouth,MI,,US,+1 734-459-5944,https://locations.dunkindonuts.com/en/mi/plymouth/39600-e-ann-arbor-rd/302232,24/7,Dunkin',Q847743
https://www.edwardjones.com/us-en/financial-advisor/brian-dover,edwardjones,Brian T Dover,,Plymouth,MI,,US,+1 734-451-6405,https://www.edwardjones.com/us-en/financial-advisor/brian-dover,Mo-Th 09:00-16:30; Fr 09:00-16:00,Edward Jones,Q5343830
640-ann-arbor-rd-w,einsteinbros,Ann Arbor Rd & Main Street Einstein Bros. Bagels,,Plymouth,MI,,US,+1 734-414-9889,https://locations.einsteinbros.com/us/mi/plymouth/640-ann-arbor-rd-w,Mo-Su 06:00-13:00,Einstein Bros. Bagels,Q5349788
15077-n-sheldon-rd,einsteinbros,Sheldon & 5 mile Einstein Bros. Bagels,,Plymouth,MI,,US,+1 734-414-8567,https://locations.einsteinbros.com/us/mi/plymouth/15077-n-sheldon-rd,Mo-Su 06:00-13:00,Einstein Bros. Bagels,Q5349788
E120G7,enterprise,Plymouth,,Plymouth,MI,,US,+1 734-451-2499,,,Enterprise Rent-A-Car,Q17085454
200327950,exxonmobil,5 MILE & HAGGERTY,,PLYMOUTH,MI,,US,+1 734-420-0265,https://www.exxon.com/en/find-station/exxon-plymouth-mi-5milehaggerty-200327950,24/7,Exxon,Q109675651
200314161,exxonmobil,MICHIGAN FUELS MOBIL #2,,PLYMOUTH,MI,,US,+1 734-459-3388,https://www.exxon.com/en/find-station/mobil-plymouth-mi-michiganfuelsmobil2-200314161,24/7,Mobil,Q109676002
200309791,exxonmobil,PLYMOUTH,,PLYMOUTH,MI,,US,+1 734-420-2933,https://www.exxon.com/en/find-station/mobil-plymouth-mi-plymouth-200309791,24/7,Mobil,Q109676002
https://locations.53.com/#3034455,fifththirdbank,Fifth Third Bank Plymouth,,Plymouth,MI,,US,+1 734-454-5544,https://locations.53.com/mi/plymouth/42370-ann-arbor-rd..html,Mo-Th 09:00-17:00; Fr 09:00-18:00,Fifth Third Bank,Q1411810
Motorcraft4065USAEnglish,ford,"Hines Park Lincoln, Inc.",,Michigan,MI,,US,+1 734-453-2424,,,Ford,Q44294
Motorcraft4074USAEnglish,ford,"Blackwell Ford, Inc.",,Michigan,MI,,US,+1 734-453-1100,,,Ford,Q44294
https://www.ford.com/dealerships/dealer-details/mi/plymouth/blackwell-ford-inc/,ford_dealers_us,"Blackwell Ford, Inc.",,Plymouth,MI,,US,+1 734-463-4448,https://www.ford.com/dealerships/dealer-details/mi/plymouth/blackwell-ford-inc/,Mo 08:30-20:00; Tu-We 08:30-18:00; Th 08:30-20:00; Fr 08:30-18:00,Ford Motor Company,Q44294
https://salons.greatclips.com/us/mi/plymouth/44523-ann-arbor-rd-w,greatclips,Great Clips,,Plymouth,MI,,US,+1 734-956-3480,https://salons.greatclips.com/us/mi/plymouth/44523-ann-arbor-rd-w,Mo-Fr 09:00-19:00; Sa 09:00-17:00; Su 10:00-17:00,Great Clips,Q5598967
https://salons.greatclips.com/us/mi/plymouth/15167-n-sheldon-rd,greatclips,Great Clips,,Plymouth,MI,,US,+1 734-855-6973,https://salons.greatclips.com/us/mi/plymouth/15167-n-sheldon-rd,Mo-Fr 09:00-19:00; Sa 09:00-17:00; Su 10:00-17:00,Great Clips,Q5598967
23720,huntingtonbank,Plymouth,,Plymouth,MI,,US,+1 734-459-7800,https://www.huntington.com/Community/branch-info?locationId=23720,Mo-Fr 09:00-17:00; Sa-Su 00:00-00:00,Huntington Bank,Q798819
https://locations.jimmyjohns.com/mi/plymouthtownship/sandwiches-640.html,jimmy_johns,Jimmy John's,,Plymouth Township,MI,,US,+1 734-455-5345,https://locations.jimmyjohns.com/mi/plymouthtownship/sandwiches-640.html,,Jimmy John's,Q1689380
https://locations.jimmyjohns.com/mi/plymouth/sandwiches-364.html,jimmy_johns,Jimmy John's,,Plymouth,MI,,US,+1 734-737-0770,https://locations.jimmyjohns.com/mi/plymouth/sandwiches-364.html,,Jimmy John's,Q1689380
160568,marathon_petroleum_us,Starvin Marven Inc,,PLYMOUTH,MI,,US,+1 313-220-1221,,,Marathon,Q458363
156028,marathon_petroleum_us,THE SUPERCENTER,,PLYMOUTH,MI,,US,+1 734-730-3848,,,Marathon,Q458363
44429-ann-arbor-rd-w,my_eye_dr,,,Plymouth,MI,,US,+1 734-416-0348,https://locations.myeyedr.com/mi/plymouth/44429-ann-arbor-rd-w,,MyEyeDr.,Q117864710
https://locations.oreillyauto.com/mi/plymouth/check-engine-light-testing-5798.html,oreilly,Your Plymouth O'Reilly Auto Parts Store,,Plymouth,MI,,US,+1 734-228-4827,https://locations.oreillyauto.com/mi/plymouth/check-engine-light-testing-5798.html,Mo-Sa 07:30-21:00; Su 08:30-20:00,O'Reilly Auto Parts,Q7071951
https://locations.oreillyauto.com/mi/plymouth/wiper-installation-5798.html,oreilly,Your Plymouth O'Reilly Auto Parts Store,,Plymouth,MI,,US,+1 734-228-4827,https://locations.oreillyauto.com/mi/plymouth/wiper-installation-5798.html,Mo-Sa 07:30-21:00; Su 08:30-20:00,O'Reilly Auto Parts,Q7071951
https://locations.oreillyauto.com/mi/plymouth/battery-testing-5798.html,oreilly,Your Plymouth O'Reilly Auto Parts Store,,Plymouth,MI,,US,+1 734-228-4827,https://locations.oreillyauto.com/mi/plymouth/battery-testing-5798.html,Mo-Sa 07:30-21:00; Su 08:30-20:00,O'Reilly Auto Parts,Q7071951
https://locations.oreillyauto.com/mi/plymouth/autopartes-5798.html,oreilly,Tu tienda O'Reilly Auto Parts en Plymouth,,Plymouth,MI,,US,+1 734-228-4827,https://locations.oreillyauto.com/mi/plymouth/autopartes-5798.html,Mo-Sa 07:30-21:00; Su 08:30-20:00,O'Reilly Auto Parts,Q7071951
059110,penske,Penske Plymouth,,PLYMOUTH,MI,,US,+1 734-451-0860,https://www.pensketruckrental.com/locations/us/michigan/plymouth/059110/,,Penske,Q81234570
home-depot-2762-14368,ppgpaints,HOME DEPOT 2762,,"Plymouth, ",MI,,US,+1 734-207-6147,https://www.ppgpaints.com/store-locator/us/michigan/plymouth-paint-stores/home-depot-2762-14368,,PPG Paints,Q83891559
537,pure_barre_us,Plymouth,,Plymouth,MI,,US,+1 734-335-6104,https://www.purebarre.com/location/plymouth-mi,,Pure Barre,Q86707084
03657,rite_aid_us,Rite Aid #03657 Plymouth,,Plymouth,MI,,US,+1 734-737-0218,https://locations2.riteaid.com.yext-cdn.com/mi/plymouth/800-west-ann-arbor-road.html,Mo-Su 08:00-22:00,Rite Aid,Q3433273
1139,scooters_coffee_us,Ann Arbor Rd & Sheldon Rd,,Plymouth,MI,,US,+1 734-645-8475,,Mo-Su 05:30-20:00,Scooter's Coffee,Q117280308
https://restaurants.subway.com/#14914983,subway,Subway,,Plymouth Wayne,MI,,US,+1 734-454-6622,https://restaurants.subway.com/united-states/mi/plymouth/930-w-ann-arbor-trail,Mo-Sa 09:00-18:00,Subway,Q244457
https://restaurants.subway.com/#14896159,subway,Subway,,Plymouth Wayne,MI,,US,+1 734-404-6962,https://restaurants.subway.com/united-states/mi/plymouth/42291-ann-arbor-rd,Mo-Fr 08:00-21:30; Sa 09:00-21:00; Su 09:00-20:30,Subway,Q244457
https://restaurants.subway.com/#14910930,subway,Subway Sheldon Place,,Plymouth Wayne,MI,,US,+1 734-414-8076,https://restaurants.subway.com/united-states/mi/plymouth/15113-sheldon-rd,Mo-Fr 10:00-21:00; Sa 10:00-20:00; Su 10:00-19:00,Subway,Q244457
0921999900,sunoco_us,Sunoco,,PLYMOUTH,MI,,US,,,,Sunoco,Q1423218
https://locations.tacobell.com/#15112832,taco_bell,Taco Bell,,Plymouth,MI,,US,+1 734-335-8025,https://locations.tacobell.com/mi/plymouth/47673-five-mile-rd.html,Mo-Su 07:00-23:00,Taco Bell,Q752941
https://locations.tacobell.com/#3917070,taco_bell,Taco Bell,,Plymouth,MI,,US,+1 734-451-1488,https://locations.tacobell.com/mi/plymouth/409-n-main-st.html,Mo-Tu 10:30-24:00; We-Fr 09:00-24:00; Sa-Su 10:30-24:00,Taco Bell,Q752941
https://locations.tacobell.com/#3916847,taco_bell,Taco Bell,,Plymouth,MI,,US,+1 734-451-2149,https://locations.tacobell.com/mi/plymouth/205-ann-arbor-rd.html,Mo-Tu 07:00-02:00; We 07:00-21:00; Th-Su 07:00-02:00,Taco Bell,Q752941
256D,tmobile_us,Ann Arbor Rd & S Mill St,,Plymouth,MI,,US,+1 734-667-5050,https://www.t-mobile.com/store-locator/mi/plymouth/ann-arbor-rd-s-mill-st,,T-Mobile,Q3511885
7892,upsstore,Plymouth,15343 Beck Rd,Plymouth,MI,,US,,https://locations.theupsstore.com/mi/plymouth/15343-beck-rd,,UPS Store,Q7771029
1377867,usps,PLYMOUTH,,PLYMOUTH,MI,,US,+1 734-453-4669,,Mo-Fr 08:30-18:00; Sa 10:00-17:00,United States Postal Service,Q668687
1377167,usps,PURSELL,,PLYMOUTH,MI,,US,+1 734-453-4669,,Mo-Fr 09:00-17:30; Sa 10:00-13:00,United States Postal Service,Q668687
4817000035,usps_collection_boxes,USPS COLLECTION BOX - BLUE BOX,45601 FIVE MILE RD,PLYMOUTH,MI,,US,,,,United States Postal Service,Q668687
4817000037,usps_collection_boxes,USPS COLLECTION BOX - BLUE BOX,45000 HELM ST,PLYMOUTH,MI,,US,,,,United States Postal Service,Q668687
4817000065,usps_collection_boxes,USPS COLLECTION BOX - BLUE BOX,47526 CLIPPER ST,PLYMOUTH,MI,,US,,,,United States Postal Service,Q668687
4817000066,usps_collection_boxes,USPS COLLECTION BOX - BLUE BOX,47526 CLIPPER ST,PLYMOUTH,MI,,US,,,,United States Postal Service,Q668687
4817000088,usps_collection_boxes,USPS COLLECTION BOX - APC,47526 CLIPPER ST,PLYMOUTH,MI,,US,,,,United States Postal Service,Q668687
4817000102,usps_collection_boxes,USPS COLLECTION BOX - PO LOBBY,47526 CLIPPER ST,PLYMOUTH,MI,,US,,,,United States Postal Service,Q668687
4817000022,usps_collection_boxes,USPS COLLECTION BOX - BLUE BOX,15327 NORTHVILLE FOREST DR,PLYMOUTH,MI,,US,,,,United States Postal Service,Q668687
4817000040,usps_collection_boxes,USPS COLLECTION BOX - BLUE BOX,47569 HALYARD DR,PLYMOUTH,MI,,US,,,,United States Postal Service,Q668687
4817000026,usps_collection_boxes,USPS COLLECTION BOX - BLUE BOX,44303 PLYMOUTH OAKS BLVD,PLYMOUTH,MI,,US,,,,United States Postal Service,Q668687
4817000023,usps_collection_boxes,USPS COLLECTION BOX - BLUE BOX,15455 N HAGGERTY RD,PLYMOUTH,MI,,US,,,,United States Postal Service,Q668687
4817000047,usps_collection_boxes,USPS COLLECTION BOX - BLUE BOX,340 N MAIN ST,PLYMOUTH,MI,,US,,,,United States Postal Service,Q668687
4817000060,usps_collection_boxes,USPS COLLECTION BOX - BLUE BOX,860 FRALICK ST,PLYMOUTH,MI,,US,,,,United States Postal Service,Q668687
4817000103,usps_collection_boxes,USPS COLLECTION BOX - PO LOBBY,885 PENNIMAN AVE,PLYMOUTH,MI,,US,,,,United States Postal Service,Q668687
4817000083,usps_collection_boxes,USPS COLLECTION BOX - BLUE BOX,860 FRALICK ST,PLYMOUTH,MI,,US,,,,United States Postal Service,Q668687
4817000096,usps_collection_boxes,USPS COLLECTION BOX - BLUE BOX,885 PENNIMAN AVE,PLYMOUTH,MI,,US,,,,United States Postal Service,Q668687
4817000042,usps_collection_boxes,USPS COLLECTION BOX - BLUE BOX,990 W ANN ARBOR TRL,PLYMOUTH,MI,,US,,,,United States Postal Service,Q668687
4817000048,usps_collection_boxes,USPS COLLECTION BOX - BLUE BOX,535 S MAIN ST,PLYMOUTH,MI,,US,,,,United States Postal Service,Q668687
4817000032,usps_collection_boxes,USPS COLLECTION BOX - BLUE BOX,900 PLYMOUTH RD,PLYMOUTH,MI,,US,,,,United States Postal Service,Q668687
4817000049,usps_collection_boxes,USPS COLLECTION BOX - BLUE BOX,915 S MAIN ST,PLYMOUTH,MI,,US,,,,United States Postal Service,Q668687
4817000050,usps_collection_boxes,USPS COLLECTION BOX - BLUE BOX,1178 S MAIN ST,PLYMOUTH,MI,,US,,,,United States Postal Service,Q668687
4817000072,usps_collection_boxes,USPS COLLECTION BOX - BLUE BOX,1400 S SHELDON RD,PLYMOUTH,MI,,US,,,,United States Postal Service,Q668687
4817000051,usps_collection_boxes,USPS COLLECTION BOX - BLUE BOX,980 ANN ARBOR RD W,PLYMOUTH,MI,,US,,,,United States Postal Service,Q668687
4817000073,usps_collection_boxes,USPS COLLECTION BOX - BLUE BOX,44465 ANN ARBOR RD W,PLYMOUTH,MI,,US,,,,United States Postal Service,Q668687
4817000031,usps_collection_boxes,USPS COLLECTION BOX - BLUE BOX,40500 ANN ARBOR RD E,PLYMOUTH,MI,,US,,,,United States Postal Service,Q668687
4817000069,usps_collection_boxes,USPS COLLECTION BOX - BLUE BOX,42171 ANN ARBOR RD E,PLYMOUTH,MI,,US,,,,United States Postal Service,Q668687
4817000028,usps_collection_boxes,USPS COLLECTION BOX - BLUE BOX,42345 ANN ARBOR RD E,PLYMOUTH,MI,,US,,,,United States Postal Service,Q668687
4817000011,usps_collection_boxes,USPS COLLECTION BOX - BLUE BOX,40852 NEWPORT DR,PLYMOUTH,MI,,US,,,,United States Postal Service,Q668687
A00000163566,verizon_us,Victra Plymouth MI,,PLYMOUTH,MI,,US,+1 734-414-9510,https://www.verizon.com/stores/details/michigan/plymouth/gowireless-plymouth-mi-1443522/,Mo-Fr 10:00-18:00; Sa 10:00-17:00,Verizon,Q919641
,visa,,,ROSEVILLE,MI,,US,,,,,
,visa,,,LIVONIA,MI,,US,,,,,
,visa,,,PLYMOUTH,MI,,US,,,,,
,visa,,,PLYMOUTH,MI,,US,,,,,
,visa,,,PLYMOUTH,MI,,US,,,,,
,visa,,,PLYMOUTH,MI,,US,,,,,
,visa,,,PLYMOUTH,MI,,US,,,,,
,visa,,,PLYMOUTH,MI,,US,,,,,
,visa,,,PLYMOUTH,MI,,US,,,,,
,visa,,,PLYMOUTH,MI,,US,,,,,
,visa,,,WATERFORD,MI,,US,,,,,
,visa,,,PLYMOUTH,MI,,US,,,,,
,visa,,,PLYMOUTH,MI,,US,,,,,
,visa,,,PLYMOUTH,MI,,US,,,,,
,visa,,,PLYMOUTH,MI,,US,,,,,
,visa,,,PLYMOUTH,MI,,US,,,,,
,visa,,,PLYMOUTH,MI,,US,,,,,
,visa,,,PLYMOUTH,MI,,US,,,,,
,visa,,,PLYMOUTH TOWNSHIP,MI,,US,,,,,
,visa,,,PLYMOUTH TOWNSHIP,MI,,US,,,,,
,visa,,,PLYMOUTH TOWNSHIP,MI,,US,,,,,
,visa,,,CANTON,MI,,US,,,,,
,visa,,,PLYMOUTH,MI,,US,,,,,
,visa,,,NORTHVILLE,MI,,US,,,,,
,visa,,,PLYMOUTH,MI,,US,,,,,
,visa,,,PLYMOUTH,MI,,US,,,,,
,visa,,,PLYMOUTH,MI,,US,,,,,
,visa,,,PLYMOUTH,MI,,US,,,,,
,visa,,,PLYMOUTH,MI,,US,,,,,
,visa,,,PLYMOUTH,MI,,US,,,,,
,visa,,,PLYMOUTH,MI,,US,,,,,
,visa,,,PLYMOUTH,MI,,US,,,,,
,visa,,,PLYMOUTH,MI,,US,,,,,
,visa,,,PLYMOUTH,MI,,US,,,,,
,visa,,,PLYMOUTH,MI,,US,,,,,
,visa,,,PLYMOUTH,MI,,US,,,,,
,visa,,,PLYMOUTH,MI,,US,,,,,
,visa,,,PLYMOUTH,MI,,US,,,,,
,visa,,,PLYMOUTH,MI,,US,,,,,
,visa,,,PLYMOUTH,MI,,US,,,,,
,visa,,,PLYMOUTH,MI,,US,,,,,
,visa,,,PLYMOUTH,MI,,US,,,,,
,visa,,,PLYMOUTH,MI,,US,,,,,
,visa,,,PLYMOUTH,MI,,US,,,,,
,visa,,,PLYMOUTH,MI,,US,,,,,
,visa,,,PLYMOUTH,MI,,US,,,,,
,visa,,,PLYMOUTH,MI,,US,,,,,
,visa,,,PLYMOUTH,MI,,US,,,,,
,visa,,,PLYMOUTH,MI,,US,,,,,
,visa,,,PLYMOUTH,MI,,US,,,,,
,visa,,,PLYMOUTH,MI,,US,,,,,
,visa,,,PLYMOUTH,MI,,US,,,,,
,visa,,,PLYMOUTH,MI,,US,,,,,
,visa,,,PLYMOUTH,MI,,US,,,,,
,visa,,,PLYMOUTH,MI,,US,,,,,
,visa,,,PLYMOUTH,MI,,US,,,,,
,visa,,,PLYMOUTH,MI,,US,,,,,
,visa,,,PLYMOUTH,MI,,US,,,,,
,visa,,,PLYMOUTH,MI,,US,,,,,
,visa,,,PLYMOUTH,MI,,US,,,,,
,visa,,,PLYMOUTH,MI,,US,,,,,
,visa,,,PLYMOUTH,MI,,US,,,,,
,visa,,,PLYMOUTH,MI,,US,,,,,
,visa,,,PLYMOUTH,MI,,US,,,,,
,visa,,,PLYMOUTH,MI,,US,,,,,
,visa,,,PLYMOUTH,MI,,US,,,,,
,visa,,,PLYMOUTH,MI,,US,,,,,
,visa,,,PLYMOUTH,MI,,US,,,,,
,visa,,,PLYMOUTH,MI,,US,,,,,
,visa,,,PLYMOUTH,MI,,US,,,,,
,visa,,,PLYMOUTH,MI,,US,,,,,
,visa,,,PLYMOUTH,MI,,US,,,,,
,visa,,,PLYMOUTH,MI,,US,,,,,
,visa,,,PLYMOUTH,MI,,US,,,,,
,visa,,,PLYMOUTH,MI,,US,,,,,
,visa,,,PLYMOUTH,MI,,US,,,,,
,visa,,,PLYMOUTH,MI,,US,,,,,
,visa,,,PLYMOUTH,MI,,US,,,,,
,visa,,,PLYMOUTH,MI,,US,,,,,
,visa,,,PLYMOUTH,MI,,US,,,,,
,visa,,,PLYMOUTH,MI,,US,,,,,
,visa,,,PLYMOUTH,MI,,US,,,,,
,visa,,,PLYMOUTH,MI,,US,,,,,
,visa,,,PLYMOUTH,MI,,US,,,,,
,visa,,,PLYMOUTH,MI,,US,,,,,
,visa,,,PLYMOUTH,MI,,US,,,,,
,visa,,,PLYMOUTH,MI,,US,,,,,
,visa,,,PLYMOUTH,MI,,US,,,,,
,visa,,,PLYMOUTH,MI,,US,,,,,
,visa,,,PLYMOUTH,MI,,US,,,,,
,visa,,,PLYMOUTH,MI,,US,,,,,
,visa,,,PLYMOUTH,MI,,US,,,,,
,visa,,,PLYMOUTH,MI,,US,,,,,
,visa,,,ROMULUS,MI,,US,,,,,
,visa,,,PLYMOUTH,MI,,US,,,,,
,visa,,,PLYMOUTH,MI,,US,,,,,
,visa,,,PLYMOUTH,MI,,US,,,,,
,visa,,,PLYMOUTH,MI,,US,,,,,
,visa,,,PLYMOUTH,MI,,US,,,,,
,visa,,,PLYMOUTH,MI,,US,,,,,
,visa,,,PLYMOUTH,MI,,US,,,,,
,visa,,,PLYMOUTH TWP,MI,,US,,,,,
,visa,,,PLYMOUTH TOWNSHIP,MI,,US,,,,,
,visa,,,PLYMOUTH,MI,,US,,,,,
,visa,,,PLYMOUTH,MI,,US,,,,,
,visa,,,PLYMOUTH,MI,,US,,,,,
,visa,,,EAST LANSING,MI,,US,,,,,
https://locations.wendys.com/#9254998,wendys,"Wendy's Ann Arbor in Plymouth, MI",,Plymouth,MI,,US,+1 734-455-1616,https://locations.wendys.com/united-states/mi/plymouth/655-w-ann-arbor-rd,"Mo-Su 06:30-10:30,09:00-22:00",Wendy's,Q550258
https://locations.wendys.com/#9254994,wendys,"Wendy's Sheldon Rd, Plymouth in Plymouth, MI",,Plymouth,MI,,US,+1 734-207-6277,https://locations.wendys.com/united-states/mi/plymouth/15055-sheldon-rd,"Mo-Su 06:30-10:30,09:00-22:00",Wendy's,Q550258
