Ref,Spider,Name,Address,City,State,Zipcode,Country,Phone,Website,Hours,Brand,WikiData
108,aaa,Jamestown Office,,Jamestown,NY,,US,+1 716-488-1981,,,American Automobile Association,Q463436
https://stores.advanceautoparts.com/ny/jamestown/707-e-2nd-st,advance_auto_parts_us,Advance Auto Parts,,Jamestown,NY,,US,+1 716-664-6550,https://stores.advanceautoparts.com/ny/jamestown/707-e-2nd-st,Mo-Sa 07:30-21:00; Su 09:00-20:00,Advance Auto Parts,Q4686051
https://stores.aldi.us/#4421135,aldi_sud_us,ALDI  930 Fairmount Avenue,,Jamestown,NY,,US,+1 855-955-2534,https://stores.aldi.us/ny/jamestown/930-fairmount-avenue,"Mo-Su 08:30-20:00,09:00-20:00",ALDI,Q41171672
https://locations.arbys.com/ny/jamestown/800-foote-avenue.html,arbys_us,"Arby's Fast-Food Drive Through Near You in Jamestown, NY",,Jamestown,NY,,US,+1 716-488-1622,https://locations.arbys.com/ny/jamestown/800-foote-avenue.html,Mo-Su 10:00-23:00,Arby's,Q630866
https://locations.arbys.com/ny/jamestown/346-fluvanna-ave.html,arbys_us,"Arby's Fast-Food Drive Through Near You in Jamestown, NY",,Jamestown,NY,,US,+1 716-488-1620,https://locations.arbys.com/ny/jamestown/346-fluvanna-ave.html,Mo-Su 10:00-23:00,Arby's,Q630866
https://stores.ashleyfurniture.com/store/us/new-york/jamestown/9000348422/,ashley_furniture,"Ashley Store Jamestown, NY",,Jamestown,NY,,US,+1 716-488-7011,https://stores.ashleyfurniture.com/store/us/new-york/jamestown/9000348422/,,Ashley Furniture,Q4805437
2933,autozone_us,AutoZone Auto Parts Jamestown,,Jamestown,NY,,US,+1 716-664-5779,https://www.autozone.com/locations/ny/jamestown/900-fairmount-ave.html,Mo-Sa 07:30-21:00; Su 08:30-20:00,AutoZone,Q4826087
5201,autozone_us,AutoZone Auto Parts Jamestown,,Jamestown,NY,,US,+1 716-488-8048,https://www.autozone.com/locations/ny/jamestown/1371-e-2nd-st.html,Mo-Sa 07:30-21:00; Su 09:00-19:00,AutoZone,Q4826087
https://local.biglots.com/#13191080,biglots,Big Lots - Jamestown,,Jamestown,NY,,US,+1 716-664-2412,https://local.biglots.com/ny/jamestown/21-s-main-st,Mo-Sa 09:00-21:00; Su 09:00-19:00,Big Lots,Q4905973
103201,bluerhino,Kwik Fill #395,,Jamestown,NY,,US,+1 716-664-3444,,,Blue Rhino,Q65681213
206458,bluerhino,Rite Aid #03033,,Jamestown,NY,,US,+1 716-483-5999,,,Blue Rhino,Q65681213
190211,bluerhino,"TA Auto Repair, Sales & Service",,Jamestown,NY,,US,+1 716-487-9909,,,Blue Rhino,Q65681213
213935,bluerhino,Runnings Supply #47,,Jamestown,NY,,US,+1 716-296-0512,,,Blue Rhino,Q65681213
23525,bluerhino,Kwik Fill #M0023,,Jamestown,NY,,US,+1 716-483-9160,,,Blue Rhino,Q65681213
78946,bluerhino,Kwik Fill #M0020,,Jamestown,NY,,US,+1 716-483-9205,,,Blue Rhino,Q65681213
221256,bluerhino,Dollar General #9488,,JAMESTOWN,NY,,US,+1 716-925-0350,,,Blue Rhino,Q65681213
128194,bluerhino,Robo on Main,,Jamestown,NY,,US,+1 716-483-4655,,,Blue Rhino,Q65681213
199767,bluerhino,Dollar General #21766,,Jamestown,NY,,US,+1 716-413-0031,,,Blue Rhino,Q65681213
206451,bluerhino,Rite Aid #00568,,Jamestown,NY,,US,+1 716-664-2650,,,Blue Rhino,Q65681213
152915,bluerhino,Walgreens #9937,,Jamestown,NY,,US,+1 716-661-9230,,,Blue Rhino,Q65681213
99589,bluerhino,Robo Convenience Store,,Jamestown,NY,,US,+1 716-661-9190,,,Blue Rhino,Q65681213
47304,bobevans_us,Jamestown,,Jamestown,NY,,US,+1 716-661-9395,https://www.bobevans.com/locations/jamestown,Mo-Su 07:00-21:00,Bob Evans,Q4932386
0555,carpet_one_floor_and_home_us,Piazza's Carpet One Floor & Home,,Jamestown,NY,,US,+1 716-664-6307,https://www.piazzascarpetonejamestown.com/,,Carpet One Floor & Home,Q121335910
13591,chevrolet,ED SHULTS CHEVROLET,,JAMESTOWN,NY,,US,+1 716-664-0101,https://www.shultschevy.com,Mo-Fr 09:00-18:00; Sa 09:00-15:00,Chevrolet,Q29570
29083,citi,ATM 7ELEVEN-FCTI,,Jamestown,NY,,US,,,,Citibank,Q857063
86172,citi,ATM Walgreens,,Jamestown,NY,,US,,,,Citibank,Q857063
73422,citi,ATM Rite Aid,,Jamestown,NY,,US,,,,Citibank,Q857063
48625,citi,ATM CVS,,Jamestown,NY,,US,,,,Citibank,Q857063
30969,citi,ATM 7ELEVEN-FCTI,,Jamestown,NY,,US,,,,Citibank,Q857063
94851,citi,ATM Wegmans,,Jamestown,NY,,US,,,,Citibank,Q857063
83221,citi,ATM Target,,Jamestown,NY,,US,,,,Citibank,Q857063
24301,citi,ATM 7ELEVEN-FCTI,,Jamestown,NY,,US,,,,Citibank,Q857063
70249121,cricket_wireless,Cricket Wireless Authorized Retailer,,Jamestown,NY,,US,+1 716-483-0180,https://www.cricketwireless.com/stores/ll/US/NY/Jamestown/525-Foote-Ave,Mo-Sa 10:00-19:00; Su 11:00-17:00,Cricket Wireless,Q5184987
17886,cvs_us,CVS Pharmacy,,Jamestown,NY,,US,+1 716-488-8084,https://www.cvs.com/store-locator/jamestown-ny-pharmacies/975-fairmount-ave-jamestown-ny-14701/storeid=17886,Mo-Fr 09:00-19:00; Sa-Su 10:00-17:00,CVS Pharmacy,Q2078880
5087,cvs_us,CVS Pharmacy,,Jamestown,NY,,US,+1 716-488-0778,https://www.cvs.com/store-locator/jamestown-ny-pharmacies/19-s-main-st-jamestown-ny-14701/storeid=5087,Mo-Su 07:00-00:00,CVS Pharmacy,Q2078880
3350,dominos_pizza_us,Domino's Pizza,,Jamestown,NY,,US,+1 716-664-3850,https://pizza.dominos.com/new-york/jamestown/936-e-2nd-street,Mo-Th 10:30-24:00; Fr-Sa 10:30-01:00; Su 10:30-24:00,Domino's,Q839466
https://www.edwardjones.com/us-en/financial-advisor/joseph-strotman,edwardjones,Joseph Strotman,,Jamestown,NY,,US,+1 716-664-2089,https://www.edwardjones.com/us-en/financial-advisor/joseph-strotman,,Edward Jones,Q5343830
E12937,enterprise,Jamestown,,Jamestown,NY,,US,+1 716-664-5800,,,Enterprise Rent-A-Car,Q17085454
https://www.ford.com/dealerships/dealer-details/ny/jamestown/ed-shults-ford/,ford_dealers_us,Ed Shults Ford,,Jamestown,NY,,US,+1 833-831-2152,https://www.ford.com/dealerships/dealer-details/ny/jamestown/ed-shults-ford/,Mo-Fr 09:00-18:00; Sa 09:00-15:00,Ford Motor Company,Q44294
https://stores.gnc.com/#1008667691,gnc,GNC FAIRMOUNT PLACE,,,NY,,US,+1 716-795-2919,https://stores.gnc.com/all-stores-new-york/jamestown/901-fairmount-ave,Mo-Sa 10:00-19:00; Su 11:00-18:00,GNC,Q4808595
jhwnkhx-hampton-suites-jamestown,hilton,Hampton Inn & Suites Jamestown,,,NY,,US,+1 716-484-7829,https://www.hilton.com/ar/hotels/jhwnkhx-hampton-suites-jamestown/,,Hampton by Hilton,Q5646230
17198,h_r_block,H&R Block,,Jamestown,NY,,US,+1 716-664-1550,https://www.hrblock.com/local-tax-offices/new-york/jamestown/101-w-5th-st/17198/,,H&R Block,Q5627799
29827,h_r_block,H&R Block,,Jamestown,NY,,US,+1 716-488-0118,https://www.hrblock.com/local-tax-offices/new-york/jamestown/770-foote-ave/29827/,,H&R Block,Q5627799
29829,h_r_block,H&R Block,,Jamestown,NY,,US,+1 716-665-2105,https://www.hrblock.com/local-tax-offices/new-york/jamestown/1375-e-2nd-st/29829/,,H&R Block,Q5627799
https://office.jacksonhewitt.com/#27576590,jackson_hewitt,Jackson Hewitt,,Jamestown,NY,,US,+1 716-795-4159,https://office.jacksonhewitt.com/tax-preparation-services-locations/en/ny/jamestown/721-w-3rd-street/14306,Mo-Sa 11:00-19:00; Su 12:00-16:00,Jackson Hewitt,Q6117132
419,mightyflame,575 CONVENIENCE STORE  INC,,JAMESTOWN,NY,,US,+1 716-483-3961,,,Mighty Flame,
5078,mightyflame,KWIK FILL #84,,JAMESTOWN,NY,,US,+1 716-664-6989,,,Mighty Flame,
4865,mightyflame,TOPS MARKET #209,,JAMESTOWN,NY,,US,+1 716-665-1100,,,Mighty Flame,
5077,mightyflame,KWIK FILL #83,,JAMESTOWN,NY,,US,+1 716-483-9188,,,Mighty Flame,
3790,mightyflame,PRONTO MART,,JAMESTOWN,NY,,US,+1 716-507-9842,,,Mighty Flame,
https://locations.mtb.com/#25081769,mt_bank_us,,,,NY,,US,+1 800-724-2440,https://locations.mtb.com/ny/jamestown/bank-branches-and-atms-jamestown-ny-sa0788.html,24/7,M&T Bank,Q3272257
https://locations.mtb.com/#25083047,mt_bank_us,M&T Bank,,,NY,,US,+1 716-483-4933,https://locations.mtb.com/ny/jamestown/bank-branches-and-atms-jamestown-ny-3612.html,Mo-Th 09:00-16:00; Fr 09:00-17:00; Sa 09:00-12:00,M&T Bank,Q3272257
NNA2581,nissan_europe,SHULTS NISSAN SUBARU,,JAMESTOWN,NY,,US,+1 716-664-0100,https://www.shultsnissan.com,Mo-Tu 09:00-19:00; We 09:00-18:00; Th 09:00-19:00; Fr 09:00-18:00; Sa 09:00-17:00,Nissan,Q20165
https://locations.northwest.bank/#35177050,northwest_bank,768 Foote Ave Jamestown - Foote Avenue,,Jamestown,NY,,US,+1 716-488-2265,https://locations.northwest.bank/ny/jamestown/768-foote-ave,Mo-Th 09:00-16:00; Fr 09:00-17:00,Northwest Bank,Q7060191
https://locations.northwest.bank/#35177058,northwest_bank,1 W 3rd St Jamestown - West 3rd Street,,Jamestown,NY,,US,+1 716-665-2265,https://locations.northwest.bank/ny/jamestown/1-w-3rd-st,Mo-Th 09:00-16:00; Fr 09:00-17:00,Northwest Bank,Q7060191
https://www.orkin.com/locations/new-york-ny/jamestown-pest-control/branch-928,orkin_us,Orkin,,Jamestown,NY,,US,+1 716-664-5470,https://www.orkin.com/locations/new-york-ny/jamestown-pest-control/branch-928,,Orkin,Q7102943
737734,penske,D&amp;S Glass,,JAMESTOWN,NY,,US,+1 716-484-3117,https://www.pensketruckrental.com/locations/us/new_york/jamestown/737734/,,Penske,Q81234570
home-depot-6154-14437,ppgpaints,HOME DEPOT 6154,,"Jamestown, ",NY,,US,+1 716-665-3999,https://www.ppgpaints.com/store-locator/us/new-york/jamestown-paint-stores/home-depot-6154-14437,,PPG Paints,Q83891559
93,rentacenter,Rent-A-Center,,Jamestown,NY,,US,+1 716-487-1080,https://locations.rentacenter.com/new-york/jamestown/762-foote-ave/,Mo-Sa 10:00-18:00,Rent-A-Center,Q7313497
03033,rite_aid_us,Rite Aid #03033 Jamestown,,Jamestown,NY,,US,+1 716-483-5999,https://locations2.riteaid.com.yext-cdn.com/ny/jamestown/963-fairmount-avenue-we.html,Mo-Sa 08:00-21:00; Su 09:00-20:00,Rite Aid,Q3433273
00568,rite_aid_us,Rite Aid #00568 Jamestown,,Jamestown,NY,,US,+1 716-664-2650,https://locations2.riteaid.com.yext-cdn.com/ny/jamestown/50-south-main-street.html,Mo-Fr 07:00-23:00; Sa-Su 08:00-18:00,Rite Aid,Q3433273
35204,seven_eleven_ca_us,7-11 Str   1011 E 2nd St,,Jamestown,NY,,US,+1 716-665-4139,https://www.7-eleven.com/locations/ny/jamestown/1011-e-2nd-st-35204,,7-Eleven,Q259340
35205,seven_eleven_ca_us,7-11 Str   518 N Main St,,Jamestown,NY,,US,+1 716-664-7513,https://www.7-eleven.com/locations/ny/jamestown/518-n-main-st-35205,,7-Eleven,Q259340
35232,seven_eleven_ca_us,7-11 Str   321 Hazeltine Ave,,Jamestown,NY,,US,+1 716-661-3159,https://www.7-eleven.com/locations/ny/jamestown/321-hazeltine-ave-35232,,7-Eleven,Q259340
https://restaurants.subway.com/#14903883,subway,Subway,,Jamestown Chautauqua,NY,,US,+1 716-483-1199,https://restaurants.subway.com/united-states/ny/jamestown/707-fairmount-ave,Mo-Su 08:30-21:30,Subway,Q244457
https://restaurants.subway.com/#14913076,subway,Subway,,Jamestown Chautauqua,NY,,US,+1 716-665-7055,https://restaurants.subway.com/united-states/ny/jamestown/1397-east-2nd-street-plaza,Mo-Su 09:00-22:00,Subway,Q244457
https://restaurants.subway.com/#14896293,subway,Subway,,Jamestown Chautauqua,NY,,US,+1 716-664-3200,https://restaurants.subway.com/united-states/ny/jamestown/760a-foote-ave,Mo-Tu 08:30-21:30; We-Th 08:00-21:30; Fr 08:30-21:30; Sa-Su 08:30-21:00,Subway,Q244457
0268155900,sunoco_us,Sunoco,,JAMESTOWN,NY,,US,+1 716-487-1619,,Mo-Sa 08:00-22:00; Su 09:00-17:00,Sunoco,Q1423218
0230315400,sunoco_us,Sunoco,,JAMESTOWN,NY,,US,+1 716-720-4087,,Mo-Su 06:00-00:00,Sunoco,Q1423218
920130,tim_hortons,Tim Hortons,,Olean,NY,,US,+1 585-376-1156,,Mo-We 05:00-21:00; Fr-Su 05:00-21:00,Tim Hortons,Q175106
453G,tmobile_us,Fairmount & Hickories,,Jamestown,NY,,US,+1 716-776-4804,https://www.t-mobile.com/store-locator/ny/jamestown/fairmount-hickories,,T-Mobile,Q3511885
274,tops,Tops,738 Foote Avenue,Jamestown,NY,,US,+1 716-484-7243,,,Tops,Q7825137
209,tops,Tops,2000 Washington Street,Jamestown,NY,,US,+1 716-665-1100,,,Tops,Q7825137
5096,upsstore,Jamestown,708 Foote Ave,Jamestown,NY,,US,+1 716-664-2402,https://locations.theupsstore.com/ny/jamestown/708-foote-ave,,UPS Store,Q7771029
1368259,usps,JAMESTOWN,,JAMESTOWN,NY,,US,+1 716-664-2133,,Mo-Fr 09:00-17:00; Sa 09:00-12:00,United States Postal Service,Q668687
1473672,usps,JAMESTOWN,,JAMESTOWN,NY,,US,+1 716-664-2133,,,United States Postal Service,Q668687
1383210,usps,SOUTHSIDE,,JAMESTOWN,NY,,US,+1 716-484-1562,,Mo-Fr 09:00-17:00; Sa 09:00-12:00,United States Postal Service,Q668687
1470100065,usps_collection_boxes,USPS COLLECTION BOX - BLUE BOX,945 FAIRMOUNT AVE,JAMESTOWN,NY,,US,,,,United States Postal Service,Q668687
1470100084,usps_collection_boxes,USPS COLLECTION BOX - BLUE BOX,752 FOOTE AVE,JAMESTOWN,NY,,US,,,,United States Postal Service,Q668687
1470100096,usps_collection_boxes,USPS COLLECTION BOX - PO LOBBY,752 FOOTE AVE,JAMESTOWN,NY,,US,,,,United States Postal Service,Q668687
1470100069,usps_collection_boxes,USPS COLLECTION BOX - BLUE BOX,607 W 3RD ST,JAMESTOWN,NY,,US,,,,United States Postal Service,Q668687
1470100040,usps_collection_boxes,USPS COLLECTION BOX - BLUE BOX,560 W 3RD ST,JAMESTOWN,NY,,US,,,,United States Postal Service,Q668687
1470100090,usps_collection_boxes,USPS COLLECTION BOX - BLUE BOX,320 PRATHER AVE,JAMESTOWN,NY,,US,,,,United States Postal Service,Q668687
1470100039,usps_collection_boxes,USPS COLLECTION BOX - BLUE BOX,100 MURRAY AVE,JAMESTOWN,NY,,US,,,,United States Postal Service,Q668687
1470100089,usps_collection_boxes,USPS COLLECTION BOX - BLUE BOX,15 S MAIN ST,JAMESTOWN,NY,,US,,,,United States Postal Service,Q668687
1470100031,usps_collection_boxes,USPS COLLECTION BOX - BLUE BOX,111 W 2ND ST,JAMESTOWN,NY,,US,,,,United States Postal Service,Q668687
1470100047,usps_collection_boxes,USPS COLLECTION BOX - BLUE BOX,110 W 3RD ST,JAMESTOWN,NY,,US,,,,United States Postal Service,Q668687
1470100075,usps_collection_boxes,USPS COLLECTION BOX - BLUE BOX,26 E 2ND ST,JAMESTOWN,NY,,US,,,,United States Postal Service,Q668687
1470100048,usps_collection_boxes,USPS COLLECTION BOX - BLUE BOX,1 W 3RD ST,JAMESTOWN,NY,,US,,,,United States Postal Service,Q668687
1470100046,usps_collection_boxes,USPS COLLECTION BOX - BLUE BOX,101 W 4TH ST,JAMESTOWN,NY,,US,,,,United States Postal Service,Q668687
1470100041,usps_collection_boxes,USPS COLLECTION BOX - BLUE BOX,415 N MAIN ST,JAMESTOWN,NY,,US,,,,United States Postal Service,Q668687
1470100049,usps_collection_boxes,USPS COLLECTION BOX - BLUE BOX,121 E 3RD ST,JAMESTOWN,NY,,US,,,,United States Postal Service,Q668687
1470100045,usps_collection_boxes,USPS COLLECTION BOX - BLUE BOX,18 E 4TH ST,JAMESTOWN,NY,,US,,,,United States Postal Service,Q668687
1470100053,usps_collection_boxes,USPS COLLECTION BOX - BLUE BOX,300 E 3RD ST,JAMESTOWN,NY,,US,,,,United States Postal Service,Q668687
1470100095,usps_collection_boxes,USPS COLLECTION BOX - PO LOBBY,300 E 3RD ST,JAMESTOWN,NY,,US,,,,United States Postal Service,Q668687
1470100042,usps_collection_boxes,USPS COLLECTION BOX - BLUE BOX,500 PINE ST,JAMESTOWN,NY,,US,,,,United States Postal Service,Q668687
1470100043,usps_collection_boxes,USPS COLLECTION BOX - BLUE BOX,200 E 6TH ST,JAMESTOWN,NY,,US,,,,United States Postal Service,Q668687
1470100072,usps_collection_boxes,USPS COLLECTION BOX - BLUE BOX,2000 WASHINGTON ST,JAMESTOWN,NY,,US,,,,United States Postal Service,Q668687
R00000003214,verizon_us,Jamestown,,Jamestown,NY,,US,+1 716-763-7500,https://www.verizon.com/stores/details/new-york/jamestown/jamestown-283648/,Mo-Sa 09:00-19:00; Su 10:00-17:00,Verizon,Q919641
,visa,,,JAMESTOWN,NY,,US,,,,,
,visa,,,JAMESTOWN,NY,,US,,,,,
,visa,,,JAMESTOWN,NY,,US,,,,,
,visa,,,JAMESTOWN,NY,,US,,,,,
,visa,,,JAMESTOWN,NY,,US,,,,,
,visa,,,JAMESTOWN,NY,,US,,,,,
,visa,,,JAMESTOWN,NY,,US,,,,,
,visa,,,JAMESTOWN,NY,,US,,,,,
,visa,,,JAMESTOWN,NY,,US,,,,,
,visa,,,JAMESTOWN,NY,,US,,,,,
,visa,,,JAMESTOWN,NY,,US,,,,,
,visa,,,JAMESTOWN,NY,,US,,,,,
,visa,,,JAMESTOWN,NY,,US,,,,,
,visa,,,JAMESTOWN,NY,,US,,,,,
,visa,,,JAMESTOWN,NY,,US,,,,,
,visa,,,JAMESTOWN,NY,,US,,,,,
,visa,,,JAMESTOWN,NY,,US,,,,,
,visa,,,JAMESTOWN,NY,,US,,,,,
,visa,,,JAMESTOWN,NY,,US,,,,,
,visa,,,JAMESTOWN,NY,,US,,,,,
,visa,,,JAMESTOWN,NY,,US,,,,,
,visa,,,JAMESTOWN,NY,,US,,,,,
,visa,,,JAMESTOWN,NY,,US,,,,,
,visa,,,JAMESTOWN,NY,,US,,,,,
,visa,,,JAMESTOWN,NY,,US,,,,,
,visa,,,JAMESTOWN,NY,,US,,,,,
,visa,,,JAMESTOWN,NY,,US,,,,,
,visa,,,JAMESTOWN,NY,,US,,,,,
,visa,,,JAMESTOWN,NY,,US,,,,,
,visa,,,JAMESTOWN,NY,,US,,,,,
,visa,,,JAMESTOWN,NY,,US,,,,,
,visa,,,JAMESTOWN,NY,,US,,,,,
,visa,,,JAMESTOWN,NY,,US,,,,,
,visa,,,JAMESTOWN,NY,,US,,,,,
,visa,,,JAMESTOWN,NY,,US,,,,,
,visa,,,JAMESTOWN,NY,,US,,,,,
,visa,,,JOAMESTOWN,NY,,US,,,,,
,visa,,,JAMESTOWN,NY,,US,,,,,
,visa,,,JAMESTOWN,NY,,US,,,,,
,visa,,,JAMESTOWN,NY,,US,,,,,
,visa,,,JAMESTOWN,NY,,US,,,,,
,visa,,,JAMESTOWN,NY,,US,,,,,
,visa,,,JAMESTOWN,NY,,US,,,,,
,visa,,,JAMESTOWN,NY,,US,,,,,
,visa,,,JAMESTOWN,NY,,US,,,,,
,visa,,,JAMESTOWN,NY,,US,,,,,
,visa,,,JAMESTOWN,NY,,US,,,,,
,visa,,,JAMESTOWN,NY,,US,,,,,
,visa,,,JAMESTOWN,NY,,US,,,,,
,visa,,,JAMESTOWN,NY,,US,,,,,
,visa,,,JAMESTOWN,NY,,US,,,,,
,visa,,,JAMESTOWN,NY,,US,,,,,
,visa,,,JAMESTOWN,NY,,US,,,,,
,visa,,,JAMESTOWN,NY,,US,,,,,
,visa,,,JAMESTOWN,NY,,US,,,,,
,visa,,,JAMESTOWN,NY,,US,,,,,
,visa,,,JAMESTOWN,NY,,US,,,,,
,visa,,,JAMESTOWN,NY,,US,,,,,
,visa,,,JAMESTOWN,NY,,US,,,,,
,visa,,,JAMESTOWN,NY,,US,,,,,
,visa,,,JAMESTOWN,NY,,US,,,,,
,visa,,,JAMESTOWN,NY,,US,,,,,
,visa,,,JAMESTOWN,NY,,US,,,,,
,visa,,,JAMESTOWN,NY,,US,,,,,
,visa,,,JAMESTOWN,NY,,US,,,,,
,visa,,,JAMESTOWN,NY,,US,,,,,
,visa,,,ELLICOTT,NY,,US,,,,,
,visa,,,JAMESTOWN,NY,,US,,,,,
,visa,,,JAMESTOWN,NY,,US,,,,,
,visa,,,JAMESTOWN,NY,,US,,,,,
,visa,,,JAMESTOWN,NY,,US,,,,,
,visa,,,JAMESTOWN,NY,,US,,,,,
,visa,,,JAMESTOWN,NY,,US,,,,,
,visa,,,JAMESTOWN,NY,,US,,,,,
,visa,,,JAMESTOWN,NY,,US,,,,,
,visa,,,JAMESTOWN,NY,,US,,,,,
,visa,,,JAMESTOWN,NY,,US,,,,,
,visa,,,JAMESTOWN,NY,,US,,,,,
,visa,,,JAMESTOWN,NY,,US,,,,,
,visa,,,JAMESTOWN,NY,,US,,,,,
,visa,,,JAMESTOWN,NY,,US,,,,,
,visa,,,JAMESTOWN,NY,,US,,,,,
,visa,,,JAMESTOWN,NY,,US,,,,,
https://www.walgreens.com/locator/walgreens-10+prospect+st-jamestown-ny-14701/id=9937,walgreens,Walgreens,,Jamestown,NY,,US,+1 716-661-9230,https://www.walgreens.com/locator/walgreens-10+prospect+st-jamestown-ny-14701/id=9937,Mo-Su 09:00-21:00,Walgreens,Q1591889
https://locations.wendys.com/#9253193,wendys,"Wendy's 505 Jamestown in Jamestown, NY",,Jamestown,NY,,US,+1 716-665-6798,https://locations.wendys.com/united-states/ny/jamestown/1355-e-2nd-st,"Mo-Su 06:30-10:30,07:00-22:00",Wendy's,Q550258
556b9912f606cd33f93d28702d957bbc,western_union,7-ELEVEN #35232,,Jamestown,NY,,US,+1 716-661-3159,https://location.westernunion.com/us/ny/jamestown/556b9912f606cd33f93d28702d957bbc,,Western Union,Q861042
15376aa6a1be9cb8243a72d7cac95013,western_union,DOLLAR GENERAL #21766,,Jamestown,NY,,US,+1 716-413-0031,https://location.westernunion.com/us/ny/jamestown/15376aa6a1be9cb8243a72d7cac95013,Mo-Su 08:00-22:00,Western Union,Q861042
12b131b3eafa7ecf7606768556f7e161,western_union,7-ELEVEN #35205,,Jamestown,NY,,US,+1 716-664-7513,https://location.westernunion.com/us/ny/jamestown/12b131b3eafa7ecf7606768556f7e161,,Western Union,Q861042
633142ce26540a2ba83747921d9a7c99,western_union,7-ELEVEN #35204,,Jamestown,NY,,US,+1 716-665-4139,https://location.westernunion.com/us/ny/jamestown/633142ce26540a2ba83747921d9a7c99,,Western Union,Q861042
eastside-family-ymca,ymca,Eastside Family YMCA,727 East Second Street,Jamestown,NY,,US,+1 716-484-3729,https://www.ymca.org/locations/eastside-family-ymca,24/7,YMCA,Q157169
jamestown-ymca,ymca,Jamestown YMCA,101 E 4th St,Jamestown,NY,,US,+1 716-664-2802,https://www.ymca.org/locations/jamestown-ymca,Mo-Fr 05:30-20:00; Sa 07:00-15:00; Su 08:00-13:00,YMCA,Q157169
