Ref,Spider,Name,Address,City,State,Zipcode,Country,Phone,Website,Hours,Brand,WikiData
310 Hookahi Street,allied_universal,Allied Universal,,Wailuku,HI,,US,,https://www.aus.com/wailuku-security-system-services,,Allied Universal,Q4732537
/locations/propane-offices/hawaii/wailuku/1644-mill-st,amerigas,"AmerGas Propane | Wailuku, Hawaii",,Wailuku,HI,,US,+1 808-244-2022,/locations/propane-offices/hawaii/wailuku/1644-mill-st,,AmeriGas,Q23130318
3829,anytime_fitness,Anytime Fitness,,Wailuku,HI,,US,+1 808-244-2348,https://www.anytimefitness.com/gyms/3829/wailuku-hi-96793/,,Anytime Fitness,Q4778364
9670,bank_of_hawaii_us,Texaco Wailuku,,Wailuku,HI,,US,,,,Bank of Hawaii,Q4856124
9389,bank_of_hawaii_us,Maui Lani Branch at Safeway,,Wailuku,HI,,US,+1 808-242-2775,,Mo-Fr 08:00-16:00; Sa 09:00-13:00,Bank of Hawaii,Q4856124
9657,bank_of_hawaii_us,Aloha Island Mart Waiehu Shell,,Wailuku,HI,,US,,,,Bank of Hawaii,Q4856124
14523-8,birkenstock,Naturally Birkenstock,,Wailuku,HI,,US,+1 808-327-9333,https://www.birkenstock.com/us/search?cgid=store-14523-8,,Birkenstock,Q648458
91571,chevron,Texaco Station #91571,2085 MAIN ST,WAILUKU,HI,,US,+1 808-244-0869,,,Chevron,Q319642
64880,citi,ATM MAUI COUNTY FEDERAL CREDIT UNION,,Wailuku,HI,,US,,,,Citibank,Q857063
64088,citi,ATM Longs Drugs,,Wailuku,HI,,US,,,,Citibank,Q857063
64882,citi,ATM MAUI COUNTY FEDERAL CREDIT UNION,,Wailuku,HI,,US,,,,Citibank,Q857063
64883,citi,ATM MAUI COUNTY FEDERAL CREDIT UNION,,Wailuku,HI,,US,,,,Citibank,Q857063
64881,citi,ATM MAUI COUNTY FEDERAL CREDIT UNION,,Wailuku,HI,,US,,,,Citibank,Q857063
92557,citi,ATM Walgreens,,Wailuku,HI,,US,,,,Citibank,Q857063
64884,citi,ATM MAUI COUNTY FEDERAL CREDIT UNION,,Kahului,HI,,US,,,,Citibank,Q857063
,credit_union_us,Valley Isle Community FCU,,Wailuku,HI,,US,+1 808-244-7354,,Mo-Fr 08:30-04:30,,
80155222,cricket_wireless,Cricket Wireless Authorized Retailer,,Wailuku Maui,HI,,US,+1 808-446-3069,https://www.cricketwireless.com/stores,Mo-Sa 10:00-18:00; Su 00:00-17:00,Cricket Wireless,Q5184987
10060,cvs_us,Longs Drugs,,Wailuku,HI,,US,+1 808-242-5606,https://www.cvs.com/store-locator/wailuku-hi-pharmacies/135-kehalani-village-dr-wailuku-hi-96793/storeid=10060,Mo-Su 06:00-00:00,Longs Drugs,Q16931196
18050,dominos_pizza_us,Domino's Pizza,,Wailuku,HI,,US,+1 808-213-0303,https://pizza.dominos.com/hawaii/wailuku/52-maui-lani-parkway-d-6,Mo-Th 10:00-24:00; Fr-Sa 10:00-01:00; Su 10:00-24:00,Domino's,Q839466
https://www.edwardjones.com/us-en/financial-advisor/penny-andrews,edwardjones,Penny O Andrews,,Wailuku,HI,,US,+1 808-244-8308,https://www.edwardjones.com/us-en/financial-advisor/penny-andrews,Mo-Fr 08:00-16:00,Edward Jones,Q5343830
https://local.fedex.com/#25200853,fedex,,,Wailuku,HI,,US,+1 800-463-3339,https://local.fedex.com/en-us/hi/wailuku/afxys,,FedEx,Q459477
FH2206,first_hawaiian_bank,"First Hawaiian Bank ATM, Mint Stop-Main St.-Wailuku",,Wailuku,HI,,US,,,24/7,First Hawaiian Bank,Q3072937
27,first_hawaiian_bank,First Hawaiian Bank Wailuku Branch,,Wailuku,HI,,US,+1 808-877-2377,,Mo-Fr 08:30-16:00,First Hawaiian Bank,Q3072937
FH2285,first_hawaiian_bank,"First Hawaiian Bank ATM, Maui Medical Group",,Wailuku,HI,,US,,,24/7,First Hawaiian Bank,Q3072937
FH2125,first_hawaiian_bank,"First Hawaiian Bank ATM, Maui Memorial Medical Ctr",,Wailuku,HI,,US,,,24/7,First Hawaiian Bank,Q3072937
7375,fresenius_kidney_care_us,Liberty Dialysis Maui Home,,Wailuku,HI,,US,+1 800-881-5101,https://www.freseniuskidneycare.com/dialysis-centers/hawaii/7375,Mo-Fr 08:00-16:00,,
7445,fresenius_kidney_care_us,Fresenius Kidney Care Maui Ckd,,Wailuku,HI,,US,+1 800-881-5101,https://www.freseniuskidneycare.com/dialysis-centers/hawaii/7445,Mo-Sa 07:00-17:00,,
7446,fresenius_kidney_care_us,Liberty Dialysis Mauilani,,Wailuku,HI,,US,+1 800-881-5101,https://www.freseniuskidneycare.com/dialysis-centers/hawaii/7446,Mo-Sa 06:00-22:00,,
12252,h_r_block,H&R Block,,Wailuku,HI,,US,+1 808-242-1553,https://www.hrblock.com/local-tax-offices/hawaii/wailuku/2070-w-vineyard-st/12252/,,H&R Block,Q5627799
https://locations.jackinthebox.com/us/hi/wailuku/700-lower-main-st,jackinthebox,Jack in the Box,,Wailuku,HI,,US,+1 808-249-2943,https://locations.jackinthebox.com/us/hi/wailuku/700-lower-main-st,Mo-Su 04:00-04:00,Jack in the Box,Q1538507
https://office.jacksonhewitt.com/#27580252,jackson_hewitt,Jackson Hewitt,,Wailuku,HI,,US,+1 808-213-7172,https://office.jacksonhewitt.com/tax-preparation-services-locations/en/hi/wailuku/737-lower-main-street-d1/14423,Mo-Sa 11:00-19:00; Su 12:00-16:00,Jackson Hewitt,Q6117132
https://locations.jamba.com/#1452-Jamba,jambajuice,Jamba Maui Lani Shops,,Wailuku,HI,,US,+1 808-893-0369,https://locations.jamba.com/hi/wailuku/700-waiale-rd,Mo-Fr 06:00-21:00; Sa 07:00-21:00; Su 07:00-20:00,Jamba Juice,Q3088784
https://healthy.kaiserpermanente.org/hawaii/facilities/virginia-cantorna-rn-psyd-llc-142277,kaiser_permanente_us,"Virginia Cantorna, RN, Psy.D, LLC",,Wailuku,HI,,US,+1 808-877-4415,https://healthy.kaiserpermanente.org/hawaii/facilities/virginia-cantorna-rn-psyd-llc-142277,,Kaiser Permanente,Q1721601
https://healthy.kaiserpermanente.org/hawaii/facilities/susan-frieder-phd-142069,kaiser_permanente_us,"Susan Frieder, Ph.D",,Wailuku,HI,,US,+1 808-280-4292,https://healthy.kaiserpermanente.org/hawaii/facilities/susan-frieder-phd-142069,,Kaiser Permanente,Q1721601
https://healthy.kaiserpermanente.org/hawaii/facilities/state-of-hawaii-department-of-health-adult-mental-health-division-wailuku-cmhc-172224,kaiser_permanente_us,State of Hawaii Department of Health Adult Mental Health Division- Wailuku CMHC,,Wailuku,HI,,US,+1 808-984-2150,https://healthy.kaiserpermanente.org/hawaii/facilities/state-of-hawaii-department-of-health-adult-mental-health-division-wailuku-cmhc-172224,,Kaiser Permanente,Q1721601
https://healthy.kaiserpermanente.org/hawaii/facilities/santo-j-triolo-phd-abap-142045,kaiser_permanente_us,"Santo J. Triolo, Ph.D., ABAP",,Wailuku,HI,,US,+1 808-268-3833,https://healthy.kaiserpermanente.org/hawaii/facilities/santo-j-triolo-phd-abap-142045,,Kaiser Permanente,Q1721601
https://healthy.kaiserpermanente.org/hawaii/facilities/robert-d-lanser-jr-lcsw-141957,kaiser_permanente_us,"Robert D. Lanser, Jr. LCSW",,Wailuku,HI,,US,+1 808-249-2121,https://healthy.kaiserpermanente.org/hawaii/facilities/robert-d-lanser-jr-lcsw-141957,,Kaiser Permanente,Q1721601
https://healthy.kaiserpermanente.org/hawaii/facilities/rainbow-dialysis-llc-139581,kaiser_permanente_us,"Rainbow Dialysis, LLC",,Wailuku,HI,,US,+1 808-298-0555,https://healthy.kaiserpermanente.org/hawaii/facilities/rainbow-dialysis-llc-139581,,Kaiser Permanente,Q1721601
https://healthy.kaiserpermanente.org/hawaii/facilities/pacific-enterprise-group-llc-141773,kaiser_permanente_us,"Pacific Enterprise Group, LLC",,Wailuku,HI,,US,+1 808-244-1007,https://healthy.kaiserpermanente.org/hawaii/facilities/pacific-enterprise-group-llc-141773,,Kaiser Permanente,Q1721601
https://healthy.kaiserpermanente.org/hawaii/facilities/pacific-cancer-institute-inc-178056,kaiser_permanente_us,"Pacific Cancer Institute, Inc",,Wailuku,HI,,US,+1 808-242-1600,https://healthy.kaiserpermanente.org/hawaii/facilities/pacific-cancer-institute-inc-178056,,Kaiser Permanente,Q1721601
https://healthy.kaiserpermanente.org/hawaii/facilities/norita-t-morrison-adult-foster-home-care-services-165119,kaiser_permanente_us,Norita T. Morrison / Adult Foster Home Care Services,,Wailuku,HI,,US,+1 808-308-1887,https://healthy.kaiserpermanente.org/hawaii/facilities/norita-t-morrison-adult-foster-home-care-services-165119,,Kaiser Permanente,Q1721601
https://healthy.kaiserpermanente.org/hawaii/facilities/neal-a-campbell-msw-lcsw-141525,kaiser_permanente_us,"Neal A. Campbell MSW, LCSW",,Wailuku,HI,,US,+1 808-268-2315,https://healthy.kaiserpermanente.org/hawaii/facilities/neal-a-campbell-msw-lcsw-141525,,Kaiser Permanente,Q1721601
https://healthy.kaiserpermanente.org/hawaii/facilities/myrna-clemente-foster-home-165526,kaiser_permanente_us,Myrna Clemente Foster Home,,Wailuku,HI,,US,+1 808-344-3524,https://healthy.kaiserpermanente.org/hawaii/facilities/myrna-clemente-foster-home-165526,,Kaiser Permanente,Q1721601
https://healthy.kaiserpermanente.org/hawaii/facilities/movement-resolutions-138325,kaiser_permanente_us,Movement Resolutions,,Wailuku,HI,,US,+1 808-283-4634,https://healthy.kaiserpermanente.org/hawaii/facilities/movement-resolutions-138325,,Kaiser Permanente,Q1721601
https://healthy.kaiserpermanente.org/hawaii/facilities/mni-counseling-services-llc-141661,kaiser_permanente_us,"MNI Counseling Services, LLC",,Wailuku,HI,,US,+1 808-818-8094,https://healthy.kaiserpermanente.org/hawaii/facilities/mni-counseling-services-llc-141661,,Kaiser Permanente,Q1721601
https://healthy.kaiserpermanente.org/hawaii/facilities/metrocare-hawaii-plus-166958,kaiser_permanente_us,Metrocare Hawaii - Plus,,Wailuku,HI,,US,+1 808-249-8888,https://healthy.kaiserpermanente.org/hawaii/facilities/metrocare-hawaii-plus-166958,,Kaiser Permanente,Q1721601
https://healthy.kaiserpermanente.org/hawaii/facilities/metrocare-hawaii-plus-165503,kaiser_permanente_us,Metrocare Hawaii - Plus,,Waipahu,HI,,US,+1 808-678-8500,https://healthy.kaiserpermanente.org/hawaii/facilities/metrocare-hawaii-plus-165503,,Kaiser Permanente,Q1721601
https://healthy.kaiserpermanente.org/hawaii/facilities/mental-health-kokua-141605,kaiser_permanente_us,Mental Health Kokua,,Wailuku,HI,,US,+1 808-986-0059,https://healthy.kaiserpermanente.org/hawaii/facilities/mental-health-kokua-141605,,Kaiser Permanente,Q1721601
https://healthy.kaiserpermanente.org/hawaii/facilities/melchor-milba-167726,kaiser_permanente_us,"Melchor, Milba",,Wailuku,HI,,US,+1 808-214-3763,https://healthy.kaiserpermanente.org/hawaii/facilities/melchor-milba-167726,,Kaiser Permanente,Q1721601
https://healthy.kaiserpermanente.org/hawaii/facilities/megacare-llc-144012,kaiser_permanente_us,MEGACARE LLC,,Wailuku,HI,,US,+1 808-856-1466,https://healthy.kaiserpermanente.org/hawaii/facilities/megacare-llc-144012,,Kaiser Permanente,Q1721601
https://healthy.kaiserpermanente.org/hawaii/facilities/mauliola-pharmacy-339359,kaiser_permanente_us,Mauliola Pharmacy,,Wailuku,HI,,US,+1 808-446-3348,https://healthy.kaiserpermanente.org/hawaii/facilities/mauliola-pharmacy-339359,,Kaiser Permanente,Q1721601
https://healthy.kaiserpermanente.org/hawaii/facilities/maui-speech-and-swallow-and-neurological-rehabilitation-144739,kaiser_permanente_us,Maui Speech and Swallow and Neurological Rehabilitation,,Wailuku,HI,,US,+1 808-856-9821,https://healthy.kaiserpermanente.org/hawaii/facilities/maui-speech-and-swallow-and-neurological-rehabilitation-144739,,Kaiser Permanente,Q1721601
https://healthy.kaiserpermanente.org/hawaii/facilities/maui-memorial-medical-center-100426,kaiser_permanente_us,Maui Memorial Medical Center,,Wailuku,HI,,US,+1 808-244-9056,https://healthy.kaiserpermanente.org/hawaii/facilities/maui-memorial-medical-center-100426,,Kaiser Permanente,Q1721601
https://healthy.kaiserpermanente.org/hawaii/facilities/maui-learning-academy-llc-141597,kaiser_permanente_us,Maui Learning Academy LLC,,Wailuku,HI,,US,+1 808-298-0111,https://healthy.kaiserpermanente.org/hawaii/facilities/maui-learning-academy-llc-141597,,Kaiser Permanente,Q1721601
https://healthy.kaiserpermanente.org/hawaii/facilities/maui-adult-day-care-centers-wailuku-145075,kaiser_permanente_us,Maui Adult Day Care Centers - Wailuku,,Wailuku,HI,,US,+1 808-243-9312,https://healthy.kaiserpermanente.org/hawaii/facilities/maui-adult-day-care-centers-wailuku-145075,,Kaiser Permanente,Q1721601
https://healthy.kaiserpermanente.org/hawaii/facilities/mastercare-inc-144028,kaiser_permanente_us,"Mastercare, Inc",,Wailuku,HI,,US,+1 808-597-1564,https://healthy.kaiserpermanente.org/hawaii/facilities/mastercare-inc-144028,,Kaiser Permanente,Q1721601
https://healthy.kaiserpermanente.org/hawaii/facilities/mark-d-breithaupt-phd-141381,kaiser_permanente_us,"Mark D. Breithaupt, Ph.D.",,Wailuku,HI,,US,+1 808-244-4037,https://healthy.kaiserpermanente.org/hawaii/facilities/mark-d-breithaupt-phd-141381,,Kaiser Permanente,Q1721601
https://healthy.kaiserpermanente.org/hawaii/facilities/mari-kanemura-lsw-lcsw-ola-hou-clinic-141517,kaiser_permanente_us,"Mari Kanemura, LSW., LCSW, Ola Hou Clinic",,Wailuku,HI,,US,+1 808-364-9391,https://healthy.kaiserpermanente.org/hawaii/facilities/mari-kanemura-lsw-lcsw-ola-hou-clinic-141517,,Kaiser Permanente,Q1721601
https://healthy.kaiserpermanente.org/hawaii/facilities/mana-recovery-center-llc-171937,kaiser_permanente_us,Mana Recovery Center LLC,,Wailuku,HI,,US,+1 808-867-9268,https://healthy.kaiserpermanente.org/hawaii/facilities/mana-recovery-center-llc-171937,,Kaiser Permanente,Q1721601
https://healthy.kaiserpermanente.org/hawaii/facilities/macrene-brown-166183,kaiser_permanente_us,Macrene Brown,,Wailuku,HI,,US,+1 808-419-8285,https://healthy.kaiserpermanente.org/hawaii/facilities/macrene-brown-166183,,Kaiser Permanente,Q1721601
https://healthy.kaiserpermanente.org/hawaii/facilities/madariaga-chita-166191,kaiser_permanente_us,"Madariaga, Chita",,Wailuku,HI,,US,+1 808-633-4912,https://healthy.kaiserpermanente.org/hawaii/facilities/madariaga-chita-166191,,Kaiser Permanente,Q1721601
https://healthy.kaiserpermanente.org/hawaii/facilities/longs-drugs-pharmacy-wailuku-no-10060-324695,kaiser_permanente_us,Longs Drugs Pharmacy - Wailuku No. 10060,,Wailuku,HI,,US,+1 808-242-5606,https://healthy.kaiserpermanente.org/hawaii/facilities/longs-drugs-pharmacy-wailuku-no-10060-324695,,Kaiser Permanente,Q1721601
https://healthy.kaiserpermanente.org/hawaii/facilities/linda-g-sattler-psyd-141277,kaiser_permanente_us,"Linda G. Sattler, Psy.D.",,Wailuku,HI,,US,+1 808-740-1410,https://healthy.kaiserpermanente.org/hawaii/facilities/linda-g-sattler-psyd-141277,,Kaiser Permanente,Q1721601
https://healthy.kaiserpermanente.org/hawaii/facilities/liberty-dialysis-hawaii-maui-dialysis-171713,kaiser_permanente_us,Liberty Dialysis Hawaii - Maui Dialysis,,Wailuku,HI,,US,+1 808-244-9600,https://healthy.kaiserpermanente.org/hawaii/facilities/liberty-dialysis-hawaii-maui-dialysis-171713,,Kaiser Permanente,Q1721601
https://healthy.kaiserpermanente.org/hawaii/facilities/lagat-genoveva-165094,kaiser_permanente_us,"Lagat, Genoveva",,Wailuku,HI,,US,+1 808-243-9454,https://healthy.kaiserpermanente.org/hawaii/facilities/lagat-genoveva-165094,,Kaiser Permanente,Q1721601
https://healthy.kaiserpermanente.org/hawaii/facilities/kaiser-permanente-wailuku-medical-office-100431,kaiser_permanente_us,Kaiser Permanente Wailuku Medical Office,,Wailuku,HI,,US,+1 833-833-3333,https://healthy.kaiserpermanente.org/hawaii/facilities/kaiser-permanente-wailuku-medical-office-100431,,Kaiser Permanente,Q1721601
https://healthy.kaiserpermanente.org/hawaii/facilities/kaiser-permanente-maui-lani-medical-office-100436,kaiser_permanente_us,Kaiser Permanente Maui Lani Medical Office,,Wailuku,HI,,US,+1 833-833-3333,https://healthy.kaiserpermanente.org/hawaii/facilities/kaiser-permanente-maui-lani-medical-office-100436,,Kaiser Permanente,Q1721601
https://healthy.kaiserpermanente.org/hawaii/facilities/kaiser-permanente-maui-lani-elua-clinic-303781,kaiser_permanente_us,Kaiser Permanente Maui Lani Elua Clinic,,Wailuku,HI,,US,+1 833-833-3333,https://healthy.kaiserpermanente.org/hawaii/facilities/kaiser-permanente-maui-lani-elua-clinic-303781,,Kaiser Permanente,Q1721601
https://healthy.kaiserpermanente.org/hawaii/facilities/judith-de-los-trino-164766,kaiser_permanente_us,Judith De Los Trino,,Wailuku,HI,,US,+1 808-280-8998,https://healthy.kaiserpermanente.org/hawaii/facilities/judith-de-los-trino-164766,,Kaiser Permanente,Q1721601
https://healthy.kaiserpermanente.org/hawaii/facilities/jasmine-rivera-164910,kaiser_permanente_us,Jasmine Rivera,,Wailuku,HI,,US,+1 808-277-6303,https://healthy.kaiserpermanente.org/hawaii/facilities/jasmine-rivera-164910,,Kaiser Permanente,Q1721601
https://healthy.kaiserpermanente.org/hawaii/facilities/hui-no-ke-ola-pono-inc-139245,kaiser_permanente_us,"Hui No Ke Ola Pono, Inc.",,Wailuku,HI,,US,+1 808-244-4647,https://healthy.kaiserpermanente.org/hawaii/facilities/hui-no-ke-ola-pono-inc-139245,,Kaiser Permanente,Q1721601
https://healthy.kaiserpermanente.org/hawaii/facilities/hospice-maui-inc-139301,kaiser_permanente_us,"Hospice Maui, Inc.",,Wailuku,HI,,US,+1 808-244-5555,https://healthy.kaiserpermanente.org/hawaii/facilities/hospice-maui-inc-139301,,Kaiser Permanente,Q1721601
https://healthy.kaiserpermanente.org/hawaii/facilities/home-health-by-hale-makua-139149,kaiser_permanente_us,Home Health by Hale Makua,,Wailuku,HI,,US,+1 808-244-3661,https://healthy.kaiserpermanente.org/hawaii/facilities/home-health-by-hale-makua-139149,,Kaiser Permanente,Q1721601
https://healthy.kaiserpermanente.org/hawaii/facilities/hihomecare-166918,kaiser_permanente_us,HiHomeCare,,Wailuku,HI,,US,+1 808-927-5092,https://healthy.kaiserpermanente.org/hawaii/facilities/hihomecare-166918,,Kaiser Permanente,Q1721601
https://healthy.kaiserpermanente.org/hawaii/facilities/hale-makua-wailuku-176800,kaiser_permanente_us,Hale Makua Wailuku,,Wailuku,HI,,US,+1 808-243-1700,https://healthy.kaiserpermanente.org/hawaii/facilities/hale-makua-wailuku-176800,,Kaiser Permanente,Q1721601
https://healthy.kaiserpermanente.org/hawaii/facilities/domingo-jessica-159439,kaiser_permanente_us,"Domingo, Jessica",,Wailuku,HI,,US,+1 808-244-9819,https://healthy.kaiserpermanente.org/hawaii/facilities/domingo-jessica-159439,,Kaiser Permanente,Q1721601
https://healthy.kaiserpermanente.org/hawaii/facilities/deborah-sitbon-lcsw-172240,kaiser_permanente_us,"Deborah Sitbon, LCSW",,Wailuku,HI,,US,+1 808-446-2544,https://healthy.kaiserpermanente.org/hawaii/facilities/deborah-sitbon-lcsw-172240,,Kaiser Permanente,Q1721601
https://healthy.kaiserpermanente.org/hawaii/facilities/comprehensive-health-attitude-management-program-164662,kaiser_permanente_us,Comprehensive Health & Attitude Management Program,,Wailuku,HI,,US,+1 808-249-8784,https://healthy.kaiserpermanente.org/hawaii/facilities/comprehensive-health-attitude-management-program-164662,,Kaiser Permanente,Q1721601
https://healthy.kaiserpermanente.org/hawaii/facilities/care-hawaii-inc-145243,kaiser_permanente_us,"Care Hawaii, Inc",,Wailuku,HI,,US,+1 808-533-3936,https://healthy.kaiserpermanente.org/hawaii/facilities/care-hawaii-inc-145243,,Kaiser Permanente,Q1721601
https://healthy.kaiserpermanente.org/hawaii/facilities/bermudez-foster-care-home-144340,kaiser_permanente_us,Bermudez Foster Care Home,,Wailuku,HI,,US,+1 808-281-1105,https://healthy.kaiserpermanente.org/hawaii/facilities/bermudez-foster-care-home-144340,,Kaiser Permanente,Q1721601
https://healthy.kaiserpermanente.org/hawaii/facilities/bayada-home-health-care-139109,kaiser_permanente_us,Bayada Home Health Care,,Wailuku,HI,,US,+1 800-305-3000,https://healthy.kaiserpermanente.org/hawaii/facilities/bayada-home-health-care-139109,,Kaiser Permanente,Q1721601
https://healthy.kaiserpermanente.org/hawaii/facilities/alison-bromley-139837,kaiser_permanente_us,Alison Bromley,,Wailuku,HI,,US,+1 808-442-2439,https://healthy.kaiserpermanente.org/hawaii/facilities/alison-bromley-139837,,Kaiser Permanente,Q1721601
https://healthy.kaiserpermanente.org/hawaii/facilities/akamai-behavior-analysis-llc-139933,kaiser_permanente_us,"Akamai Behavior Analysis, LLC",,Wailuku,HI,,US,+1 808-276-2417,https://healthy.kaiserpermanente.org/hawaii/facilities/akamai-behavior-analysis-llc-139933,,Kaiser Permanente,Q1721601
use1f52120,pandora,About Pandora Jewelry Authorized Retailer - Maui Ocean Center,,Wailuku,HI,,US,+1 808-270-7061,https://stores.pandora.net/hi/wailuku/pandora-jewelry-use1f52120.html,,Pandora,Q2241604
hi_wailuku_790-eha-street,pizza_hut_us,790 Eha Street,,Wailuku,HI,,US,+1 808-643-1111,https://locations.pizzahut.com/hi/wailuku/790-eha-street,,Pizza Hut,Q191615
https://local.pharmacy.safeway.com/#5673612,safeway,Safeway Pharmacy,,Wailuku,HI,,US,+1 808-243-3527,https://local.pharmacy.safeway.com/safeway/hi/wailuku/58-maui-lani-pkwy-suite-5000.html,,Safeway,Q1508234
https://local.safeway.com/#5604538,safeway,Safeway,,Wailuku,HI,,US,+1 808-243-3522,https://local.safeway.com/safeway/hi/wailuku/58-maui-lani-pkwy-suite-5000.html,,Safeway,Q1508234
https://restaurants.subway.com/#14901393,subway,Subway,,Wailuku Maui,HI,,US,+1 808-244-9999,https://restaurants.subway.com/united-states/hi/wailuku/1955-main-st,Mo-Su 08:00-21:00,Subway,Q244457
83374,supercuts,Maui Lani Shop Ctr Ste 3020,52 Maui Lani Pkwy Spc D-9,Kahului,HI,,US,+1 808-244-7771,https://www.supercuts.com/checkin/83374,Mo-Sa 09:00-19:00; Su 09:00-17:00,Supercuts,Q7643239
1386159,usps,WAILUKU,,WAILUKU,HI,,US,+1 808-244-1653,,Mo-Fr 09:00-16:00; Sa 09:00-12:00,United States Postal Service,Q668687
9679300009,usps_collection_boxes,USPS COLLECTION BOX - BLUE BOX,70 S HIGH ST,WAILUKU,HI,,US,,,,United States Postal Service,Q668687
9679300001,usps_collection_boxes,USPS COLLECTION BOX - BLUE BOX,250 IMI KALA ST,WAILUKU,HI,,US,,,,United States Postal Service,Q668687
9679300004,usps_collection_boxes,USPS COLLECTION BOX - PO LOBBY,250 IMI KALA ST,WAILUKU,HI,,US,,,,United States Postal Service,Q668687
9679300005,usps_collection_boxes,USPS COLLECTION BOX - APC,250 IMI KALA ST,WAILUKU,HI,,US,,,,United States Postal Service,Q668687
9679300010,usps_collection_boxes,USPS COLLECTION BOX - BLUE BOX,250 IMI KALA ST,WAILUKU,HI,,US,,,,United States Postal Service,Q668687
9679300017,usps_collection_boxes,USPS COLLECTION BOX - BLUE BOX,250 IMI KALA ST,WAILUKU,HI,,US,,,,United States Postal Service,Q668687
9679300025,usps_collection_boxes,USPS COLLECTION BOX - PO LOBBY,250 IMI KALA ST,WAILUKU,HI,,US,,,,United States Postal Service,Q668687
,visa,,,WAILUKI,HI,,US,,,,,
,visa,,,WAILUKU,HI,,US,,,,,
,visa,,,WAILUKU,HI,,US,,,,,
,visa,,,WAILUKU,HI,,US,,,,,
,visa,,,WAILUKU,HI,,US,,,,,
,visa,,,WAILUKU,HI,,US,,,,,
,visa,,,WAILUKU,HI,,US,,,,,
,visa,,,WAILUKU,HI,,US,,,,,
,visa,,,WAILUKU,HI,,US,,,,,
,visa,,,WAILUKU,HI,,US,,,,,
,visa,,,WAILUKU,HI,,US,,,,,
,visa,,,WAILUKA,HI,,US,,,,,
,visa,,,WAILUKU,HI,,US,,,,,
,visa,,,MARYVILLE,HI,,US,,,,,
,visa,,,WAILUKU,HI,,US,,,,,
,visa,,,MARYVILLE,HI,,US,,,,,
,visa,,,WAILUKU,HI,,US,,,,,
,visa,,,WAILUKU,HI,,US,,,,,
,visa,,,WAILUKU,HI,,US,,,,,
,visa,,,WAILUKU,HI,,US,,,,,
,visa,,,WAILUKU,HI,,US,,,,,
,visa,,,GLEN CARBON,HI,,US,,,,,
,visa,,,WAILUKU,HI,,US,,,,,
,visa,,,WAILUKU,HI,,US,,,,,
,visa,,,WAILUKU,HI,,US,,,,,
,visa,,,WAILUKU,HI,,US,,,,,
https://www.walgreens.com/locator/walgreens-700+waiale+rd-wailuku-hi-96793/id=15115,walgreens,Walgreens,,Wailuku,HI,,US,+1 808-872-9742,https://www.walgreens.com/locator/walgreens-700+waiale+rd-wailuku-hi-96793/id=15115,Mo-Su 07:00-23:00,Walgreens,Q1591889
