Ref,Spider,Name,Address,City,State,Zipcode,Country,Phone,Website,Hours,Brand,WikiData
https://stores.advanceautoparts.com/vt/springfield/2-chester-rd,advance_auto_parts_us,Advance Auto Parts,,Springfield,VT,,US,+1 802-546-2558,https://stores.advanceautoparts.com/vt/springfield/2-chester-rd,Mo-Sa 07:30-21:00; Su 09:00-20:00,Advance Auto Parts,Q4686051
https://local.shaws.com/#5604857,albertsons,Shaw's,,Springfield,VT,,US,+1 802-885-8450,https://local.shaws.com/vt/springfield/82-springfield-plaza-rd.html,Mo-Sa 07:00-22:00; Su 07:00-21:00,Shaw's,Q578387
213113,bluerhino,Black River Kwik Mart,,Springfield,VT,,US,+1 802-886-2899,,,Blue Rhino,Q65681213
206443,bluerhino,Rite Aid #10313,,Springfield,VT,,US,+1 802-885-5311,,,Blue Rhino,Q65681213
127926,bluerhino,Jake's Market & Deli,,Springfield,VT,,US,+1 802-885-3344,,,Blue Rhino,Q65681213
240275,bluerhino,Circle K #4707404,,Springfield,VT,,US,+1 802-885-2266,,,Blue Rhino,Q65681213
40722,citi,ATM Circle K,,Springfield,VT,,US,,,,Citibank,Q857063
ATM-1162,citizens_us,,,Springfield,VT,,US,,,24/7,Citizens,Q5122694
3122,dominos_pizza_us,Domino's Pizza,,Springfield,VT,,US,+1 802-277-5500,https://pizza.dominos.com/vermont/springfield/2-chester-road,Mo-Th 10:30-24:00; Fr-Sa 10:30-01:00; Su 10:30-24:00,Domino's,Q839466
336021,dunkin_us,Dunkin',,Springfield,VT,,US,+1 802-885-2120,https://locations.dunkindonuts.com/en/vt/springfield/50-clinton-st/336021,Mo-Su 05:00-20:00,Dunkin',Q847743
351728,dunkin_us,Dunkin',,Springfield,VT,,US,+1 802-885-8466,https://locations.dunkindonuts.com/en/vt/springfield/252-river-st/351728,Mo-Su 05:00-19:00,Dunkin',Q847743
https://www.edwardjones.com/us-en/financial-advisor/daniel-richardson2,edwardjones,Daniel Richardson,,Springfield,VT,,US,+1 802-885-4213,https://www.edwardjones.com/us-en/financial-advisor/daniel-richardson2,Mo-Th 09:00-17:00,Edward Jones,Q5343830
200304791,exxonmobil,SPRINGFIELD MOBIL,,SPRINGFIELD,VT,,US,+1 802-885-5310,https://www.exxon.com/en/find-station/mobil-springfield-vt-springfieldmobil-200304791,Mo-Sa 05:00-00:00; Su 06:00-22:00,Mobil,Q109676002
https://local.fedex.com/#25476695,fedex,,,Springfield,VT,,US,+1 800-463-3339,https://local.fedex.com/en-us/vt/springfield/lebnd,,FedEx,Q459477
26680,h_r_block,H&R Block,,Springfield,VT,,US,+1 802-885-1040,https://www.hrblock.com/local-tax-offices/vermont/springfield/31-main-st/26680/,,H&R Block,Q5627799
3671,mightyflame,PENGUIN FUELS,,SPRINGFIELD,VT,,US,+1 802-885-3386,,,Mighty Flame,
https://locations.mtb.com/#3027965,mt_bank_us,M&T Bank,,,VT,,US,+1 802-885-2175,https://locations.mtb.com/vt/springfield/bank-branches-and-atms-springfield-vt-8172.html,Mo-Th 09:00-16:00; Fr 09:00-17:00; Sa 09:00-12:00,M&T Bank,Q3272257
https://locations.oreillyauto.com/vt/springfield/check-engine-light-testing-5683.html,oreilly,Your Springfield O'Reilly Auto Parts Store,,Springfield,VT,,US,+1 802-885-5791,https://locations.oreillyauto.com/vt/springfield/check-engine-light-testing-5683.html,Mo-Fr 07:00-18:00; Sa 08:00-16:00; Su 09:00-14:00,O'Reilly Auto Parts,Q7071951
https://locations.oreillyauto.com/vt/springfield/autopartes-5683.html,oreilly,Tu tienda O'Reilly Auto Parts en Springfield,,Springfield,VT,,US,+1 802-885-5791,https://locations.oreillyauto.com/vt/springfield/autopartes-5683.html,Mo-Fr 07:00-18:00; Sa 08:00-16:00; Su 09:00-14:00,O'Reilly Auto Parts,Q7071951
https://locations.oreillyauto.com/vt/springfield/battery-testing-5683.html,oreilly,Your Springfield O'Reilly Auto Parts Store,,Springfield,VT,,US,+1 802-885-5791,https://locations.oreillyauto.com/vt/springfield/battery-testing-5683.html,Mo-Fr 07:00-18:00; Sa 08:00-16:00; Su 09:00-14:00,O'Reilly Auto Parts,Q7071951
https://locations.oreillyauto.com/vt/springfield/wiper-installation-5683.html,oreilly,Your Springfield O'Reilly Auto Parts Store,,Springfield,VT,,US,+1 802-885-5791,https://locations.oreillyauto.com/vt/springfield/wiper-installation-5683.html,Mo-Fr 07:00-18:00; Sa 08:00-16:00; Su 09:00-14:00,O'Reilly Auto Parts,Q7071951
10313,rite_aid_us,Rite Aid #10313 Springfield,,Springfield,VT,,US,+1 802-885-5311,https://locations2.riteaid.com.yext-cdn.com/vt/springfield/55-springfield-plaza-road.html,Mo-Sa 08:00-21:00; Su 09:00-21:00,Rite Aid,Q3433273
414,sanel_napa,NAPA Springfield,35 Chester Rd.,Springfield,VT,,US,+1 802-885-5116,https://www.napaonline.com/en/vt/springfield/store/31306,,Sanel NAPA,Q122564780
2402,snap_fitness,"Springfield, VT",363 River St,Springfield,VT,,US,+1 802-886-2407,https://www.snapfitness.com/us/gyms/springfield-vt,24/7,Snap Fitness,Q7547254
1382590,usps,SPRINGFIELD,,SPRINGFIELD,VT,,US,+1 802-885-4103,,Mo-Fr 08:00-17:00; Sa 08:00-12:00,United States Postal Service,Q668687
0515600026,usps_collection_boxes,USPS COLLECTION BOX - BLUE BOX,390 RIVER ST,SPRINGFIELD,VT,,US,,,,United States Postal Service,Q668687
0515600028,usps_collection_boxes,USPS COLLECTION BOX - BLUE BOX,181 SOUTH ST,SPRINGFIELD,VT,,US,,,,United States Postal Service,Q668687
0515600018,usps_collection_boxes,USPS COLLECTION BOX - BLUE BOX,1 MINERAL ST,SPRINGFIELD,VT,,US,,,,United States Postal Service,Q668687
0515600032,usps_collection_boxes,USPS COLLECTION BOX - PO LOBBY,132 MAIN ST,SPRINGFIELD,VT,,US,,,,United States Postal Service,Q668687
0515600001,usps_collection_boxes,USPS COLLECTION BOX - BLUE BOX,132 MAIN ST,SPRINGFIELD,VT,,US,,,,United States Postal Service,Q668687
0515600000,usps_collection_boxes,USPS COLLECTION BOX - PO LOBBY,132 MAIN ST,SPRINGFIELD,VT,,US,,,,United States Postal Service,Q668687
0515600021,usps_collection_boxes,USPS COLLECTION BOX - BLUE BOX,25 RIDGEWOOD RD,SPRINGFIELD,VT,,US,,,,United States Postal Service,Q668687
0515600031,usps_collection_boxes,USPS COLLECTION BOX - BLUE BOX,100 MINERAL ST,SPRINGFIELD,VT,,US,,,,United States Postal Service,Q668687
0515600008,usps_collection_boxes,USPS COLLECTION BOX - BLUE BOX,80 MAIN ST,SPRINGFIELD,VT,,US,,,,United States Postal Service,Q668687
0515600004,usps_collection_boxes,USPS COLLECTION BOX - BLUE BOX,6 MAIN ST,SPRINGFIELD,VT,,US,,,,United States Postal Service,Q668687
0515600023,usps_collection_boxes,USPS COLLECTION BOX - BLUE BOX,100 RIVER ST,SPRINGFIELD,VT,,US,,,,United States Postal Service,Q668687
0515600011,usps_collection_boxes,USPS COLLECTION BOX - BLUE BOX,2 CHESTER RD,SPRINGFIELD,VT,,US,,,,United States Postal Service,Q668687
0515600010,usps_collection_boxes,USPS COLLECTION BOX - BLUE BOX,56 ELM HILL ST,SPRINGFIELD,VT,,US,,,,United States Postal Service,Q668687
0515600025,usps_collection_boxes,USPS COLLECTION BOX - BLUE BOX,258 RIVER ST,SPRINGFIELD,VT,,US,,,,United States Postal Service,Q668687
,visa,,,SPRINGFIELD,VT,,US,,,,,
,visa,,,SPRINGFIELD,VT,,US,,,,,
,visa,,,SPRINGFIELD,VT,,US,,,,,
,visa,,,SPRINGFIELD,VT,,US,,,,,
,visa,,,SPRINGFIELD,VT,,US,,,,,
,visa,,,SPINGFIELD,VT,,US,,,,,
