Ref,Spider,Name,Address,City,State,Zipcode,Country,Phone,Website,Hours,Brand,WikiData
2370,anytime_fitness,Anytime Fitness,,Wimberley,TX,,US,+1 512-847-8887,https://www.anytimefitness.com/gyms/2370/wimberley-tx-78676/,,Anytime Fitness,Q4778364
196822,bluerhino,H-E-B #708,,WIMBERLEY,TX,,US,+1 512-842-3700,,,Blue Rhino,Q65681213
114036,bluerhino,TXB #57,,Wimberely,TX,,US,+1 512-847-6020,,,Blue Rhino,Q65681213
193462,bluerhino,Brookshire Brothers #67,,Wimberley,TX,,US,+1 512-847-2296,,,Blue Rhino,Q65681213
de9e3d1f-d44a-4589-9208-72061f4fefe1,dairy_queen_us,14600 Ranch 12,,Wimberley,TX,,US,+1 512-847-3670,https://www.dairyqueen.com/locations/tx/wimberley/14600-ranch-12/583,,DQ Grill & Chill,Q1141226
https://www.edwardjones.com/us-en/financial-advisor/cade-wright,edwardjones,Cade Wright,,Wimberley,TX,,US,+1 512-847-8463,https://www.edwardjones.com/us-en/financial-advisor/cade-wright,Mo-Th 08:00-16:00; Fr 08:00-13:00,Edward Jones,Q5343830
https://local.fedex.com/#25232614,fedex,,,Wimberley,TX,,US,+1 800-463-3339,https://local.fedex.com/en-us/tx/wimberley/nirak,,FedEx,Q459477
https://local.fedex.com/#27753115,fedex,FedEx Authorized ShipCenter,,Wimberley,TX,,US,+1 512-847-9622,https://local.fedex.com/en-us/tx/wimberley/42445,,FedEx,Q459477
144254,little_free_library,Spring Hollow Little Free Library #144254 Wimberley TX,,Wimberley,TX,,US,,,,Little Free Library,Q6650101
21631,little_free_library,Diane Aldridge #21631 Wimberley TX,,Wimberley,TX,,US,,,,Little Free Library,Q6650101
99268,little_free_library,Sunny Patch #99268 Wimberley TX,,Wimberley,TX,,US,,,,Little Free Library,Q6650101
98122,little_free_library,Alicia Boggs #98122 Wimberley TX,,Wimberley,TX,,US,,,,Little Free Library,Q6650101
88927,little_free_library,Rancho Poquito LFL #88927 Wimberley TX,,Wimberley,TX,,US,,,,Little Free Library,Q6650101
tx_wimberley_101-fm-2325,pizza_hut_us,101 FM 2325,,Wimberley,TX,,US,+1 512-847-2844,https://locations.pizzahut.com/tx/wimberley/101-fm-2325,,Pizza Hut,Q191615
40568,seven_eleven_ca_us,Stripes,,Wimberley,TX,,US,+1 512-847-9335,,,7-Eleven,Q259340
https://restaurants.subway.com/#14896819,subway,Subway,,Wimberley Hays,TX,,US,+1 512-847-7824,https://restaurants.subway.com/united-states/tx/wimberley/809-ranch-rd,Mo-Su 09:00-22:00,Subway,Q244457
1387897,usps,WIMBERLEY,,WIMBERLEY,TX,,US,+1 512-847-2623,,Mo-Fr 08:30-16:30; Sa 09:30-12:00,United States Postal Service,Q668687
7867600003,usps_collection_boxes,USPS COLLECTION BOX - BLUE BOX,111 JOE WIMBERLEY BLVD,WIMBERLY,TX,,US,,,,United States Postal Service,Q668687
7867600008,usps_collection_boxes,USPS COLLECTION BOX - PO LOBBY,111 JOE WIMBERLEY BLVD,WIMBERLY,TX,,US,,,,United States Postal Service,Q668687
7867600010,usps_collection_boxes,USPS COLLECTION BOX - PO LOBBY,111 JOE WIMBERLEY BLVD,WIMBERLY,TX,,US,,,,United States Postal Service,Q668687
,visa,,,WIMBERLEY,TX,,US,,,,,
,visa,,,WIMBERLEY,TX,,US,,,,,
,visa,,,WIMBERLEY,TX,,US,,,,,
,visa,,,WIMBERLEY,TX,,US,,,,,
,visa,,,WIMBERLEY,TX,,US,,,,,
,visa,,,WIMBERLEY,TX,,US,,,,,
,visa,,,WIMBERLEY,TX,,US,,,,,
,visa,,,WIMBERLEY,TX,,US,,,,,
,visa,,,WIMBERLEY,TX,,US,,,,,
,visa,,,WIMBERLY,TX,,US,,,,,
,visa,,,WIMBERLEY,TX,,US,,,,,
,visa,,,WIMBERLEY,TX,,US,,,,,
,visa,,,WIMBERLEY,TX,,US,,,,,
,visa,,,WIMBERLEY,TX,,US,,,,,
,visa,,,WIMBERLEY,TX,,US,,,,,
,visa,,,WIMBERLEY,TX,,US,,,,,
,visa,,,WIMBERLEY,TX,,US,,,,,
14650__RANCH__RD__12_WIMBERLEY_TX_78676,wellsfargo,Wells Fargo,14650 RANCH RD 12,WIMBERLEY,TX,,US,+1 512-847-2442,https://www.wellsfargo.com/locator/bank/14650__RANCH__RD__12_WIMBERLEY_TX_78676/,Mo-Fr 09:00-17:00,Wells Fargo,Q744149
