Ref,Spider,Name,Address,City,State,Zipcode,Country,Phone,Website,Hours,Brand,WikiData
172073,bluerhino,Pioneer Market - Carnation IGA #400136,,La Conner,WA,,US,+1 360-466-0188,,,Blue Rhino,Q65681213
93978,citi,ATM WASHINGTON FEDERAL BANK,,La Conner,WA,,US,,,,Citibank,Q857063
https://www.edwardjones.com/us-en/financial-advisor/scott-price,edwardjones,Scott A Price,,La Conner,WA,,US,+1 360-466-2933,https://www.edwardjones.com/us-en/financial-advisor/scott-price,Mo-Th 08:00-17:00; Fr 08:00-13:00,Edward Jones,Q5343830
https://local.fedex.com/#27764945,fedex,FedEx Authorized ShipCenter,,La Conner,WA,,US,+1 360-466-0474,https://local.fedex.com/en-us/wa/la-conner/005pl,,FedEx,Q459477
165753,little_free_library,Stephanie Schuler #165753 LaConner WA,,LaConner,WA,,US,,,,Little Free Library,Q6650101
2994,little_free_library,Judy Miller #2994 LaConner WA #2994 LaConner WA,,LaConner,WA,,US,,,,Little Free Library,Q6650101
1369344,usps,LA CONNER,,LA CONNER,WA,,US,+1 360-466-5162,,Mo-Fr 09:00-17:00,United States Postal Service,Q668687
9825700000,usps_collection_boxes,USPS COLLECTION BOX - BLUE BOX,125 1ST ST,LA CONNER,WA,,US,,,,United States Postal Service,Q668687
9825700007,usps_collection_boxes,USPS COLLECTION BOX - PO LOBBY,125 1ST ST,LA CONNER,WA,,US,,,,United States Postal Service,Q668687
9825700005,usps_collection_boxes,USPS COLLECTION BOX - PO LOBBY,125 1ST ST,LA CONNER,WA,,US,,,,United States Postal Service,Q668687
9825700001,usps_collection_boxes,USPS COLLECTION BOX - BLUE BOX,1 SHELTER BAY DR,LA CONNER,WA,,US,,,,United States Postal Service,Q668687
,visa,,,LACONNER,WA,,US,,,,,
,visa,,,LACONNER,WA,,US,,,,,
,visa,,,LA CONNER,WA,,US,,,,,
,visa,,,LA CONNER,WA,,US,,,,,
,visa,,,LA CONNER,WA,,US,,,,,
,visa,,,LA CONNER,WA,,US,,,,,
,visa,,,LACONNOR,WA,,US,,,,,
,visa,,,SEATTLE,WA,,US,,,,,
