Ref,Spider,Name,Address,City,State,Zipcode,Country,Phone,Website,Hours,Brand,WikiData
72163975,moneygram,COPPEL TRANSMISORES - HUIXTLA - MADERO,,HUIXTLA,CS,,MX,+52 964 642 4121,,Mo-Sa 09:30-20:00; Su 09:30-18:00,MoneyGram,Q1944412
72424957,moneygram,CADENA COMERCIAL OXXO SA DE CV - #10VHT5,,HUIXTLA,CS,,MX,+52 81 8389 2121,,Mo-Su 03:00-24:00,MoneyGram,Q1944412
72805288,moneygram,FARMACIAS GUADALAJARA - #2186 - HUIXTLA,,HUIXTLA,CS,,MX,+52 800 555 6559,,Mo-Su 08:00-22:00,MoneyGram,Q1944412
72243170,moneygram,FARMACIAS DEL AHORRO - #2169 - HUIXTLA -,,HUIXTLA,CS,,MX,5253224320,,Mo-Su 07:00-23:00,MoneyGram,Q1944412
72231933,moneygram,FARMACIAS DEL AHORRO - #221 - HUIXTLA -,,HUIXTLA,CS,,MX,5253224320,,Mo-Su 07:00-23:00,MoneyGram,Q1944412
72231946,moneygram,FARMACIAS DEL AHORRO - #222 - HUIXTLA -,,HUIXTLA,CS,,MX,5253224320,,Mo-Su 07:00-23:00,MoneyGram,Q1944412
73770985,moneygram,BANCO AZTECA MEXICO - HUIXTLA - DISTRIBU,,HUIXTLA,CS,,MX,+52 55 1720 8177,,Mo-Su 09:00-21:00,MoneyGram,Q1944412
68823533,moneygram,DINERO EXPRESS - #1258 - HUIXTLA - ELEKT,,HUIXTLA,CS,,MX,+52 55 1720 8141,,Mo-Su 09:00-21:00,MoneyGram,Q1944412
68826802,moneygram,DINERO EXPRESS - #4684 - HUIXTLA - PREST,,HUIXTLA,CS,,MX,+52 55 1720 8141,,Mo-Su 09:00-21:00,MoneyGram,Q1944412
74806861,moneygram,157 SUPER WILLYS HUIXTLA PARQUE,,HUIXTLA,CS,,MX,6118100,,Mo-Su 08:00-20:00,MoneyGram,Q1944412
71114653,moneygram,TELECOMM - #TELECOMM 07022 - HUIXTLA - H,,HUIXTLA,CS,,MX,55118008334700,,Mo-Fr 09:00-15:00; Sa-Su 00:00-24:00,MoneyGram,Q1944412
71135098,moneygram,ELEKTRA - #1258 - HUIXTLA - BA EKT HUIXT,,HUIXTLA,CS,,MX,+52 55 1720 7000,,Mo-Su 09:00-21:00,MoneyGram,Q1944412
71140957,moneygram,ELEKTRA - #4684 - HUIXTLA - BA PRESTA PR,,HUIXTLA,CS,,MX,+52 55 1720 7000,,Mo-Su 09:00-21:00,MoneyGram,Q1944412
41335491,moneygram,BANORTE - #3050 - HUIXTLA,,HUIXTLA,CS,,MX,+52 964 642 0829,,Mo-Fr 09:00-20:00; Sa-Su 00:00-24:00,MoneyGram,Q1944412
44973928,moneygram,MI BODEGA HUIXTLA,,HUIXTLA,CS,,MX,+52 964 642 3924,,Mo-Su 08:00-21:00,MoneyGram,Q1944412
69509157,moneygram,MODATELAS - #1160 - 178 MODATELAS HUIXTL,,HUIXTLA,CS,,MX,+52 964 642 4058,,Mo-Su 08:00-20:00,MoneyGram,Q1944412
71396523,moneygram,OXXO - #10VHT50NYZ - MARANONES TGZ,,HUIXTLA,CS,,MX,+52 81 8389 2121,,Mo-Su 03:00-24:00,MoneyGram,Q1944412
71396413,moneygram,OXXO - #10VHT50MJM - PARQUE TGZ,,HUIXTLA,CS,,MX,+52 81 8389 2121,,Mo-Su 03:00-24:00,MoneyGram,Q1944412
71881151,moneygram,WALDOS,,HUIXTLA,CS,,MX,555563180635,,Mo-Su 07:00-23:00,MoneyGram,Q1944412
71912318,moneygram,SORIANA - #535 - HUIXTLA - HUIXTLA CHIAP,,HUIXTLA,CS,,MX,+52 800 555 6555,,Mo-Su 08:00-22:00,MoneyGram,Q1944412
