Ref,Spider,Name,Address,City,State,Zipcode,Country,Phone,Website,Hours,Brand,WikiData
71999700,moneygram,HABIB METROPOLITAN BANK - #455 - GUJRANW,,GUJRANWA,,,PK,+92 345 7666689,,Mo-Fr 08:00-18:30; Sa 08:00-14:00; Su 00:00-24:00,MoneyGram,Q1944412
72069435,moneygram,PAKISTAN CURRENCY EXCHANGE CO PRIVATE LI,,GUJRANWALA 1,,,PK,+92 55 3846602,,Mo-Su 08:00-23:00,MoneyGram,Q1944412
72069587,moneygram,PAKISTAN CURRENCY EXCHANGE CO PRIVATE LI,,GUJRANWALA 2,,,PK,+92 55 4225151,,Mo-Su 08:00-23:00,MoneyGram,Q1944412
72480221,moneygram,MUHAMMADI EXCHANGE COMPANY (PVT) LTD - #,,GUJRANWALA,,,PK,+92 55 3821188,,Mo-Su 09:00-19:00,MoneyGram,Q1944412
73506117,moneygram,SKY EXCHANGE COMPANY (PVT) LTD. - GUJRAN,,GUJRANWALA,,,PK,+92 55 3820564,,Mo-Su 08:00-20:00,MoneyGram,Q1944412
72999534,moneygram,BANK AL HABIB - #357 - GUJANWALA - G T R,,GUJANWALA,,,PK,+92 55 3865096,,Mo-Fr 08:00-18:00; Sa 08:00-14:00; Su 00:00-24:00,MoneyGram,Q1944412
73339546,moneygram,BANK AL HABIB - #357 - GUJANWALA - G T R,,GUJANWALA,,,PK,+92 55 3865096,,Mo-Fr 08:00-18:00; Sa 08:00-14:00; Su 00:00-24:00,MoneyGram,Q1944412
73628435,moneygram,BANK AL HABIB LIMITED - #369 - GUJRANWAL,,GUJRANWALA,,,PK,+92 55 3291290,,Mo-Fr 08:00-18:00; Sa 08:00-14:00; Su 00:00-24:00,MoneyGram,Q1944412
73628396,moneygram,BANK AL HABIB LIMITED - #5573 - GUJRANWA,,GUJRANWALA,,,PK,+92 55 6600677,,Mo-Fr 08:00-18:00; Sa 08:00-14:00; Su 00:00-24:00,MoneyGram,Q1944412
72032718,moneygram,LINK INTERNATIONAL EXCHANGE COMPANY PVT,,GUJRANWALA,,,PK,+92 55 38443812,,Mo-Su 09:00-21:00,MoneyGram,Q1944412
65762590,moneygram,MCB BANK LIMITED - #0191,,HAFIZ ABAD,,,PK,+92 547 523079,,Mo-Th 08:00-13:45; Fr 08:00-12:30; Sa 10:00-13:00; Su 00:00-24:00,MoneyGram,Q1944412
65755549,moneygram,MCB BANK LIMITED - #0203,,GUJRANWALA,,,PK,+92 55 3864005,,Mo-Th 08:00-13:45; Fr 08:00-12:30; Sa 10:00-13:00; Su 00:00-24:00,MoneyGram,Q1944412
65274538,moneygram,MCB BANK LIMITED - #0219 - GHALLA MANDI,,GUJRANWALA,,,PK,+92 55 3841402,,Mo-Th 08:00-13:45; Fr 08:00-12:30; Sa 10:00-13:00; Su 00:00-24:00,MoneyGram,Q1944412
65755714,moneygram,MCB BANK LIMITED - #0224,,GUJRANWALA,,,PK,+92 55 4222232,,Mo-Th 08:00-13:45; Fr 08:00-12:30; Sa 10:00-13:00; Su 00:00-24:00,MoneyGram,Q1944412
65755798,moneygram,MCB BANK LIMITED - #0248,,GUJRANWALA,,,PK,+92 55 3250844,,Mo-Th 08:00-13:45; Fr 08:00-12:30; Sa 10:00-13:00; Su 00:00-24:00,MoneyGram,Q1944412
65758892,moneygram,MCB BANK LIMITED - #1034,,GUJRANWALA,,,PK,+92 55 4448611,,Mo-Th 08:00-13:45; Fr 08:00-12:30; Sa 10:00-13:00; Su 00:00-24:00,MoneyGram,Q1944412
65762574,moneygram,MCB BANK LIMITED - #1131,,GUJRANWALA,,,PK,+92 55 3252283,,Mo-Th 08:00-13:45; Fr 08:00-12:30; Sa 10:00-13:00; Su 00:00-24:00,MoneyGram,Q1944412
65759215,moneygram,MCB BANK LIMITED - #1208,,GUJRANWALA,,,PK,+92 55 4445655,,Mo-Th 08:00-13:45; Fr 08:00-12:30; Sa 10:00-13:00; Su 00:00-24:00,MoneyGram,Q1944412
65760877,moneygram,MCB BANK LIMITED - #1474,,GUJRANWALA,,,PK,+92 55 4713700,,Mo-Th 08:00-13:45; Fr 08:00-12:30; Sa 10:00-13:00; Su 00:00-24:00,MoneyGram,Q1944412
65760958,moneygram,MCB BANK LIMITED - #1510,,GUJRANWALA,,,PK,+92 55 4285888,,Mo-Th 08:00-13:45; Fr 08:00-12:30; Sa 10:00-13:00; Su 00:00-24:00,MoneyGram,Q1944412
65761009,moneygram,MCB BANK LIMITED - #1525,,GUJRANWALA,,,PK,+92 55 3252697,,Mo-Th 08:00-13:45; Fr 08:00-12:30; Sa 10:00-13:00; Su 00:00-24:00,MoneyGram,Q1944412
65761300,moneygram,MCB BANK LIMITED - #1564,,GUJRANWALA,,,PK,+92 55 4552915,,Mo-Th 08:00-13:45; Fr 08:00-12:30; Sa 10:00-13:00; Su 00:00-24:00,MoneyGram,Q1944412
65138629,moneygram,MCB BANK LIMITED - #190 - GUJRANWALA BAN,,GUJRANWALA,,,PK,+92 55 4446259,,Mo-Th 08:00-13:45; Fr 08:00-12:30; Sa 10:00-13:00; Su 00:00-24:00,MoneyGram,Q1944412
72394511,moneygram,MCB BANK LTD - #1811 - GUJRANWAL - TATLA,,GUJRANWAL,,,PK,+92 55 6280138,,Mo-Fr 09:00-17:00; Sa-Su 00:00-24:00,MoneyGram,Q1944412
72394388,moneygram,MCB BANK LTD - #1814 - GUJRANWALA - CHAN,,GUJRANWALA,,,PK,+92 55 4299086,,Mo-Fr 09:00-17:00; Sa-Su 00:00-24:00,MoneyGram,Q1944412
69710276,moneygram,HABIB METROPOLITAN BANK - #9912 - GUJRAN,,GUJRANWALA,,,PK,+92 55 4444101,,Mo-Fr 08:00-18:30; Sa 08:00-14:00; Su 00:00-24:00,MoneyGram,Q1944412
69712122,moneygram,HABIB METROPOLITAN BANK - #0407 - GUJRAN,,GUJRANWALA,,,PK,+92 55 4442773,,Mo-Fr 08:00-18:30; Sa 08:00-14:00; Su 00:00-24:00,MoneyGram,Q1944412
43328545,moneygram,BANK AL FALAH LIMITED - GUJRANWALA BRANC,,GUJRANWALA,,,PK,92431255516,,Mo-Fr 08:00-19:00; Sa 08:00-15:00; Su 00:00-24:00,MoneyGram,Q1944412
65373442,moneygram,DOLLAR EAST - BANK SQUARE GUJRANWALA,,GUJRANWALA,,,PK,+92 55 4239818,,Mo-Sa 08:00-24:00; Su 00:00-24:00,MoneyGram,Q1944412
PK00115,totalenergies,A One Filling Station,,Gujranwala,,,PK,+92 454 710324,https://store.totalenergies.fr/en_EN/PK00115,24/7,TotalEnergies,Q154037
PK00116,totalenergies,Shalimar Filling Station,,Gujranwala,,,PK,+92 300 7847631,https://store.totalenergies.fr/en_EN/PK00116,24/7,TotalEnergies,Q154037
PK00137,totalenergies,Silver Star Pet,,Gujranwala,,,PK,+92 300 8641820,https://store.totalenergies.fr/en_EN/PK00137,24/7,TotalEnergies,Q154037
PK00162,totalenergies,G.M Petroleum,,Gujranwala,,,PK,+92 300 6442124,https://store.totalenergies.fr/en_EN/PK00162,24/7,TotalEnergies,Q154037
PK00218,totalenergies,Paris Filling Station,,Gujranwala,,,PK,+92 55 3264630,https://store.totalenergies.fr/en_EN/PK00218,24/7,TotalEnergies,Q154037
PK00226,totalenergies,Hashmi Filling Station,,Gujranwala,,,PK,+92 300 0700732,https://store.totalenergies.fr/en_EN/PK00226,24/7,TotalEnergies,Q154037
PK00411,totalenergies,MUGHAL FILLING STATION,,Gujranwala,,,PK,+92 300 8741987,https://store.totalenergies.fr/en_EN/PK00411,24/7,TotalEnergies,Q154037
PK00773,totalenergies,ALI PETROLEUM,,Gujranwala,,,PK,+92 321 8717979,https://store.totalenergies.fr/en_EN/PK00773,24/7,TotalEnergies,Q154037
