Ref,Spider,Name,Address,City,State,Zipcode,Country,Phone,Website,Hours,Brand,WikiData
,visa,,,CHALCO DE DIAZ COVARRUBIAS,ESTADO DE MEXICO,,MX,,,,,
,visa,,,CHALCO,ESTADO DE MEXICO,,MX,,,,,
,visa,,,CHALCO,ESTADO DE MEXICO,,MX,,,,,
,visa,,,CHALCO,ESTADO DE MEXICO,,MX,,,,,
,visa,,,CHALCO DE DIAZ COVARRUBIAS,ESTADO DE MEXICO,,MX,,,,,
,visa,,,CHALCO,ESTADO DE MEXICO,,MX,,,,,
,visa,,,CHALCO DE DIAZ COVARRUBIAS,ESTADO DE MEXICO,,MX,,,,,
,visa,,,CHALCO,ESTADO DE MEXICO,,MX,,,,,
,visa,,,CHALCO,ESTADO DE MEXICO,,MX,,,,,
,visa,,,CHALCO,ESTADO DE MEXICO,,MX,,,,,
,visa,,,CHALCO,ESTADO DE MEXICO,,MX,,,,,
,visa,,,CHALCO DE DIAZ COVARRUBIAS,ESTADO DE MEXICO,,MX,,,,,
,visa,,,CHALCO DE DIAZ COVARRUBIAS,ESTADO DE MEXICO,,MX,,,,,
,visa,,,CHALCO DE DIAZ COVARRUBIAS,ESTADO DE MEXICO,,MX,,,,,
9019d5135ffdae2a0b255f132cf6c7cb,western_union,TIENDAS NETO TIZAPA 3510,,Chalco De Diaz Covarrubias,ESTADO DE MEXICO,,MX,+52 771 301 3940,https://location.westernunion.com/mx/estado-de-mexico/chalco-de-diaz-covarrubias/9019d5135ffdae2a0b255f132cf6c7cb,Mo-Su 07:00-22:00,Western Union,Q861042
8111fea3caf2c3ec4a139e5d5e9ce648,western_union,TIENDAS NETO TIZAPA 3510,,Chalco De Diaz Covarrubias,ESTADO DE MEXICO,,MX,+52 771 301 3940,https://location.westernunion.com/mx/estado-de-mexico/chalco-de-diaz-covarrubias/8111fea3caf2c3ec4a139e5d5e9ce648,Mo-Su 07:00-22:00,Western Union,Q861042
c238a0ee121a25eb618d0d58f943b52d,western_union,OXXO ESTACION PORTALES MEX,,Chalco De Diaz Covarrubias,ESTADO DE MEXICO,,MX,+52 81 8389 2121,https://location.westernunion.com/mx/estado-de-mexico/chalco-de-diaz-covarrubias/c238a0ee121a25eb618d0d58f943b52d,Mo-Su 08:00-22:00,Western Union,Q861042
e6ce4243d53d7c817e6e54f59ac4951e,western_union,OXXO RAMON VELARDE MEX,,Chalco De Diaz Covarrubias,ESTADO DE MEXICO,,MX,+52 81 8389 2121,https://location.westernunion.com/mx/estado-de-mexico/chalco-de-diaz-covarrubias/e6ce4243d53d7c817e6e54f59ac4951e,Mo-Su 06:00-22:00,Western Union,Q861042
6aac57a01d53eb3550f3357dc28b1924,western_union,OXXO RAMON VELARDE MEX,,Chalco De Diaz Covarrubias,ESTADO DE MEXICO,,MX,+52 81 8389 2121,https://location.westernunion.com/mx/estado-de-mexico/chalco-de-diaz-covarrubias/6aac57a01d53eb3550f3357dc28b1924,Mo-Su 06:00-22:00,Western Union,Q861042
8658026819213f858240734def1e58aa,western_union,OXXO RAMON VELARDE MEX,,Chalco De Diaz Covarrubias,ESTADO DE MEXICO,,MX,+52 81 8389 2121,https://location.westernunion.com/mx/estado-de-mexico/chalco-de-diaz-covarrubias/8658026819213f858240734def1e58aa,Mo-Su 06:00-22:00,Western Union,Q861042
10af0292c927e03231c4bd4b9c7aa004,western_union,AURRERA CUAUTZINGO 1634,,Chalco De Diaz Covarrubias,ESTADO DE MEXICO,,MX,+52 800 833 4700,https://location.westernunion.com/mx/estado-de-mexico/chalco-de-diaz-covarrubias/10af0292c927e03231c4bd4b9c7aa004,Mo-Su 07:00-23:00,Western Union,Q861042
a89253e1a611e088995a2a57b2c83750,western_union,AURRERA CUAUTZINGO 1634,,Chalco De Diaz Covarrubias,ESTADO DE MEXICO,,MX,+52 800 833 4700,https://location.westernunion.com/mx/estado-de-mexico/chalco-de-diaz-covarrubias/a89253e1a611e088995a2a57b2c83750,Mo-Su 07:00-23:00,Western Union,Q861042
57a1dc35dfd9881e862f471bfeb525fe,western_union,AURRERA CUAUTZINGO 1634,,Chalco De Diaz Covarrubias,ESTADO DE MEXICO,,MX,+52 800 833 4700,https://location.westernunion.com/mx/estado-de-mexico/chalco-de-diaz-covarrubias/57a1dc35dfd9881e862f471bfeb525fe,Mo-Su 07:00-23:00,Western Union,Q861042
d65c6ab916394ad92362ee25570d7da5,western_union,OXXO Agrario MEX,,Chalco De Diaz Covarrubias,ESTADO DE MEXICO,,MX,+52 81 8389 2121,https://location.westernunion.com/mx/estado-de-mexico/chalco-de-diaz-covarrubias/d65c6ab916394ad92362ee25570d7da5,Mo-Su 08:00-22:00,Western Union,Q861042
b2108bf3675e8bbb0cc62549c9606ea8,western_union,OXXO AGRARIO MEX,,Chalco De Diaz Covarrubias,ESTADO DE MEXICO,,MX,+52 81 8389 2121,https://location.westernunion.com/mx/estado-de-mexico/chalco-de-diaz-covarrubias/b2108bf3675e8bbb0cc62549c9606ea8,Mo-Su 08:00-22:00,Western Union,Q861042
908e79071740d1b6c3c3f7761eb76781,western_union,OXXO PLAZA DURAZNO MEX,,Chalco De Diaz Covarrubias,ESTADO DE MEXICO,,MX,+52 81 8389 2121,https://location.westernunion.com/mx/estado-de-mexico/chalco-de-diaz-covarrubias/908e79071740d1b6c3c3f7761eb76781,Mo-Su 06:00-22:00,Western Union,Q861042
a08cf91bad61d52e90a010ed64b04bc1,western_union,OXXO PLAZA DURAZNO MEX,,Chalco De Diaz Covarrubias,ESTADO DE MEXICO,,MX,+52 81 8389 2121,https://location.westernunion.com/mx/estado-de-mexico/chalco-de-diaz-covarrubias/a08cf91bad61d52e90a010ed64b04bc1,Mo-Su 06:00-22:00,Western Union,Q861042
26a4bab2bd6676628251d4ff1632408b,western_union,OXXO PLAZA DURAZNO MEX,,Chalco De Diaz Covarrubias,ESTADO DE MEXICO,,MX,+52 81 8389 2121,https://location.westernunion.com/mx/estado-de-mexico/chalco-de-diaz-covarrubias/26a4bab2bd6676628251d4ff1632408b,Mo-Su 06:00-22:00,Western Union,Q861042
c9c7127278f91be7067983cb2584e2bd,western_union,OXXO PUERTO VERACRUZ MEX,,Chalco De Diaz Covarrubias,ESTADO DE MEXICO,,MX,+52 81 8389 2121,https://location.westernunion.com/mx/estado-de-mexico/chalco-de-diaz-covarrubias/c9c7127278f91be7067983cb2584e2bd,Mo-Su 08:00-22:00,Western Union,Q861042
5b96694daa9efbace16ef5eefcc9f042,western_union,OXXO PUERTO VERACRUZ MEX,,Chalco De Diaz Covarrubias,ESTADO DE MEXICO,,MX,+52 81 8389 2121,https://location.westernunion.com/mx/estado-de-mexico/chalco-de-diaz-covarrubias/5b96694daa9efbace16ef5eefcc9f042,Mo-Su 08:00-22:00,Western Union,Q861042
7c2608990f7d9ea870cbaa6ca4d1ac11,western_union,OXXO PUERTO VERACRUZ MEX,,Chalco De Diaz Covarrubias,ESTADO DE MEXICO,,MX,+52 81 8389 2121,https://location.westernunion.com/mx/estado-de-mexico/chalco-de-diaz-covarrubias/7c2608990f7d9ea870cbaa6ca4d1ac11,Mo-Su 08:00-22:00,Western Union,Q861042
4e2c399279cfb4222bdf3cb29c2a1489,western_union,OXXO LA BAMBA MEX,,Chalco De Diaz Covarrubias,ESTADO DE MEXICO,,MX,+52 81 8389 2121,https://location.westernunion.com/mx/estado-de-mexico/chalco-de-diaz-covarrubias/4e2c399279cfb4222bdf3cb29c2a1489,Mo-Su 08:00-22:00,Western Union,Q861042
6c1c0fdf7c8a0abb5941911bbee082b9,western_union,OXXO LA BAMBA MEX,,Chalco De Diaz Covarrubias,ESTADO DE MEXICO,,MX,+52 81 8389 2121,https://location.westernunion.com/mx/estado-de-mexico/chalco-de-diaz-covarrubias/6c1c0fdf7c8a0abb5941911bbee082b9,Mo-Su 08:00-22:00,Western Union,Q861042
762c342070260a70d0e32a53ad2e2ef4,western_union,OXXO LA BAMBA MEX,,Chalco De Diaz Covarrubias,ESTADO DE MEXICO,,MX,+52 81 8389 2121,https://location.westernunion.com/mx/estado-de-mexico/chalco-de-diaz-covarrubias/762c342070260a70d0e32a53ad2e2ef4,Mo-Su 08:00-22:00,Western Union,Q861042
52754924437b75ba2fd2ad181ea8c137,western_union,WALMART VICENTE GUERRERO 1683,,Chalco De Diaz Covarrubias,ESTADO DE MEXICO,,MX,+52 800 833 4700,https://location.westernunion.com/mx/estado-de-mexico/chalco-de-diaz-covarrubias/52754924437b75ba2fd2ad181ea8c137,Mo-Su 07:00-23:00,Western Union,Q861042
6a4e8a9e32c5fc4664634fcd355a5dfe,western_union,WALMART VICENTE GUERRERO 1683,,Chalco De Diaz Covarrubias,ESTADO DE MEXICO,,MX,+52 800 833 4700,https://location.westernunion.com/mx/estado-de-mexico/chalco-de-diaz-covarrubias/6a4e8a9e32c5fc4664634fcd355a5dfe,Mo-Su 07:00-23:00,Western Union,Q861042
956b0dcd3f6289f4c14a325ba9fe63aa,western_union,WALMART VICENTE GUERRERO 1683,,Chalco De Diaz Covarrubias,ESTADO DE MEXICO,,MX,+52 800 833 4700,https://location.westernunion.com/mx/estado-de-mexico/chalco-de-diaz-covarrubias/956b0dcd3f6289f4c14a325ba9fe63aa,Mo-Su 07:00-23:00,Western Union,Q861042
6f664f282882aef247087b18e853f91e,western_union,OXXO TIZAPA MEX,,Chalco De Diaz Covarrubias,ESTADO DE MEXICO,,MX,+52 81 8389 2121,https://location.westernunion.com/mx/estado-de-mexico/chalco-de-diaz-covarrubias/6f664f282882aef247087b18e853f91e,Mo-Su 08:00-22:00,Western Union,Q861042
4fe81912f5e80ab63b04d4e8bb703f4f,western_union,OXXO TIZAPA MEX,,Chalco De Diaz Covarrubias,ESTADO DE MEXICO,,MX,+52 81 8389 2121,https://location.westernunion.com/mx/estado-de-mexico/chalco-de-diaz-covarrubias/4fe81912f5e80ab63b04d4e8bb703f4f,Mo-Su 08:00-22:00,Western Union,Q861042
8341ab8b9c7635212a85ba3cc1385a43,western_union,OXXO TIZAPA MEX,,Chalco De Diaz Covarrubias,ESTADO DE MEXICO,,MX,+52 81 8389 2121,https://location.westernunion.com/mx/estado-de-mexico/chalco-de-diaz-covarrubias/8341ab8b9c7635212a85ba3cc1385a43,Mo-Su 08:00-22:00,Western Union,Q861042
47ed09a413be0ce67bc036e3771e0394,western_union,ELEKTRA 9513,,Chalco De Diaz Covarrubias,ESTADO DE MEXICO,,MX,+52 55 1720 8177,https://location.westernunion.com/mx/estado-de-mexico/chalco-de-diaz-covarrubias/47ed09a413be0ce67bc036e3771e0394,Mo-Su 09:00-21:00,Western Union,Q861042
39a08610e6ec408dff816889d32c4d79,western_union,ELEKTRA 9513,,Chalco De Diaz Covarrubias,ESTADO DE MEXICO,,MX,+52 55 1720 8177,https://location.westernunion.com/mx/estado-de-mexico/chalco-de-diaz-covarrubias/39a08610e6ec408dff816889d32c4d79,Mo-Su 09:00-21:00,Western Union,Q861042
348e3b42d66dd9b1b98e862b5b3fe314,western_union,ELEKTRA 9513,,Chalco De Diaz Covarrubias,ESTADO DE MEXICO,,MX,+52 55 1720 8177,https://location.westernunion.com/mx/estado-de-mexico/chalco-de-diaz-covarrubias/348e3b42d66dd9b1b98e862b5b3fe314,Mo-Su 09:00-21:00,Western Union,Q861042
4a5fad6cb70f788028d721f24545a9ff,western_union,ELEKTRA 5063,,Chalco De Diaz Covarrubias,ESTADO DE MEXICO,,MX,+52 55 1720 8177,https://location.westernunion.com/mx/estado-de-mexico/chalco-de-diaz-covarrubias/4a5fad6cb70f788028d721f24545a9ff,Mo-Su 09:00-21:00,Western Union,Q861042
e7c065de394d6f621d119b965c691572,western_union,ELEKTRA 5063,,Chalco De Diaz Covarrubias,ESTADO DE MEXICO,,MX,+52 55 1720 8177,https://location.westernunion.com/mx/estado-de-mexico/chalco-de-diaz-covarrubias/e7c065de394d6f621d119b965c691572,Mo-Su 09:00-21:00,Western Union,Q861042
89251f299669036f8d767e79c08de5c7,western_union,ELEKTRA 5063,,Chalco De Diaz Covarrubias,ESTADO DE MEXICO,,MX,+52 55 1720 8177,https://location.westernunion.com/mx/estado-de-mexico/chalco-de-diaz-covarrubias/89251f299669036f8d767e79c08de5c7,Mo-Su 09:00-20:00,Western Union,Q861042
d8be53fbab4c8171ed6adf61b8ab28e2,western_union,TIENDAS NETO TIZAPA 3510,,Chalco De Diaz Covarrubias,ESTADO DE MEXICO,,MX,+52 771 301 3940,https://location.westernunion.com/mx/estado-de-mexico/chalco-de-diaz-covarrubias/d8be53fbab4c8171ed6adf61b8ab28e2,Mo-Su 07:00-22:00,Western Union,Q861042
0c17ef0ae7e6b49890a417fd047a3f19,western_union,TELECOMM 15018,,Chalco De Diaz Covarrubias,ESTADO DE MEXICO,,MX,+52 800 800 9889,https://location.westernunion.com/mx/estado-de-mexico/chalco-de-diaz-covarrubias/0c17ef0ae7e6b49890a417fd047a3f19,Mo-Fr 09:00-15:00; Sa 09:00-13:00,Western Union,Q861042
8a091d2d837c3786b30096810798e712,western_union,TELECOMM 15018,,Chalco De Diaz Covarrubias,ESTADO DE MEXICO,,MX,+52 800 800 8930,https://location.westernunion.com/mx/estado-de-mexico/chalco-de-diaz-covarrubias/8a091d2d837c3786b30096810798e712,Mo-Su 09:00-20:00,Western Union,Q861042
ea519a49fb93b48ff122b3f3e5bc2d47,western_union,TELECOMM 15018,,Chalco De Diaz Covarrubias,ESTADO DE MEXICO,,MX,+52 800 800 8930,https://location.westernunion.com/mx/estado-de-mexico/chalco-de-diaz-covarrubias/ea519a49fb93b48ff122b3f3e5bc2d47,Mo-Fr 09:00-15:30,Western Union,Q861042
a52aeb5591f4178b2a83e48777c8055c,western_union,AURRERA EXPRESS SOLIDARIDAD CHALCO 1732,,Chalco De Diaz Covarrubias,ESTADO DE MEXICO,,MX,+52 800 833 4700,https://location.westernunion.com/mx/estado-de-mexico/chalco-de-diaz-covarrubias/a52aeb5591f4178b2a83e48777c8055c,Mo-Su 08:00-22:00,Western Union,Q861042
cfec9be6490e7d1719b8a46d163446f2,western_union,AURRERA EXPRESS SOLIDARIDAD CHALCO 1732,,Chalco De Diaz Covarrubias,ESTADO DE MEXICO,,MX,+52 800 833 4700,https://location.westernunion.com/mx/estado-de-mexico/chalco-de-diaz-covarrubias/cfec9be6490e7d1719b8a46d163446f2,Mo-Su 08:00-22:00,Western Union,Q861042
12bb62f75aac7955b51e3bf831951694,western_union,OXXO PLAZA DIAMANTE MEX,,Chalco De Diaz Covarrubias,ESTADO DE MEXICO,,MX,+52 81 8389 2121,https://location.westernunion.com/mx/estado-de-mexico/chalco-de-diaz-covarrubias/12bb62f75aac7955b51e3bf831951694,Mo-Su 08:00-22:00,Western Union,Q861042
b40891f1180a2f78923c79dedc057760,western_union,OXXO PLAZA DIAMANTE MEX,,Chalco De Diaz Covarrubias,ESTADO DE MEXICO,,MX,+52 81 8389 2121,https://location.westernunion.com/mx/estado-de-mexico/chalco-de-diaz-covarrubias/b40891f1180a2f78923c79dedc057760,Mo-Su 08:00-22:00,Western Union,Q861042
22e36fa392b6e64fa6b5ecbc9e6d0850,western_union,OXXO AIMAYA CUE,,Chalco De Diaz Covarrubias,ESTADO DE MEXICO,,MX,+52 81 8389 2121,https://location.westernunion.com/mx/estado-de-mexico/chalco-de-diaz-covarrubias/22e36fa392b6e64fa6b5ecbc9e6d0850,Mo-Su 06:00-22:00,Western Union,Q861042
2a9a061382c5ba4baa1b684888ec8ce3,western_union,OXXO AIMAYA CUE,,Chalco De Diaz Covarrubias,ESTADO DE MEXICO,,MX,+52 81 8389 2121,https://location.westernunion.com/mx/estado-de-mexico/chalco-de-diaz-covarrubias/2a9a061382c5ba4baa1b684888ec8ce3,Mo-Su 06:00-22:00,Western Union,Q861042
dda650f93aaf78f2f79f4b3de47042ec,western_union,OXXO AIMAYA CUE,,Chalco De Diaz Covarrubias,ESTADO DE MEXICO,,MX,+52 81 8389 2121,https://location.westernunion.com/mx/estado-de-mexico/chalco-de-diaz-covarrubias/dda650f93aaf78f2f79f4b3de47042ec,Mo-Su 06:00-22:00,Western Union,Q861042
52fe7258c73cb2273359d6eac3a07abe,western_union,OXXO ENERLAGO MEX,,Chalco De Diaz Covarrubias,ESTADO DE MEXICO,,MX,+52 81 8389 2121,https://location.westernunion.com/mx/estado-de-mexico/chalco-de-diaz-covarrubias/52fe7258c73cb2273359d6eac3a07abe,Mo-Su 08:00-22:00,Western Union,Q861042
e46bd3101d7e6d1bfcf45949b677af80,western_union,OXXO ENERLAGO MEX,,Chalco De Diaz Covarrubias,ESTADO DE MEXICO,,MX,+52 81 8389 2121,https://location.westernunion.com/mx/estado-de-mexico/chalco-de-diaz-covarrubias/e46bd3101d7e6d1bfcf45949b677af80,Mo-Su 08:00-22:00,Western Union,Q861042
1804b78ad9042a8d0ca966fffa5b0e2c,western_union,OXXO PLAZA BODEGAS MEX,,Chalco De Diaz Covarrubias,ESTADO DE MEXICO,,MX,+52 81 8389 2121,https://location.westernunion.com/mx/estado-de-mexico/chalco-de-diaz-covarrubias/1804b78ad9042a8d0ca966fffa5b0e2c,Mo-Su 08:00-22:00,Western Union,Q861042
ddb17ee604c3533a67dc9270a970ff9d,western_union,OXXO PLAZA BODEGAS MEX,,Chalco De Diaz Covarrubias,ESTADO DE MEXICO,,MX,+52 81 8389 2121,https://location.westernunion.com/mx/estado-de-mexico/chalco-de-diaz-covarrubias/ddb17ee604c3533a67dc9270a970ff9d,Mo-Su 08:00-22:00,Western Union,Q861042
aae3e55f8ecf3b4df297674dcf527d83,western_union,OXXO PLAZA BODEGAS MEX,,Chalco De Diaz Covarrubias,ESTADO DE MEXICO,,MX,+52 81 8389 2121,https://location.westernunion.com/mx/estado-de-mexico/chalco-de-diaz-covarrubias/aae3e55f8ecf3b4df297674dcf527d83,Mo-Su 08:00-22:00,Western Union,Q861042
c06828763361923a6aa1fd0a246faeab,western_union,ELECZION CHALCO 1089,,Chalco De Diaz Covarrubias,ESTADO DE MEXICO,,MX,+52 55 5246 0700,https://location.westernunion.com/mx/estado-de-mexico/chalco-de-diaz-covarrubias/c06828763361923a6aa1fd0a246faeab,Mo-Su 06:30-23:30,Western Union,Q861042
60ed5cdfe835f26067aa8c69a06d2c87,western_union,OXXO MANZANOS MEX,,Chalco De Diaz Covarrubias,ESTADO DE MEXICO,,MX,+52 81 8389 2121,https://location.westernunion.com/mx/estado-de-mexico/chalco-de-diaz-covarrubias/60ed5cdfe835f26067aa8c69a06d2c87,Mo-Su 06:00-22:00,Western Union,Q861042
8fdc6b1e37e5105573b1b5f3e4df947a,western_union,OXXO MANZANOS MEX,,Chalco De Diaz Covarrubias,ESTADO DE MEXICO,,MX,+52 81 8389 2121,https://location.westernunion.com/mx/estado-de-mexico/chalco-de-diaz-covarrubias/8fdc6b1e37e5105573b1b5f3e4df947a,Mo-Su 06:00-22:00,Western Union,Q861042
abfa68c217f7ab23a91b2744d8182b7d,western_union,AURRERA EXPRESS SOLIDARIDAD CHALCO 1732,,Chalco De Diaz Covarrubias,ESTADO DE MEXICO,,MX,+52 800 833 4700,https://location.westernunion.com/mx/estado-de-mexico/chalco-de-diaz-covarrubias/abfa68c217f7ab23a91b2744d8182b7d,Mo-Su 08:00-22:00,Western Union,Q861042
93d156ac63fa436dfdc83c9f4efc1414,western_union,AURRERA CHALCO 2000 3884,,Chalco De Diaz Covarrubias,ESTADO DE MEXICO,,MX,+52 800 833 4700,https://location.westernunion.com/mx/estado-de-mexico/chalco-de-diaz-covarrubias/93d156ac63fa436dfdc83c9f4efc1414,Mo-Su 07:00-23:00,Western Union,Q861042
18873bef3c0679255413709f0a364db3,western_union,BANCOPPEL 364 RIVA PALACIO,,Chalco De Diaz Covarrubias,ESTADO DE MEXICO,,MX,+52 341 413 5097,https://location.westernunion.com/mx/estado-de-mexico/chalco-de-diaz-covarrubias/18873bef3c0679255413709f0a364db3,Mo-Sa 10:00-20:00; Su 11:00-18:00,Western Union,Q861042
dd1bcf5f183708934760aa389e6ae334,western_union,BANCOPPEL 364 RIVA PALACIO,,Chalco De Diaz Covarrubias,ESTADO DE MEXICO,,MX,+52 341 413 5097,https://location.westernunion.com/mx/estado-de-mexico/chalco-de-diaz-covarrubias/dd1bcf5f183708934760aa389e6ae334,Mo-Sa 10:00-20:00; Su 11:00-18:00,Western Union,Q861042
f2ae3ffaa30efeb2971ff1bc67a0f452,western_union,BANCOPPEL 364 RIVA PALACIO,,Chalco De Diaz Covarrubias,ESTADO DE MEXICO,,MX,+52 81 8389 3400,https://location.westernunion.com/mx/estado-de-mexico/chalco-de-diaz-covarrubias/f2ae3ffaa30efeb2971ff1bc67a0f452,Mo-Sa 10:00-20:00; Su 11:00-18:00,Western Union,Q861042
e39a7b8fe700248c53e6c259fbce6d6d,western_union,ELEKTRA 2814,,Chalco De Diaz Covarrubias,ESTADO DE MEXICO,,MX,+52 55 1720 8177,https://location.westernunion.com/mx/estado-de-mexico/chalco-de-diaz-covarrubias/e39a7b8fe700248c53e6c259fbce6d6d,Mo-Su 09:00-21:00,Western Union,Q861042
872450992870ac16b15fe30de54e01f4,western_union,ELEKTRA 2814,,Chalco De Diaz Covarrubias,ESTADO DE MEXICO,,MX,+52 55 1720 8177,https://location.westernunion.com/mx/estado-de-mexico/chalco-de-diaz-covarrubias/872450992870ac16b15fe30de54e01f4,Mo-Su 09:00-21:00,Western Union,Q861042
d16b22ec938504afd8d623e541cb8482,western_union,ELEKTRA 2814,,Chalco De Diaz Covarrubias,ESTADO DE MEXICO,,MX,+52 55 1720 8177,https://location.westernunion.com/mx/estado-de-mexico/chalco-de-diaz-covarrubias/d16b22ec938504afd8d623e541cb8482,Mo-Su 09:00-21:00,Western Union,Q861042
2257d2f2041da01e1a4138332ff54a54,western_union,AURRERA CHALCO 2000 3884,,Chalco De Diaz Covarrubias,ESTADO DE MEXICO,,MX,+52 800 833 4700,https://location.westernunion.com/mx/estado-de-mexico/chalco-de-diaz-covarrubias/2257d2f2041da01e1a4138332ff54a54,Mo-Su 07:00-23:00,Western Union,Q861042
3b1626eafefd3a7257e86a5096160ed7,western_union,AURRERA CHALCO 2000 3884,,Chalco De Diaz Covarrubias,ESTADO DE MEXICO,,MX,+52 800 833 4700,https://location.westernunion.com/mx/estado-de-mexico/chalco-de-diaz-covarrubias/3b1626eafefd3a7257e86a5096160ed7,Mo-Su 07:00-23:00,Western Union,Q861042
7d9668d4075b7ad5ec2ce2bf1e269e20,western_union,OXXO Las Huertas MEX,,Chalco De Diaz Covarrubias,ESTADO DE MEXICO,,MX,+52 81 8389 2121,https://location.westernunion.com/mx/estado-de-mexico/chalco-de-diaz-covarrubias/7d9668d4075b7ad5ec2ce2bf1e269e20,Mo-Su 08:00-22:00,Western Union,Q861042
5a7df4f0b04e843a1bbe411fb3305010,western_union,OXXO LAS HUERTAS MEX,,Chalco De Diaz Covarrubias,ESTADO DE MEXICO,,MX,+52 81 8389 2121,https://location.westernunion.com/mx/estado-de-mexico/chalco-de-diaz-covarrubias/5a7df4f0b04e843a1bbe411fb3305010,Mo-Su 08:00-22:00,Western Union,Q861042
44884c79fb374204c2163ed1ab68e8d9,western_union,OXXO LAS HUERTAS MEX,,Chalco De Diaz Covarrubias,ESTADO DE MEXICO,,MX,+52 81 8389 2121,https://location.westernunion.com/mx/estado-de-mexico/chalco-de-diaz-covarrubias/44884c79fb374204c2163ed1ab68e8d9,Mo-Su 08:00-22:00,Western Union,Q861042
ad46bbb5c2fb61dc3f188f73c3830839,western_union,FARM GUAD AV REFORMA EDOMEX,,Chalco De Diaz Covarrubias,ESTADO DE MEXICO,,MX,+52 800 833 4700,https://location.westernunion.com/mx/estado-de-mexico/chalco-de-diaz-covarrubias/ad46bbb5c2fb61dc3f188f73c3830839,Mo-Su 08:00-20:00,Western Union,Q861042
2ba6e07408bcc32a1ab9a62781ed9c73,western_union,FARM GUAD AV REFORMA EDOMEX,,Chalco De Diaz Covarrubias,ESTADO DE MEXICO,,MX,+52 800 833 4700,https://location.westernunion.com/mx/estado-de-mexico/chalco-de-diaz-covarrubias/2ba6e07408bcc32a1ab9a62781ed9c73,Mo-Su 08:00-20:00,Western Union,Q861042
78953485613db66b48341454ca0869d3,western_union,FARM GUAD AV REFORMA EDOMEX,,Chalco De Diaz Covarrubias,ESTADO DE MEXICO,,MX,+52 800 833 4700,https://location.westernunion.com/mx/estado-de-mexico/chalco-de-diaz-covarrubias/78953485613db66b48341454ca0869d3,Mo-Su 08:00-20:00,Western Union,Q861042
cabba52ebe29ab39f2c399f6ddfaf79a,western_union,TIENDAS NETO GUERRERO CHALCO 0430,,Chalco De Diaz Covarrubias,ESTADO DE MEXICO,,MX,+52 55 8935 1308,https://location.westernunion.com/mx/estado-de-mexico/chalco-de-diaz-covarrubias/cabba52ebe29ab39f2c399f6ddfaf79a,Mo-Su 07:00-22:00,Western Union,Q861042
417efb630202874bf27ff349c0e47833,western_union,OXXO MINA MEX,,Chalco De Diaz Covarrubias,ESTADO DE MEXICO,,MX,+52 81 8389 2121,https://location.westernunion.com/mx/estado-de-mexico/chalco-de-diaz-covarrubias/417efb630202874bf27ff349c0e47833,Mo-Su 08:00-22:00,Western Union,Q861042
394557b3646fa8f5459e8f44710fffd5,western_union,OXXO MINA MEX,,Chalco De Diaz Covarrubias,ESTADO DE MEXICO,,MX,+52 81 8389 2121,https://location.westernunion.com/mx/estado-de-mexico/chalco-de-diaz-covarrubias/394557b3646fa8f5459e8f44710fffd5,Mo-Su 08:00-22:00,Western Union,Q861042
5cbb69d2221bcef182b8a91b0eca3a17,western_union,OXXO MINA MEX,,Chalco De Diaz Covarrubias,ESTADO DE MEXICO,,MX,+52 81 8389 2121,https://location.westernunion.com/mx/estado-de-mexico/chalco-de-diaz-covarrubias/5cbb69d2221bcef182b8a91b0eca3a17,Mo-Su 08:00-22:00,Western Union,Q861042
2a84a6d1985f943b9da975a7ddf977ef,western_union,MODATELAS 119 AP CASH,,Chalco De Diaz Covarrubias,ESTADO DE MEXICO,,MX,(+52) 55-9730483,https://location.westernunion.com/mx/estado-de-mexico/chalco-de-diaz-covarrubias/2a84a6d1985f943b9da975a7ddf977ef,Mo-Su 08:00-20:00,Western Union,Q861042
2e444f04c750761c329c682ae869140e,western_union,MODATELAS 119 AP CASH,,Chalco De Diaz Covarrubias,ESTADO DE MEXICO,,MX,(+52) 55-9730483,https://location.westernunion.com/mx/estado-de-mexico/chalco-de-diaz-covarrubias/2e444f04c750761c329c682ae869140e,Mo-Su 08:00-20:00,Western Union,Q861042
bc0b2941b2baf901ff89d1c458cd255b,western_union,ELEKTRA BDR 424,,Chalco De Diaz Covarrubias,ESTADO DE MEXICO,,MX,+52 55 1720 8177,https://location.westernunion.com/mx/estado-de-mexico/chalco-de-diaz-covarrubias/bc0b2941b2baf901ff89d1c458cd255b,Mo-Su 09:00-21:00,Western Union,Q861042
4e0186616408c92b5ada2d2ed56e9472,western_union,ELEKTRA BDR 424,,Chalco De Diaz Covarrubias,ESTADO DE MEXICO,,MX,+52 55 1720 8177,https://location.westernunion.com/mx/estado-de-mexico/chalco-de-diaz-covarrubias/4e0186616408c92b5ada2d2ed56e9472,Mo-Su 09:00-20:00,Western Union,Q861042
7094f4b68e18271710564d590aa5e7b8,western_union,ELEKTRA BDR 424,,Chalco De Diaz Covarrubias,ESTADO DE MEXICO,,MX,+52 55 1720 8177,https://location.westernunion.com/mx/estado-de-mexico/chalco-de-diaz-covarrubias/7094f4b68e18271710564d590aa5e7b8,Mo-Su 09:00-21:00,Western Union,Q861042
c77452fe3ca11ce348db1fbad685a82b,western_union,TIENDAS NETO COVARRUBIAS 0573,,Chalco De Diaz Covarrubias,ESTADO DE MEXICO,,MX,+52 55 5086 3717,https://location.westernunion.com/mx/estado-de-mexico/chalco-de-diaz-covarrubias/c77452fe3ca11ce348db1fbad685a82b,Mo-Su 07:00-22:00,Western Union,Q861042
bf088b0937018162482bfb1604442fbc,western_union,TIENDAS NETO COVARRUBIAS 0573,,Chalco De Diaz Covarrubias,ESTADO DE MEXICO,,MX,+52 55 5086 3717,https://location.westernunion.com/mx/estado-de-mexico/chalco-de-diaz-covarrubias/bf088b0937018162482bfb1604442fbc,Mo-Su 07:00-22:00,Western Union,Q861042
aeafa5b59814adbb03d7a551d1519af1,western_union,OXXO CHALCO MEX,,Chalco De Diaz Covarrubias,ESTADO DE MEXICO,,MX,+52 81 8389 2121,https://location.westernunion.com/mx/estado-de-mexico/chalco-de-diaz-covarrubias/aeafa5b59814adbb03d7a551d1519af1,Mo-Su 08:00-22:00,Western Union,Q861042
f708a73f90cbc3682607bcd65ecd860e,western_union,OXXO CHALCO MEX,,Chalco De Diaz Covarrubias,ESTADO DE MEXICO,,MX,+52 81 8389 2121,https://location.westernunion.com/mx/estado-de-mexico/chalco-de-diaz-covarrubias/f708a73f90cbc3682607bcd65ecd860e,Mo-Su 08:00-22:00,Western Union,Q861042
a61987c0da52f4f7d8bb219567a38250,western_union,OXXO Chalco MEX,,Chalco De Diaz Covarrubias,ESTADO DE MEXICO,,MX,+52 81 8389 2121,https://location.westernunion.com/mx/estado-de-mexico/chalco-de-diaz-covarrubias/a61987c0da52f4f7d8bb219567a38250,Mo-Su 08:00-22:00,Western Union,Q861042
d72f0f53df1e7bc5cc1cf250d6f90d8a,western_union,OXXO JARDIN MUNICIPAL MEX,,Chalco De Diaz Covarrubias,ESTADO DE MEXICO,,MX,+52 81 8389 2121,https://location.westernunion.com/mx/estado-de-mexico/chalco-de-diaz-covarrubias/d72f0f53df1e7bc5cc1cf250d6f90d8a,Mo-Su 08:00-22:00,Western Union,Q861042
91d088176efe7d5eb15ab09aa7a84918,western_union,OXXO JARDIN MUNICIPAL MEX,,Chalco De Diaz Covarrubias,ESTADO DE MEXICO,,MX,+52 81 8389 2121,https://location.westernunion.com/mx/estado-de-mexico/chalco-de-diaz-covarrubias/91d088176efe7d5eb15ab09aa7a84918,Mo-Su 08:00-22:00,Western Union,Q861042
7211ec53076ebb9cea2d3fe3673f98bc,western_union,OXXO JARDIN MUNICIPAL MEX,,Chalco De Diaz Covarrubias,ESTADO DE MEXICO,,MX,+52 81 8389 2121,https://location.westernunion.com/mx/estado-de-mexico/chalco-de-diaz-covarrubias/7211ec53076ebb9cea2d3fe3673f98bc,Mo-Su 08:00-22:00,Western Union,Q861042
024597bf68835d2f1a5fb848fed97f6a,western_union,FARM GUAD AV SAN ISIDRO,,Chalco De Diaz Covarrubias,ESTADO DE MEXICO,,MX,+52 800 833 4700,https://location.westernunion.com/mx/estado-de-mexico/chalco-de-diaz-covarrubias/024597bf68835d2f1a5fb848fed97f6a,Mo-Su 08:00-20:00,Western Union,Q861042
4e69dca16b39100cb85ac4aef3921b54,western_union,FARM GUAD AV SAN ISIDRO,,Chalco De Diaz Covarrubias,ESTADO DE MEXICO,,MX,+52 800 833 4700,https://location.westernunion.com/mx/estado-de-mexico/chalco-de-diaz-covarrubias/4e69dca16b39100cb85ac4aef3921b54,Mo-Su 08:00-20:00,Western Union,Q861042
2b068859ecf3a6aa1381801a9212d28e,western_union,FARM GUAD AV SAN ISIDRO,,Chalco De Diaz Covarrubias,ESTADO DE MEXICO,,MX,+52 800 833 4700,https://location.westernunion.com/mx/estado-de-mexico/chalco-de-diaz-covarrubias/2b068859ecf3a6aa1381801a9212d28e,Mo-Su 08:00-20:00,Western Union,Q861042
f532c6ddcf988395b41d0b3822476ad6,western_union,BANCOPPEL 409 ENSENANZA TECNIC,,Chalco De Diaz Covarrubias,ESTADO DE MEXICO,,MX,+52 81 8389 3400,https://location.westernunion.com/mx/estado-de-mexico/chalco-de-diaz-covarrubias/f532c6ddcf988395b41d0b3822476ad6,Mo-Fr 10:00-20:00; Sa-Su 11:00-21:00,Western Union,Q861042
aafe72152a215b874e2725f7f1998b07,western_union,BANORTE 02325 CHALCO,,Chalco De Diaz Covarrubias,ESTADO DE MEXICO,,MX,+52 800 833 4700,https://location.westernunion.com/mx/estado-de-mexico/chalco-de-diaz-covarrubias/aafe72152a215b874e2725f7f1998b07,Mo-Su 09:00-20:00,Western Union,Q861042
408212073806acad416c85bc3d81f063,western_union,BANORTE 02325 CHALCO,,Chalco De Diaz Covarrubias,ESTADO DE MEXICO,,MX,+52 800 833 4700,https://location.westernunion.com/mx/estado-de-mexico/chalco-de-diaz-covarrubias/408212073806acad416c85bc3d81f063,Mo-Sa 09:00-17:00,Western Union,Q861042
c656118787b4b5d29809842722013e40,western_union,BANORTE 02325 CHALCO,,Chalco De Diaz Covarrubias,ESTADO DE MEXICO,,MX,+52 800 833 4700,https://location.westernunion.com/mx/estado-de-mexico/chalco-de-diaz-covarrubias/c656118787b4b5d29809842722013e40,Mo-Sa 09:00-17:00,Western Union,Q861042
57c8dcb6ade4ba9479c5da8c6481c629,western_union,ELEKTRA 4608,,Chalco De Diaz Covarrubias,ESTADO DE MEXICO,,MX,+52 55 1720 8177,https://location.westernunion.com/mx/estado-de-mexico/chalco-de-diaz-covarrubias/57c8dcb6ade4ba9479c5da8c6481c629,Mo-Su 09:00-20:00,Western Union,Q861042
cf907671ae2c669549bb6a73760dd700,western_union,BANCOPPEL 409 ENSENANZA TECNIC,,Chalco De Diaz Covarrubias,ESTADO DE MEXICO,,MX,+52 376 765 7686,https://location.westernunion.com/mx/estado-de-mexico/chalco-de-diaz-covarrubias/cf907671ae2c669549bb6a73760dd700,Mo-Fr 10:00-20:00; Sa-Su 11:00-21:00,Western Union,Q861042
fc1bf624ad08412e8a421ce4975db9f6,western_union,BANCOPPEL 409 ENSENANZA TECNIC,,Chalco De Diaz Covarrubias,ESTADO DE MEXICO,,MX,+52 376 765 7686,https://location.westernunion.com/mx/estado-de-mexico/chalco-de-diaz-covarrubias/fc1bf624ad08412e8a421ce4975db9f6,Mo-Fr 10:00-20:00; Sa-Su 11:00-21:00,Western Union,Q861042
6d1660ba8152f20f4326110e06fcfb4c,western_union,OXXO MATAMOROS DE CHALCO MEX,,Chalco De Diaz Covarrubias,ESTADO DE MEXICO,,MX,+52 81 8389 2121,https://location.westernunion.com/mx/estado-de-mexico/chalco-de-diaz-covarrubias/6d1660ba8152f20f4326110e06fcfb4c,Mo-Su 08:00-22:00,Western Union,Q861042
204d5c7374932af17d3293ba28af6173,western_union,OXXO MATAMOROS DE CHALCO MEX,,Chalco De Diaz Covarrubias,ESTADO DE MEXICO,,MX,+52 81 8389 2121,https://location.westernunion.com/mx/estado-de-mexico/chalco-de-diaz-covarrubias/204d5c7374932af17d3293ba28af6173,Mo-Su 08:00-22:00,Western Union,Q861042
1e02aefbaa2231587bb6fb502fc249fa,western_union,OXXO CENTRO CHALCO MEX,,Chalco De Diaz Covarrubias,ESTADO DE MEXICO,,MX,+52 81 8389 2121,https://location.westernunion.com/mx/estado-de-mexico/chalco-de-diaz-covarrubias/1e02aefbaa2231587bb6fb502fc249fa,Mo-Su 06:00-22:00,Western Union,Q861042
5e1c633bc8528aef5e0c4bd7ab6de71e,western_union,OXXO CENTRO CHALCO MEX,,Chalco De Diaz Covarrubias,ESTADO DE MEXICO,,MX,+52 81 8389 2121,https://location.westernunion.com/mx/estado-de-mexico/chalco-de-diaz-covarrubias/5e1c633bc8528aef5e0c4bd7ab6de71e,Mo-Su 06:00-22:00,Western Union,Q861042
0f1f696c81d9f1b3206a66b6643b6132,western_union,OXXO CENTRO CHALCO MEX,,Chalco De Diaz Covarrubias,ESTADO DE MEXICO,,MX,+52 81 8389 2121,https://location.westernunion.com/mx/estado-de-mexico/chalco-de-diaz-covarrubias/0f1f696c81d9f1b3206a66b6643b6132,Mo-Su 06:00-22:00,Western Union,Q861042
c9f872ed62fba8b8be2246d8b0db916c,western_union,ELEKTRA 4608,,Chalco De Diaz Covarrubias,ESTADO DE MEXICO,,MX,+52 55 1720 8177,https://location.westernunion.com/mx/estado-de-mexico/chalco-de-diaz-covarrubias/c9f872ed62fba8b8be2246d8b0db916c,Mo-Su 09:00-21:00,Western Union,Q861042
c4f998fc7ec535158cf0d4d3c6cab194,western_union,BANCOPPEL 1479 SAN SEBASTIAN,,Chalco De Diaz Covarrubias,ESTADO DE MEXICO,,MX,(+52) 667-589999,https://location.westernunion.com/mx/estado-de-mexico/chalco-de-diaz-covarrubias/c4f998fc7ec535158cf0d4d3c6cab194,Mo-Su 08:30-21:00,Western Union,Q861042
7b80cca054f0120700f1e9ff3b460dd1,western_union,BANCOPPEL 1479 SAN SEBASTIAN,,Chalco De Diaz Covarrubias,ESTADO DE MEXICO,,MX,(+52) 667-589999,https://location.westernunion.com/mx/estado-de-mexico/chalco-de-diaz-covarrubias/7b80cca054f0120700f1e9ff3b460dd1,Mo-Su 08:30-21:00,Western Union,Q861042
bdc811950bb9753a52d6e312528f345f,western_union,BANCOPPEL 1479 SAN SEBASTIAN,,Chalco De Diaz Covarrubias,ESTADO DE MEXICO,,MX,(+52) 667-589999,https://location.westernunion.com/mx/estado-de-mexico/chalco-de-diaz-covarrubias/bdc811950bb9753a52d6e312528f345f,Mo-Su 08:30-21:00,Western Union,Q861042
fc26217d72740406519936f380ab69c7,western_union,MODATELAS 302 AP CASH,,Chalco De Diaz Covarrubias,ESTADO DE MEXICO,,MX,(+52) 555-816120,https://location.westernunion.com/mx/estado-de-mexico/chalco-de-diaz-covarrubias/fc26217d72740406519936f380ab69c7,Mo-Su 09:00-21:00,Western Union,Q861042
a6f0712db6d0011cf89626e4e33481d6,western_union,MODATELAS 302 AP CASH,,Chalco De Diaz Covarrubias,ESTADO DE MEXICO,,MX,(+52) 555-816120,https://location.westernunion.com/mx/estado-de-mexico/chalco-de-diaz-covarrubias/a6f0712db6d0011cf89626e4e33481d6,Mo-Su 09:00-21:00,Western Union,Q861042
51fbe4aad8d6f6a3d1f28b72f39220d8,western_union,MODATELAS 302 AP CASH,,Chalco De Diaz Covarrubias,ESTADO DE MEXICO,,MX,(+52) 555-816120,https://location.westernunion.com/mx/estado-de-mexico/chalco-de-diaz-covarrubias/51fbe4aad8d6f6a3d1f28b72f39220d8,Mo-Su 09:00-21:00,Western Union,Q861042
abd19114d6efaad446ad04235027356c,western_union,TIENDAS NETO MATAMOROS CHALCO 0262,,Chalco De Diaz Covarrubias,ESTADO DE MEXICO,,MX,+52 55 8935 1446,https://location.westernunion.com/mx/estado-de-mexico/chalco-de-diaz-covarrubias/abd19114d6efaad446ad04235027356c,Mo-Su 07:00-22:00,Western Union,Q861042
1a1a785c01066e238b1a70876ea7620b,western_union,OXXO QUETZAL II MEX,,Chalco De Diaz Covarrubias,ESTADO DE MEXICO,,MX,+52 81 8389 2121,https://location.westernunion.com/mx/estado-de-mexico/chalco-de-diaz-covarrubias/1a1a785c01066e238b1a70876ea7620b,Mo-Su 08:00-22:00,Western Union,Q861042
b90e1a56cf6fa1bba5812d0d5b161d49,western_union,OXXO Quetzal II MEX,,Chalco De Diaz Covarrubias,ESTADO DE MEXICO,,MX,+52 81 8389 2121,https://location.westernunion.com/mx/estado-de-mexico/chalco-de-diaz-covarrubias/b90e1a56cf6fa1bba5812d0d5b161d49,Mo-Su 08:00-22:00,Western Union,Q861042
0f8500ae6d0705e428ef7c3db8f24b37,western_union,OXXO QUETZAL II MEX,,Chalco De Diaz Covarrubias,ESTADO DE MEXICO,,MX,+52 81 8389 2121,https://location.westernunion.com/mx/estado-de-mexico/chalco-de-diaz-covarrubias/0f8500ae6d0705e428ef7c3db8f24b37,Mo-Su 08:00-22:00,Western Union,Q861042
ed2493cd791a6b3b77519cdc8cb40b08,western_union,OXXO NINO ARTILLERO MEX,,Chalco De Diaz Covarrubias,ESTADO DE MEXICO,,MX,+52 81 8389 2121,https://location.westernunion.com/mx/estado-de-mexico/chalco-de-diaz-covarrubias/ed2493cd791a6b3b77519cdc8cb40b08,Mo-Su 08:00-22:00,Western Union,Q861042
0665764ad56562351f14ac72a5453c9d,western_union,OXXO NINO ARTILLERO MEX,,Chalco De Diaz Covarrubias,ESTADO DE MEXICO,,MX,+52 81 8389 2121,https://location.westernunion.com/mx/estado-de-mexico/chalco-de-diaz-covarrubias/0665764ad56562351f14ac72a5453c9d,Mo-Su 08:00-22:00,Western Union,Q861042
dfc0aea189f6249c0546f6e506e0b86a,western_union,OXXO ESTACION GRANJAS MEX,,Chalco De Diaz Covarrubias,ESTADO DE MEXICO,,MX,+52 81 8389 2121,https://location.westernunion.com/mx/estado-de-mexico/chalco-de-diaz-covarrubias/dfc0aea189f6249c0546f6e506e0b86a,Mo-Su 06:00-22:00,Western Union,Q861042
8c05899056e705e86f9764533c5d99e1,western_union,OXXO ESTACION GRANJAS MEX,,Chalco De Diaz Covarrubias,ESTADO DE MEXICO,,MX,+52 81 8389 2121,https://location.westernunion.com/mx/estado-de-mexico/chalco-de-diaz-covarrubias/8c05899056e705e86f9764533c5d99e1,Mo-Su 06:00-22:00,Western Union,Q861042
7750b9ea342bba9869422d18fe9cea79,western_union,OXXO GUADALUPOE VICTORIA MEX,,Chalco De Diaz Covarrubias,ESTADO DE MEXICO,,MX,+52 81 8389 2121,https://location.westernunion.com/mx/estado-de-mexico/chalco-de-diaz-covarrubias/7750b9ea342bba9869422d18fe9cea79,Mo-Su 08:00-22:00,Western Union,Q861042
cc71deae16b29faa9a964bffc8058e1f,western_union,OXXO GUADALUPOE VICTORIA MEX,,Chalco De Diaz Covarrubias,ESTADO DE MEXICO,,MX,+52 81 8389 2121,https://location.westernunion.com/mx/estado-de-mexico/chalco-de-diaz-covarrubias/cc71deae16b29faa9a964bffc8058e1f,Mo-Su 08:00-22:00,Western Union,Q861042
1f1141b31632c8aadb681ca0b9e59520,western_union,OXXO GUADALUPOE VICTORIA MEX,,Chalco De Diaz Covarrubias,ESTADO DE MEXICO,,MX,+52 81 8389 2121,https://location.westernunion.com/mx/estado-de-mexico/chalco-de-diaz-covarrubias/1f1141b31632c8aadb681ca0b9e59520,Mo-Su 08:00-22:00,Western Union,Q861042
5619dad4a408611850c52d1be115322b,western_union,OXXO RANCHO SAN ISIDROMEX,,Chalco De Diaz Covarrubias,ESTADO DE MEXICO,,MX,+52 81 8389 2121,https://location.westernunion.com/mx/estado-de-mexico/chalco-de-diaz-covarrubias/5619dad4a408611850c52d1be115322b,Mo-Su 08:00-22:00,Western Union,Q861042
64dcfd9391bd1cad171584eb028209c2,western_union,OXXO RANCHO SAN ISIDROMEX,,Chalco De Diaz Covarrubias,ESTADO DE MEXICO,,MX,+52 81 8389 2121,https://location.westernunion.com/mx/estado-de-mexico/chalco-de-diaz-covarrubias/64dcfd9391bd1cad171584eb028209c2,Mo-Su 08:00-22:00,Western Union,Q861042
2b059425a21c7bf93c64b3555ce2b224,western_union,OXXO RANCHO SAN ISIDROMEX,,Chalco De Diaz Covarrubias,ESTADO DE MEXICO,,MX,+52 81 8389 2121,https://location.westernunion.com/mx/estado-de-mexico/chalco-de-diaz-covarrubias/2b059425a21c7bf93c64b3555ce2b224,Mo-Su 08:00-22:00,Western Union,Q861042
8c23e32534e04726b6c370a63ad45da5,western_union,ELEKTRA EKT 9750,,Chalco De Diaz Covarrubias,ESTADO DE MEXICO,,MX,+52 55 1720 8177,https://location.westernunion.com/mx/estado-de-mexico/chalco-de-diaz-covarrubias/8c23e32534e04726b6c370a63ad45da5,Mo-Su 09:00-21:00,Western Union,Q861042
ad0bde24697434cb6cbccc822f75a201,western_union,ELECZION CHALCO 1089,,Chalco De Diaz Covarrubias,ESTADO DE MEXICO,,MX,+52 55 5246 0700,https://location.westernunion.com/mx/estado-de-mexico/chalco-de-diaz-covarrubias/ad0bde24697434cb6cbccc822f75a201,Mo-Su 06:30-23:30,Western Union,Q861042
cc8324a25a063287093ca9ea545a5ed8,western_union,ELECZION CHALCO 1089,,Chalco De Diaz Covarrubias,ESTADO DE MEXICO,,MX,+52 55 5246 0700,https://location.westernunion.com/mx/estado-de-mexico/chalco-de-diaz-covarrubias/cc8324a25a063287093ca9ea545a5ed8,Mo-Su 06:30-23:30,Western Union,Q861042
28aea4a93a909ac87d5b0d224607be87,western_union,ELEKTRA EKT 9750,,Chalco De Diaz Covarrubias,ESTADO DE MEXICO,,MX,+52 55 1720 8177,https://location.westernunion.com/mx/estado-de-mexico/chalco-de-diaz-covarrubias/28aea4a93a909ac87d5b0d224607be87,Mo-Su 09:00-21:00,Western Union,Q861042
ff2488b173164bc8d4f3c9c8c083d33d,western_union,ELEKTRA EKT 9750,,Chalco De Diaz Covarrubias,ESTADO DE MEXICO,,MX,+52 55 1720 8177,https://location.westernunion.com/mx/estado-de-mexico/chalco-de-diaz-covarrubias/ff2488b173164bc8d4f3c9c8c083d33d,Mo-Su 09:00-21:00,Western Union,Q861042
ed720745d1779f2a001b2d1982f7a3cb,western_union,SORIANA LA CONCHITA 474,,Chalco De Diaz Covarrubias,ESTADO DE MEXICO,,MX,(+52) 81-1112009,https://location.westernunion.com/mx/estado-de-mexico/chalco-de-diaz-covarrubias/ed720745d1779f2a001b2d1982f7a3cb,Mo-Su 08:00-23:00,Western Union,Q861042
206d827ab282c5cd01f66e02ab1979ef,western_union,SORIANA LA CONCHITA 474,,Chalco De Diaz Covarrubias,ESTADO DE MEXICO,,MX,(+52) 81-1112009,https://location.westernunion.com/mx/estado-de-mexico/chalco-de-diaz-covarrubias/206d827ab282c5cd01f66e02ab1979ef,Mo-Su 08:00-23:00,Western Union,Q861042
4b2b0868149c4fe0ecaaf2a6c27be58c,western_union,SORIANA LA CONCHITA 474,,Chalco De Diaz Covarrubias,ESTADO DE MEXICO,,MX,(+52) 81-1112009,https://location.westernunion.com/mx/estado-de-mexico/chalco-de-diaz-covarrubias/4b2b0868149c4fe0ecaaf2a6c27be58c,Mo-Su 08:00-23:00,Western Union,Q861042
10125d434feed2e80b2229585f74577a,western_union,OXXO ALONDRA MEX,,Chalco De Diaz Covarrubias,ESTADO DE MEXICO,,MX,+52 81 8389 2121,https://location.westernunion.com/mx/estado-de-mexico/chalco-de-diaz-covarrubias/10125d434feed2e80b2229585f74577a,Mo-Su 08:00-22:00,Western Union,Q861042
b7783b51ba39567d7ecb2352c5f096ab,western_union,OXXO ALONDRA MEX,,Chalco De Diaz Covarrubias,ESTADO DE MEXICO,,MX,+52 81 8389 2121,https://location.westernunion.com/mx/estado-de-mexico/chalco-de-diaz-covarrubias/b7783b51ba39567d7ecb2352c5f096ab,Mo-Su 08:00-22:00,Western Union,Q861042
79c306cf3801705ce998c97cd9687886,western_union,OXXO ESTACION LAS TORRES MEX,,Chalco De Diaz Covarrubias,ESTADO DE MEXICO,,MX,+52 81 8389 2121,https://location.westernunion.com/mx/estado-de-mexico/chalco-de-diaz-covarrubias/79c306cf3801705ce998c97cd9687886,Mo-Su 08:00-22:00,Western Union,Q861042
44f693dd7328788677cb687886363322,western_union,OXXO ESTACION LAS TORRES MEX,,Chalco De Diaz Covarrubias,ESTADO DE MEXICO,,MX,+52 81 8389 2121,https://location.westernunion.com/mx/estado-de-mexico/chalco-de-diaz-covarrubias/44f693dd7328788677cb687886363322,Mo-Su 08:00-22:00,Western Union,Q861042
3d050349aea1e98a0f4a46a3658245c5,western_union,OXXO ESTACION LAS TORRES MEX,,Chalco De Diaz Covarrubias,ESTADO DE MEXICO,,MX,+52 81 8389 2121,https://location.westernunion.com/mx/estado-de-mexico/chalco-de-diaz-covarrubias/3d050349aea1e98a0f4a46a3658245c5,Mo-Su 08:00-22:00,Western Union,Q861042
439a0e83b08e202cb0202a96022ca1a2,western_union,OXXO MAYO MEX,,Chalco De Diaz Covarrubias,ESTADO DE MEXICO,,MX,+52 81 8389 2121,https://location.westernunion.com/mx/estado-de-mexico/chalco-de-diaz-covarrubias/439a0e83b08e202cb0202a96022ca1a2,Mo-Su 08:00-22:00,Western Union,Q861042
fb35219f024dd7b1e19d7bc08edfbff9,western_union,OXXO MAYO MEX,,Chalco De Diaz Covarrubias,ESTADO DE MEXICO,,MX,+52 81 8389 2121,https://location.westernunion.com/mx/estado-de-mexico/chalco-de-diaz-covarrubias/fb35219f024dd7b1e19d7bc08edfbff9,Mo-Su 08:00-22:00,Western Union,Q861042
68f2d3b6d7e7adb8fb64fec14dac68fa,western_union,AURRERA PORTAL CHALCO,,Chalco De Diaz Covarrubias,ESTADO DE MEXICO,,MX,+52 800 833 4700,https://location.westernunion.com/mx/estado-de-mexico/chalco-de-diaz-covarrubias/68f2d3b6d7e7adb8fb64fec14dac68fa,Mo-Su 07:00-23:00,Western Union,Q861042
dca05224984cbc820e835ede8714b368,western_union,AURRERA PORTAL CHALCO,,Chalco De Diaz Covarrubias,ESTADO DE MEXICO,,MX,+52 800 833 4700,https://location.westernunion.com/mx/estado-de-mexico/chalco-de-diaz-covarrubias/dca05224984cbc820e835ede8714b368,Mo-Su 07:00-23:00,Western Union,Q861042
3c747b8d54412e32a7c6ff81d0c27390,western_union,AURRERA PORTAL CHALCO,,Chalco De Diaz Covarrubias,ESTADO DE MEXICO,,MX,+52 800 833 4700,https://location.westernunion.com/mx/estado-de-mexico/chalco-de-diaz-covarrubias/3c747b8d54412e32a7c6ff81d0c27390,Mo-Su 07:00-23:00,Western Union,Q861042
97c80bac9a53e7ab3455d126ace20bae,western_union,AURRERA EXPRESS PASEOS DE CHALCO 1995,,Chalco De Diaz Covarrubias,ESTADO DE MEXICO,,MX,+52 800 833 4700,https://location.westernunion.com/mx/estado-de-mexico/chalco-de-diaz-covarrubias/97c80bac9a53e7ab3455d126ace20bae,Mo-Su 08:00-22:00,Western Union,Q861042
9a1e1602406ff66212c62446fce4743f,western_union,AURRERA EXPRESS PASEOS DE CHALCO 1995,,Chalco De Diaz Covarrubias,ESTADO DE MEXICO,,MX,+52 800 833 4700,https://location.westernunion.com/mx/estado-de-mexico/chalco-de-diaz-covarrubias/9a1e1602406ff66212c62446fce4743f,Mo-Su 08:00-22:00,Western Union,Q861042
e573f9589eabeb5cb6ab2fb348be0982,western_union,OXXO PLAZA VOLCANES MEX,,Chalco De Diaz Covarrubias,ESTADO DE MEXICO,,MX,+52 81 8389 2121,https://location.westernunion.com/mx/estado-de-mexico/chalco-de-diaz-covarrubias/e573f9589eabeb5cb6ab2fb348be0982,Mo-Su 08:00-22:00,Western Union,Q861042
9b62b6ba23e180ecddc6f4ca793da682,western_union,OXXO PLAZA VOLCANES MEX,,Chalco De Diaz Covarrubias,ESTADO DE MEXICO,,MX,+52 81 8389 2121,https://location.westernunion.com/mx/estado-de-mexico/chalco-de-diaz-covarrubias/9b62b6ba23e180ecddc6f4ca793da682,Mo-Su 08:00-22:00,Western Union,Q861042
5569719ffa201cfe59033f8d522bc83a,western_union,OXXO PLAZA VOLCANES MEX,,Chalco De Diaz Covarrubias,ESTADO DE MEXICO,,MX,+52 81 8389 2121,https://location.westernunion.com/mx/estado-de-mexico/chalco-de-diaz-covarrubias/5569719ffa201cfe59033f8d522bc83a,Mo-Su 08:00-22:00,Western Union,Q861042
9288e8c73250bc434520b1dc2b9874b2,western_union,AURRERA EXPRESS CUAUHTEMOC II 3202,,Xico,ESTADO DE MEXICO,,MX,+52 800 833 4700,https://location.westernunion.com/mx/estado-de-mexico/xico/9288e8c73250bc434520b1dc2b9874b2,Mo-Su 08:00-22:00,Western Union,Q861042
1c6219593fd06207fa07ca601ba4eab0,western_union,AURRERA EXPRESS CUAUHTEMOC II 3202,,Xico,ESTADO DE MEXICO,,MX,+52 800 833 4700,https://location.westernunion.com/mx/estado-de-mexico/xico/1c6219593fd06207fa07ca601ba4eab0,Mo-Su 08:00-22:00,Western Union,Q861042
4c675f74b1aceb537442ccfefbed46dd,western_union,AURRERA EXPRESS CUAUHTEMOC II 3202,,Xico,ESTADO DE MEXICO,,MX,+52 800 833 4700,https://location.westernunion.com/mx/estado-de-mexico/xico/4c675f74b1aceb537442ccfefbed46dd,Mo-Su 08:00-22:00,Western Union,Q861042
e999b1daf2e3c3078bb40eedd6c9806d,western_union,OXXO ESTACION PORTALES MEX,,Chalco De Diaz Covarrubias,ESTADO DE MEXICO,,MX,+52 81 8389 2121,https://location.westernunion.com/mx/estado-de-mexico/chalco-de-diaz-covarrubias/e999b1daf2e3c3078bb40eedd6c9806d,Mo-Su 08:00-22:00,Western Union,Q861042
e75c54ab7d71fa8d268180b0c86495bc,western_union,OXXO ESTACION PORTALES MEX,,Chalco De Diaz Covarrubias,ESTADO DE MEXICO,,MX,+52 81 8389 2121,https://location.westernunion.com/mx/estado-de-mexico/chalco-de-diaz-covarrubias/e75c54ab7d71fa8d268180b0c86495bc,Mo-Su 08:00-22:00,Western Union,Q861042
