Ref,Spider,Name,Address,City,State,Zipcode,Country,Phone,Website,Hours,Brand,WikiData
13947,cellarbrations_au,CELLARBRATIONS AT GRAND HOTEL THURSDAY ISLAND,,THURSDAY ISLAND,QLD,,AU,,,,Cellarbrations,Q109807592
4547,sportspower_au,Thursday Island,,Thursday Island,QLD,,AU,+61 7 4069 1118,https://www.sportspower.com.au/pages/sportspower-thursday-island,Mo-Fr 08:30-17:30; Sa 08:30-13:00,SportsPower,Q117747652
,visa,,,THURSDAY ISLAND,QLD,,AU,,,,,
,visa,,,THURSDAY ISLAND,QLD,,AU,,,,,
,visa,,,THURSDAY ISLAND,QLD,,AU,,,,,
,visa,,,THURSDAY ISLAND,QLD,,AU,,,,,
,visa,,,THURSDAY ISLAND,QLD,,AU,,,,,
,visa,,,THURSDAY ISLAND,QLD,,AU,,,,,
,visa,,,THURSDAY ISLAND,QLD,,AU,,,,,
,visa,,,HAMMOND ISLAND,QLD,,AU,,,,,
,visa,,,THURSDAY ISLAND,QLD,,AU,,,,,
,visa,,,HORN ISLAND,QLD,,AU,,,,,
,visa,,,HORN ISLAND,QLD,,AU,,,,,
,visa,,,DAUAN ISLAND,QLD,,AU,,,,,
,visa,,,MURRAY ISLAND,QLD,,AU,,,,,
,visa,,,MABUIAG ISLAND,QLD,,AU,,,,,
,visa,,,MOA ISLAND,QLD,,AU,,,,,
,visa,,,MOA ISLAND,QLD,,AU,,,,,
,visa,,,BOIGU ISLAND,QLD,,AU,,,,,
,visa,,,DARNLEY ISLAND,QLD,,AU,,,,,
,visa,,,VIA THURSDAY ISLAND,QLD,,AU,,,,,
,visa,,,WARRABER ISLAND,QLD,,AU,,,,,
,visa,,,SAIBAI ISLAND,QLD,,AU,,,,,
,visa,,,YAM ISLAND,QLD,,AU,,,,,
,visa,,,COCONUT ISLAND,QLD,,AU,,,,,
,visa,,,YORKE ISLAND,QLD,,AU,,,,,
,visa,,,STEPHEN ISLAND,QLD,,AU,,,,,
