Ref,Spider,Name,Address,City,State,Zipcode,Country,Phone,Website,Hours,Brand,WikiData
AR_10038309,shell,BERMAN Y SAMPIETRO,,SAN JUSTO,Buenos Aires,,AR,+54 11 4441-7863,https://find.shell.com/ar/fuel/AR_10038309-berman-y-sampietro,24/7,Shell,Q110716465
40109,starbucks_ar_cl,San Justo Shopping,,San Justo,Buenos Aires,,AR,,https://www.starbucks.com.ar/stores,Mo-Su 11:00-20:00,Starbucks,Q37158
34d1cf575f2da978788df9d907ad9012,western_union,SOUSA QUINTAS SEGUROS,,San Justo,BUENOS AIRES,,AR,+54 810-444-1000,https://location.westernunion.com/ar/buenos-aires/san-justo/34d1cf575f2da978788df9d907ad9012,Mo-Fr 09:00-18:00; Sa 09:00-13:00,Western Union,Q861042
adde9aad5753fb187a1491cf08ac184a,western_union,AGBL KIOSCO GUADALUPE,,Villa Luzuriaga,BUENOS AIRES,,AR,+54 810-444-1000,https://location.westernunion.com/ar/buenos-aires/villa-luzuriaga/adde9aad5753fb187a1491cf08ac184a,Mo-Sa 10:00-19:00,Western Union,Q861042
0cdb2b6f5c0ecbf06dedd9cc87ddd637,western_union,PAGOS PATRICIA,,Villa Luzuriaga,BUENOS AIRES,,AR,+54 810-444-1000,https://location.westernunion.com/ar/buenos-aires/villa-luzuriaga/0cdb2b6f5c0ecbf06dedd9cc87ddd637,Mo-Fr 10:00-18:00; Sa 10:00-13:00,Western Union,Q861042
b7ac4dff6d9a49bd14c51c5274b78345,western_union,FARMACIA DON BOSCO,,Villa Luzuriaga,BUENOS AIRES,,AR,+54 810-444-1000,https://location.westernunion.com/ar/buenos-aires/villa-luzuriaga/b7ac4dff6d9a49bd14c51c5274b78345,Mo-Sa 09:00-20:00,Western Union,Q861042
cd7f802368df0320fe42449f715f4dc3,western_union,LA ESQUINA DEL BOMBON,,Villa Luzuriaga,BUENOS AIRES,,AR,+54 810-444-1000,https://location.westernunion.com/ar/buenos-aires/villa-luzuriaga/cd7f802368df0320fe42449f715f4dc3,Mo-Su 08:00-19:00,Western Union,Q861042
891cb3fcbea1717eaaa427d6c2d224be,western_union,LO DEL POLA,,Villa Luzuriaga,BUENOS AIRES,,AR,+54 810-444-1000,https://location.westernunion.com/ar/buenos-aires/villa-luzuriaga/891cb3fcbea1717eaaa427d6c2d224be,Mo-Fr 09:00-20:00; Sa 09:00-13:00,Western Union,Q861042
dd582ae06c021fef01c1bd1c2ab4fa8d,western_union,C.S. CARREFOUR SAN JUSTO,,San Justo,BUENOS AIRES,,AR,+54 810-444-1000,https://location.westernunion.com/ar/buenos-aires/san-justo/dd582ae06c021fef01c1bd1c2ab4fa8d,Mo-Fr 09:00-18:00; Sa 09:30-13:30,Western Union,Q861042
fdd06fcf492805d949a0dceef9a31619,western_union,LOCUTORIO LUZURIAGA,,Villa Luzuriaga,BUENOS AIRES,,AR,+54 810-444-1000,https://location.westernunion.com/ar/buenos-aires/villa-luzuriaga/fdd06fcf492805d949a0dceef9a31619,Mo-Sa 08:00-17:00,Western Union,Q861042
681f081b8c3ea3a45ce90fa7ae73ecd2,western_union,LA LIBRERIA DE LA ESQUINA,,San Justo,BUENOS AIRES,,AR,+54 810-444-1000,https://location.westernunion.com/ar/buenos-aires/san-justo/681f081b8c3ea3a45ce90fa7ae73ecd2,Mo-Fr 07:00-16:00,Western Union,Q861042
fef694b6f9de13d62d9e10cd2d19f2e2,western_union,FL4 PAGOS AMERICA,,Villa Luzuriaga,BUENOS AIRES,,AR,+54 810-444-1000,https://location.westernunion.com/ar/buenos-aires/villa-luzuriaga/fef694b6f9de13d62d9e10cd2d19f2e2,Mo-Su 00:01-24:00,Western Union,Q861042
5a259fc4ec20c13334653a2145d2b64b,western_union,ONIXCELL,,San Justo,BUENOS AIRES,,AR,+54 810-444-1000,https://location.westernunion.com/ar/buenos-aires/san-justo/5a259fc4ec20c13334653a2145d2b64b,Mo-Fr 09:00-22:00; Sa 09:00-14:00,Western Union,Q861042
0b864b59e5c0e44c5a05b01e44c2bd47,western_union,LOCUTORIO HIPOLITO IRIGOYEN,,San Justo,BUENOS AIRES,,AR,+54 810-444-1000,https://location.westernunion.com/ar/buenos-aires/san-justo/0b864b59e5c0e44c5a05b01e44c2bd47,Mo-Fr 08:00-21:00; Sa 08:00-20:00,Western Union,Q861042
fa6c9ac4ddf06bf06c241a24fc433fac,western_union,LOCUTORIO PEATONAL,,San Justo,BUENOS AIRES,,AR,+54 810-444-1000,https://location.westernunion.com/ar/buenos-aires/san-justo/fa6c9ac4ddf06bf06c241a24fc433fac,Mo-Sa 09:00-20:00,Western Union,Q861042
b9fd4642aa51a8a9977c18f35d21d30c,western_union,AGBL MAXIKIOSCO LAMPU,,San Justo,BUENOS AIRES,,AR,+54 810-444-1000,https://location.westernunion.com/ar/buenos-aires/san-justo/b9fd4642aa51a8a9977c18f35d21d30c,Mo-Sa 08:00-17:00,Western Union,Q861042
a02b8bd5057fb414824a78964543c404,western_union,LOCUTORIO SAN MARIA,,San Justo,BUENOS AIRES,,AR,+54 810-444-1000,https://location.westernunion.com/ar/buenos-aires/san-justo/a02b8bd5057fb414824a78964543c404,Mo-Fr 09:00-19:00,Western Union,Q861042
30c1160a9fd5516d534c75f3f9cb25d8,western_union,NSA AR SAN JUSTO SAN CAYETANO,,San Justo,BUENOS AIRES,,AR,+54 810-444-1000,https://location.westernunion.com/ar/buenos-aires/san-justo/30c1160a9fd5516d534c75f3f9cb25d8,Mo-Fr 09:00-19:00; Sa 09:00-13:00,Western Union,Q861042
e2fb1af83d1a262a9b3b16f65375f957,western_union,LOCUTORIO ENTRE RIOS,,Villa Luzuriaga,BUENOS AIRES,,AR,+54 810-444-1000,https://location.westernunion.com/ar/buenos-aires/villa-luzuriaga/e2fb1af83d1a262a9b3b16f65375f957,Mo-Fr 08:00-21:00; Sa 08:00-20:00,Western Union,Q861042
5cc8f7f88af875c573eb19a5e034cded,western_union,LOCUTORIO ALMAFUERTE,,San Justo,BUENOS AIRES,,AR,+54 810-444-1000,https://location.westernunion.com/ar/buenos-aires/san-justo/5cc8f7f88af875c573eb19a5e034cded,Mo-Fr 08:00-21:00; Sa 08:00-20:00,Western Union,Q861042
6438924672c25444aa344f74a8cc05c5,western_union,C.S. SAN JUSTO,,San Justo,BUENOS AIRES,,AR,+54 810-444-1000,https://location.westernunion.com/ar/buenos-aires/san-justo/6438924672c25444aa344f74a8cc05c5,Mo-Fr 09:00-18:00; Sa 09:00-14:00,Western Union,Q861042
0f67414aeaf41c6c89cdc983985d99ef,western_union,LOCUTORIO PERU,,San Justo,BUENOS AIRES,,AR,+54 810-444-1000,https://location.westernunion.com/ar/buenos-aires/san-justo/0f67414aeaf41c6c89cdc983985d99ef,Mo-Sa 09:00-19:00,Western Union,Q861042
e7ebb52b645a2abb2449034a74165e97,western_union,LOCUTORIO PARAGUAY,,San Justo,BUENOS AIRES,,AR,+54 810-444-1000,https://location.westernunion.com/ar/buenos-aires/san-justo/e7ebb52b645a2abb2449034a74165e97,Mo-Fr 08:00-21:00; Sa 08:00-20:00,Western Union,Q861042
7cc08745a0e1de7e20bfb20e54f87db7,western_union,KIOSCO IRIS,,San Justo,BUENOS AIRES,,AR,+54 810-444-1000,https://location.westernunion.com/ar/buenos-aires/san-justo/7cc08745a0e1de7e20bfb20e54f87db7,Mo-Sa 08:00-20:00; Su 08:00-13:00,Western Union,Q861042
3c2292eaed0789099e463ad889228319,western_union,MAS GAS SAN JUSTO,,San Justo,BUENOS AIRES,,AR,+54 810-444-1000,https://location.westernunion.com/ar/buenos-aires/san-justo/3c2292eaed0789099e463ad889228319,Mo-Fr 09:00-20:00; Sa 09:00-13:00,Western Union,Q861042
6644a97cecca2107a6b980399becd707,western_union,LOCUTORIO JURAMENTO,,San Justo,BUENOS AIRES,,AR,+54 810-444-1000,https://location.westernunion.com/ar/buenos-aires/san-justo/6644a97cecca2107a6b980399becd707,Mo-Fr 08:00-21:00; Sa 08:00-20:00,Western Union,Q861042
fee8ad4ae306f2d0b568a64937b183d0,western_union,C.S. SHOPPING SAN JUSTO,,San Justo,BUENOS AIRES,,AR,+54 810-444-1000,https://location.westernunion.com/ar/buenos-aires/san-justo/fee8ad4ae306f2d0b568a64937b183d0,Mo-Fr 10:00-19:00; Sa 10:00-14:00,Western Union,Q861042
dbb32f8360f67521aaad17b8186a5f71,western_union,RITUAL,,Villa Luzuriaga,BUENOS AIRES,,AR,+54 810-444-1000,https://location.westernunion.com/ar/buenos-aires/villa-luzuriaga/dbb32f8360f67521aaad17b8186a5f71,Mo-Sa 10:00-18:00,Western Union,Q861042
4131968657a4e0b46b8cdbc39cf58fe3,western_union,BELLA DOLCE,,San Justo,BUENOS AIRES,,AR,+54 810-444-1000,https://location.westernunion.com/ar/buenos-aires/san-justo/4131968657a4e0b46b8cdbc39cf58fe3,Mo-Fr 09:00-19:00; Sa 09:00-13:00,Western Union,Q861042
054cf0cf0143dabcc4918abefeb7cce7,western_union,LOCUTORIO ARIETA,,Villa Luzuriaga,BUENOS AIRES,,AR,+54 810-444-1000,https://location.westernunion.com/ar/buenos-aires/villa-luzuriaga/054cf0cf0143dabcc4918abefeb7cce7,Mo-Fr 09:00-17:00,Western Union,Q861042
9347f20351558a5ddcd0378ba121cccb,western_union,PAGOS SERGIO,,San Justo,BUENOS AIRES,,AR,+54 810-444-1000,https://location.westernunion.com/ar/buenos-aires/san-justo/9347f20351558a5ddcd0378ba121cccb,Mo-Sa 09:00-20:00,Western Union,Q861042
40692e60fbeb8ef90f8e2fdecf2380b9,western_union,LAS VALDEZ,,San Justo,BUENOS AIRES,,AR,+54 810-444-1000,https://location.westernunion.com/ar/buenos-aires/san-justo/40692e60fbeb8ef90f8e2fdecf2380b9,Mo-Sa 08:00-16:00,Western Union,Q861042
2192165401b384c01e2e1e7b50f818b8,western_union,EPN CASA JUANCITO,,San Justo,BUENOS AIRES,,AR,+54 810-444-1000,https://location.westernunion.com/ar/buenos-aires/san-justo/2192165401b384c01e2e1e7b50f818b8,Mo-Fr 08:30-20:00; Sa 08:30-13:00,Western Union,Q861042
0b5f797c3344df53b81fcefb454cb8d2,western_union,PAGOS SERGIO VII,,San Justo,BUENOS AIRES,,AR,+54 810-444-1000,https://location.westernunion.com/ar/buenos-aires/san-justo/0b5f797c3344df53b81fcefb454cb8d2,Mo-Su 09:00-18:00,Western Union,Q861042
5dd490e4128ce972dc760c310df3fed8,western_union,FL4 PAGOS MAFALDA,,San Justo,BUENOS AIRES,,AR,+54 810-444-1000,https://location.westernunion.com/ar/buenos-aires/san-justo/5dd490e4128ce972dc760c310df3fed8,,Western Union,Q861042
258d62a1e06e5bf5f2a6197d0f7fa2ce,western_union,PAGOS SERGIO IV,,San Justo,BUENOS AIRES,,AR,+54 810-444-1000,https://location.westernunion.com/ar/buenos-aires/san-justo/258d62a1e06e5bf5f2a6197d0f7fa2ce,Mo-Sa 09:00-18:00,Western Union,Q861042
2be7e243c6896bc96ef0d74b55bc2ee9,western_union,LALY & LOLY & TOM,,San Justo,BUENOS AIRES,,AR,+54 810-444-1000,https://location.westernunion.com/ar/buenos-aires/san-justo/2be7e243c6896bc96ef0d74b55bc2ee9,Mo-Su 08:00-19:00,Western Union,Q861042
73c209a76c2dc27ff27948ab2c993f35,western_union,DANTE,,San Justo,BUENOS AIRES,,AR,+54 810-444-1000,https://location.westernunion.com/ar/buenos-aires/san-justo/73c209a76c2dc27ff27948ab2c993f35,Mo-Sa 09:00-20:30,Western Union,Q861042
