Ref,Spider,Name,Address,City,State,Zipcode,Country,Phone,Website,Hours,Brand,WikiData
142486,bluerhino,Dash In #1130 - Fairway Village,,Waldorf,MD,,US,+1 240-518-8323,,,Blue Rhino,Q65681213
143091,bluerhino,Dash In #1043,,Waldorf,MD,,US,+1 240-210-8258,,,Blue Rhino,Q65681213
151794,bluerhino,Walgreens #9032,,Waldorff,MD,,US,+1 301-932-4902,,,Blue Rhino,Q65681213
11757,bluerhino,Food Lion #1184,,Waldorf,MD,,US,+1 301-932-9500,,,Blue Rhino,Q65681213
WALDMDYD,builders_firstsource_us,Waldorf MD Yard,,Waldorf,MD,,US,+1 301-843-2467,https://www.bldr.com/location/waldorf-md-yard/WALDMDYD,Mo-Fr 07:00-16:00,Builders FirstSource,Q27686100
WALDMDDK,builders_firstsource_us,Waldorf MD Decking,,Waldorf,MD,,US,+1 301-967-9100,https://www.bldr.com/location/waldorf-md-decking/WALDMDDK,Mo-Fr 07:00-16:00,Builders FirstSource,Q27686100
https://locations.carrabbas.com/#15503027,carrabbasitaliangrill,"Carrabba's Waldorf, MD",,Waldorf,MD,,US,+1 301-645-0094,https://locations.carrabbas.com/maryland/waldorf/3754-crain-hwy,Mo-Th 11:00-22:00; Fr-Sa 11:00-23:00; Su 11:00-21:00,Carrabba's Italian Grill,Q5045999
https://locations.chuckecheese.com/us/md/waldorf/3241-plaza-way,chuckecheese,Chuck E. Cheese,,Waldorf,MD,,US,+1 301-932-4640,https://locations.chuckecheese.com/us/md/waldorf/3241-plaza-way,Mo-Th 11:00-21:00; Fr 11:00-22:00; Sa 10:00-22:00; Su 11:00-21:00,Chuck E. Cheese,Q2438391
14140,dollar_general,Dollar General,,Waldorf,MD,,US,+1 240-210-9059,https://www.dollargeneral.com/store-directory/md/waldorf/14140,Mo-Su 08:00-22:00,Dollar General,Q145168
4675,dominos_pizza_us,Domino's Pizza,,Waldorf,MD,,US,+1 301-932-8300,https://pizza.dominos.com/maryland/waldorf/371-smallwood-dr,Mo-Th 10:00-24:00; Fr-Sa 10:00-01:00; Su 10:00-24:00,Domino's,Q839466
7771,extra_space_storage,Waldorf Self Storage at 11615 Rubina Pl,,Waldorf,MD,,US,+1 240-419-2359,https://www.extraspace.com/storage/facilities/us/maryland/waldorf/7771/,Mo-Fr 09:30-18:00; Sa 09:00-17:30,Extra Space Storage,Q5422162
200318509,exxonmobil,"WALDORF [SMALLWOOD] DASH IN, 1043",,WALDORF,MD,,US,+1 240-210-8258,https://www.exxon.com/en/find-station/exxon-waldorf-md-waldorfsmallwooddashin1043-200318509,24/7,Exxon,Q109675651
200313218,exxonmobil,"ST. THOMAS, 1329",,WALDORF,MD,,US,+1 301-843-2773,https://www.exxon.com/en/find-station/exxon-waldorf-md-stthomas1329-200313218,Mo-Sa 06:00-23:00; Su 07:00-21:00,Exxon,Q109675651
2364,fresenius_kidney_care_us,Fresenius Kidney Care Waldorf,,Waldorf,MD,,US,+1 800-881-5101,https://www.freseniuskidneycare.com/dialysis-centers/maryland/2364,Mo 05:30-20:30; Tu 05:30-21:00; We 05:30-20:30; Th 05:30-21:00; Fr 05:30-20:00; Sa 05:30-21:00,,
https://www.orkin.com/locations/maryland-md/waldorf-pest-control/branch-323,orkin_us,Orkin,,Waldorf,MD,,US,+1 240-530-7051,https://www.orkin.com/locations/maryland-md/waldorf-pest-control/branch-323,,Orkin,Q7102943
042886,penske,Waldorf Affordable Mini Storage,,WALDORF,MD,,US,+1 301-705-6932,https://www.pensketruckrental.com/locations/us/maryland/waldorf/042886/,,Penske,Q81234570
https://www.plannedparenthood.org/health-center/maryland/waldorf/20602/waldorf-health-center-2900-90620,planned_parenthood,Planned Parenthood,,Waldorf,MD,,US,,https://www.plannedparenthood.org/health-center/maryland/waldorf/20602/waldorf-health-center-2900-90620,,Planned Parenthood,Q2553262
https://local.pharmacy.safeway.com/#5673089,safeway,Safeway Pharmacy,,Waldorf,MD,,US,+1 301-645-5161,https://local.pharmacy.safeway.com/safeway/md/waldorf/10-king-st.html,Mo-Fr 09:00-20:00; Sa 09:00-17:00; Su 10:00-17:00,Safeway,Q1508234
https://local.fuel.safeway.com/#9073347,safeway,Safeway Fuel Station,,Waldorf,MD,,US,+1 301-843-2825,https://local.fuel.safeway.com/safeway/md/waldorf/10-king-st.html,Mo-Su 05:00-23:00,Safeway,Q1508234
https://local.safeway.com/#5603911,safeway,Safeway,,Waldorf,MD,,US,+1 301-843-2825,https://local.safeway.com/safeway/md/waldorf/10-king-st.html,"Mo-Fr 05:00-23:00,06:00-24:00,09:00-20:00; Sa 05:00-23:00,06:00-24:00,09:00-17:00; Su 05:00-23:00,06:00-24:00,10:00-17:00",Safeway,Q1508234
37697,seven_eleven_ca_us,7-Eleven Store,,Waldorf,MD,,US,+1 301-752-6483,https://www.7-eleven.com/locations/md/waldorf/11690-billingsley-rd-37697,,7-Eleven,Q259340
3075,shellrecharge,SMECO - Waldorf Multi-Gen Center,,Waldorf,MD,,US,,,,Shell Recharge,Q105883058
32304,smilebrands,Vibrant Smiles,152A Post Office Road,Waldorf,MD,,US,+1 301-645-5182,https://vibrantsmiles.net,,Smile Brands Inc.,Q108286823
https://restaurants.subway.com/#14898448,subway,Subway Smallwood Village S/C,,Waldorf Charles,MD,,US,+1 301-374-2120,https://restaurants.subway.com/united-states/md/waldorf/158-smallwood-village-center,Mo-Su 08:00-21:00,Subway,Q244457
https://locations.tacobell.com/#6141769,taco_bell,Taco Bell,,Waldorf,MD,,US,+1 301-843-8475,https://locations.tacobell.com/md/waldorf/91-smallwood-drive.html,Mo-Th 08:00-02:00; Fr-Sa 08:00-03:00; Su 08:00-02:00,Taco Bell,Q752941
100272,two_men_and_truck,Waldorf,3261 Old Washington Rd,Waldorf,MD,,US,+1 240-654-4557,https://twomenandatruck.com/movers/md/washington-dc/waldorf,,Two Men and a Truck,Q7859087
1386212,usps,WALDORF,,WALDORF,MD,,US,+1 301-705-7288,,Mo-Fr 09:00-17:00; Sa 09:00-15:00,United States Postal Service,Q668687
1386211,usps,WALDORF CARRIER ANNEX,,WALDORF,MD,,US,+1 301-705-7003,,,United States Postal Service,Q668687
2060200009,usps_collection_boxes,USPS COLLECTION BOX - BLUE BOX,3500 OLD WASHINGTON RD,WALDORF,MD,,US,,,,United States Postal Service,Q668687
2060200005,usps_collection_boxes,USPS COLLECTION BOX - BLUE BOX,1057 SAINT IGNATIUS DR,WALDORF,MD,,US,,,,United States Postal Service,Q668687
2060200007,usps_collection_boxes,USPS COLLECTION BOX - BLUE BOX,2660 HUSK PL,WALDORF,MD,,US,,,,United States Postal Service,Q668687
2060200008,usps_collection_boxes,USPS COLLECTION BOX - BLUE BOX,603 POST OFFICE RD,WALDORF,MD,,US,,,,United States Postal Service,Q668687
2060200004,usps_collection_boxes,USPS COLLECTION BOX - BLUE BOX,129 SMALLWOOD VILLAGE CTR,WALDORF,MD,,US,,,,United States Postal Service,Q668687
2060200003,usps_collection_boxes,USPS COLLECTION BOX - BLUE BOX,2000 AMBER LEAF PL,WALDORF,MD,,US,,,,United States Postal Service,Q668687
2060200010,usps_collection_boxes,USPS COLLECTION BOX - BLUE BOX,12070 OLD LINE CTR,WALDORF,MD,,US,,,,United States Postal Service,Q668687
,visa,,,WALDORF,MD,,US,,,,,
,visa,,,WALDORF,MD,,US,,,,,
,visa,,,WALDORF,MD,,US,,,,,
,visa,,,WALDORF,MD,,US,,,,,
,visa,,,WALDORF,MD,,US,,,,,
,visa,,,WALDORF,MD,,US,,,,,
,visa,,,WALDORF,MD,,US,,,,,
,visa,,,ST CHARLES,MD,,US,,,,,
,visa,,,WALDORF,MD,,US,,,,,
,visa,,,WALDORF,MD,,US,,,,,
,visa,,,WALDORF,MD,,US,,,,,
,visa,,,WALDORF,MD,,US,,,,,
,visa,,,WALDORF,MD,,US,,,,,
,visa,,,WALDORF,MD,,US,,,,,
,visa,,,WALDORF,MD,,US,,,,,
,visa,,,WALDORF,MD,,US,,,,,
,visa,,,WALDORF,MD,,US,,,,,
,visa,,,WALDORF,MD,,US,,,,,
,visa,,,WALDORF,MD,,US,,,,,
,visa,,,WALDORF,MD,,US,,,,,
,visa,,,WALDORF,MD,,US,,,,,
,visa,,,WALDORF,MD,,US,,,,,
,visa,,,WALDORF,MD,,US,,,,,
,visa,,,WALDORF,MD,,US,,,,,
,visa,,,WALDORF,MD,,US,,,,,
https://www.walgreens.com/locator/walgreens-25+high+st-waldorf-md-20602/id=9032,walgreens,Walgreens,,Waldorf,MD,,US,+1 301-932-9826,https://www.walgreens.com/locator/walgreens-25+high+st-waldorf-md-20602/id=9032,Mo-Su 08:00-22:00,Walgreens,Q1591889
7315bd324f30bdd99472f9eea52ba4b4,western_union,HIGH ST DISCOUNT PHARMACY,,Waldorf,MD,,US,+1 240-448-3301,https://location.westernunion.com/us/md/waldorf/7315bd324f30bdd99472f9eea52ba4b4,Mo-Su 08:00-18:00,Western Union,Q861042
52fcd9058a9f74fb857cc6c36375f368,western_union,7-ELEVEN #11707,,St Charles,MD,,US,+1 301-645-4359,https://location.westernunion.com/us/md/st-charles/52fcd9058a9f74fb857cc6c36375f368,,Western Union,Q861042
