Ref,Spider,Name,Address,City,State,Zipcode,Country,Phone,Website,Hours,Brand,WikiData
https://stores.advanceautoparts.com/md/accokeek/7025-berry-rd-suites-1-3,advance_auto_parts_us,Advance Auto Parts,,Accokeek,MD,,US,+1 240-724-1574,https://stores.advanceautoparts.com/md/accokeek/7025-berry-rd-suites-1-3,Mo-Sa 07:30-21:00; Su 09:00-20:00,Advance Auto Parts,Q4686051
https://locators.bankofamerica.com/md/accokeek/atm-accokeek-110417.html,bankofamerica,Bank of America Drive-Thru ATM | Accokeek Village,,Accokeek,MD,,US,+1 844-401-8500,https://locators.bankofamerica.com/md/accokeek/atm-accokeek-110417.html,,Bank of America,Q487907
https://locations.baskinrobbins.com/md/accokeek/15793-livingston-rd-340171-br,baskin_robbins_us,Baskin-Robbinsâ„¢,,Accokeek,MD,,US,+1 301-292-3339,https://locations.baskinrobbins.com/md/accokeek/15793-livingston-rd-340171-br,Mo-Fr 05:00-22:00; Sa-Su 06:00-22:00,Baskin-Robbins,Q584601
88167,bluerhino,Giant Food #338 - GL,,Accokeek,MD,,US,+1 301-893-3100,,,Blue Rhino,Q65681213
185397,bluerhino,Weis #276,,Accokeek,MD,,US,+1 301-203-8321,,,Blue Rhino,Q65681213
138737,bluerhino,Keller's Market,,Accokeek,MD,,US,+1 301-292-4322,,,Blue Rhino,Q65681213
340171,dunkin_us,Dunkin',,Accokeek,MD,,US,+1 301-292-3339,https://locations.dunkindonuts.com/en/md/accokeek/15793-livingston-rd/340171,Mo-Fr 05:00-22:00; Sa-Su 06:00-22:00,Dunkin',Q847743
200315780,exxonmobil,SARANIYA FUEL MARKETING,,ACCOKEEK,MD,,US,+1 301-292-7070,https://www.exxon.com/en/find-station/exxon-accokeek-md-saraniyafuelmarketing-200315780,24/7,Exxon,Q109675651
0338,giantfood,Giant Food Manokeek Village Center,,Accokeek,MD,,US,+1 301-893-3100,https://stores.giantfood.com/md/accokeek/7025-berry-road,Mo-Su 06:00-22:00,Giant Food,Q5558336
33430,seven_eleven_ca_us,7-11 Str   401 Manning Road,,Accokeek,MD,,US,+1 301-283-0374,https://www.7-eleven.com/locations/md/accokeek/401-manning-road-33430,,7-Eleven,Q259340
3696,shellrecharge,SMECO - Accokeek Library,,Accokeek,MD,,US,,,,Shell Recharge,Q105883058
https://restaurants.subway.com/#14898675,subway,Subway Accokeek Village Shopping Cent,,Accokeek Charles,MD,,US,+1 301-292-1700,https://restaurants.subway.com/united-states/md/accokeek/15789-livingston-rd,Mo-Sa 08:00-21:30; Su 09:00-19:00,Subway,Q244457
1352304,usps,ACCOKEEK,,ACCOKEEK,MD,,US,+1 301-283-2861,,Mo-Fr 09:00-17:00; Sa 09:00-12:00,United States Postal Service,Q668687
2060700000,usps_collection_boxes,USPS COLLECTION BOX - BLUE BOX,16405 LIVINGSTON RD,ACCOKEEK,MD,,US,,,,United States Postal Service,Q668687
2060700002,usps_collection_boxes,USPS COLLECTION BOX - PO LOBBY,16405 LIVINGSTON RD,ACCOKEEK,MD,,US,,,,United States Postal Service,Q668687
2060700004,usps_collection_boxes,USPS COLLECTION BOX - PO LOBBY,16405 LIVINGSTON RD,ACCOKEEK,MD,,US,,,,United States Postal Service,Q668687
2060700001,usps_collection_boxes,USPS COLLECTION BOX - BLUE BOX,15789 LIVINGSTON RD,ACCOKEEK,MD,,US,,,,United States Postal Service,Q668687
,visa,,,ACCOKEEK,MD,,US,,,,,
,visa,,,ACCOKEEK,MD,,US,,,,,
,visa,,,ACCOKEEK,MD,,US,,,,,
,visa,,,ACCOKEEK,MD,,US,,,,,
,visa,,,ACCOKEEK,MD,,US,,,,,
,visa,,,WALDORF,MD,,US,,,,,
,visa,,,ACCOKEEK,MD,,US,,,,,
,visa,,,ACCOKEEK,MD,,US,,,,,
,visa,,,ACCOKEEK,MD,,US,,,,,
,visa,,,ACCOKEEK,MD,,US,,,,,
,visa,,,ACCOKEEK,MD,,US,,,,,
,visa,,,ACCOKEEK,MD,,US,,,,,
,visa,,,ACCOKEEK,MD,,US,,,,,
,visa,,,ACCOKEEK,MD,,US,,,,,
,visa,,,ACCOKEEK,MD,,US,,,,,
,visa,,,ACCOKEEK,MD,,US,,,,,
,visa,,,ACCOKEEK,MD,,US,,,,,
,visa,,,ACCOKEEK,MD,,US,,,,,
https://locations.wendys.com/#9250478,wendys,"Wendy's Manokeek in Accokeek, MD",,Accokeek,MD,,US,+1 301-283-5240,https://locations.wendys.com/united-states/md/accokeek/7099-berry-road,"Mo-Su 06:30-10:30,07:00-22:00",Wendy's,Q550258
