Ref,Spider,Name,Address,City,State,Zipcode,Country,Phone,Website,Hours,Brand,WikiData
https://stores.advanceautoparts.com/fl/ocoee/151-n-clarke-rd,advance_auto_parts_us,Advance Auto Parts,,Ocoee,FL,,US,+1 407-521-2165,https://stores.advanceautoparts.com/fl/ocoee/151-n-clarke-rd,Mo-Sa 07:30-21:00; Su 09:00-20:00,Advance Auto Parts,Q4686051
https://stores.advanceautoparts.com/fl/ocoee/11172-w-colonial-dr,advance_auto_parts_us,Advance Auto Parts,,Ocoee,FL,,US,+1 407-656-1717,https://stores.advanceautoparts.com/fl/ocoee/11172-w-colonial-dr,Mo-Sa 07:30-21:00; Su 09:00-20:00,Advance Auto Parts,Q4686051
https://stores.aldi.us/#4420270,aldi_sud_us,ALDI  9250 W. Colonial Dr,,Ocoee,FL,,US,+1 855-474-7010,https://stores.aldi.us/fl/ocoee/9250-w-colonial-dr,Mo-Su 09:00-20:00,ALDI,Q41171672
4248,anytime_fitness,Anytime Fitness,,Ocoee,FL,,US,+1 407-664-1121,https://www.anytimefitness.com/gyms/4248/ocoee-fl-34761/,,Anytime Fitness,Q4778364
75736,att_us,SHOPPES OCOEE,,Ocoee,FL,,US,+1 407-299-4595,https://www.att.com/stores/florida/ocoee/75736,Mo-Sa 10:00-20:00; Su 10:00-18:00,AT&T,Q298594
https://locations.auntieannes.com/#6543,auntie_annes,Auntie Anne's West Oaks Mall,,Ocoee,FL,,US,+1 407-522-7044,https://locations.auntieannes.com/fl/ocoee/9401-west-colonial-dr-ste-644,,Auntie Anne's,Q4822010
https://locations.auntieannes.com/#6705,auntie_annes,Auntie Anne's Ocoee Walmart,,Ocoee,FL,,US,+1 407-654-8887,https://locations.auntieannes.com/fl/ocoee/10500-w-colonial-dr,Mo-Su 10:30-20:00,Auntie Anne's,Q4822010
4834,autozone_us,AutoZone Auto Parts Ocoee,,Ocoee,FL,,US,+1 407-290-8912,https://www.autozone.com/locations/fl/ocoee/175-clarke-rd.html,Mo-Sa 07:30-21:00; Su 08:00-20:00,AutoZone,Q4826087
https://www.banfield.com/locations/veterinarians/fl/ocoee/oco,banfield_pet_hospital,Ocoee,,Ocoee,FL,,US,+1 407-654-2289,https://www.banfield.com/locations/veterinarians/fl/ocoee/oco,Mo-Fr 07:00-18:00; Sa 07:00-17:00; Su 00:00-24:00,Banfield Pet Hospital,Q2882416
https://locators.bankofamerica.com/fl/ocoee/financial-centers-ocoee-15799.html,bankofamerica,Bank of America Financial Center & Drive-Thru ATM | Ocoee,,Ocoee,FL,,US,+1 407-295-4575,https://locators.bankofamerica.com/fl/ocoee/financial-centers-ocoee-15799.html,Mo-Fr 09:00-17:00; Sa 09:00-14:00,Bank of America,Q487907
https://locators.bankofamerica.com/fl/ocoee/atm-ocoee-110231.html,bankofamerica,Bank of America Walk-Up ATM | Silver Star & Clarke Rd,,Ocoee,FL,,US,+1 844-401-8500,https://locators.bankofamerica.com/fl/ocoee/atm-ocoee-110231.html,,Bank of America,Q487907
https://locations.baskinrobbins.com/fl/ocoee/1719-e-silver-star-rd-336979-br,baskin_robbins_us,Baskin-Robbins™,,Ocoee,FL,,US,+1 407-523-7363,https://locations.baskinrobbins.com/fl/ocoee/1719-e-silver-star-rd-336979-br,Mo-Th 05:00-20:00; Fr-Sa 05:00-21:00; Su 06:00-20:00,Baskin-Robbins,Q584601
BBW00964,bathandbodyworks_us,WEST OAKS MALL,,OCOEE,FL,,US,+1 407-521-2228,,Mo-Sa 11:00-19:00; Su 12:00-18:00,Bath & Body Works,Q810773
852,batteriesplus,Shop our Ocoee store today!,,Ocoee,FL,,US,+1 407-877-7788,https://www.batteriesplus.com/store-locator/fl/ocoee/batteries-plus-852,Mo-Fr 08:00-19:00; Sa 09:00-19:00; Su 10:00-17:00,Batteries Plus Bulbs,Q17005157
277,bealls_us,Bealls,,Ocoee,FL,,US,+1 407-298-1820,https://stores.bealls.com/fl/ocoee/clothing-store-277.html,Mo-Sa 10:00-21:00; Su 10:00-20:00,Bealls,Q4876153
https://stores.bestbuy.com/fl/ocoee/9537-w-colonial-dr-2642.html,bestbuy,Best Buy Ocoee Outlet,,Ocoee,FL,,US,+1 407-563-0383,https://stores.bestbuy.com/fl/ocoee/9537-w-colonial-dr-2642.html,,Best Buy,Q533415
156525,bluerhino,Walgreens #12884,,Ocoee,FL,,US,+1 407-573-0228,,,Blue Rhino,Q65681213
235739,bluerhino,Circle K #2722805,,Ocoee,FL,,US,+1 407-656-2666,,,Blue Rhino,Q65681213
235738,bluerhino,Circle K #2722103,,Ocoee,FL,,US,+1 407-877-0424,,,Blue Rhino,Q65681213
195383,bluerhino,Ocoee Food Mart (Yamuna Invest),,Ocoee,FL,,US,+1 407-654-3622,,,Blue Rhino,Q65681213
219458,bluerhino,Ocoee Food Mart,,Ocoee,FL,,US,+1 407-654-3622,,,Blue Rhino,Q65681213
235737,bluerhino,Circle K #2708980,,Ocoee,FL,,US,+1 407-654-2474,,,Blue Rhino,Q65681213
209634,bluerhino,Rebel #815 - FEF,,Ocoee,FL,,US,+1 407-573-7559,,,Blue Rhino,Q65681213
173444,bluerhino,Family Dollar #11164,,Ocoee,FL,,US,+1 407-554-0077,,,Blue Rhino,Q65681213
235747,bluerhino,Circle K #2726294,,Ocoee,FL,,US,+1 407-656-4481,,,Blue Rhino,Q65681213
217512,bluerhino,Family Dollar #13558 - Combo,,Ocoee,FL,,US,+1 334-790-4410,,,Blue Rhino,Q65681213
235746,bluerhino,Circle K #2708974,,Ocoee,FL,,US,+1 407-293-5858,,,Blue Rhino,Q65681213
151649,bluerhino,Walgreens #4961,,Ocoee,FL,,US,+1 407-523-4959,,,Blue Rhino,Q65681213
155152,bluerhino,Walgreens #11105,,Ocoee,FL,,US,+1 407-578-2283,,,Blue Rhino,Q65681213
10848092506503476100100000000000,bp,BP,,Ocoee,FL,,US,+1 407-293-5858,,24/7,BP,Q152057
77269662719603476100100000000000,bp,BP,,Ocoee,FL,,US,+1 407-656-8329,,24/7,BP,Q152057
2039758,chase_us,Ocoee - New branch,,Ocoee,FL,,US,+1 407-822-0742,https://locator.chase.com/fl/ocoee/1784-e-silver-star-rd,Mo-Fr 09:00-17:00; Sa 09:00-14:00,Chase,Q524629
fl_ocoee_10149-w-colonial-dr,chipotle, ,,Ocoee,FL,,US,+1 407-298-8120,https://locations.chipotle.com/fl/ocoee/10149-w-colonial-dr,,Chipotle,Q465751
93265,citi,ATM Walgreens,,Ocoee,FL,,US,,,,Citibank,Q857063
88080,citi,ATM Walgreens,,Ocoee,FL,,US,,,,Citibank,Q857063
41031,citi,ATM Circle K,,Ocoee,FL,,US,,,,Citibank,Q857063
48256,citi,ATM CVS,,Ocoee,FL,,US,,,,Citibank,Q857063
64917,citi,ATM McCoy FCU,,Ocoee,FL,,US,,,,Citibank,Q857063
40888,citi,ATM Circle K,,Ocoee,FL,,US,,,,Citibank,Q857063
24582,citi,ATM 7ELEVEN-FCTI,,Ocoee,FL,,US,,,,Citibank,Q857063
28102,citi,ATM 7ELEVEN-FCTI,,Ocoee,FL,,US,,,,Citibank,Q857063
40257,citi,ATM Circle K,,Ocoee,FL,,US,,,,Citibank,Q857063
23719,coldstone_creamery,Cold Stone Creamery,,Ocoee,FL,,US,+1 407-614-3890,https://www.coldstonecreamery.com/stores/23719,,Cold Stone Creamery,Q1094923
,credit_union_us,McCoy FCU,,Ocoee,FL,,US,+1 407-855-5452,,Mo-Th 09:00-05:00; Fr 09:00-06:00,,
80443128,cricket_wireless,Cricket Wireless Authorized Retailer,,Ocoee,FL,,US,+1 407-523-1115,https://www.cricketwireless.com/stores/ll/US/FL/Ocoee/8879-W-Colonial-Dr,Mo-Sa 10:00-19:00; Su 12:00-18:00,Cricket Wireless,Q5184987
561,crunch_fitness,Crunch Fitness,,Ocoee,FL,,US,+1 321-329-1010,https://www.crunch.com/locations/ocoee,,Crunch Fitness,Q5190093
4238,cvs_us,CVS Pharmacy,,Ocoee,FL,,US,+1 407-294-7124,https://www.cvs.com/store-locator/ocoee-fl-pharmacies/1612-e-silver-star-rd-ocoee-fl-34761/storeid=4238,Mo-Th 09:00-21:00; Fr-Sa 09:00-22:00; Su 10:00-20:00,CVS Pharmacy,Q2078880
246379,dennys,Denny's,,Ocoee,FL,,US,+1 407-877-8105,https://locations.dennys.com/FL/OCOEE/246379,24/7,Denny's,Q1189695
1777,dickeys_barbecue_pit_us,Ocoee - Colonial Dr,,Ocoee,FL,,US,+1 407-614-5448,https://www.dickeys.com/locations/florida/ocoee/ocoee,Mo-Su 11:00-21:00,Dickey's Barbecue Pit,Q19880747
0516,dillards,"Dillard's West Oaks Mall in Ocoee, Florida",,Ocoee,FL,,US,+1 407-292-6866,https://www.dillards.com/stores/florida/west-oaks-mall-ocoee/0516,Tu-Sa 12:00-19:00; Su 12:00-18:00,Dillard's,Q844805
5012,dominos_pizza_us,Domino's Pizza,,Ocoee,FL,,US,+1 407-656-3053,https://pizza.dominos.com/florida/ocoee/10821-w-colnial-dr,Mo-Th 10:00-24:00; Fr-Sa 10:00-01:00; Su 10:00-24:00,Domino's,Q839466
352644,dunkin_us,Dunkin',,Ocoee,FL,,US,+1 407-293-0099,https://locations.dunkindonuts.com/en/fl/ocoee/8844-w-colonial-dr/352644,Mo-Su 05:00-19:00,Dunkin',Q847743
336979,dunkin_us,Dunkin',,Ocoee,FL,,US,+1 407-523-7363,https://locations.dunkindonuts.com/en/fl/ocoee/1719-e-silver-star-rd/336979,Mo-Th 05:00-20:00; Fr-Sa 05:00-21:00; Su 06:00-20:00,Dunkin',Q847743
330025,dunkin_us,Dunkin',,Ocoee,FL,,US,+1 407-877-2677,https://locations.dunkindonuts.com/en/fl/ocoee/11204-w-colonial-dr/330025,Mo 05:30-16:00; Tu-Fr 05:30-19:00; Sa-Su 06:00-15:00,Dunkin',Q847743
354316,dunkin_us,Dunkin',,Ocoee,FL,,US,+1 407-814-3576,https://locations.dunkindonuts.com/en/fl/ocoee/2266-ocoee-apopka-rd/354316,Mo-Fr 04:00-20:00; Sa 05:00-20:00; Su 06:00-20:00,Dunkin',Q847743
https://www.edwardjones.com/us-en/financial-advisor/douglas-palmer,edwardjones,Douglas J Palmer,,Ocoee,FL,,US,+1 407-412-6793,https://www.edwardjones.com/us-en/financial-advisor/douglas-palmer,Mo-Th 08:30-18:00; Fr 08:30-17:00; Sa 09:30-13:00,Edward Jones,Q5343830
501234,extra_space_storage,Ocoee Self Storage at 1101 Marshall Farms Rd,,Ocoee,FL,,US,+1 407-877-6212,https://www.extraspace.com/storage/facilities/us/florida/ocoee/501234/,Mo-Fr 09:30-18:00; Sa 09:00-17:30,Extra Space Storage,Q5422162
7557,extra_space_storage,"Ocoee Self Storage at 11920 W Colonial Dr, Ste 10",,Ocoee,FL,,US,+1 407-877-5608,https://www.extraspace.com/storage/facilities/us/florida/ocoee/7557/,Mo-Fr 09:30-18:00; Sa 09:00-17:30,Extra Space Storage,Q5422162
200328536,exxonmobil,REBEL#815,,OCOEE,FL,,US,+1 407-573-7559,https://www.exxon.com/en/find-station/exxon-ocoee-fl-rebel815-200328536,24/7,Exxon,Q109675651
33558,family_dollar_us,FAMILY DOLLAR #13558,,Ocoee,FL,,US,+1 407-204-8427,https://www.familydollar.com/locations/fl/ocoee/33558/,Mo-Su 08:00-22:00,Family Dollar,Q5433101
31164,family_dollar_us,FAMILY DOLLAR #11164,,Ocoee,FL,,US,+1 407-554-0077,https://www.familydollar.com/locations/fl/ocoee/31164/,Mo-Su 08:00-22:00,Family Dollar,Q5433101
https://local.fedex.com/#25202988,fedex,,,Ocoee,FL,,US,+1 800-463-3339,https://local.fedex.com/en-us/fl/ocoee/dx42n,,FedEx,Q459477
https://local.fedex.com/#25205956,fedex,,,Ocoee,FL,,US,+1 800-463-3339,https://local.fedex.com/en-us/fl/ocoee/dmye6,,FedEx,Q459477
https://local.fedex.com/#25202077,fedex,,,Ocoee,FL,,US,+1 800-463-3339,https://local.fedex.com/en-us/fl/ocoee/d1abi,,FedEx,Q459477
https://local.fedex.com/#27760644,fedex,FedEx Authorized ShipCenter,,Ocoee,FL,,US,+1 407-745-4598,https://local.fedex.com/en-us/fl/ocoee/73356,,FedEx,Q459477
https://local.fedex.com/#27965180,fedex,FedEx Authorized ShipCenter,,Ocoee,FL,,US,+1 407-614-2446,https://local.fedex.com/en-us/fl/ocoee/00u6w,,FedEx,Q459477
https://locations.53.com/#3033999,fifththirdbank,Fifth Third Bank Moore and Maguire,,Ocoee,FL,,US,+1 407-877-5100,https://locations.53.com/fl/ocoee/2900-maguire-road.html,Mo-Th 09:00-17:00; Fr 09:00-18:00,Fifth Third Bank,Q1411810
https://locations.53.com/#3034666,fifththirdbank,Fifth Third Bank Ocoee,,Ocoee,FL,,US,+1 407-290-0140,https://locations.53.com/fl/ocoee/121-north-clarke-road.html,Mo-Th 09:00-17:00; Fr 09:00-18:00; Sa 09:00-12:00,Fifth Third Bank,Q1411810
5051,gamestop_us,Ocoee Commons,,OCOEE,FL,,US,+1 407-656-1938,https://www.gamestop.com/search/?store=5051,Mo-Th 12:00-19:00; Fr-Sa 12:00-21:00; Su 12:00-20:00,GameStop,Q202210
398697f8-739b-e211-87d7-0050568924e6,goodwill,Ocoee Donation Xpress,,Ocoee,FL,,US,+1 407-857-0659,https://www.goodwill.org/locator/location/?store=Mzk4Njk3ZjgtNzM5Yi1lMjExLTg3ZDctMDA1MDU2ODkyNGU2&lat=MjguNTI5MjI=&lng=LTgxLjU0MTE5,,Goodwill,Q5583655
https://salons.greatclips.com/us/fl/ocoee/1586-e-silver-star-rd,greatclips,Great Clips,,Ocoee,FL,,US,+1 407-296-2299,https://salons.greatclips.com/us/fl/ocoee/1586-e-silver-star-rd,Mo-Fr 09:00-19:00; Sa 09:00-18:00; Su 09:00-17:00,Great Clips,Q5598967
https://salons.greatclips.com/us/fl/ocoee/2222-ocoee-apopka-rd,greatclips,Great Clips,,Ocoee,FL,,US,+1 407-347-7553,https://salons.greatclips.com/us/fl/ocoee/2222-ocoee-apopka-rd,Mo-Fr 09:00-19:00; Sa 09:00-18:00; Su 10:00-17:00,Great Clips,Q5598967
329,honey_baked,HoneyBaked of Ocoee,,Ocoee,FL,,US,+1 407-296-5020,https://www.honeybaked.com/stores/329,,Honey Baked Ham,Q5893363
9290,h_r_block,H&R Block,,Ocoee,FL,,US,+1 407-290-9220,https://www.hrblock.com/local-tax-offices/florida/ocoee/8881-w-colonial-dr/9290/,,H&R Block,Q5627799
9289,h_r_block,H&R Block,,Ocoee,FL,,US,+1 407-656-2429,https://www.hrblock.com/local-tax-offices/florida/ocoee/41-w-silver-star-rd/9289/,,H&R Block,Q5627799
Quadro Supermarket,iga,Quadro Supermarket,"23 West Silver Star Road, Ocoee, FL, 34761",Ocoee,FL,,US,+1 407-905-9606,https://tropicsavesupermarket.iga.com,,IGA,Q3146662
https://office.jacksonhewitt.com/#27578492,jackson_hewitt,Jackson Hewitt,,Ocoee,FL,,US,+1 407-282-1040,https://office.jacksonhewitt.com/tax-preparation-services-locations/en/fl/ocoee/11063-w-colonial-drive/11797,Mo-Fr 10:00-19:00; Sa 10:00-17:00; Su 12:00-17:00,Jackson Hewitt,Q6117132
https://office.jacksonhewitt.com/#27578004,jackson_hewitt,Jackson Hewitt,,Ocoee,FL,,US,+1 407-282-1040,https://office.jacksonhewitt.com/tax-preparation-services-locations/en/fl/ocoee/10500-w-colonial-drive/50942,Mo-Fr 10:00-19:00; Sa 10:00-17:00; Su 12:00-17:00,Jackson Hewitt,Q6117132
https://www.kekes.com/kekes-ocoee,keke,Breakfast In Ocoee with Keke’s,,Ocoee,FL,,US,+1 407-395-9521,https://www.kekes.com/kekes-ocoee,Mo-Su 07:00-14:30,Keke's Breakfast Cafe,Q115930150
https://locations.kfc.com/#1021948301,kfc,Chicken Nuggets Near Ocoee,,Ocoee,FL,,US,,https://locations.kfc.com/fl/ocoee/mile-post-263-68/chickennugget,,KFC,Q524757
https://locations.kfc.com/#18563559,kfc,Chicken Nuggets Near Ocoee,,Ocoee,FL,,US,,https://locations.kfc.com/fl/ocoee/mile-post-263-0000068/chickennugget,Mo-Th 10:00-23:00; Fr-Sa 10:00-24:00; Su 10:00-23:00,KFC,Q524757
MCOOF,marriott,Fairfield Inn & Suites Orlando Ocoee,,Ocoee,FL,,US,+1 407-573-1010,https://www.marriott.com/MCOOF,,Fairfield by Marriott,Q5430314
https://locations.papajohns.com/#10691636,papa_johns,Papa John's,,Ocoee,FL,,US,+1 407-656-7272,https://locations.papajohns.com/united-states/fl/34761/ocoee/10959-west-colonial-drive,Mo-Sa 10:00-24:00; Su 10:00-23:00,Papa John's Pizza,Q2759586
15,pinch_a_penny_us,Pinch A Penny,,Ocoee,FL,,US,+1 407-293-3220,https://pinchapenny.com/stores/ocoee-fl-15,Mo-Fr 09:00-18:00; Sa 09:00-17:00; Su 11:00-15:00,Pinch A Penny,Q121436109
fl_ocoee_323-west-road,pizza_hut_us,323 West Road,,Ocoee,FL,,US,+1 407-654-2536,https://locations.pizzahut.com/fl/ocoee/323-west-road,,Pizza Hut,Q191615
fl_ocoee_10880-w-colonial-drive,pizza_hut_us,10880 W. Colonial Drive,,Ocoee,FL,,US,+1 407-656-6622,https://locations.pizzahut.com/fl/ocoee/10880-w-colonial-drive,,Pizza Hut,Q191615
restaurant_85230,popeyes_us_fr,Popeyes,"10923 W. Colonial Drive Ocoee, Florida 34761 - USA",Ocoee,FL,,US,+1 407-798-7570,https://www.popeyes.com/store-locator/store/restaurant_85230,Mo-Th 10:00-22:00; Fr-Sa 10:00-23:00; Su 10:00-22:00,Popeyes,Q1330910
265,primrose_schools,Primrose School of Ocoee,,Ocoee,FL,,US,+1 407-347-8902,https://www.primroseschools.com/schools/ocoee/,,Primrose Schools,Q7243677
https://locations.qdoba.com/us/fl/ocoee/10959-w-colonial-dr.html,qdoba,QDOBA Ocoee,,Ocoee,FL,,US,+1 407-554-2132,https://locations.qdoba.com/us/fl/ocoee/10959-w-colonial-dr.html,Mo-Sa 11:00-21:30; Su 11:00-21:00,Qdoba,Q1363885
https://www.racetrac.com/locations/florida/ocoee/ocoee,racetrac_us,RaceTrac,,Ocoee,FL,,US,+1 407-656-0213,https://www.racetrac.com/locations/florida/ocoee/ocoee,,RaceTrac,Q735942
8344,regal_nails_us,"Regal Nails, Salon &#038; Spa",10500 W Colonial Dr,Ocoee,FL,,US,+1 407-654-7075,,,Regal Nails,Q108918028
https://stores.saloncentric.com/#29173565,salon_centric_us,SalonCentric,,,FL,,US,+1 407-445-5128,https://stores.saloncentric.com/fl/ocoee/1116,Mo 08:00-18:30; Tu-Fr 08:00-18:00; Sa 08:30-16:00,SalonCentric,Q124339481
34828,seven_eleven_ca_us,7-Eleven Store,,Ocoee,FL,,US,+1 407-877-2656,https://www.7-eleven.com/locations/fl/ocoee/2510-maguire-rd-34828,,7-Eleven,Q259340
39998,seven_eleven_ca_us,Bcp Store,,Ocoee,FL,,US,+1 800-255-0711,https://www.7-eleven.com/locations/fl/ocoee/331-w-silver-star-rd-39998,,7-Eleven,Q259340
https://restaurants.subway.com/#14897695,subway,Subway Lake Olympia Square,,Ocoee Orange,FL,,US,+1 407-297-0560,https://restaurants.subway.com/united-states/fl/ocoee/1501-1619-east-silver-star-rd,Mo-Sa 08:00-22:00; Su 09:00-21:00,Subway,Q244457
https://restaurants.subway.com/#14983980,subway,Subway Fountains West Shopping Center,,Ocoee Orange,FL,,US,+1 407-654-0014,https://restaurants.subway.com/united-states/fl/ocoee/west-rd-&-ocoee/apopka-rd,Mo-Sa 08:00-22:00; Su 09:00-21:00,Subway,Q244457
https://restaurants.subway.com/#14907409,subway,Subway,,Ocoee Orange,FL,,US,+1 407-985-4678,https://restaurants.subway.com/united-states/fl/ocoee/8894-w-colonial-drive,Mo-Sa 08:00-22:00; Su 09:00-21:00,Subway,Q244457
https://restaurants.subway.com/#14898132,subway,Subway,,Ocoee Orange,FL,,US,+1 407-654-4986,https://restaurants.subway.com/united-states/fl/ocoee/2468-s-maguire-rd,Mo-Sa 08:00-22:00; Su 09:00-21:00,Subway,Q244457
https://locations.tacobell.com/#6141838,taco_bell,Taco Bell,,Ocoee,FL,,US,+1 407-294-3780,https://locations.tacobell.com/fl/ocoee/8868-w--colonial-dr.html,Mo-Th 08:00-02:00; Fr-Sa 08:00-03:00; Su 08:00-02:00,Taco Bell,Q752941
https://locations.tacobell.com/#9324788,taco_bell,Taco Bell,,Ocoee,FL,,US,+1 407-654-7106,https://locations.tacobell.com/fl/ocoee/257-west-fountains-blvd.html,Mo-Th 08:00-02:00; Fr-Sa 08:00-03:00; Su 08:00-02:00,Taco Bell,Q752941
ocoee,tijuanaflats,Ocoee - Tijuana Flats,,Ocoee,FL,,US,+1 321-418-8104,https://www.tijuanaflats.com/locations/ocoee,,Tijuana Flats,Q7801833
9894,tmobile_us,Sr 50 & Good Homes Rd,,Ocoee,FL,,US,+1 407-253-7946,https://www.t-mobile.com/store-locator/fl/ocoee/sr-50-good-homes-rd,,T-Mobile,Q3511885
https://www.ubreakifix.com/locations/ocoee,ubreakifix,uBreakiFix Ocoee,,Ocoee,FL,,US,+1 321-270-0600,https://www.ubreakifix.com/locations/ocoee,Mo-Sa 10:00-19:00; Su 12:00-17:00,uBreakiFix,Q53685733
6944,upsstore,Plantation Grove,2582 Maguire Rd,Ocoee,FL,,US,+1 407-614-8034,https://locations.theupsstore.com/fl/ocoee/2582-maguire-rd,,UPS Store,Q7771029
1375878,usps,OCOEE,,OCOEE,FL,,US,+1 407-654-9581,,Mo-Fr 08:30-17:00; Sa 09:30-12:00,United States Postal Service,Q668687
1450616,usps,OCOEE CARRIER ANNEX,,OCOEE,FL,,US,+1 407-654-9581,,,United States Postal Service,Q668687
3476100025,usps_collection_boxes,USPS COLLECTION BOX - BLUE BOX,11119 W COLONIAL DR,OCOEE,FL,,US,,,,United States Postal Service,Q668687
3476100006,usps_collection_boxes,USPS COLLECTION BOX - BLUE BOX,449 W SILVER STAR RD,OCOEE,FL,,US,,,,United States Postal Service,Q668687
3476100011,usps_collection_boxes,USPS COLLECTION BOX - PO LOBBY,449 W SILVER STAR RD,OCOEE,FL,,US,,,,United States Postal Service,Q668687
3476100032,usps_collection_boxes,USPS COLLECTION BOX - PO LOBBY,449 W SILVER STAR RD,OCOEE,FL,,US,,,,United States Postal Service,Q668687
3476100019,usps_collection_boxes,USPS COLLECTION BOX - BLUE BOX,150 N LAKESHORE DR,OCOEE,FL,,US,,,,United States Postal Service,Q668687
3476100028,usps_collection_boxes,USPS COLLECTION BOX - BLUE BOX,10000 W COLONIAL DR,OCOEE,FL,,US,,,,United States Postal Service,Q668687
3476100020,usps_collection_boxes,USPS COLLECTION BOX - BLUE BOX,10125 W COLONIAL DR,OCOEE,FL,,US,,,,United States Postal Service,Q668687
3476100022,usps_collection_boxes,USPS COLLECTION BOX - BLUE BOX,2731 MAGUIRE RD,OCOEE,FL,,US,,,,United States Postal Service,Q668687
3476100001,usps_collection_boxes,USPS COLLECTION BOX - BLUE BOX,1746 E SILVER STAR RD,OCOEE,FL,,US,,,,United States Postal Service,Q668687
3476100004,usps_collection_boxes,USPS COLLECTION BOX - BLUE BOX,8891 W COLONIAL DR,OCOEE,FL,,US,,,,United States Postal Service,Q668687
ocoee_oil-change-gj0004,valvoline_instant_oil_change,Valvoline,224 North Clarke Road ,Ocoee,FL,,US,+1 407-291-9993,https://store.vioc.com/fl/ocoee/oil-change-gj0004.html,,Valvoline Instant Oil Change,Q7912852
,visa,,,ORLANDO,FL,,US,,,,,
,visa,,,OCOEE,FL,,US,,,,,
,visa,,,ORLANDO,FL,,US,,,,,
,visa,,,ORLANDO,FL,,US,,,,,
,visa,,,OCOEE,FL,,US,,,,,
,visa,,,OCOEE,FL,,US,,,,,
,visa,,,OCOEE,FL,,US,,,,,
,visa,,,OCOEE,FL,,US,,,,,
,visa,,,OCOEE,FL,,US,,,,,
,visa,,,OCOEE,FL,,US,,,,,
,visa,,,OCOEE,FL,,US,,,,,
,visa,,,OCOEE,FL,,US,,,,,
,visa,,,OCOEE,FL,,US,,,,,
,visa,,,OCOEE,FL,,US,,,,,
,visa,,,OCOEE,FL,,US,,,,,
,visa,,,OCOEE,FL,,US,,,,,
,visa,,,OCOEE,FL,,US,,,,,
,visa,,,OCOEE,FL,,US,,,,,
,visa,,,OCOEE,FL,,US,,,,,
,visa,,,OCOEE,FL,,US,,,,,
,visa,,,OCOEE,FL,,US,,,,,
,visa,,,OCOEE,FL,,US,,,,,
,visa,,,OCOEE,FL,,US,,,,,
,visa,,,OCOEE,FL,,US,,,,,
,visa,,,OCOEE,FL,,US,,,,,
,visa,,,OCOEE,FL,,US,,,,,
,visa,,,OCOEE,FL,,US,,,,,
,visa,,,OCOEE,FL,,US,,,,,
,visa,,,OCOEE,FL,,US,,,,,
,visa,,,OCOEE,FL,,US,,,,,
,visa,,,OCOEE,FL,,US,,,,,
,visa,,,OCOEE,FL,,US,,,,,
,visa,,,OCOEE,FL,,US,,,,,
,visa,,,OCOEE,FL,,US,,,,,
,visa,,,OCOEE,FL,,US,,,,,
,visa,,,OCOEE,FL,,US,,,,,
,visa,,,OCOEE,FL,,US,,,,,
,visa,,,OCOEE,FL,,US,,,,,
,visa,,,OCOEE,FL,,US,,,,,
,visa,,,OCOEE,FL,,US,,,,,
,visa,,,OCOEE,FL,,US,,,,,
,visa,,,OCOEE,FL,,US,,,,,
,visa,,,OCOEE,FL,,US,,,,,
,visa,,,OCOEE,FL,,US,,,,,
,visa,,,OCOEE,FL,,US,,,,,
,visa,,,OCOEE,FL,,US,,,,,
,visa,,,OCOEE,FL,,US,,,,,
,visa,,,ORLANDO,FL,,US,,,,,
,visa,,,OCOEE,FL,,US,,,,,
,visa,,,OCOEE,FL,,US,,,,,
,visa,,,OCOEE,FL,,US,,,,,
,visa,,,OCOEE,FL,,US,,,,,
,visa,,,OCOEE,FL,,US,,,,,
,visa,,,OCOEE,FL,,US,,,,,
,visa,,,OCOEE,FL,,US,,,,,
,visa,,,OCCOEE,FL,,US,,,,,
,visa,,,OCOEE,FL,,US,,,,,
,visa,,,OCOEE,FL,,US,,,,,
,visa,,,OCOEE,FL,,US,,,,,
,visa,,,OCOEE,FL,,US,,,,,
,visa,,,OCOEE,FL,,US,,,,,
,visa,,,OCOE,FL,,US,,,,,
,visa,,,OCOEE,FL,,US,,,,,
,visa,,,OCOE,FL,,US,,,,,
,visa,,,OCOEE,FL,,US,,,,,
,visa,,,OCOEE,FL,,US,,,,,
,visa,,,OCOEE,FL,,US,,,,,
,visa,,,OCOEE,FL,,US,,,,,
https://locations.vitaminshoppe.com/fl/ocoee/vitamins-supplements-ocoee-fl-87.html,vitamin_shoppe,The Vitamin Shoppe® Ocoee ,9693 W Colonial Dr ,Ocoee,FL,,US,+1 407-532-0386,https://locations.vitaminshoppe.com/fl/ocoee/vitamins-supplements-ocoee-fl-87.html,Su 10:00-19:00; Mo 09:30-20:30; Tu 09:30-20:30; We 09:30-20:30; Th 09:30-20:30; Fr 09:30-20:30; Sa 09:30-20:00,The Vitamin Shoppe,Q7772938
2371,waffle_house_us,Waffle House #2371,,OCOEE,FL,,US,+1 407-920-1438,https://locations.wafflehouse.com/ocoee-fl-2371,24/7,Waffle House,Q1701206
https://www.walgreens.com/locator/walgreens-1669+e+silver+star+rd-ocoee-fl-34761/id=4961,walgreens,Walgreens,,Ocoee,FL,,US,+1 407-523-7151,https://www.walgreens.com/locator/walgreens-1669+e+silver+star+rd-ocoee-fl-34761/id=4961,Mo-Su 07:00-23:00,Walgreens,Q1591889
https://www.walgreens.com/locator/walgreens-2353+ocoee+apopka+rd-ocoee-fl-34761/id=12884,walgreens,Walgreens,,Ocoee,FL,,US,+1 407-573-0228,https://www.walgreens.com/locator/walgreens-2353+ocoee+apopka+rd-ocoee-fl-34761/id=12884,Mo-Su 07:00-23:00,Walgreens,Q1591889
https://www.walgreens.com/locator/walgreens-8802+w+colonial+dr-ocoee-fl-34761/id=11105,walgreens,Walgreens,,Ocoee,FL,,US,+1 407-578-2283,https://www.walgreens.com/locator/walgreens-8802+w+colonial+dr-ocoee-fl-34761/id=11105,Mo-Su 08:00-22:00,Walgreens,Q1591889
8801__W__COLONIAL__DR_OCOEE_FL_34761,wellsfargo,Wells Fargo,8801 W COLONIAL DR,OCOEE,FL,,US,+1 407-294-1535,https://www.wellsfargo.com/locator/bank/8801__W__COLONIAL__DR_OCOEE_FL_34761/,Mo-Fr 09:00-17:00,Wells Fargo,Q744149
2630__MAGUIRE__RD_OCOEE_FL_34761,wellsfargo,Wells Fargo,2630 MAGUIRE RD,OCOEE,FL,,US,+1 407-877-4272,https://www.wellsfargo.com/locator/bank/2630__MAGUIRE__RD_OCOEE_FL_34761/,Mo-Fr 09:00-17:00,Wells Fargo,Q744149
https://locations.wendys.com/#9254605,wendys,"Wendy's Turkey Lake Service Plaza in Orlando, FL",,Orlando,FL,,US,+1 407-218-6982,https://locations.wendys.com/united-states/fl/orlando/263-mile-marker-i-91,"Mo-Th 06:30-10:30,09:00-22:00; Fr-Sa 06:30-10:30,09:00-23:00; Su 06:30-10:30,09:00-22:00",Wendy's,Q550258
https://locations.wendys.com/#9588421,wendys,"Wendy's 254 Fountain West in Ocoee, FL",,Ocoee,FL,,US,+1 407-654-5450,https://locations.wendys.com/united-states/fl/ocoee/254-fountain-west-blvd,"Mo-Su 06:30-10:30,09:00-22:00",Wendy's,Q550258
https://locations.wendys.com/#9254604,wendys,"Wendy's 10674 W Colonial Dr in Ocoee, FL",,Ocoee,FL,,US,+1 407-877-2077,https://locations.wendys.com/united-states/fl/ocoee/10674-w-colonial-dr,"Mo-Fr 06:30-10:30,06:30-22:00; Sa-Su 06:30-11:00,06:30-22:00",Wendy's,Q550258
ba67324099df84d6bd9fbfbcd207c655,western_union,7-ELEVEN #27501,,Ocoee,FL,,US,+1 407-877-8518,https://location.westernunion.com/us/fl/ocoee/ba67324099df84d6bd9fbfbcd207c655,,Western Union,Q861042
8d55db40c5edb76c05657d5a1fb0b6d4,western_union,7-ELEVEN #34828,,Ocoee,FL,,US,+1 407-877-2656,https://location.westernunion.com/us/fl/ocoee/8d55db40c5edb76c05657d5a1fb0b6d4,,Western Union,Q861042
b0732bf223e34bbae6a68ddebe901537,western_union,WALMART #000942,,Ocoee,FL,,US,+1 407-877-6900,https://location.westernunion.com/us/fl/ocoee/b0732bf223e34bbae6a68ddebe901537,Mo-Sa 08:00-20:00; Su 10:00-18:00,Western Union,Q861042
0b77427795e0b1ea1cacb0b5eef59c6e,western_union,LOS DORADOS CARGO,,Ocoee,FL,,US,+1 407-614-2648,https://location.westernunion.com/us/fl/ocoee/0b77427795e0b1ea1cacb0b5eef59c6e,Mo-Sa 09:00-20:00; Su 10:00-18:00,Western Union,Q861042
ad157bfe881f939e5744e1edd585bc77,western_union,MI PUEBLITO MEXICAN FOOD,,Ocoee,FL,,US,+1 407-905-9262,https://location.westernunion.com/us/fl/ocoee/ad157bfe881f939e5744e1edd585bc77,Mo-Su 06:00-21:00,Western Union,Q861042
