Ref,Spider,Name,Address,City,State,Zipcode,Country,Phone,Website,Hours,Brand,WikiData
https://www.avis.com/en/locations/us/nc/raleigh/s4h,avis,Avis U S A Raleigh,,Raleigh,NC,,US,+1 919-839-5667,https://www.avis.com/en/locations/us/nc/raleigh/s4h,Mo-Fr 08:00-18:00; Sa 08:00-12:00; Su 10:00-13:00,Avis,Q791136
166966,bluerhino,Handyman Hardware #128413,,Raleigh,NC,,US,+1 919-834-0341,,,Blue Rhino,Q65681213
148779,bluerhino,Speedway #6982,,Raleigh,NC,,US,+1 919-872-4844,,,Blue Rhino,Q65681213
nc/raleigh/1013-new-bern-ave,bojangles,"Bojangles Raleigh, NC",,Raleigh,NC,,US,+1 919-821-3735,https://locations.bojangles.com/nc/raleigh/1013-new-bern-ave.html,,Bojangles',Q891163
42302,citi,ATM Circle K,,Raleigh,NC,,US,,,,Citibank,Q857063
vba_318s,department_veterans_affairs,"Veteran Readiness and Employment Office at Raleigh, North Carolina",,Raleigh,NC,,US,+1 336-714-6099,,,Department Veterans Affairs,Q592576
8855,dominos_pizza_us,Domino's Pizza,,Raleigh,NC,,US,+1 919-239-4219,https://pizza.dominos.com/north-carolina/raleigh/135-east-davie-st,Mo-Th 10:00-24:00; Fr-Sa 10:00-01:00; Su 10:00-24:00,Domino's,Q839466
E153A8,enterprise,Downtown Raleigh,,Raleigh,NC,,US,+1 919-833-8788,,,Enterprise Rent-A-Car,Q17085454
386408,follett,Shaw University Bookstore,,Raleigh,NC,,US,+1 919-828-1730,https://www.bkstr.com/shawstore/home,Mo-Th 10:00-16:00; Fr 10:00-15:00,,
https://locations.jimmyjohns.com/nc/raleigh/sandwiches-1025.html,jimmy_johns,Jimmy John's,,Raleigh,NC,,US,+1 919-754-0101,https://locations.jimmyjohns.com/nc/raleigh/sandwiches-1025.html,,Jimmy John's,Q1689380
RDUMC,marriott,Raleigh Marriott City Center,,Raleigh,NC,,US,+1 919-833-1120,https://www.marriott.com/RDUMC,,Marriott Hotels & Resorts,Q3918608
RDURX,marriott,Residence Inn Raleigh Downtown,,Raleigh,NC,,US,+1 919-856-0017,https://www.marriott.com/RDURX,,Residence Inn by Marriott,Q7315394
RDUSI,marriott,Sheraton Raleigh Hotel,,Raleigh,NC,,US,+1 919-834-9900,https://www.marriott.com/RDUSI,,Sheraton Hotels and Resorts,Q634831
3518,shellrecharge,RMB Parking,,Raleigh,NC,,US,,,,Shell Recharge,Q105883058
3625,shellrecharge,Nash Square,,Raleigh,NC,,US,,,,Shell Recharge,Q105883058
3859,shellrecharge,Skyhouse Raleigh LLC,,Raleigh,NC,,US,,,,Shell Recharge,Q105883058
4061,shellrecharge,SkyHouse - Raleigh,,Raleigh,NC,,US,,,,Shell Recharge,Q105883058
https://restaurants.subway.com/#14916044,subway,Subway,,Raleigh Wake,NC,,US,+1 919-615-2670,https://restaurants.subway.com/united-states/nc/raleigh/234-fayetteville-street,Mo-Fr 08:00-22:00; Sa-Su 09:00-22:00,Subway,Q244457
https://restaurants.subway.com/#14907202,subway,Subway Wells Fargo Capitol Center,,Raleigh Wake,NC,,US,+1 919-828-0009,https://restaurants.subway.com/united-states/nc/raleigh/125-south-salisbury-street,Mo-Fr 08:00-16:00,Subway,Q244457
1357559,usps,CENTURY,,RALEIGH,NC,,US,+1 919-828-9671,,Mo-Fr 09:00-16:00,United States Postal Service,Q668687
1438418,usps,CAPITOL,,RALEIGH,NC,,US,+1 919-832-3478,,Mo-Fr 09:00-17:00,United States Postal Service,Q668687
2760100032,usps_collection_boxes,USPS COLLECTION BOX - BLUE BOX,429 S WILMINGTON ST,RALEIGH,NC,,US,,,,United States Postal Service,Q668687
2760100095,usps_collection_boxes,USPS COLLECTION BOX - BLUE BOX,300 FAYETTEVILLE ST,RALEIGH,NC,,US,,,,United States Postal Service,Q668687
2760100100,usps_collection_boxes,USPS COLLECTION BOX - PO LOBBY,300 FAYETTEVILLE ST,RALEIGH,NC,,US,,,,United States Postal Service,Q668687
2760100008,usps_collection_boxes,USPS COLLECTION BOX - BLUE BOX,301 W MARTIN ST,RALEIGH,NC,,US,,,,United States Postal Service,Q668687
2760100038,usps_collection_boxes,USPS COLLECTION BOX - BLUE BOX,23 HARGETT ST,RALEIGH,NC,,US,,,,United States Postal Service,Q668687
2760100090,usps_collection_boxes,USPS COLLECTION BOX - BLUE BOX,311 NEW BERN AVE,RALEIGH,NC,,US,,,,United States Postal Service,Q668687
2760100088,usps_collection_boxes,USPS COLLECTION BOX - BLUE BOX,311 NEW BERN AVE,RALEIGH,NC,,US,,,,United States Postal Service,Q668687
2760100093,usps_collection_boxes,USPS COLLECTION BOX - BLUE BOX,311 NEW BERN AVE,RALEIGH,NC,,US,,,,United States Postal Service,Q668687
2760100089,usps_collection_boxes,USPS COLLECTION BOX - BLUE BOX,311 NEW BERN AVE,RALEIGH,NC,,US,,,,United States Postal Service,Q668687
2760100096,usps_collection_boxes,USPS COLLECTION BOX - PO LOBBY,311 NEW BERN AVE,RALEIGH,NC,,US,,,,United States Postal Service,Q668687
2760100101,usps_collection_boxes,USPS COLLECTION BOX - PO LOBBY,311 NEW BERN AVE,RALEIGH,NC,,US,,,,United States Postal Service,Q668687
2760100037,usps_collection_boxes,USPS COLLECTION BOX - BLUE BOX,127 W HARGETT ST,RALEIGH,NC,,US,,,,United States Postal Service,Q668687
2760100065,usps_collection_boxes,USPS COLLECTION BOX - BLUE BOX,4 N BLOUNT ST,RALEIGH,NC,,US,,,,United States Postal Service,Q668687
2760100013,usps_collection_boxes,USPS COLLECTION BOX - BLUE BOX,16 W EDENTON ST.,RALEIGH,NC,,US,,,,United States Postal Service,Q668687
2760100049,usps_collection_boxes,USPS COLLECTION BOX - BLUE BOX,310 E LANE ST,RALEIGH,NC,,US,,,,United States Postal Service,Q668687
2760100053,usps_collection_boxes,USPS COLLECTION BOX - BLUE BOX,50 W LANE ST.,RALEIGH,NC,,US,,,,United States Postal Service,Q668687
,visa,,,RALEIGH,NC,,US,,,,,
,visa,,,RALEIGH,NC,,US,,,,,
,visa,,,RALEIGH,NC,,US,,,,,
,visa,,,RALEIGH,NC,,US,,,,,
,visa,,,RALEIGH,NC,,US,,,,,
,visa,,,RALEIGH,NC,,US,,,,,
,visa,,,RALEIGH,NC,,US,,,,,
,visa,,,RALEIGH,NC,,US,,,,,
,visa,,,RALEIGH,NC,,US,,,,,
,visa,,,RALEIGH,NC,,US,,,,,
,visa,,,RALEIGH,NC,,US,,,,,
,visa,,,RALEIGH,NC,,US,,,,,
,visa,,,RALEIGH,NC,,US,,,,,
,visa,,,RALEIGH,NC,,US,,,,,
,visa,,,RALEIGH,NC,,US,,,,,
,visa,,,RALEIGH,NC,,US,,,,,
,visa,,,RALEIGH,NC,,US,,,,,
,visa,,,RALEIGH,NC,,US,,,,,
,visa,,,RALEIGH,NC,,US,,,,,
,visa,,,RALEIGH,NC,,US,,,,,
,visa,,,RALEIGH,NC,,US,,,,,
,visa,,,RALEIGH,NC,,US,,,,,
,visa,,,RALEIGH,NC,,US,,,,,
,visa,,,RALEIGH,NC,,US,,,,,
,visa,,,RALEIGH,NC,,US,,,,,
,visa,,,RALEIGH,NC,,US,,,,,
,visa,,,RALEIGH,NC,,US,,,,,
,visa,,,RALEIGH,NC,,US,,,,,
,visa,,,RALEIGH,NC,,US,,,,,
,visa,,,RALEIGH,NC,,US,,,,,
,visa,,,RALEIGH,NC,,US,,,,,
,visa,,,RALEIGH,NC,,US,,,,,
,visa,,,RALEIGH,NC,,US,,,,,
,visa,,,RALEIGH,NC,,US,,,,,
,visa,,,RALEIGH,NC,,US,,,,,
,visa,,,RALEIGH,NC,,US,,,,,
,visa,,,RALEIGH,NC,,US,,,,,
,visa,,,RALEIGH,NC,,US,,,,,
,visa,,,RALEIGH,NC,,US,,,,,
,visa,,,RALEIGH,NC,,US,,,,,
,visa,,,RALEIGH,NC,,US,,,,,
,visa,,,RALEIGH,NC,,US,,,,,
,visa,,,RALEIGH,NC,,US,,,,,
,visa,,,RALEIGH,NC,,US,,,,,
,visa,,,RALEIGH,NC,,US,,,,,
,visa,,,RALEIGH,NC,,US,,,,,
,visa,,,RALEIGH,NC,,US,,,,,
,visa,,,RALEIGH,NC,,US,,,,,
,visa,,,RALEIGH,NC,,US,,,,,
,visa,,,RALEIGH,NC,,US,,,,,
,visa,,,RALEIGH,NC,,US,,,,,
,visa,,,RALEIGH,NC,,US,,,,,
,visa,,,RALEIGH,NC,,US,,,,,
,visa,,,RALEIGH,NC,,US,,,,,
150__FAYETTEVILLE__ST_RALEIGH_NC_27601,wellsfargo,Wells Fargo,150 FAYETTEVILLE ST,RALEIGH,NC,,US,+1 919-881-7111,https://www.wellsfargo.com/locator/bank/150__FAYETTEVILLE__ST_RALEIGH_NC_27601/,Mo-Fr 24:00-17:00,Wells Fargo,Q744149
97f6b273820c1ccbd2eaeb63bf97a73a,western_union,DOLLAR GENERAL #22517,,Raleigh,NC,,US,+1 919-278-7875,https://location.westernunion.com/us/nc/raleigh/97f6b273820c1ccbd2eaeb63bf97a73a,Mo-Su 08:00-22:00,Western Union,Q861042
poyner-ymca,ymca,Poyner YMCA,227 Fayetteville Street,Raleigh,NC,,US,+1 919-719-9989,https://www.ymca.org/locations/poyner-ymca,Mo-Th 06:00-20:00; Fr 06:00-18:00; Sa 08:00-16:00; Su 11:00-16:00,YMCA,Q157169
