Ref,Spider,Name,Address,City,State,Zipcode,Country,Phone,Website,Hours,Brand,WikiData
BIA-85,aldi_sud_hu,ALDI,"Pallag utca 68., Dunakeszi, 2120",Dunakeszi,,,HU,+36 80 088 264,,Mo-Sa 07:00-21:00; Su 07:00-19:00,ALDI,Q41171672
919,ccc,CCC Dunakeszi Auchan,,Dunakeszi,,,HU,+36 30 703 5132,https://ccc.eu/hu/market/ccc-dunakeszi-auchan,"Sa 09:00-19:00,09:00-20:00",CCC,Q11788344
budapest/4616,claires,Vásárolj fülbevalókat és ékszereket a Auchan Dunakeszi,,Budapest,,,HU,+36 27 200 844,https://stores.claires.com/hu/hu-bu/budapest/4616.html,Mo-Sa 09:00-20:00; Su 10:00-18:00,Claire's,Q2974996
HU0194,c_and_a,Dunakeszi Buy-Way,"Nadas utca 8, 2120 Dunakeszi",Dunakeszi,,,HU,,https://www.c-and-a.com/stores/hu-hu/pest/dunakeszi/nadas-utca-8.html,Mo 10:00-20:00; Tu 10:00-20:00; We 10:00-20:00; Th 10:00-20:00; Fr 10:00-20:00; Sa 10:00-20:00; Su 10:00-18:00,C&A,Q701338
0070040600406,decathlon_hu,Dunakeszi ,,Dunakeszi,,,HU,+36 20 881 9272,https://www.decathlon.hu/store-view/sportaruhaz-dunakeszi-0070040600406,Mo-Sa 09:00-20:00; Su 09:00-18:00,Decathlon,Q509349
hu:101,dm,dm drogerie markt Kft.,,Dunakeszi,,,HU,+36 30 412 4845,https://www.dm.hu/store/u045/dunakeszi/baratsag-utca-33,Mo-Fr 08:00-19:00; Sa 08:00-14:00,dm,Q266572
hu:200,dm,dm drogerie markt Kft.,,Dunakeszi,,,HU,+36 30 410 9002,https://www.dm.hu/store/u088/dunakeszi/nadas-utca-8,Mo-Sa 09:00-20:00; Su 09:00-16:00,dm,Q266572
hu:306,dm,dm drogerie markt Kft.,,Dunakeszi,,,HU,+36 30 410 9664,https://www.dm.hu/store/u0ci/dunakeszi/fo-ut-190,Mo-Fr 08:00-20:00; Sa 08:00-19:00; Su 08:00-15:00,dm,Q266572
HU0336,hm,Auchan Dunakeszi,,Budapest,,,HU,+36 27 815 670,,Mo-Sa 09:00-20:00; Su 09:00-19:00,H&M,Q188326
H808,jysk,Dunakeszi,,Dunakeszi,,,HU,+36 20 229 8735,https://jysk.hu/aruhazak?storeId=H808,Mo-Sa 09:00-20:00; Su 10:00-18:00,JYSK,Q138913
5470,kik,KiK,,Dunakeszi,,,HU,+36 27 540 508,,Mo-Sa 09:00-20:00; Su 09:00-18:00,KiK,Q883965
202,lidl_hu,Lidl,,Dunakeszi,,,HU,,,Mo-Tu 07:00-21:00; Th-Fr 07:00-21:00; Sa 07:00-19:00,Lidl,Q151954
1192674,mol,Dunakeszi; 2.sz. főút,2-es sz. főút,Dunakeszi,,,HU,+36 20 264 0728,,Mo-Sa 06:00-21:00,MOL,Q549181
74631984,moneygram,EXC FINANCE DUNAKESZI,,DUNAKESZI,,,HU,+36 70 457 7578,,Mo-Fr 09:00-18:00; Sa-Su 00:00-24:00,MoneyGram,Q1944412
74631832,moneygram,EXC FINANCE DUNAKESZI,,DUNAKESZI,,,HU,+36 70 457 7578,,Mo-Sa 08:00-20:00; Su 09:00-18:00,MoneyGram,Q1944412
5ffa3970-4ed7-49cc-a685-5da8ffbef0e3,nike,Nike Factory Store Budapest Buy Way,,Dunakeszi,,,HU,+36 27 200 896,https://www.nike.com/retail/s/nike-factory-store-budapest-buy-way,Mo-Sa 10:00-19:00; Su 10:00-18:00,Nike Factory Store,Q483915
HU_EXT_00143,totalenergies,Dunakeszi,,Dunakeszi,,,HU,,https://store.totalenergies.fr/en_EN/HU_EXT_00143,,MOL,Q549181
,visa,,,DUNAKESZI,,,HU,,,,,
,visa,,,DUNAKESZI,,,HU,,,,,
,visa,,,DUNAKESZI,,,HU,,,,,
,visa,,,DUNAKESZI,,,HU,,,,,
,visa,,,DUNAKESZI,,,HU,,,,,
,visa,,,DUNAKESZI,,,HU,,,,,
,visa,,,DUNAKESZI,,,HU,,,,,
,visa,,,DUNAKESZI,,,HU,,,,,
,visa,,,DUNAKESZI,,,HU,,,,,
,visa,,,DUNAKESZI,,,HU,,,,,
O6539,yettel_hu,Yettel Dunakeszi Auchan,,Dunakeszi,,,HU,+36 20 952 7464,,Mo-Sa 09:00-20:00; Su 10:00-18:00,Yettel,Q268578
