Ref,Spider,Name,Address,City,State,Zipcode,Country,Phone,Website,Hours,Brand,WikiData
https://locations.arbys.com/mo/boonville/2421-mid-american-industrial-drive.html,arbys_us,"Arby's Fast-Food Drive Through Near You in Boonville, MO",,Boonville,MO,,US,+1 660-882-6913,https://locations.arbys.com/mo/boonville/2421-mid-american-industrial-drive.html,Mo-Th 10:00-23:00; Fr-Sa 10:00-24:00; Su 10:00-23:00,Arby's,Q630866
15853,asics_us,Hibbett Sports,1919 Boone Village Plaza,Boonville,MO,,US,+1 660-882-3142,,,asics,Q327247
https://awrestaurants.com/locations/missouri/boonville/320-ashley-road/,awrestaurants,A&W Restaurant,,Boonville,MO,,US,+1 660-882-7407,https://awrestaurants.com/locations/missouri/boonville/320-ashley-road/,Mo-Su 11:00-21:00,A&W Restaurants,Q277641
101044,bluerhino,Love's #347,,Boonville,MO,,US,+1 660-882-7770,,,Blue Rhino,Q65681213
55929,bluerhino,Pilot Travel #44,,Boonville,MO,,US,+1 660-882-9120,,,Blue Rhino,Q65681213
195563,bluerhino,Booneville Hardware Store,,Boonville,MO,,US,+1 660-672-7070,,,Blue Rhino,Q65681213
203951,bluerhino,CASEY'S GENERAL STORE #3488,,BOONVILLE,MO,,US,+1 660-882-2200,,,Blue Rhino,Q65681213
228895,bluerhino,Tractor Supply #2826,,Boonville,MO,,US,+1 660-882-6762,,,Blue Rhino,Q65681213
144167,bluerhino,Break Time #3156,,Boonville,MO,,US,+1 660-882-3024,,,Blue Rhino,Q65681213
203926,bluerhino,CASEY'S GENERAL STORE #3281,,BOONVILLE,MO,,US,+1 660-882-3350,,,Blue Rhino,Q65681213
ibv,caesars,Isle of Capri Casino Hotel Boonville,,Boonville,MO,,US,+1 800-843-4753,https://www.caesars.com/isle-of-capri-boonville,,Caesars Entertainment,Q18636524
12898,cenex,Klein Oil Company,,Boonville,MO,,US,+1 660-281-7225,,24/7,Cenex,Q62127191
10582,cenex,87 Eagle Stop,,Boonville,MO,,US,+1 660-882-5359,,,Cenex,Q62127191
10196,cenex,Boonville Eagle Stop,,Boonville,MO,,US,+1 660-882-2050,,24/7,Cenex,Q62127191
12836,cenex,Beeline,,Boonville,MO,,US,+1 660-882-2426,,24/7,Cenex,Q62127191
12254,cenex,Lucky's Eagle Stop,,Boonville,MO,,US,+1 573-392-6150,,24/7,Cenex,Q62127191
12356,cenex,135 Eagle Stop,,Boonville,MO,,US,+1 573-284-5096,,24/7,Cenex,Q62127191
03675,chevrolet,RICK BALL CHEVROLET BUICK GMC,,Boonville,MO,,US,+1 660-882-5688,https://www.rickballautomall.com,Mo-Fr 08:00-18:00; Sa 08:00-17:00,Chevrolet,Q29570
56663,citi,ATM First State Community Bk,,Bonne Terre,MO,,US,,,,Citibank,Q857063
39196,citi,ATM Central Bank,,Boonville,MO,,US,,,,Citibank,Q857063
39283,citi,ATM Central Bank,,Boonville,MO,,US,,,,Citibank,Q857063
56684,citi,ATM First State Community Bk,,Boonville,MO,,US,,,,Citibank,Q857063
54661,citi,ATM EXCHANGE BANK OF MISSOURI,,Boonville,MO,,US,,,,Citibank,Q857063
37297,citi,ATM BTC BANK,,Boonville,MO,,US,,,,Citibank,Q857063
36992,citi,ATM Break Time,,Boonville,MO,,US,,,,Citibank,Q857063
44611,citi,ATM CITIZENS COMMUNITY BANK,,Boonville,MO,,US,,,,Citibank,Q857063
358557,dunkin_us,Dunkin',,Boonville,MO,,US,+1 660-882-9120,https://locations.dunkindonuts.com/en/mo/boonville/1701-w-ashley-rd/358557,24/7,Dunkin',Q847743
https://www.edwardjones.com/us-en/financial-advisor/emily-mcelroy,edwardjones,Emily McElroy,,Boonville,MO,,US,+1 660-882-3256,https://www.edwardjones.com/us-en/financial-advisor/emily-mcelroy,Mo-Tu 08:00-16:30; We 08:00-19:00; Th 08:00-16:30; Fr 08:00-16:00,Edward Jones,Q5343830
100189,electrify_america,"Walmart 820 - Boonville, MO",,Boonville,MO,,US,,,,Electrify America,Q59773555
Motorcraft2658USAEnglish,ford,"Rick Ball Ford, Inc.",,Missouri,MO,,US,+1 660-882-3433,,,Ford,Q44294
https://www.ford.com/dealerships/dealer-details/mo/boonville/w_k-ford/,ford_dealers_us,W-K Ford,,Boonville,MO,,US,+1 660-494-5461,https://www.ford.com/dealerships/dealer-details/mo/boonville/w_k-ford/,Mo-Th 08:00-19:00; Fr 08:00-18:00; Sa 08:00-17:00,Ford Motor Company,Q44294
19135,h_r_block,H&R Block,,Boonville,MO,,US,+1 660-882-6381,https://www.hrblock.com/local-tax-offices/missouri/boonville/520-ryan-st-ste-i/19135/,,H&R Block,Q5627799
https://office.jacksonhewitt.com/#27578100,jackson_hewitt,Jackson Hewitt,,Boonville,MO,,US,+1 573-207-6379,https://office.jacksonhewitt.com/tax-preparation-services-locations/en/mo/boonville/2150-main-street/50820,Mo-Sa 11:00-19:00; Su 13:00-17:00,Jackson Hewitt,Q6117132
347,loves,Site 347,,Boonville,MO,,US,+1 660-882-7770,,,Love's,Q1872496
7471,murphy_usa_us,,,Boonville,MO,,US,+1 660-882-3054,,Mo-Sa 05:30-23:30; Su 05:30-22:30,Murphy USA,Q19604459
44,pilot_flyingj,Pilot Travel Center,,Boonville,MO,,US,+1 660-882-9120,https://locations.pilotflyingj.com/us/mo/boonville/1701-ashley-road,,Pilot,Q7194412
mo_boonville_103-boone-village-dr,pizza_hut_us,103 Boone Village Dr,,Boonville,MO,,US,+1 660-882-5354,https://locations.pizzahut.com/mo/boonville/103-boone-village-dr,,Pizza Hut,Q191615
1168,scooters_coffee_us,Main St & Americana,,Boonville,MO,,US,+1 660-672-7049,,Mo-Fr 05:30-20:00; Sa-Su 06:00-20:00,Scooter's Coffee,Q117280308
https://restaurants.subway.com/#14909680,subway,Subway /Minute Mans Quick Mart,,Boonville Cooper,MO,,US,+1 660-207-1317,https://restaurants.subway.com/united-states/mo/boonville/2431-pioneer-st,Mo-Su 09:00-22:30,Subway,Q244457
https://locations.tacobell.com/#6144889,taco_bell,Taco Bell,,Boonville,MO,,US,+1 660-882-8484,https://locations.tacobell.com/mo/boonville/2440-main-street.html,Mo-We 08:00-02:00; Th 08:00-24:00; Fr-Su 08:00-02:00,Taco Bell,Q752941
1355437,usps,BOONVILLE,,BOONVILLE,MO,,US,+1 660-882-5666,,Mo-Fr 08:00-16:30; Sa 09:00-11:30,United States Postal Service,Q668687
6523300020,usps_collection_boxes,USPS COLLECTION BOX - PO LOBBY,526 E SPRING ST,BOONVILLE,MO,,US,,,,United States Postal Service,Q668687
6523300019,usps_collection_boxes,USPS COLLECTION BOX - BLUE BOX,526 E SPRING ST,BOONVILLE,MO,,US,,,,United States Postal Service,Q668687
6523300017,usps_collection_boxes,USPS COLLECTION BOX - PO LOBBY,526 E SPRING ST,BOONVILLE,MO,,US,,,,United States Postal Service,Q668687
6523300013,usps_collection_boxes,USPS COLLECTION BOX - BLUE BOX,225 MAIN ST,BOONVILLE,MO,,US,,,,United States Postal Service,Q668687
6523300014,usps_collection_boxes,USPS COLLECTION BOX - BLUE BOX,401 MAIN ST,BOONVILLE,MO,,US,,,,United States Postal Service,Q668687
6523300010,usps_collection_boxes,USPS COLLECTION BOX - BLUE BOX,1915 BOONE VILLAGE PLZ,BOONVILLE,MO,,US,,,,United States Postal Service,Q668687
A00000260671,verizon_us,Russell Cellular Boonville,,Boonville,MO,,US,+1 660-373-5312,https://www.verizon.com/stores/details/missouri/boonville/cellular-only-connection-boonville-1020599/,Mo-Fr 11:00-19:00; Sa 12:00-19:00,Verizon,Q919641
,visa,,,BOONVILLE,MO,,US,,,,,
,visa,,,BOONVILLE,MO,,US,,,,,
,visa,,,BOONVILLE,MO,,US,,,,,
,visa,,,BOONVILLE,MO,,US,,,,,
,visa,,,BOONVILLE,MO,,US,,,,,
,visa,,,BOONVILLE,MO,,US,,,,,
,visa,,,BOONVILLE,MO,,US,,,,,
,visa,,,BOONVILLE,MO,,US,,,,,
,visa,,,BOONVILLE,MO,,US,,,,,
,visa,,,BOONVILLE,MO,,US,,,,,
,visa,,,BOONVILLE,MO,,US,,,,,
,visa,,,BOONVILLE,MO,,US,,,,,
,visa,,,BOONVILLE,MO,,US,,,,,
,visa,,,BOONVILLE,MO,,US,,,,,
,visa,,,BOONVILLE,MO,,US,,,,,
,visa,,,BOONVILLE,MO,,US,,,,,
,visa,,,BOONVILLE,MO,,US,,,,,
,visa,,,BOONVILLE,MO,,US,,,,,
,visa,,,BOONVILLE,MO,,US,,,,,
,visa,,,BOONVILLE,MO,,US,,,,,
,visa,,,BOONVILLE,MO,,US,,,,,
,visa,,,BOONVILLE,MO,,US,,,,,
,visa,,,BOONVILLE,MO,,US,,,,,
,visa,,,BOONVILLE,MO,,US,,,,,
,visa,,,BOONVILLE,MO,,US,,,,,
,visa,,,BOONVILLE,MO,,US,,,,,
,visa,,,BOONVILLE,MO,,US,,,,,
https://locations.wendys.com/#9250990,wendys,"Wendy's Boonville in Boonville, MO",,Boonville,MO,,US,+1 660-882-8675,https://locations.wendys.com/united-states/mo/boonville/1701-w-ashley-rd,"Mo-Su 06:00-01:00,06:00-10:30",Wendy's,Q550258
9df7124118909bab39ec9a0b69aa2c12,western_union,WALMART #000820,,Boonville,MO,,US,+1 660-882-7422,https://location.westernunion.com/us/mo/boonville/9df7124118909bab39ec9a0b69aa2c12,Mo-Su 07:00-21:00,Western Union,Q861042
1150,world_finance_us,,"1100 Main St, Boonville, MO, 65233",Boonville,MO,,US,+1 660-882-2202,https://www.loansbyworld.com/branches/branch-1150,Mo-Fr 09:00-17:30; Sa 09:00-12:00,World Finance,Q3569971
boonslick-heartland-ymca,ymca,Boonslick Heartland YMCA,757 3rd St,Boonville,MO,,US,+1 660-882-8500,https://www.ymca.org/locations/boonslick-heartland-ymca,Mo-Th 05:15-21:00; Fr 05:15-20:00; Sa 07:00-17:00; Su 13:00-17:00,YMCA,Q157169
