Ref,Spider,Name,Address,City,State,Zipcode,Country,Phone,Website,Hours,Brand,WikiData
73579144,moneygram,POSTA VE TELGRAF TESKILATI ANONIM SIRKET,,BURSA,,,TR,+90 224 224 34 22,,Mo-Fr 08:30-17:00; Sa-Su 00:00-24:00,MoneyGram,Q1944412
73579128,moneygram,POSTA VE TELGRAF TESKILATI ANONIM SIRKET,,BURSA,,,TR,+90 224 224 18 25,,Mo-Fr 08:30-17:00; Sa 10:00-15:30; Su 00:00-24:00,MoneyGram,Q1944412
73579160,moneygram,POSTA VE TELGRAF TESKILATI ANONIM SIRKET,,BURSA,,,TR,+90 224 224 77 47,,Mo-Fr 08:30-17:00; Sa-Su 00:00-24:00,MoneyGram,Q1944412
73579173,moneygram,POSTA VE TELGRAF TESKILATI ANONIM SIRKET,,BURSA,,,TR,+90 224 272 22 70,,Mo-Fr 08:30-17:00; Sa-Su 00:00-24:00,MoneyGram,Q1944412
73579199,moneygram,POSTA VE TELGRAF TESKILATI ANONIM SIRKET,,BURSA,,,TR,+90 224 222 21 36,,Mo-Fr 08:30-17:00; Sa-Su 00:00-24:00,MoneyGram,Q1944412
73579209,moneygram,POSTA VE TELGRAF TESKILATI ANONIM SIRKET,,BURSA,,,TR,+90 224 224 18 23,,Mo-Fr 08:30-17:00; Sa-Su 00:00-24:00,MoneyGram,Q1944412
73579212,moneygram,POSTA VE TELGRAF TESKILATI ANONIM SIRKET,,BURSA,,,TR,+90 224 251 73 20,,Mo-Fr 08:30-17:00; Sa-Su 00:00-24:00,MoneyGram,Q1944412
73581239,moneygram,POSTA VE TELGRAF TESKILATI ANONIM SIRKET,,BURSA,,,TR,+90 224 261 19 69,,Mo-Fr 08:30-17:00; Sa-Su 00:00-24:00,MoneyGram,Q1944412
73581242,moneygram,POSTA VE TELGRAF TESKILATI ANONIM SIRKET,,BURSA,,,TR,+90 224 267 19 69,,Mo-Fr 08:30-17:00; Sa-Su 00:00-24:00,MoneyGram,Q1944412
73581255,moneygram,POSTA VE TELGRAF TESKILATI ANONIM SIRKET,,BURSA,,,TR,+90 224 211 77 57,,Mo-Fr 08:30-17:00; Sa-Su 00:00-24:00,MoneyGram,Q1944412
73581213,moneygram,POSTA VE TELGRAF TESKILATI ANONIM SIRKET,,BURSA,,,TR,+90 224 271 03 41,,Mo-Fr 08:30-17:00; Sa-Su 00:00-24:00,MoneyGram,Q1944412
73581226,moneygram,POSTA VE TELGRAF TESKILATI ANONIM SIRKET,,BURSA,,,TR,+90 224 262 22 51,,Mo-Fr 08:30-17:00; Sa-Su 00:00-24:00,MoneyGram,Q1944412
73581268,moneygram,POSTA VE TELGRAF TESKILATI ANONIM SIRKET,,BURSA,,,TR,+90 224 211 10 99,,Mo-Fr 08:30-17:00; Sa-Su 00:00-24:00,MoneyGram,Q1944412
73585798,moneygram,POSTA VE TELGRAF TESKILATI ANONIM SIRKET,,BURSA,,,TR,+90 224 253 14 92,,Mo-Fr 08:30-17:00; Sa-Su 00:00-24:00,MoneyGram,Q1944412
73585808,moneygram,POSTA VE TELGRAF TESKILATI ANONIM SIRKET,,BURSA,,,TR,+90 224 215 04 05,,Mo-Fr 08:30-17:00; Sa-Su 00:00-24:00,MoneyGram,Q1944412
73585811,moneygram,POSTA VE TELGRAF TESKILATI ANONIM SIRKET,,BURSA,,,TR,+90 224 253 14 12,,Mo-Fr 08:30-17:00; Sa-Su 00:00-24:00,MoneyGram,Q1944412
73585824,moneygram,POSTA VE TELGRAF TESKILATI ANONIM SIRKET,,BURSA,,,TR,+90 224 234 99 26,,Mo-Fr 08:30-17:00; Sa-Su 00:00-24:00,MoneyGram,Q1944412
73585837,moneygram,POSTA VE TELGRAF TESKILATI ANONIM SIRKET,,BURSA,,,TR,+90 224 253 14 87,,Mo-Fr 08:30-17:00; Sa-Su 00:00-24:00,MoneyGram,Q1944412
73585840,moneygram,POSTA VE TELGRAF TESKILATI ANONIM SIRKET,,BURSA,,,TR,+90 224 253 11 02,,Mo-Fr 08:30-17:00; Sa-Su 00:00-24:00,MoneyGram,Q1944412
73585853,moneygram,POSTA VE TELGRAF TESKILATI ANONIM SIRKET,,BURSA,,,TR,+90 224 250 50 65,,Mo-Fr 08:30-17:00; Sa-Su 00:00-24:00,MoneyGram,Q1944412
73585866,moneygram,POSTA VE TELGRAF TESKILATI ANONIM SIRKET,,BURSA,,,TR,+90 224 234 10 68,,Mo-Fr 08:30-17:00; Sa-Su 00:00-24:00,MoneyGram,Q1944412
73586483,moneygram,POSTA VE TELGRAF TESKILATI ANONIM SIRKET,,BURSA,,,TR,+90 224 244 96 48,,Mo-Fr 08:30-17:00; Sa-Su 00:00-24:00,MoneyGram,Q1944412
73586496,moneygram,POSTA VE TELGRAF TESKILATI ANONIM SIRKET,,BURSA,,,TR,+90 224 248 76 06,,Mo-Fr 08:30-17:00; Sa-Su 00:00-24:00,MoneyGram,Q1944412
73586506,moneygram,POSTA VE TELGRAF TESKILATI ANONIM SIRKET,,BURSA,,,TR,+90 224 245 68 51,,Mo-Fr 08:30-17:00; Sa-Su 00:00-24:00,MoneyGram,Q1944412
73586470,moneygram,POSTA VE TELGRAF TESKILATI ANONIM SIRKET,,BURSA,,,TR,+90 224 241 74 01,,Mo-Fr 08:30-17:00; Sa-Su 00:00-24:00,MoneyGram,Q1944412
73586564,moneygram,POSTA VE TELGRAF TESKILATI ANONIM SIRKET,,BURSA,,,TR,+90 224 247 79 79,,Mo-Fr 08:30-17:00; Sa-Su 00:00-24:00,MoneyGram,Q1944412
73586577,moneygram,POSTA VE TELGRAF TESKILATI ANONIM SIRKET,,BURSA,,,TR,+90 224 242 85 73,,Mo-Fr 08:30-17:00; Sa-Su 00:00-24:00,MoneyGram,Q1944412
73586519,moneygram,POSTA VE TELGRAF TESKILATI ANONIM SIRKET,,BURSA,,,TR,+90 224 247 06 22,,Mo-Fr 08:30-17:00; Sa-Su 00:00-24:00,MoneyGram,Q1944412
73586522,moneygram,POSTA VE TELGRAF TESKILATI ANONIM SIRKET,,BURSA,,,TR,+90 224 241 56 75,,Mo-Fr 08:30-17:00; Sa-Su 00:00-24:00,MoneyGram,Q1944412
73586535,moneygram,POSTA VE TELGRAF TESKILATI ANONIM SIRKET,,BURSA,,,TR,+90 224 242 47 47,,Mo-Fr 08:30-17:00; Sa-Su 00:00-24:00,MoneyGram,Q1944412
73586548,moneygram,POSTA VE TELGRAF TESKILATI ANONIM SIRKET,,BURSA,,,TR,+90 224 246 45 75,,Mo-Fr 08:30-17:00; Sa-Su 00:00-24:00,MoneyGram,Q1944412
73586551,moneygram,POSTA VE TELGRAF TESKILATI ANONIM SIRKET,,BURSA,,,TR,+90 224 248 88 42,,Mo-Fr 08:30-17:00; Sa-Su 00:00-24:00,MoneyGram,Q1944412
73604983,moneygram,POSTA VE TELGRAF TESKILATI ANONIM SIRKET,,BURSA,,,TR,+90 224 238 05 77,,Mo-Fr 08:30-17:00; Sa-Su 00:00-24:00,MoneyGram,Q1944412
73608976,moneygram,POSTA VE TELGRAF TESKILATI ANONIM SIRKET,,BURSA,,,TR,+90 224 272 77 96,,Mo-Fr 08:30-17:00; Sa-Su 00:00-24:00,MoneyGram,Q1944412
,visa,,,BURSA,,,TR,,,,,
,visa,,,BURSA,,,TR,,,,,
4c5123f7e52be50b49852d22bd95ebf3,western_union,YAPI VE KREDI BANKASI CUMHURIYET SUBESI,,Bursa,,,TR,+90 212 339 70 00,https://location.westernunion.com/tr/state/bursa/4c5123f7e52be50b49852d22bd95ebf3,Mo-Su 00:01-23:00,Western Union,Q861042
