Ref,Spider,Name,Address,City,State,Zipcode,Country,Phone,Website,Hours,Brand,WikiData
1552,autozone_us,AutoZone Auto Parts Rowlett,,Rowlett,TX,,US,+1 972-463-4408,https://www.autozone.com/locations/tx/rowlett/5602-rowlett-rd.html,Mo-Sa 07:30-21:00; Su 08:00-21:00,AutoZone,Q4826087
https://locators.bankofamerica.com/tx/rowlett/sales-office-atm-rowlett-110649.html,bankofamerica,Bank of America Bank of America Advanced Centerâ„¢Virtual Banking & Separate ATM | Hwy 66 and Dalrock,,Rowlett,TX,,US,+1 469-782-3913,https://locators.bankofamerica.com/tx/rowlett/sales-office-atm-rowlett-110649.html,Mo-Fr 09:00-17:00; Sa 09:00-15:00,Bank of America,Q487907
136673,blaze_pizza,Blaze Pizza Rowlett,,Rowlett,TX,,US,+1 972-544-0204,https://blazepizza.olo.com/menu/blaze-pizza-rowlett/,,Blaze Pizza,Q23016666
50876,bluerhino,Walmart #3225 - Supercenter,,Rowlett,TX,,US,+1 214-607-9839,,,Blue Rhino,Q65681213
12297303,chase_us,DRIVE UP - 113858,,ROWLETT,TX,,US,+1 800-935-9935,https://locator.chase.com/tx/rowlett/6602-dalrock-rd,,Chase,Q524629
84555,citi,ATM TRANSFUND,,Rowlette,TX,,US,,,,Citibank,Q857063
32691,citi,ATM 7ELEVEN-FCTI,,Rowlett,TX,,US,,,,Citibank,Q857063
432,dickeys_barbecue_pit_us,Rowlett - President George Bush Hwy,,Rowlett,TX,,US,+1 972-412-0667,https://www.dickeys.com/locations/texas/rowlett/george-bush-turnpike,Mo-Su 11:00-21:00,Dickey's Barbecue Pit,Q19880747
DB745,dutchbros,Lakeview Pkwy,,Rowlett,TX,,US,,https://locations.dutchbros.com/dutch-bros-coffee-4c5f1fb50d13,Mo-Th 05:00-22:00; Fr-Sa 05:00-23:00; Su 05:00-22:00,Dutch Bros. Coffee,Q5317253
https://www.edwardjones.com/us-en/financial-advisor/ryan-frank,edwardjones,Ryan Frank,,Rowlett,TX,,US,+1 469-596-0926,https://www.edwardjones.com/us-en/financial-advisor/ryan-frank,Mo-Th 07:30-16:30; Fr 07:30-15:00,Edward Jones,Q5343830
200323409,exxonmobil,7-ELEVEN 33690,,ROWLETT,TX,,US,+1 972-475-9320,https://www.exxon.com/en/find-station/exxon-rowlett-tx-7eleven33690-200323409,24/7,Exxon,Q109675651
https://locations.fivebelow.com/tx/rowlett/5701-president-george-bush-hwy,five_below,Five Below Liberty Crossing,,Rowlett,TX,,US,,https://locations.fivebelow.com/tx/rowlett/5701-president-george-bush-hwy,Mo-Sa 10:00-20:00; Su 11:00-18:00,Five Below,Q5455836
5342,gamestop_us,Rowlett Corners,,ROWLETT,TX,,US,+1 972-412-0161,https://www.gamestop.com/search/?store=5342,Mo-Th 12:00-19:00; Fr-Sa 11:00-21:00; Su 12:00-19:00,GameStop,Q202210
https://salons.greatclips.com/us/tx/rowlett/5701-president-george-bush-hwy,greatclips,Great Clips,,Rowlett,TX,,US,+1 214-607-1786,https://salons.greatclips.com/us/tx/rowlett/5701-president-george-bush-hwy,Mo-Fr 09:00-19:00; Sa 09:00-18:00; Su 10:00-17:00,Great Clips,Q5598967
https://locations.jackinthebox.com/us/tx/rowlett/5410-rowlett-rd,jackinthebox,Jack in the Box,,Rowlett,TX,,US,+1 972-475-6881,https://locations.jackinthebox.com/us/tx/rowlett/5410-rowlett-rd,Mo-Th 06:00-23:00; Fr 06:00-00:00; Sa 07:00-00:00; Su 07:00-23:00,Jack in the Box,Q1538507
rowlett-deli,jasonsdeli,Rowlett Deli,"5601 President George Bush Hwy, #100, Rowlett, Texas 75089",Rowlett,TX,,US,+1 972-475-0088,https://www.jasonsdeli.com/restaurants/rowlett-deli,Mo-Su 10:00-21:00,Jason's Deli,Q16997641
https://locations.massageenvy.com/#1773933,massage_envy,Massage Envy Rowlett Crossing,,Rowlett Rowlett,TX,,US,+1 972-463-0101,https://locations.massageenvy.com/texas/rowlett/4301-lakeview-parkway.html,Mo-Tu 09:00-20:00; We 09:00-21:00; Th 09:00-20:00; Fr 09:00-21:00; Sa 09:00-20:00; Su 10:00-16:00,Massage Envy,Q10327170
https://locations.moes.com/#1171,moes,Moe's Southwest Grill,,Rowlett,TX,,US,+1 972-475-5800,https://locations.moes.com/tx/rowlett/5601-president-george-bush-turnpike,Mo-Su 11:00-22:00,Moe's Southwest Grill,Q6889938
118,primrose_schools,Primrose School of Rowlett,,Rowlett,TX,,US,+1 972-463-2655,https://www.primroseschools.com/schools/rowlett/,,Primrose Schools,Q7243677
https://www.publicstorage.com/self-storage-tx-rowlett/5693.html,public_storage_us,Public Storage,,Rowlett,TX,,US,+1 972-810-1067,https://www.publicstorage.com/self-storage-tx-rowlett/5693.html,,Public Storage,Q1156045
https://locations.quiktrip.com/#16004173,quiktrip_us,QuikTrip Store #990 4901 Lakeview Pkwy,,Rowlett,TX,,US,+1 972-412-8249,https://locations.quiktrip.com/tx/rowlett/4901-lakeview-pkwy,24/7,QuikTrip,Q7271953
https://www.racetrac.com/locations/texas/rowlett/chiesa,racetrac_us,RaceTrac,,Rowlett,TX,,US,+1 972-412-6925,https://www.racetrac.com/locations/texas/rowlett/chiesa,,RaceTrac,Q735942
1263,ross_dress_for_less_us,Rowlett,,Rowlett,TX,,US,+1 972-463-2042,,Mo-Th 09:30-22:00; Fr-Sa 08:30-23:00; Su 09:00-22:00,Ross Dress for Less,Q3442791
33690,seven_eleven_ca_us,7-11 Str   7818 Rowlett Rd,,Rowlett,TX,,US,+1 972-475-9320,https://www.7-eleven.com/locations/tx/rowlett/7818-rowlett-rd-33690,,7-Eleven,Q259340
32024,smilebrands,Monarch Dental Rowlett,4305 Lakeview Parkway,Rowlett,TX,,US,+1 972-813-2500,https://www.monarchdental.com/dentist-near-me/rowlett-dentist/30610/,,Smile Brands Inc.,Q108286823
81207,supercuts,Lake Pointe Market,6702 Dalrock Rd Ste 124,Rowlett,TX,,US,+1 214-607-4247,https://www.supercuts.com/checkin/81207,Mo-Fr 09:00-19:00; Sa 09:00-17:00; Su 10:00-17:00,Supercuts,Q7643239
https://locations.tacobell.com/#6142579,taco_bell,Taco Bell,,Rowlett,TX,,US,+1 972-463-8438,https://locations.tacobell.com/tx/rowlett/6606-dalrock-rd-.html,Mo-Th 09:00-01:00; Fr-Sa 09:00-03:00; Su 09:00-01:00,Taco Bell,Q752941
,visa,,,ROCKWALL,TX,,US,,,,,
,visa,,,ROCKWALL,TX,,US,,,,,
,visa,,,ROWLETT,TX,,US,,,,,
,visa,,,ROWLETT,TX,,US,,,,,
,visa,,,ROWLETT,TX,,US,,,,,
,visa,,,ROWLETT,TX,,US,,,,,
,visa,,,ROWLETT,TX,,US,,,,,
,visa,,,ROWLETT,TX,,US,,,,,
,visa,,,ROWLETT,TX,,US,,,,,
06682fa42ef61b6ae3e437f11b60b3e1,western_union,7-ELEVEN #33690,,Rowlett,TX,,US,+1 972-475-9320,https://location.westernunion.com/us/tx/rowlett/06682fa42ef61b6ae3e437f11b60b3e1,,Western Union,Q861042
9220,wingstop,Wingstop Rowlett,5601 LIBERTY GROVE RD STE 600,Rowlett,TX,,US,+1 972-475-2700,,,Wingstop,Q8025339
