Ref,Spider,Name,Address,City,State,Zipcode,Country,Phone,Website,Hours,Brand,WikiData
36,ab_gr,ΑΒ Βασιλόπουλος,"Περικλέους 28, 56224 ΕΥΟΣΜΟΣ, Greece",ΕΥΟΣΜΟΣ,,,GR,+30 231 077 8600;+30 231 077 8602,https://www.ab.gr/storedetails/thes-ki-eyosmos-perikleoys,,AB,Q4721807
647,ab_gr,ΑΒ Βασιλόπουλος,"Καραολή Δημητρίου 138, 56224 ΕΥΟΣΜΟΣ, Greece",ΕΥΟΣΜΟΣ,,,GR,,https://www.ab.gr/storedetails/thes-ki-eyosmos-3-kar-dimitrioy,,AB,Q4721807
687,ab_gr,ΑΒ Βασιλόπουλος,"ΘΕΣΣΑΛΟΝΙΚΗ, 56224 ΘΕΣΣΑΛΟΝΙΚΗ, Greece",ΘΕΣΣΑΛΟΝΙΚΗ,,,GR,,https://www.ab.gr/storedetails/thes-ki-retziki-kon-poleos,,AB,Q4721807
298,ab_gr,AB Shop & Go,"ΣΜΥΡΝΗΣ 44 & ΚΟΛΟΚΟΤΡΩΝΗ, 56224 ΘΕΣΣΑΛΟΝΙΚΗ, Greece",ΘΕΣΣΑΛΟΝΙΚΗ,,,GR,+30 231 055 8300,https://www.ab.gr/storedetails/sg-thsn-eyosmos-kolokotroni,,AB,Q4721807
1138,ab_gr,AB Shop & Go,"ΑΝΘΟΚΗΠΩΝ 32-34, 56224 ΘΕΣΣΑΛΟΝΙΚΗ, Greece",ΘΕΣΣΑΛΟΝΙΚΗ,,,GR,,https://www.ab.gr/storedetails/sg-thsn-eyosmos-anthokipon32-34,,AB,Q4721807
G120,bp,CALIPSO K.E.A. S.A. 273,,EVOSMOS,,,GR,+30 231 417 1618,,Mo-Su 06:00-22:00,BP,Q152057
G883,bp,GOUNOPOULOS SPIRIDON,,EVOSMOS,,,GR,+30 693 225 0830,,24/7,BP,Q152057
G191,bp,CALIPSO K.E.A. S.A. 198,,EYOSMOS,,,GR,+30 231 070 7330,,24/7,BP,Q152057
120,lidl_gr,Lidl,,Evosmos,,,GR,,,Mo-Fr 07:45-21:00; Sa 07:45-20:00,Lidl,Q151954
134,lidl_gr,Lidl,,Evosmos,,,GR,,,Mo-Fr 07:00-21:00; Sa 07:00-20:00,Lidl,Q151954
34,lidl_gr,Lidl,,Evosmos,,,GR,,,Mo-Fr 08:00-21:00; Sa 08:00-20:00,Lidl,Q151954
72204915,moneygram,TSANAKTSIS  THEODOROS - TRUSTLINK,,THESSALONIKI,,,GR,+30 231 070 7855,,Mo-Sa 08:30-21:30; Su 09:30-21:30,MoneyGram,Q1944412
43841637,moneygram,ACS EUOSMOS ACCS - STAVROUPOLI,,STAVROUPOLI,,,GR,+30 231 055 9055,,Mo-Fr 08:00-20:00; Sa 08:00-15:00; Su 00:00-24:00,MoneyGram,Q1944412
74292051,moneygram,LAZARIDIS SAVVAS - SFERA GROUP - EVOSMOS,,EVOSMOS,,,GR,+30 698 315 0285,,Mo-Sa 08:00-21:30; Su 07:00-23:30,MoneyGram,Q1944412
74878844,moneygram,INFOX - EVOSMOS,,EVOSMOS,,,GR,+30 231 403 3222,,Mo-Sa 09:00-21:00; Su 00:00-24:00,MoneyGram,Q1944412
,visa,,,EVOSMOS,,,GR,,,,,
,visa,,,THESSALONIKI,,,GR,,,,,
,visa,,,EVOSMOS,,,GR,,,,,
,visa,,,EVOSMOS,,,GR,,,,,
,visa,,,THESSALONIKI,,,GR,,,,,
