Ref,Spider,Name,Address,City,State,Zipcode,Country,Phone,Website,Hours,Brand,WikiData
626,anytime_fitness,Anytime Fitness,,Franklinton,LA,,US,+1 985-322-2099,https://www.anytimefitness.com/gyms/626/franklinton-la-70438/,,Anytime Fitness,Q4778364
3044,autozone_us,AutoZone Auto Parts Franklinton,,Franklinton,LA,,US,+1 985-839-6998,https://www.autozone.com/locations/la/franklinton/720-washington.html,Mo-Sa 07:00-21:00; Su 08:00-19:00,AutoZone,Q4826087
218307,bluerhino,Dollar General #23273,,FRANKLINTON,LA,,US,+1 985-277-9992,,,Blue Rhino,Q65681213
209240,bluerhino,Family Dollar #12728,,Franklinton,LA,,US,+1 985-284-5059,,,Blue Rhino,Q65681213
175802,bluerhino,Winn Dixie #1501 - New Orleans,,Franklinton,LA,,US,+1 985-839-5525,,,Blue Rhino,Q65681213
195206,bluerhino,"Stop 1, Inc (Same)",,Franklinton,LA,,US,+1 985-795-3351,,,Blue Rhino,Q65681213
203132,chevron,Chevron Station #203132,700 WASHINGTON STREET,FRANKLINTON,LA,,US,,,,Chevron,Q319642
95639,citi,ATM Winn Dixie,,Franklinton,LA,,US,,,,Citibank,Q857063
47152,citi,ATM CVS,,Franklinton,LA,,US,,,,Citibank,Q857063
80338546,cricket_wireless,Cricket Wireless Authorized Retailer,,Franklinton,LA,,US,+1 985-839-2481,https://www.cricketwireless.com/stores/ll/US/LA/Franklinton/717-Washington-St,Mo-Sa 10:00-20:00; Su 12:00-18:00,Cricket Wireless,Q5184987
5451,cvs_us,CVS Pharmacy,,Franklinton,LA,,US,+1 985-839-6382,https://www.cvs.com/store-locator/franklinton-la-pharmacies/1116-washington-st-franklinton-la-70438/storeid=5451,Mo-Sa 08:00-21:00; Su 08:00-20:00,CVS Pharmacy,Q2078880
31,dirt_cheap_us,Franklinton Dirt Cheap,,Franklinton,LA,,US,+1 985-839-3760,https://ilovedirtcheap.com/locations/store-details/franklinton-dirt-cheap-franklinton,Mo-Sa 09:00-19:00; Su 12:00-19:00,Dirt Cheap,Q123013019
23273,dollar_general,Dollar General,,Franklinton,LA,,US,+1 985-277-9992,https://www.dollargeneral.com/store-directory/la/franklinton/23273,Mo-Su 08:00-22:00,Dollar General,Q145168
22504,dollar_general,Dollar General,,Franklinton,LA,,US,+1 985-289-0120,https://www.dollargeneral.com/store-directory/la/franklinton/22504,Mo-Su 08:00-22:00,Dollar General,Q145168
18192,dollar_general,Dollar General,,Franklinton,LA,,US,+1 985-295-2030,https://www.dollargeneral.com/store-directory/la/franklinton/18192,Mo-Su 08:00-21:00,Dollar General,Q145168
32728,family_dollar_us,FAMILY DOLLAR #12728,,Franklinton,LA,,US,+1 985-289-0127,https://www.familydollar.com/locations/la/franklinton/32728/,Mo-Su 08:00-22:00,Family Dollar,Q5433101
100077,fresenius_kidney_care_us,Fresenius Kidney Care Washington Parish,,Franklinton,LA,,US,+1 800-881-5101,https://www.freseniuskidneycare.com/dialysis-centers/louisiana/100077,Mo 06:00-15:30; We 06:00-15:30; Fr 06:00-15:30,,
18362,h_r_block,H&R Block,,Franklinton,LA,,US,+1 985-839-9442,https://www.hrblock.com/local-tax-offices/louisiana/franklinton/1041-main-st/18362/,,H&R Block,Q5627799
https://office.jacksonhewitt.com/#27580292,jackson_hewitt,Jackson Hewitt,,Franklinton,LA,,US,+1 985-243-0300,https://office.jacksonhewitt.com/tax-preparation-services-locations/en/la/franklinton/1902-washington-st/11525,Mo-Fr 09:00-19:00; Sa 09:00-17:00; Su 12:00-17:00,Jackson Hewitt,Q6117132
https://locations.oreillyauto.com/la/franklinton/check-engine-light-testing-1473.html,oreilly,Your Franklinton O'Reilly Auto Parts Store,,Franklinton,LA,,US,+1 985-839-5143,https://locations.oreillyauto.com/la/franklinton/check-engine-light-testing-1473.html,Mo-Sa 07:00-21:00; Su 07:00-20:00,O'Reilly Auto Parts,Q7071951
https://locations.oreillyauto.com/la/franklinton/wiper-installation-1473.html,oreilly,Your Franklinton O'Reilly Auto Parts Store,,Franklinton,LA,,US,+1 985-839-5143,https://locations.oreillyauto.com/la/franklinton/wiper-installation-1473.html,Mo-Sa 07:00-21:00; Su 07:00-20:00,O'Reilly Auto Parts,Q7071951
https://locations.oreillyauto.com/la/franklinton/battery-testing-1473.html,oreilly,Your Franklinton O'Reilly Auto Parts Store,,Franklinton,LA,,US,+1 985-839-5143,https://locations.oreillyauto.com/la/franklinton/battery-testing-1473.html,Mo-Sa 07:00-21:00; Su 07:00-20:00,O'Reilly Auto Parts,Q7071951
https://locations.oreillyauto.com/la/franklinton/autopartes-1473.html,oreilly,Tu tienda O'Reilly Auto Parts en Franklinton,,Franklinton,LA,,US,+1 985-839-5143,https://locations.oreillyauto.com/la/franklinton/autopartes-1473.html,Mo-Sa 07:00-21:00; Su 07:00-20:00,O'Reilly Auto Parts,Q7071951
la_franklinton_1120-washington-st,pizza_hut_us,1120 Washington St,,Franklinton,LA,,US,+1 985-795-3300,https://locations.pizzahut.com/la/franklinton/1120-washington-st,,Pizza Hut,Q191615
restaurant_82564,popeyes_us_fr,Popeyes,"1420 Washington St Franklinton, Louisiana 70438 - USA",Franklinton,LA,,US,+1 985-839-9234,https://www.popeyes.com/store-locator/store/restaurant_82564,Mo-Sa 10:00-21:00; Su 10:00-20:30,Popeyes,Q1330910
https://restaurants.subway.com/#14910698,subway,Subway,,Franklinton Washington,LA,,US,+1 985-839-5902,https://restaurants.subway.com/united-states/la/franklinton/935-washington-st,Mo-Fr 07:00-20:30; Sa-Su 08:00-20:30,Subway,Q244457
https://locations.tacobell.com/#6146706,taco_bell,Taco Bell,,Franklinton,LA,,US,+1 985-839-6418,https://locations.tacobell.com/la/franklinton/1230-washington-st-.html,Mo-Su 09:00-24:00,Taco Bell,Q752941
1364034,usps,FRANKLINTON,,FRANKLINTON,LA,,US,+1 985-839-9095,,Mo-Fr 08:30-16:30; Sa 09:30-11:30,United States Postal Service,Q668687
7043800009,usps_collection_boxes,USPS COLLECTION BOX - BLUE BOX,805 LEE ST,FRANKLINTON,LA,,US,,,,United States Postal Service,Q668687
7043800011,usps_collection_boxes,USPS COLLECTION BOX - PO LOBBY,805 LEE ST,FRANKLINTON,LA,,US,,,,United States Postal Service,Q668687
7043800012,usps_collection_boxes,USPS COLLECTION BOX - PO LOBBY,805 LEE ST,FRANKLINTON,LA,,US,,,,United States Postal Service,Q668687
7043800014,usps_collection_boxes,USPS COLLECTION BOX - PO LOBBY,805 LEE ST,FRANKLINTON,LA,,US,,,,United States Postal Service,Q668687
7043800008,usps_collection_boxes,USPS COLLECTION BOX - BLUE BOX,905 PEARL ST,FRANKLINTON,LA,,US,,,,United States Postal Service,Q668687
,visa,,,PINE,LA,,US,,,,,
,visa,,,PINE,LA,,US,,,,,
,visa,,,PINE,LA,,US,,,,,
,visa,,,FRANKLINTON,LA,,US,,,,,
,visa,,,FRANKLINTON,LA,,US,,,,,
,visa,,,THOMAS LA.,LA,,US,,,,,
,visa,,,THOMAS,LA,,US,,,,,
,visa,,,FRANKLIN,LA,,US,,,,,
,visa,,,FRANKLIN,LA,,US,,,,,
,visa,,,FRANKLINTON,LA,,US,,,,,
,visa,,,FRANKLINTON,LA,,US,,,,,
,visa,,,FRANKLINTON,LA,,US,,,,,
,visa,,,FRANKLINTON,LA,,US,,,,,
,visa,,,FRANKLINTON,LA,,US,,,,,
,visa,,,FRANKLINTON,LA,,US,,,,,
,visa,,,FRANKLINTON,LA,,US,,,,,
,visa,,,ST FRANKLINTO,LA,,US,,,,,
,visa,,,FRANKLINTON,LA,,US,,,,,
,visa,,,FRANKLINTON,LA,,US,,,,,
,visa,,,FRANKLINTON,LA,,US,,,,,
,visa,,,FRANKLINTON,LA,,US,,,,,
,visa,,,FRANKLINTON,LA,,US,,,,,
,visa,,,FRANKLINTON,LA,,US,,,,,
,visa,,,FRANKLINTON,LA,,US,,,,,
,visa,,,FRANKLINGTON,LA,,US,,,,,
,visa,,,FRANKLINTON,LA,,US,,,,,
,visa,,,FRANKLINTON,LA,,US,,,,,
,visa,,,FRANKLINTON LA.,LA,,US,,,,,
,visa,,,FRANKLENTON,LA,,US,,,,,
,visa,,,FRANKLINTON,LA,,US,,,,,
,visa,,,FRANKLINTON,LA,,US,,,,,
,visa,,,FRANKLINTON,LA,,US,,,,,
,visa,,,FRANKLINTON,LA,,US,,,,,
,visa,,,KENTWOOD,LA,,US,,,,,
https://locations.wendys.com/#9252474,wendys,"Wendy's 243 Franklinton in Franklinton, LA",,Franklinton,LA,,US,+1 985-273-5035,https://locations.wendys.com/united-states/la/franklinton/709-washington-street,"Mo-Su 06:30-10:30,07:00-22:00",Wendy's,Q550258
1501,winndixie,BOQUECHITTO PLAZA,731 WASHINGTON STREET,FRANKLINTON,LA,,US,+1 985-839-5525,https://www.winndixie.com/storedetails/franklinton/la?search=1501,,Winn Dixie,Q1264366
