Ref,Spider,Name,Address,City,State,Zipcode,Country,Phone,Website,Hours,Brand,WikiData
,visa,,,LA CRUZ DE ELOTA,SINALOA,,MX,,,,,
,visa,,,ELOTA,SINALOA,,MX,,,,,
,visa,,,LA CRUZ,SINALOA,,MX,,,,,
,visa,,,CULIACAN,SINALOA,,MX,,,,,
93ef65991d97dccd0330241a4c941683,western_union,OXXO MAXIPISTA CUL,,La Cruz De Elota,SINALOA,,MX,+52 81 8389 2121,https://location.westernunion.com/mx/sinaloa/la-cruz-de-elota/93ef65991d97dccd0330241a4c941683,Mo-Su 08:00-22:00,Western Union,Q861042
4e0b33aab06b1f10fb4d8a20c07df12c,western_union,OXXO MAXIPISTA CUL,,La Cruz De Elota,SINALOA,,MX,+52 81 8389 2121,https://location.westernunion.com/mx/sinaloa/la-cruz-de-elota/4e0b33aab06b1f10fb4d8a20c07df12c,Mo-Su 08:00-22:00,Western Union,Q861042
0c6632962d1493b266f5bcc9484e5e66,western_union,OXXO MAXIPISTA CUL,,La Cruz De Elota,SINALOA,,MX,+52 81 8389 2121,https://location.westernunion.com/mx/sinaloa/la-cruz-de-elota/0c6632962d1493b266f5bcc9484e5e66,Mo-Su 08:00-22:00,Western Union,Q861042
efa60ca5e6fef3c1aa05a5601766ffe2,western_union,CASA LEY 1237 LEY EXPRESS LA C,,La Cruz De Elota,SINALOA,,MX,+52 800 800 3930,https://location.westernunion.com/mx/sinaloa/la-cruz-de-elota/efa60ca5e6fef3c1aa05a5601766ffe2,Mo-Su 07:00-23:00,Western Union,Q861042
305b393e303512ff334cc648bfa79fe4,western_union,CASA LEY 1237 LEY EXPRESS LA C,,La Cruz De Elota,SINALOA,,MX,+52 800 800 3930,https://location.westernunion.com/mx/sinaloa/la-cruz-de-elota/305b393e303512ff334cc648bfa79fe4,Mo-Su 07:00-23:00,Western Union,Q861042
bebad6bcd3eb47e91c3560f347c75871,western_union,CASA LEY 1237 LEY EXPRESS LA C,,La Cruz De Elota,SINALOA,,MX,+52 800 800 8930,https://location.westernunion.com/mx/sinaloa/la-cruz-de-elota/bebad6bcd3eb47e91c3560f347c75871,Mo-Su 07:00-23:00,Western Union,Q861042
c207f6f7e9bd1d82352cd5d7ab7a7df0,western_union,CASA LEY 1361 SUPER LEY LA CRUZ,,La Cruz De Elota,SINALOA,,MX,+52 667 759 1000,https://location.westernunion.com/mx/sinaloa/la-cruz-de-elota/c207f6f7e9bd1d82352cd5d7ab7a7df0,Mo-Su 07:00-23:00,Western Union,Q861042
bce5f9bf66a8d45735890c34251ddef2,western_union,CASA LEY 1361 SUPER LEY LA CRUZ,,La Cruz De Elota,SINALOA,,MX,+52 667 759 1000,https://location.westernunion.com/mx/sinaloa/la-cruz-de-elota/bce5f9bf66a8d45735890c34251ddef2,Mo-Su 07:00-23:00,Western Union,Q861042
1cef66fa9278e8fe9e3682b30f5a10e9,western_union,CAJA OBLATOS - LA CRUZ,,La Cruz De Elota,SINALOA,,MX,+52 81 2133 2160,https://location.westernunion.com/mx/sinaloa/la-cruz-de-elota/1cef66fa9278e8fe9e3682b30f5a10e9,Mo-Fr 08:00-17:00; Sa 08:00-14:00,Western Union,Q861042
d820f213d45e0c6ae6124e1cabc0fc1d,western_union,CAJA OBLATOS - LA CRUZ,,La Cruz De Elota,SINALOA,,MX,+52 81 2133 2160,https://location.westernunion.com/mx/sinaloa/la-cruz-de-elota/d820f213d45e0c6ae6124e1cabc0fc1d,Mo-Fr 08:00-17:00; Sa 08:00-14:00,Western Union,Q861042
e733bfc5dc89b585ab207d7b3de96d53,western_union,CAJA OBLATOS - LA CRUZ,,La Cruz De Elota,SINALOA,,MX,+52 81 2133 2160,https://location.westernunion.com/mx/sinaloa/la-cruz-de-elota/e733bfc5dc89b585ab207d7b3de96d53,Mo-Fr 08:00-17:00; Sa 08:00-14:00,Western Union,Q861042
95792a4cd9e6a45686fbf2c58da9b770,western_union,FARM GUAD 2608 LA CRUZ CENTRO,,La Cruz De Elota,SINALOA,,MX,+52 800 833 4700,https://location.westernunion.com/mx/sinaloa/la-cruz-de-elota/95792a4cd9e6a45686fbf2c58da9b770,Mo-Su 08:00-22:00,Western Union,Q861042
aa8f5da28ca0efbd54b2cce1ef0ed3af,western_union,FARM GUAD 2608 LA CRUZ CENTRO,,La Cruz De Elota,SINALOA,,MX,+52 800 833 4700,https://location.westernunion.com/mx/sinaloa/la-cruz-de-elota/aa8f5da28ca0efbd54b2cce1ef0ed3af,Mo-Su 08:00-22:00,Western Union,Q861042
893164d575f7f23dd085e4facfd8b321,western_union,FARM GUAD 2608 LA CRUZ CENTRO,,La Cruz De Elota,SINALOA,,MX,+52 800 833 4700,https://location.westernunion.com/mx/sinaloa/la-cruz-de-elota/893164d575f7f23dd085e4facfd8b321,Mo-Su 08:00-22:00,Western Union,Q861042
d2cb99c7b5b6154b23fcfaa8b695c9e5,western_union,MISCELANEA LETTY IMX,,La Cruz De Elota,SINALOA,,MX,+52 800 733 3300,https://location.westernunion.com/mx/sinaloa/la-cruz-de-elota/d2cb99c7b5b6154b23fcfaa8b695c9e5,Mo-Su 09:00-23:00,Western Union,Q861042
92620028acf98f28caa466967498d769,western_union,MISCELANEA LETTY IMX,,La Cruz De Elota,SINALOA,,MX,+52 800 733 3300,https://location.westernunion.com/mx/sinaloa/la-cruz-de-elota/92620028acf98f28caa466967498d769,Mo-Su 09:00-23:00,Western Union,Q861042
1bcb9df44731a3275e572761501784ec,western_union,MISCELANEA LETTY IMX,,La Cruz De Elota,SINALOA,,MX,+52 800 733 3300,https://location.westernunion.com/mx/sinaloa/la-cruz-de-elota/1bcb9df44731a3275e572761501784ec,Mo-Su 09:00-23:00,Western Union,Q861042
1362d38fb23df889b29eba1d8e7c05aa,western_union,BANCOPPEL 803 GABRIEL LEYVA,,La Cruz De Elota,SINALOA,,MX,+52 698 893 5030,https://location.westernunion.com/mx/sinaloa/la-cruz-de-elota/1362d38fb23df889b29eba1d8e7c05aa,Mo-Sa 09:00-19:30; Su 08:30-14:30,Western Union,Q861042
7dd49eae7561e89b52682e0aab641a7f,western_union,TELECOMM 25044,,La Cruz De Elota,SINALOA,,MX,+52 800 800 9889,https://location.westernunion.com/mx/sinaloa/la-cruz-de-elota/7dd49eae7561e89b52682e0aab641a7f,Mo-Fr 09:00-15:00,Western Union,Q861042
d43213a662562786bf041e01cc157c5e,western_union,TELECOMM 25044,,La Cruz De Elota,SINALOA,,MX,+52 800 800 8930,https://location.westernunion.com/mx/sinaloa/la-cruz-de-elota/d43213a662562786bf041e01cc157c5e,Mo-Su 09:00-20:00,Western Union,Q861042
21c9da79cdaf3cabbbcb868164088493,western_union,TELECOMM 25044,,La Cruz De Elota,SINALOA,,MX,+52 800 800 8930,https://location.westernunion.com/mx/sinaloa/la-cruz-de-elota/21c9da79cdaf3cabbbcb868164088493,Mo-Fr 09:00-21:00,Western Union,Q861042
10430a347f3c2bf24c0dd0ad2a334863,western_union,OXXO MIRAMAR CUL,,La Cruz De Elota,SINALOA,,MX,+52 81 8389 2121,https://location.westernunion.com/mx/sinaloa/la-cruz-de-elota/10430a347f3c2bf24c0dd0ad2a334863,Mo-Su 08:00-22:00,Western Union,Q861042
a43e10cd23beece592ecd2ae0ceac2d0,western_union,OXXO MIRAMAR CUL,,La Cruz De Elota,SINALOA,,MX,+52 81 8389 2121,https://location.westernunion.com/mx/sinaloa/la-cruz-de-elota/a43e10cd23beece592ecd2ae0ceac2d0,Mo-Su 08:00-22:00,Western Union,Q861042
020fa11fd7938a2ed615c3610f635b02,western_union,OXXO MIRAMAR CUL,,La Cruz De Elota,SINALOA,,MX,+52 81 8389 2121,https://location.westernunion.com/mx/sinaloa/la-cruz-de-elota/020fa11fd7938a2ed615c3610f635b02,Mo-Su 08:00-22:00,Western Union,Q861042
b15b4f6a3c6e23a2465c723c3dca70b0,western_union,OXXO RIO ELOTA CUL,,La Cruz De Elota,SINALOA,,MX,+52 81 8389 2121,https://location.westernunion.com/mx/sinaloa/la-cruz-de-elota/b15b4f6a3c6e23a2465c723c3dca70b0,Mo-Su 08:00-22:00,Western Union,Q861042
7a9aec6fcc68f1ae503f072236fdba7b,western_union,OXXO RIO ELOTA CUL,,La Cruz De Elota,SINALOA,,MX,+52 81 8389 2121,https://location.westernunion.com/mx/sinaloa/la-cruz-de-elota/7a9aec6fcc68f1ae503f072236fdba7b,Mo-Su 08:00-22:00,Western Union,Q861042
41b53fa706869825f7abcb43f5032056,western_union,OXXO RIO ELOTA CUL,,La Cruz De Elota,SINALOA,,MX,+52 81 8389 2121,https://location.westernunion.com/mx/sinaloa/la-cruz-de-elota/41b53fa706869825f7abcb43f5032056,Mo-Su 08:00-22:00,Western Union,Q861042
15bb9914e5367056d9d51143d1fa8fdf,western_union,BANCOPPEL 803 GABRIEL LEYVA,,La Cruz De Elota,SINALOA,,MX,+52 698 893 5030,https://location.westernunion.com/mx/sinaloa/la-cruz-de-elota/15bb9914e5367056d9d51143d1fa8fdf,Mo-Sa 09:00-19:30; Su 08:30-14:30,Western Union,Q861042
dd51443d9cc1cbe57926ac7a4f929ae0,western_union,BANCOPPEL 342 AGUILAR,,La Cruz De Elota,SINALOA,,MX,+52 667 715 6922,https://location.westernunion.com/mx/sinaloa/la-cruz-de-elota/dd51443d9cc1cbe57926ac7a4f929ae0,Mo-Sa 09:00-19:30; Su 09:30-14:00,Western Union,Q861042
6bd41764c2c43332e0a79896e94feddd,western_union,BANCOPPEL 342 AGUILAR,,La Cruz De Elota,SINALOA,,MX,+52 667 715 6922,https://location.westernunion.com/mx/sinaloa/la-cruz-de-elota/6bd41764c2c43332e0a79896e94feddd,Mo-Sa 09:00-19:30; Su 09:30-14:00,Western Union,Q861042
45c08cb73c19acc4af5153495ab08a68,western_union,BANCOPPEL 342 AGUILAR,,La Cruz De Elota,SINALOA,,MX,+52 667 715 6922,https://location.westernunion.com/mx/sinaloa/la-cruz-de-elota/45c08cb73c19acc4af5153495ab08a68,Mo-Sa 09:00-19:30; Su 09:30-14:00,Western Union,Q861042
059ff663302bf2bd694b82989cd6dd61,western_union,ELEKTRA 6021,,La Cruz De Elota,SINALOA,,MX,+52 55 1720 8177,https://location.westernunion.com/mx/sinaloa/la-cruz-de-elota/059ff663302bf2bd694b82989cd6dd61,Mo-Su 09:00-20:00,Western Union,Q861042
92b2adfee25941137c8724f3f93e1b9b,western_union,ELEKTRA 6021,,La Cruz De Elota,SINALOA,,MX,+52 55 1720 8177,https://location.westernunion.com/mx/sinaloa/la-cruz-de-elota/92b2adfee25941137c8724f3f93e1b9b,Mo-Su 09:00-21:00,Western Union,Q861042
08de8db16c5603e63396e8827dc15b05,western_union,ELEKTRA 6021,,La Cruz De Elota,SINALOA,,MX,+52 55 1720 8177,https://location.westernunion.com/mx/sinaloa/la-cruz-de-elota/08de8db16c5603e63396e8827dc15b05,Mo-Su 09:00-21:00,Western Union,Q861042
f18439b3d8cd29dcedfe5b0acf32b99e,western_union,OXXO PRESIDENCIA CUL,,La Cruz De Elota,SINALOA,,MX,+52 81 8389 2121,https://location.westernunion.com/mx/sinaloa/la-cruz-de-elota/f18439b3d8cd29dcedfe5b0acf32b99e,Mo-Su 08:00-22:00,Western Union,Q861042
01c5740d4f9f5fdb013bd8895f14a1d8,western_union,OXXO PRESIDENCIA CUL,,La Cruz De Elota,SINALOA,,MX,+52 81 8389 2121,https://location.westernunion.com/mx/sinaloa/la-cruz-de-elota/01c5740d4f9f5fdb013bd8895f14a1d8,Mo-Su 08:00-22:00,Western Union,Q861042
ed7ca25db1b31f7f762ff79fdddf62fe,western_union,OXXO PRESIDENCIA CUL,,La Cruz De Elota,SINALOA,,MX,+52 81 8389 2121,https://location.westernunion.com/mx/sinaloa/la-cruz-de-elota/ed7ca25db1b31f7f762ff79fdddf62fe,Mo-Su 08:00-22:00,Western Union,Q861042
