Ref,Spider,Name,Address,City,State,Zipcode,Country,Phone,Website,Hours,Brand,WikiData
RED0011600,australia_post_au,,,LOGANLEA,QLD,,AU,,,,Australia Post,Q1142936
RED0011599,australia_post_au,,,MEADOWBROOK,QLD,,AU,,,,Australia Post,Q1142936
RED0011598,australia_post_au,,,MEADOWBROOK,QLD,,AU,,,,Australia Post,Q1142936
RED0011597,australia_post_au,,,MEADOWBROOK,QLD,,AU,,,,Australia Post,Q1142936
70644,caltex,Caltex Loganlea,,Loganlea,QLD,,AU,+61 7 3200 4776,,,Caltex,Q277470
6174243,exxonmobil,7-Eleven Loganlea,,Loganlea,QLD,,AU,+61 7 3805 2561,https://www.mobil.com.au/en-au/find-station/mobil-loganlea-qld-loganlea-6174243,24/7,Mobil,Q109676002
61301,gloria_jeans_coffees_au,Gloria Jeanâ€™s Meadowbrook Drive Thru,6-10 Logandowns Dr,Meadowbrook,QLD,,AU,,,,Gloria Jean's Coffees,Q2666365
3576,hungry_jacks,Meadowbrook,,Meadowbrook,QLD,,AU,+61 7 3445 6873,,,Hungry Jack's,Q3036373
9500744,mcdonalds_qstore,MEADOWBROOK QLD,,Meadowbrook,QLD,,AU,+61 7 3805 4788,,24/7,McDonald's,Q38076
OF4262,oporto_au,Meadowbrook,,Meadowbrook,QLD,,AU,+61 7 3200 2181,https://www.oporto.com.au/locations/meadowbrook,Mo-Su 10:00-21:00,Oporto,Q4412342
4243,seven_eleven_au,Loganlea,,Loganlea,QLD,,AU,+61 7 3805 2561,,24/7,7-Eleven,Q259340
10111348,shell,SHELL COLES EXPRESS LOGANLEA,,MEADOWBROOK,QLD,,AU,+61 7 3734 0920,https://find.shell.com/au/fuel/10111348-shell-coles-express-loganlea,24/7,Shell,Q110716465
TCCAUS0321,the_coffee_club_au,TCC - Meadowbrook,"Shop 1, 6 Logandowns Drive, Meadowbrook, QLD, Australia, 4131",Meadowbrook,QLD,,AU,+61 7 3827 8301,https://coffeeclub.com.au/pages/store-details?country=Australia&name=meadowbrook,Mo-Su 08:00-16:00,The Coffee Club,Q7726599
476,ultra_tune_au,Ultra Tune Marsden,,LOGANLEA,QLD,,AU,+61 7 3805 6294,https://www.ultratune.com.au/store/ultra-tune-marsden,Mo-Fr 08:00-17:30; Sa 08:00-12:00,Ultra Tune,Q29025649
,visa,,,LOGANLEA,QLD,,AU,,,,,
,visa,,,LOGANLEA,QLD,,AU,,,,,
,visa,,,LOGANLEA,QLD,,AU,,,,,
,visa,,,LOGANLEA,QLD,,AU,,,,,
,visa,,,LONGANLEA,QLD,,AU,,,,,
,visa,,,MEADOWBROOK,QLD,,AU,,,,,
,visa,,,MEADOWBROOK,QLD,,AU,,,,,
,visa,,,MEADOWBROOK,QLD,,AU,,,,,
,visa,,,MEADOWBROOK,QLD,,AU,,,,,
