Ref,Spider,Name,Address,City,State,Zipcode,Country,Phone,Website,Hours,Brand,WikiData
0070053800538,decathlon_tr,İSTANBUL - FORUM İSTANBUL AVM,,İSTANBUL,,,TR,+90 212 640 05 12,https://www.decathlon.com.tr/store-view/magaza-spor-istanbul-forum-istanbul-avm-0070053800538,Mo-Th 10:00-22:00; Fr 12:00-22:00; Sa-Su 10:00-22:00,Decathlon,Q509349
05b26b04-80e9-4a3e-999c-6706cab7c1eb,nike,Nike Store Marmara Forum (Partnered),,İSTANBUL,,,TR,+90 212 466 68 58,https://www.nike.com/retail/s/nsp-forummarmara,Mo-Su 10:00-22:00,Nike,Q483915
https://www.sixt.co.uk/car-hire/turkey/istanbul/istanbul-sabiha-gokcen-airport/,sixt,Car Hire Istanbul Sabiha Gokcen Airport | SIXT rent a car,,Istanbul,,,TR,,https://www.sixt.co.uk/car-hire/turkey/istanbul/istanbul-sabiha-gokcen-airport/,24/7,SIXT,Q705664
,visa,,,MUĞLA,,,TR,,,,,
,visa,,,MUĞLA,,,TR,,,,,
,visa,,,MUĞLA,,,TR,,,,,
,visa,,,MUĞLA,,,TR,,,,,
,visa,,,AYDIN,,,TR,,,,,
,visa,,,MUĞLA,,,TR,,,,,
,visa,,,AYDIN,,,TR,,,,,
,visa,,,MUĞLA,,,TR,,,,,
,visa,,,MUĞLA,,,TR,,,,,
,visa,,,MUĞLA,,,TR,,,,,
,visa,,,MUĞLA,,,TR,,,,,
,visa,,,MUĞLA,,,TR,,,,,
,visa,,,MUĞLA,,,TR,,,,,
,visa,,,MUĞLA,,,TR,,,,,
,visa,,,MUĞLA,,,TR,,,,,
,visa,,,MUĞLA,,,TR,,,,,
,visa,,,İZMİR,,,TR,,,,,
,visa,,,İZMİR,,,TR,,,,,
,visa,,,AYDIN,,,TR,,,,,
,visa,,,MUĞLA,,,TR,,,,,
,visa,,,MUĞLA,,,TR,,,,,
,visa,,,AYDIN,,,TR,,,,,
,visa,,,AYDIN,,,TR,,,,,
,visa,,,AYDIN,,,TR,,,,,
,visa,,,AYDIN,,,TR,,,,,
,visa,,,MUĞLA,,,TR,,,,,
,visa,,,AYDIN,,,TR,,,,,
,visa,,,MUĞLA,,,TR,,,,,
,visa,,,MUĞLA,,,TR,,,,,
,visa,,,ANTALYA,,,TR,,,,,
,visa,,,MUĞLA,,,TR,,,,,
,visa,,,İZMİR,,,TR,,,,,
,visa,,,MUĞLA,,,TR,,,,,
,visa,,,AYDIN,,,TR,,,,,
,visa,,,MUĞLA,,,TR,,,,,
,visa,,,MUĞLA,,,TR,,,,,
,visa,,,MUĞLA,,,TR,,,,,
,visa,,,İZMİR,,,TR,,,,,
,visa,,,İZMİR,,,TR,,,,,
,visa,,,İZMİR,,,TR,,,,,
,visa,,,AYDIN,,,TR,,,,,
,visa,,,AYDIN,,,TR,,,,,
,visa,,,İZMİR,,,TR,,,,,
,visa,,,AYDIN,,,TR,,,,,
,visa,,,İZMİR,,,TR,,,,,
,visa,,,İZMİR,,,TR,,,,,
,visa,,,İZMİR,,,TR,,,,,
,visa,,,İZMİR,,,TR,,,,,
,visa,,,İZMİR,,,TR,,,,,
,visa,,,İZMİR,,,TR,,,,,
,visa,,,İZMİR,,,TR,,,,,
,visa,,,İZMİR,,,TR,,,,,
,visa,,,İZMİR,,,TR,,,,,
,visa,,,İZMİR,,,TR,,,,,
,visa,,,İZMİR,,,TR,,,,,
,visa,,,İZMİR,,,TR,,,,,
,visa,,,AYDIN,,,TR,,,,,
,visa,,,AYDIN,,,TR,,,,,
,visa,,,MANİSA,,,TR,,,,,
,visa,,,ANTALYA,,,TR,,,,,
,visa,,,ANTALYA,,,TR,,,,,
,visa,,,DENİZLİ,,,TR,,,,,
,visa,,,DENİZLİ,,,TR,,,,,
,visa,,,ANTALYA,,,TR,,,,,
,visa,,,ANTALYA,,,TR,,,,,
,visa,,,ANTALYA,,,TR,,,,,
,visa,,,MANİSA,,,TR,,,,,
,visa,,,ANTALYA,,,TR,,,,,
,visa,,,ANTALYA,,,TR,,,,,
,visa,,,ANTALYA,,,TR,,,,,
,visa,,,ANTALYA,,,TR,,,,,
,visa,,,ANTALYA,,,TR,,,,,
,visa,,,ANTALYA,,,TR,,,,,
,visa,,,ANTALYA,,,TR,,,,,
,visa,,,ANTALYA,,,TR,,,,,
,visa,,,ANTALYA,,,TR,,,,,
,visa,,,CANAKKALE,,,TR,,,,,
,visa,,,CANAKKALE,,,TR,,,,,
,visa,,,ANTALYA,,,TR,,,,,
,visa,,,ANTALYA,,,TR,,,,,
,visa,,,ANTALYA,,,TR,,,,,
,visa,,,BURDUR,,,TR,,,,,
,visa,,,ANTALYA,,,TR,,,,,
,visa,,,ANTALYA,,,TR,,,,,
,visa,,,ANTALYA,,,TR,,,,,
,visa,,,ANTALYA,,,TR,,,,,
,visa,,,ANTALYA,,,TR,,,,,
,visa,,,ANTALYA,,,TR,,,,,
,visa,,,ANTALYA,,,TR,,,,,
,visa,,,ANTALYA,,,TR,,,,,
,visa,,,ANTALYA,,,TR,,,,,
,visa,,,ANTALYA,,,TR,,,,,
,visa,,,ANTALYA,,,TR,,,,,
,visa,,,ANTALYA,,,TR,,,,,
,visa,,,ANTALYA,,,TR,,,,,
,visa,,,ISPARTA,,,TR,,,,,
,visa,,,BALIKESİR,,,TR,,,,,
,visa,,,BALIKESİR,,,TR,,,,,
,visa,,,UŞAK,,,TR,,,,,
,visa,,,BALIKESİR,,,TR,,,,,
,visa,,,AFYONKARAHİSAR,,,TR,,,,,
,visa,,,TEKİRDAĞ,,,TR,,,,,
,visa,,,KONYA,,,TR,,,,,
,visa,,,KUTAHYA,,,TR,,,,,
,visa,,,KUTAHYA,,,TR,,,,,
,visa,,,KUTAHYA,,,TR,,,,,
,visa,,,KUTAHYA,,,TR,,,,,
,visa,,,EDİRNE,,,TR,,,,,
,visa,,,BURSA,,,TR,,,,,
,visa,,,EDİRNE,,,TR,,,,,
,visa,,,BURSA,,,TR,,,,,
,visa,,,BURSA,,,TR,,,,,
,visa,,,BURSA,,,TR,,,,,
,visa,,,KARAMAN,,,TR,,,,,
,visa,,,KIRKLARELİ,,,TR,,,,,
,visa,,,TEKİRDAĞ,,,TR,,,,,
,visa,,,TEKİRDAĞ,,,TR,,,,,
,visa,,,KONYA,,,TR,,,,,
,visa,,,KONYA,,,TR,,,,,
,visa,,,KIRKLARELİ,,,TR,,,,,
,visa,,,TEKİRDAĞ,,,TR,,,,,
,visa,,,ISTANBUL-AVR,,,TR,,,,,
,visa,,,İSTANBUL,,,TR,,,,,
,visa,,,BİLECİK,,,TR,,,,,
,visa,,,İSTANBUL,,,TR,,,,,
,visa,,,İSTANBUL,,,TR,,,,,
,visa,,,ESKİŞEHİR,,,TR,,,,,
,visa,,,İSTANBUL,,,TR,,,,,
,visa,,,İSTANBUL,,,TR,,,,,
,visa,,,İSTANBUL,,,TR,,,,,
,visa,,,ESKİŞEHİR,,,TR,,,,,
,visa,,,İSTANBUL,,,TR,,,,,
,visa,,,YALOVA,,,TR,,,,,
,visa,,,İSTANBUL,,,TR,,,,,
,visa,,,İSTANBUL,,,TR,,,,,
,visa,,,İSTANBUL,,,TR,,,,,
,visa,,,İSTANBUL,,,TR,,,,,
,visa,,,İSTANBUL,,,TR,,,,,
,visa,,,İSTANBUL,,,TR,,,,,
,visa,,,İSTANBUL,,,TR,,,,,
,visa,,,İSTANBUL,,,TR,,,,,
,visa,,,İSTANBUL,,,TR,,,,,
,visa,,,İSTANBUL,,,TR,,,,,
,visa,,,YOZGAT,,,TR,,,,,
,visa,,,ISTANBUL-AVR,,,TR,,,,,
,visa,,,ISTANBUL-AVR,,,TR,,,,,
,visa,,,İSTANBUL,,,TR,,,,,
,visa,,,ISTANBUL,,,TR,,,,,
,visa,,,İSTANBUL,,,TR,,,,,
,visa,,,İSTANBUL,,,TR,,,,,
,visa,,,İSTANBUL,,,TR,,,,,
,visa,,,MERSİN,,,TR,,,,,
,visa,,,İCEL,,,TR,,,,,
,visa,,,İSTANBUL,,,TR,,,,,
,visa,,,İSTANBUL,,,TR,,,,,
,visa,,,İSTANBUL,,,TR,,,,,
,visa,,,İSTANBUL,,,TR,,,,,
,visa,,,İSTANBUL,,,TR,,,,,
,visa,,,İSTANBUL,,,TR,,,,,
,visa,,,İSTANBUL,,,TR,,,,,
,visa,,,İSTANBUL,,,TR,,,,,
,visa,,,İSTANBUL,,,TR,,,,,
,visa,,,İSTANBUL,,,TR,,,,,
,visa,,,İSTANBUL,,,TR,,,,,
,visa,,,İSTANBUL,,,TR,,,,,
,visa,,,İSTANBUL,,,TR,,,,,
,visa,,,İSTANBUL,,,TR,,,,,
,visa,,,İSTANBUL,,,TR,,,,,
,visa,,,İSTANBUL,,,TR,,,,,
,visa,,,ISTANBUL,,,TR,,,,,
,visa,,,İSTANBUL,,,TR,,,,,
,visa,,,İSTANBUL,,,TR,,,,,
,visa,,,İSTANBUL,,,TR,,,,,
,visa,,,İSTANBUL,,,TR,,,,,
,visa,,,İSTANBUL,,,TR,,,,,
,visa,,,İSTANBUL,,,TR,,,,,
,visa,,,İSTANBUL,,,TR,,,,,
,visa,,,İSTANBUL,,,TR,,,,,
,visa,,,İSTANBUL,,,TR,,,,,
,visa,,,İSTANBUL,,,TR,,,,,
,visa,,,İSTANBUL,,,TR,,,,,
,visa,,,KOCAELİ,,,TR,,,,,
,visa,,,İSTANBUL,,,TR,,,,,
,visa,,,İSTANBUL,,,TR,,,,,
,visa,,,İSTANBUL,,,TR,,,,,
,visa,,,ANKARA,,,TR,,,,,
,visa,,,İSTANBUL,,,TR,,,,,
,visa,,,İSTANBUL,,,TR,,,,,
,visa,,,İSTANBUL,,,TR,,,,,
,visa,,,İSTANBUL,,,TR,,,,,
,visa,,,İSTANBUL,,,TR,,,,,
,visa,,,İSTANBUL,,,TR,,,,,
,visa,,,İSTANBUL,,,TR,,,,,
,visa,,,İSTANBUL,,,TR,,,,,
,visa,,,İSTANBUL,,,TR,,,,,
,visa,,,İSTANBUL,,,TR,,,,,
,visa,,,MERSİN,,,TR,,,,,
,visa,,,İCEL,,,TR,,,,,
,visa,,,İSTANBUL,,,TR,,,,,
,visa,,,İSTANBUL,,,TR,,,,,
,visa,,,İSTANBUL,,,TR,,,,,
,visa,,,İSTANBUL,,,TR,,,,,
,visa,,,ISTANBUL,,,TR,,,,,
,visa,,,İSTANBUL,,,TR,,,,,
,visa,,,İSTANBUL,,,TR,,,,,
,visa,,,KOCAELİ,,,TR,,,,,
,visa,,,KOCAELİ,,,TR,,,,,
,visa,,,KOCAELİ,,,TR,,,,,
,visa,,,İCEL,,,TR,,,,,
,visa,,,İCEL,,,TR,,,,,
,visa,,,MERSİN,,,TR,,,,,
,visa,,,SAKARYA,,,TR,,,,,
,visa,,,ANKARA,,,TR,,,,,
,visa,,,HATAY,,,TR,,,,,
,visa,,,ADANA,,,TR,,,,,
,visa,,,HATAY,,,TR,,,,,
,visa,,,ADANA,,,TR,,,,,
,visa,,,KONYA,,,TR,,,,,
,visa,,,AKSARAY,,,TR,,,,,
,visa,,,AKSARAY,,,TR,,,,,
,visa,,,NİĞDE,,,TR,,,,,
,visa,,,HATAY,,,TR,,,,,
,visa,,,DUZCE,,,TR,,,,,
,visa,,,ANKARA,,,TR,,,,,
,visa,,,ANKARA,,,TR,,,,,
,visa,,,ANKARA,,,TR,,,,,
,visa,,,BOLU,,,TR,,,,,
,visa,,,BOLU,,,TR,,,,,
,visa,,,ANKARA,,,TR,,,,,
,visa,,,ANKARA,,,TR,,,,,
,visa,,,BOLU,,,TR,,,,,
,visa,,,ANKARA,,,TR,,,,,
,visa,,,ANKARA,,,TR,,,,,
,visa,,,ANKARA,,,TR,,,,,
,visa,,,ANKARA,,,TR,,,,,
,visa,,,ANKARA,,,TR,,,,,
,visa,,,ANKARA,,,TR,,,,,
,visa,,,ANKARA,,,TR,,,,,
,visa,,,ANKARA,,,TR,,,,,
,visa,,,ANKARA,,,TR,,,,,
,visa,,,ANKARA,,,TR,,,,,
,visa,,,ANKARA,,,TR,,,,,
,visa,,,ANKARA,,,TR,,,,,
,visa,,,ANKARA,,,TR,,,,,
,visa,,,ANKARA,,,TR,,,,,
,visa,,,ANKARA,,,TR,,,,,
,visa,,,OSMANİYE,,,TR,,,,,
,visa,,,ANKARA,,,TR,,,,,
,visa,,,ANKARA,,,TR,,,,,
,visa,,,NEVŞEHİR,,,TR,,,,,
,visa,,,NEVŞEHİR,,,TR,,,,,
,visa,,,KIRŞEHİR,,,TR,,,,,
,visa,,,ZONGULDAK,,,TR,,,,,
,visa,,,NEVŞEHİR,,,TR,,,,,
,visa,,,KIRIKKALE,,,TR,,,,,
,visa,,,ZONGULDAK,,,TR,,,,,
,visa,,,KAYSERİ,,,TR,,,,,
,visa,,,KAYSERİ,,,TR,,,,,
,visa,,,KAHRAMANMARAŞ,,,TR,,,,,
,visa,,,KAHRAMANMARAŞ,,,TR,,,,,
,visa,,,KAHRAMANMARAŞ,,,TR,,,,,
,visa,,,GAZİANTEP,,,TR,,,,,
,visa,,,GAZİANTEP,,,TR,,,,,
,visa,,,KARABUK,,,TR,,,,,
,visa,,,KAHRAMANMARAŞ,,,TR,,,,,
,visa,,,KAHRAMANMARAŞ,,,TR,,,,,
,visa,,,GAZİANTEP,,,TR,,,,,
,visa,,,CANKIRI,,,TR,,,,,
,visa,,,BARTIN,,,TR,,,,,
,visa,,,BARTIN,,,TR,,,,,
,visa,,,KASTAMONU,,,TR,,,,,
,visa,,,CORUM,,,TR,,,,,
,visa,,,CORUM,,,TR,,,,,
,visa,,,ŞANLIURFA,,,TR,,,,,
,visa,,,ADIYAMAN,,,TR,,,,,
,visa,,,AMASYA,,,TR,,,,,
,visa,,,MALATYA,,,TR,,,,,
,visa,,,AMASYA,,,TR,,,,,
,visa,,,SİVAS,,,TR,,,,,
,visa,,,TOKAT,,,TR,,,,,
,visa,,,SAMSUN,,,TR,,,,,
,visa,,,SAMSUN,,,TR,,,,,
,visa,,,SAMSUN,,,TR,,,,,
,visa,,,ELAZIĞ,,,TR,,,,,
,visa,,,DİYARBAKIR,,,TR,,,,,
,visa,,,DİYARBAKIR,,,TR,,,,,
,visa,,,MARDİN,,,TR,,,,,
,visa,,,DİYARBAKIR,,,TR,,,,,
,visa,,,ELAZIĞ,,,TR,,,,,
,visa,,,TUNCELİ,,,TR,,,,,
,visa,,,ORDU,,,TR,,,,,
,visa,,,ELAZIĞ,,,TR,,,,,
,visa,,,ERZİNCAN,,,TR,,,,,
,visa,,,GİRESUN,,,TR,,,,,
,visa,,,ŞIRNAK,,,TR,,,,,
,visa,,,SİİRT,,,TR,,,,,
,visa,,,SİİRT,,,TR,,,,,
,visa,,,MUŞ,,,TR,,,,,
,visa,,,TRABZON,,,TR,,,,,
,visa,,,BİTLİS,,,TR,,,,,
,visa,,,ERZURUM,,,TR,,,,,
,visa,,,RİZE,,,TR,,,,,
,visa,,,VAN,,,TR,,,,,
,visa,,,AĞRI,,,TR,,,,,
,visa,,,KARS,,,TR,,,,,
,visa,,,IĞDIR,,,TR,,,,,
ab18f375c7c74e350e3071843e7e2366,western_union,KAVAKLI PTT SUBESI,,Istanbul,,,TR,+90 212 875 14 16,https://location.westernunion.com/tr/state/istanbul/ab18f375c7c74e350e3071843e7e2366,Mo-Fr 08:30-17:00,Western Union,Q861042
