Ref,Spider,Name,Address,City,State,Zipcode,Country,Phone,Website,Hours,Brand,WikiData
72302778,moneygram,LAXMI BANK LIMITED - BHOJPUR,,BHOJPUR,,,NP,+977 980-7339227,,Mo-Su 07:00-19:00,MoneyGram,Q1944412
72371152,moneygram,GLOBAL IME BANK LIMITED - BHOJPUR - BHOJ,,BHOJPUR,,,NP,+977 29-420522,,Mo-Su 07:00-19:00,MoneyGram,Q1944412
72472640,moneygram,NIRDHAN UTTHAN LAGHUBITTA BITTIYA SANSTH,,BHOJPUR,,,NP,+977 29-420736,,Mo-Su 07:00-19:00,MoneyGram,Q1944412
72490871,moneygram,AGRICULTURAL DEVELOPMENT BANK LTD. - BHO,,BHOJPUR,,,NP,+977 29-420166,,Mo-Su 07:00-19:00,MoneyGram,Q1944412
72803769,moneygram,MANISHA MONEY TRANSFER - BHOJPUR,,BHOJPUR,,,NP,+977 29-420451,,Mo-Su 09:00-19:00,MoneyGram,Q1944412
72814839,moneygram,GURKHAS FINANCE LTD. - BHOJPUR - BHOJPUR,,BHOJPUR,,,NP,+977 984-2168260,,Mo-Su 07:00-19:00,MoneyGram,Q1944412
72815744,moneygram,SURYA EXCHANGE PVT. LTD. - BHOJPUR,,BHOJPUR,,,NP,97702920192,,Mo-Su 09:00-19:00,MoneyGram,Q1944412
72901784,moneygram,PABITRA MONEY TRANSFER - BHOJPUR,,BHOJPUR,,,NP,+977 986-0191951,,Mo-Su 09:00-19:00,MoneyGram,Q1944412
73969039,moneygram,NEPAL INVESTMENT BANK LIMITED - #SRNIBL2,,BHOJPUR,,,NP,296201531,,Mo-Su 07:00-19:00,MoneyGram,Q1944412
73033651,moneygram,LAXMI MONEY TRANSFER - BHOJPUR,,BHOJPUR,,,NP,+977 984-2472808,,Mo-Su 09:00-19:00,MoneyGram,Q1944412
69955206,moneygram,CITIZENS BANK INTERNATIONAL LTD. - #URNP,,BHOJPUR,,,NP,+977 29-420729,,Mo-Su 07:00-19:00,MoneyGram,Q1944412
74565377,moneygram,NEPAL INVESTMENT MEGA BANK LIMITED - TIW,,BHOJPUR,,,NP,+977 1-6201531,,Mo-Su 07:00-19:00,MoneyGram,Q1944412
70547056,moneygram,CENTURY BANK,,BHOJPUR,,,NP,977420644,,Mo-Fr 07:00-19:00; Su 07:00-19:00,MoneyGram,Q1944412
74752902,moneygram,PATHIVARA STORE - BHOJPUR - BHOJPUR,,BHOJPUR,,,NP,+977 984-2490319,,Mo-Su 07:00-19:00,MoneyGram,Q1944412
71035224,moneygram,NIC ASIA - #SRNIC082 - BHOJPUR - BHOJPUR,,BHOJPUR,,,NP,2929420775,,Mo-Su 07:00-19:00,MoneyGram,Q1944412
71437848,moneygram,CENTURY BANK - #SRCBL08 - BHOJPUR - BHOJ,,BHOJPUR,,,NP,+977 29-420755,,Mo-Su 07:00-19:00,MoneyGram,Q1944412
71680190,moneygram,NMB BANK LIMITED,,BHOJPUR,,,NP,+977 29-420780,,Mo-Su 07:00-19:00,MoneyGram,Q1944412
71703035,moneygram,SIDDHARTHA BANK LIMITED,,BHOJPUR,,,NP,+977 980-8270206,,Mo-Su 07:00-19:00,MoneyGram,Q1944412
71711593,moneygram,MEGA BANK NEPAL LIMITED - #URNP2259 - BH,,BHOJPUR,,,NP,+977 29-420554,,Mo-Su 07:00-19:00,MoneyGram,Q1944412
71724810,moneygram,MACHHAPUCHCHHRE BANK,,BHOJPUR,,,NP,+977 984-1759967,,Mo-Su 07:00-19:00,MoneyGram,Q1944412
71725026,moneygram,MACHHAPUCHCHHRE BANK,,BHOJPUR,,,NP,+977 984-2156472,,Mo-Su 07:00-19:00,MoneyGram,Q1944412
71729488,moneygram,CENTURY BANK,,BHOJPUR,,,NP,+977 29-627383,,Mo-Su 07:00-19:00,MoneyGram,Q1944412
71736112,moneygram,EVEREST BANK - #URNP2334 - BHOJPUR - BHO,,BHOJPUR,,,NP,299852052721,,Mo-Su 07:00-19:00,MoneyGram,Q1944412
71758103,moneygram,NIC ASIA BANK LIMITED - #SRNAB02 - BHOJP,,BHOJPUR,,,NP,299849662004,,Mo-Su 07:00-19:00,MoneyGram,Q1944412
71758255,moneygram,NIC ASIA BANK LIMITED - #SRNAB16 - BHOJP,,BHOJPUR,,,NP,299843685772,,Mo-Su 07:00-19:00,MoneyGram,Q1944412
71783851,moneygram,NEPAL INVESTMENT BANK LIMITED - #SRNIBL1,,BHOJPUR,,,NP,299815313913,,Mo-Su 07:00-19:00,MoneyGram,Q1944412
