Ref,Spider,Name,Address,City,State,Zipcode,Country,Phone,Website,Hours,Brand,WikiData
https://locators.bankofamerica.com/va/forteustis/financial-centers-fort-eustis-1323.html,bankofamerica,Bank of America Financial Center & Walk-Up ATM | Fort Eustis,,Fort Eustis,VA,,US,+1 757-887-7840,https://locators.bankofamerica.com/va/forteustis/financial-centers-fort-eustis-1323.html,Mo-Fr 10:00-16:00,Bank of America,Q487907
https://locators.bankofamerica.com/va/forteustis/atm-fort-eustis-102596.html,bankofamerica,Bank of America Walk-Up ATM | Fort Eustis Main Exchange,,Fort Eustis,VA,,US,+1 844-401-8500,https://locators.bankofamerica.com/va/forteustis/atm-fort-eustis-102596.html,,Bank of America,Q487907
https://locators.bankofamerica.com/va/forteustis/atm-fort-eustis-103694.html,bankofamerica,Bank of America Walk-Up ATM | Mcdonald Army Hospital,,Fort Eustis,VA,,US,+1 844-401-8500,https://locators.bankofamerica.com/va/forteustis/atm-fort-eustis-103694.html,,Bank of America,Q487907
129042,bluerhino,AAFES - Ft. Eustis Main Store,,Ft Eustis,VA,,US,+1 757-887-0293,,,Blue Rhino,Q65681213
77898,bluerhino,AAFES - Ft. Eustis Express #1042110,,Ft Eustis,VA,,US,+1 757-369-3780,,,Blue Rhino,Q65681213
,credit_union_us,1st Advantage FCU,,Fort Eustis,VA,,US,+1 757-872-3538,,Mo 09:00-05:00; We 09:00-05:00; Fr 09:00-05:00,,
vba_314aa,department_veterans_affairs,Integrated Disability Evaluation System (IDES) Site at Joint Base Langley-Eustis,,Fort Eustis,VA,,US,+1 757-314-7789,,,Department Veterans Affairs,Q592576
344614,firestone_auto_care,Firestone Complete Auto Care,,Newport News,VA,,US,+1 757-231-6696,https://local.firestonecompleteautocare.com/virginia/newport-news/1383-lee-blvd/,,Firestone,Q420837
https://stores.gnc.com/#24058324,gnc,GNC Fort Eustis Exchange,,,VA,,US,+1 757-887-8309,https://stores.gnc.com/all-stores-virginia/newport-news/building-1384,Mo-Sa 09:00-17:00; Su 10:00-16:00,GNC,Q4808595
44880,h_r_block,H&R Block,,Fort Eustis,VA,,US,+1 757-243-2245,https://www.hrblock.com/local-tax-offices/virginia/fort-eustis/fort-eustis/44880/,,H&R Block,Q5627799
restaurant_84762,popeyes_us_fr,Popeyes,"(Military Post Access Required) Exchange Food Court Fort Eustis, Virginia 23604 - USA",Fort Eustis,VA,,US,+1 757-887-2748,https://www.popeyes.com/store-locator/store/restaurant_84762,Mo-Sa 10:30-18:30; Su 11:00-17:00,Popeyes,Q1330910
https://locations.qdoba.com/us/va/fort-eustis/1386-washington-blvd.html,qdoba,QDOBA Fort Eustis,,Fort Eustis,VA,,US,+1 949-218-5454,https://locations.qdoba.com/us/va/fort-eustis/1386-washington-blvd.html,Mo-Sa 10:30-17:30; Su 10:30-16:00,Qdoba,Q1363885
https://restaurants.subway.com/#14915723,subway,Subway AAFES Foodcourt,,Fort Eustis Newport News City,VA,,US,+1 757-887-2748,https://restaurants.subway.com/united-states/va/fort-eustis/bldg-1386-washington-blvd,Mo-Sa 10:30-18:00; Su 11:00-17:00,Subway,Q244457
1363769,usps,FORT EUSTIS,,FORT EUSTIS,VA,,US,+1 757-887-3793,,"Mo-Fr 09:30-13:30,14:30-16:30",United States Postal Service,Q668687
2360400001,usps_collection_boxes,USPS COLLECTION BOX - BLUE BOX,1321 LEE BLVD,NEWPORT NEWS,VA,,US,,,,United States Postal Service,Q668687
2360400003,usps_collection_boxes,USPS COLLECTION BOX - PO LOBBY,1321 LEE BLVD,NEWPORT NEWS,VA,,US,,,,United States Postal Service,Q668687
2360400009,usps_collection_boxes,USPS COLLECTION BOX - BLUE BOX,1321 LEE BLVD,NEWPORT NEWS,VA,,US,,,,United States Postal Service,Q668687
2360400011,usps_collection_boxes,USPS COLLECTION BOX - PO LOBBY,1321 LEE BLVD,NEWPORT NEWS,VA,,US,,,,United States Postal Service,Q668687
,visa,,,FT EUSTIS,VA,,US,,,,,
,visa,,,FT EUSTIS,VA,,US,,,,,
,visa,,,FT EUSTIS,VA,,US,,,,,
,visa,,,FT. EUSTIS,VA,,US,,,,,
,visa,,,FT EUSTIS,VA,,US,,,,,
,visa,,,FT EUSTIS,VA,,US,,,,,
,visa,,,FT EUSTIS,VA,,US,,,,,
5855adeee99516d4306f28dc6bfbded7,western_union,EER-FT EUSTIS MX,,Ft Eustis,VA,,US,+1 757-887-0293,https://location.westernunion.com/us/va/ft-eustis/5855adeee99516d4306f28dc6bfbded7,,Western Union,Q861042
