Ref,Spider,Name,Address,City,State,Zipcode,Country,Phone,Website,Hours,Brand,WikiData
74,ab_gr,ΑΒ Βασιλόπουλος,"11o χλμ. Θεσ/νίκης - Αεροδρομίου, 57001 ΘΕΣΣΑΛΟΝΙΚΗ, Greece",ΘΕΣΣΑΛΟΝΙΚΗ,,,GR,+30 231 047 1183;+30 231 047 1184,https://www.ab.gr/storedetails/thes-ki-makedonia,,AB,Q4721807
GR517869,adidas,"adidas Outlet Store Pylaia, Thessaloniki",,"Pylaia, Thessaloniki",,,GR,,https://www.adidas.co.uk/storefront/GR517869-pylaia-thessaloniki-leof.-georgikis-scholis-43-adidas-outlet-store-pylaia-thessaloniki,,Adidas,Q3895
GR518241,adidas,"adidas Outlet Store Pylaia, Thessaloniki",,"Pylaia, Thessaloniki",,,GR,,https://www.adidas.co.uk/storefront/GR518241-pylaia-thessaloniki-leof.-georgikis-scholis-43-adidas-outlet-store-pylaia-thessaloniki,,Adidas,Q3895
GR518736,adidas,"adidas Outlet Store Pylaia, Thessaloniki, Leof. Georgikis Scholis",,"Pylaia, Thessaloniki",,,GR,,https://www.adidas.co.uk/storefront/GR518736-pylaia-thessaloniki-leof.-georgikis-scholis-43-adidas-outlet-store-pylaia-thessaloniki-leof.-georgikis-scholis,,Adidas,Q3895
1039068,alamo,Thessaloniki Intl. Airport Offsite,,Thessaloniki,,,GR,+30 231 054 1081,,,ALAMO,Q1429287
30899_1,bmw_group,Papadopoulos Giannis S.A.,,Thessaloniki,,,GR,+30 231 047 8100,http://papadopoulos-thessaloniki.mini.com.gr,,BMW,Q26678
44893_1,bmw_group,Velmar Autotechnica Hellas S.A.,,Thessaloniki,,,GR,+30 231 047 5871,https://www.bmw-velmar.gr/,,BMW,Q26678
Q920,bp,TRIANTAFILLOU A.-TRIANTAFILLOU,,THERMI,,,GR,+30 231 080 5210,,Mo-Su 07:00-21:00,BP,Q152057
Q932,bp,KLIGKOPOULOS ATH.&Sons E.E.,,PILAIA,,,GR,+30 231 065 0167,,Mo-Sa 07:00-21:00,BP,Q152057
Q752,bp,CALIPSO K.E.A. S.A. 195,,THERMI,,,GR,+30 231 048 9003,,24/7,BP,Q152057
G153,bp,CHATZOPOULOS EL.&V. O.E.,,SALONICA,,,GR,+30 697 442 2744,,Mo-Sa 07:00-21:00,BP,Q152057
G013,bp,DIAMANTIS MASOYTIS AE,,VASILIKA,,,GR,+30 231 080 3803,,Mo-Sa 07:00-21:00,BP,Q152057
G058,bp,LAGOS N.&SIA O.E.,,THERMI,,,GR,+30 231 046 1330,,Mo-Sa 07:00-21:00,BP,Q152057
239248,crocs_eu,Crocs Mediterranean Cosmos,,Thessaloniki,,,GR,,,,Crocs,Q926699
SKGO61,enterprise,Thessaloniki Intl. Airport Offsite,,Pylea,,,GR,+30 231 054 1081,,,Enterprise Rent-A-Car,Q17085454
FordGFGF769  GRC,ford,ΒΡΟΧΙΔΗΣ - ΧΑΤΖΗΣ - ΘΕΣΣΑΛΟΝΙΚΗ,,ΘΕΣΣΑΛΟΝΙΚΗ,,,GR,+30 231 147 6200,https://www.fordvehicles.gr/,Mo-Fr 09:00-20:00; Sa 09:00-14:00,Ford,Q44294
113609,geox,Geox THESSALONIKI OUTLET,,THESSALONIKI OUTLET,,,GR,+30 231 047 4781,https://www.geox.com/int/storedetails?StoreID=113609,,Geox,Q588001
GR0445,hm,Mediterrenean Cosmos Shopping Centre,,Thessaloniki,,,GR,+30 21 1198 6300,,Mo-Fr 10:00-21:00; Sa 10:00-20:00,H&M,Q188326
G004,jysk,Θεσσαλονίκη - Εμπορικό Πάρκο Florida,,Πυλαία,,,GR,+30 21 1198 5096,https://jysk.gr/stores-locator?storeId=G004,Mo-Fr 09:00-21:00; Sa 09:00-20:00,JYSK,Q138913
128,lidl_gr,Lidl,,Thermi,,,GR,,,Mo-Fr 08:00-21:00; Sa 08:00-20:00,Lidl,Q151954
73776455,moneygram,PAY CENTRE - TRUSTLINK,,THESSALONIKI,,,GR,+30 231 048 6300,,Mo-We 08:30-14:30; Th 08:30-20:00; Fr 08:30-14:30; Sa 09:30-13:30; Su 00:00-24:00,MoneyGram,Q1944412
74967629,moneygram,ACS THERMI,,THERMI,,,GR,+30 231 046 6996,,Mo-Fr 08:00-20:00; Sa 08:00-15:00; Su 00:00-24:00,MoneyGram,Q1944412
1039072,national,Thessaloniki Intl. Airport Offsite,,Thessaloniki,,,GR,+30 231 054 1081,,,NATIONAL,Q1424142
TNFST-1KNRTNMT-1,the_north_face_eu,The North Face Store Thessaloniki,,Thessaloniki,,,GR,+30 231 038 3411,,,The North Face,Q152784
THGR0015,tommy_hilfiger,Tommy Hilfiger,,Thessaloniki,,,GR,,,,Tommy Hilfiger,Q634881
N841084,united_colors_of_benetton,Benetton Thessaloniki,,THESSALONIKI,,,GR,+30 231 047 4780,,,United Colors of Benetton,Q817139
,visa,,,THESSALONIKI,,,GR,,,,,
,visa,,,THERMI,,,GR,,,,,
,visa,,,THESSALONIKI,,,GR,,,,,
,visa,,,THERMI,,,GR,,,,,
,visa,,,THERMI,,,GR,,,,,
,visa,,,THERMI,,,GR,,,,,
,visa,,,THERMI,,,GR,,,,,
,visa,,,THESSALONIKI,,,GR,,,,,
,visa,,,THERMI,,,GR,,,,,
,visa,,,THESSALONIKI,,,GR,,,,,
