Ref,Spider,Name,Address,City,State,Zipcode,Country,Phone,Website,Hours,Brand,WikiData
498589,afcurgentcare,American Family Care Riverside,,Riverside,CA,,US,+1 951-780-3300,https://www.afcurgentcare.com/riverside/,Mo-Fr 08:00-20:00; Sa-Su 09:00-18:00,AFC Urgent Care,Q110552174
https://local.pharmacy.albertsons.com/#5672543,albertsons,Albertsons Pharmacy,,Riverside,CA,,US,+1 951-656-3394,https://local.pharmacy.albertsons.com/ca/riverside/8938-trautwein-rd.html,,Albertsons,Q2831861
https://local.albertsons.com/#5603253,albertsons,Albertsons,,Riverside,CA,,US,+1 951-656-6603,https://local.albertsons.com/ca/riverside/8938-trautwein-rd.html,,Albertsons,Q2831861
5574,autozone_us,AutoZone Auto Parts Riverside,,Riverside,CA,,US,+1 951-653-5585,https://www.autozone.com/locations/ca/riverside/19486-van-buren-blvd.html,Mo-Sa 07:00-22:00; Su 07:30-22:00,AutoZone,Q4826087
https://locators.bankofamerica.com/ca/riverside/financial-centers-riverside-12930.html,bankofamerica,Bank of America Financial Center & Walk-Up ATM | Mission Grove,,Riverside,CA,,US,+1 951-776-4015,https://locators.bankofamerica.com/ca/riverside/financial-centers-riverside-12930.html,Mo-Fr 09:00-17:00; Sa 09:00-16:00,Bank of America,Q487907
https://locators.bankofamerica.com/ca/riverside/sales-office-atm-riverside-110666.html,bankofamerica,Bank of America Bank of America Advanced Centerâ„¢Virtual Banking & Separate ATM | Orangecrest Plaza,,Riverside,CA,,US,+1 951-497-4387,https://locators.bankofamerica.com/ca/riverside/sales-office-atm-riverside-110666.html,Mo-Fr 09:00-17:00; Sa 09:00-15:00,Bank of America,Q487907
168,bevmo_us,Riverside,,Mission Grove,CA,,US,+1 951-565-4170,https://www.bevmo.com/stores/riverside,Mo-Su 09:00-21:00,BevMo!,Q4899308
216451,bluerhino,7-Eleven Stores #43183,,Riverside,CA,,US,+1 951-780-7415,,,Blue Rhino,Q65681213
131046,bluerhino,Ace #10193- Riverside Ace Hardware,,Riverside,CA,,US,+1 951-789-0731,,,Blue Rhino,Q65681213
237477,bluerhino,Circle K #2700801,,Riverside,CA,,US,+1 951-780-5507,,,Blue Rhino,Q65681213
152742,bluerhino,Walgreens #7786,,Riverside,CA,,US,+1 951-776-0116,,,Blue Rhino,Q65681213
216450,bluerhino,7-Eleven Stores #43198,,Riverside,CA,,US,+1 951-653-6087,,,Blue Rhino,Q65681213
211497,bluerhino,7-Eleven Stores #43106,,Riverside,CA,,US,+1 951-697-8084,,,Blue Rhino,Q65681213
2043388,chase_us,Orangecrest - New branch,,Riverside,CA,,US,+1 951-776-0024,https://locator.chase.com/ca/riverside/8705-trautwein-rd,Mo-Fr 09:00-17:00; Sa 09:00-14:00,Chase,Q524629
001.005.1463,chilis,Mission Village,,Riverside,CA,,US,+1 951-776-0952,https://www.chilis.com/locations/us/california/riverside/mission-village/,Mo-Th 11:00-22:30; Fr-Sa 11:00-23:30; Su 11:00-22:30,Chili's,Q1072948
ca_riverside_8956-trautwein-rd,chipotle, ,,Riverside,CA,,US,+1 951-697-6910,https://locations.chipotle.com/ca/riverside/8956-trautwein-rd,,Chipotle,Q465751
78239,citi,ATM Speedway,,Perris,CA,,US,,,,Citibank,Q857063
28253,citi,ATM 7ELEVEN-FCTI,,Riverside,CA,,US,,,,Citibank,Q857063
51401,citi,ATM CVS,,Riverside,CA,,US,,,,Citibank,Q857063
78221,citi,ATM Speedway,,Riverside,CA,,US,,,,Citibank,Q857063
39674,citi,ATM Chevron,,Riverside,CA,,US,,,,Citibank,Q857063
79260,citi,ATM Speedway,,Riverside,CA,,US,,,,Citibank,Q857063
93290,citi,ATM Walgreens,,Riverside,CA,,US,,,,Citibank,Q857063
39655,citi,ATM Chevron,,Riverside,CA,,US,,,,Citibank,Q857063
41248,citi,ATM Circle K,,Woodcrest,CA,,US,,,,Citibank,Q857063
34779,citi,ATM Ampm,,Riverside,CA,,US,,,,Citibank,Q857063
9803,cvs_us,CVS Pharmacy,,Riverside,CA,,US,+1 951-780-1835,https://www.cvs.com/store-locator/riverside-ca-pharmacies/491-e-alessandro-blvd-riverside-ca-92508/storeid=9803,Mo-Su 07:00-22:00,CVS Pharmacy,Q2078880
8511,dominos_pizza_us,Domino's Pizza,,Riverside,CA,,US,+1 951-656-2222,https://pizza.dominos.com/california/riverside/19510-van-buren-blvd,Mo-Th 10:00-24:00; Fr-Sa 10:00-01:00; Su 10:00-24:00,Domino's,Q839466
357118,dunkin_us,Dunkin',,Riverside,CA,,US,+1 657-226-9130,https://locations.dunkindonuts.com/en/ca/riverside/18641-van-buren-blvd/357118,Mo-Sa 05:00-21:00; Su 06:00-19:00,Dunkin',Q847743
710025,electrify_america,Meridian MOB,,Riverside,CA,,US,,,,Electrify America,Q59773555
6180,elpolloloco,El Pollo Loco,,Riverside,CA,,US,+1 951-776-2039,,,El Pollo Loco,Q2353849
riverside-alessandro-blvd,farmerboys,Riverside - E. Alessandro Blvd.,,Riverside,CA,,US,+1 951-656-6666,https://www.farmerboys.com/locations/location-detail.php?loc=riverside-alessandro-blvd,Mo-Su 06:00-23:00,Farmer Boys,Q5435711
https://stores.gnc.com/#24059203,gnc,GNC Mission Grove Plaza,,,CA,,US,+1 951-789-6765,https://stores.gnc.com/all-stores-california/riverside/321-alessandro-blvd,Mo-Fr 10:00-19:00; Sa 10:00-17:00; Su 11:00-17:00,GNC,Q4808595
e6552101-17a5-e311-9471-0050568924e6,goodwill,Riverside Bookstore and Donation Center,,Riverside,CA,,US,+1 951-776-5165,https://www.goodwill.org/locator/location/?store=ZTY1NTIxMDEtMTdhNS1lMzExLTk0NzEtMDA1MDU2ODkyNGU2&lat=MzMuOTE1ODU=&lng=LTExNy4zMjg1NQ==,,Goodwill,Q5583655
https://salons.greatclips.com/us/ca/riverside/19510-van-buren-blvd,greatclips,Great Clips,,Riverside,CA,,US,+1 951-656-7400,https://salons.greatclips.com/us/ca/riverside/19510-van-buren-blvd,Mo-Fr 09:00-20:00; Sa-Su 08:00-18:00,Great Clips,Q5598967
3582,h_r_block,H&R Block,,Riverside,CA,,US,+1 951-656-2866,https://www.hrblock.com/local-tax-offices/california/riverside/orangecrest-plaza/3582/,,H&R Block,Q5627799
ca_riverside_breakfast-361-e-alessandro-blvd-950,ihop,IHOP Breakfast Restaurants Near You at 361 E Alessandro Blvd,,Riverside,CA,,US,+1 951-789-6082,https://restaurants.ihop.com/en-us/ca/riverside/breakfast-361-e-alessandro-blvd-950,,IHOP,Q1185675
https://locations.jackinthebox.com/us/ca/riverside/19586-van-buren-blvd,jackinthebox,Jack in the Box,,Riverside,CA,,US,+1 951-653-8443,https://locations.jackinthebox.com/us/ca/riverside/19586-van-buren-blvd,Mo-Su 04:00-03:30,Jack in the Box,Q1538507
https://locations.jackinthebox.com/us/ca/riverside/1001-e-alessandro-blvd,jackinthebox,Jack in the Box,,Riverside,CA,,US,+1 951-653-5467,https://locations.jackinthebox.com/us/ca/riverside/1001-e-alessandro-blvd,Mo-Th 06:00-01:00; Fr-Sa 04:30-03:30; Su 06:00-01:00,Jack in the Box,Q1538507
https://healthy.kaiserpermanente.org/southern-california/facilities/vitas-healthcare-corporation-of-california-135341,kaiser_permanente_us,Vitas Healthcare Corporation of California,,Riverside,CA,,US,+1 909-386-6000,https://healthy.kaiserpermanente.org/southern-california/facilities/vitas-healthcare-corporation-of-california-135341,,Kaiser Permanente,Q1721601
https://healthy.kaiserpermanente.org/southern-california/facilities/mfi-recovery-center-woodcrest-429557,kaiser_permanente_us,Mfi Recovery Center (Woodcrest),,Riverside,CA,,US,+1 951-683-6596,https://healthy.kaiserpermanente.org/southern-california/facilities/mfi-recovery-center-woodcrest-429557,,Kaiser Permanente,Q1721601
https://healthy.kaiserpermanente.org/southern-california/facilities/everlast-recovery-center-site-2-134597,kaiser_permanente_us,Everlast Recovery Center - Site 2,,Riverside,CA,,US,+1 844-994-1962,https://healthy.kaiserpermanente.org/southern-california/facilities/everlast-recovery-center-site-2-134597,,Kaiser Permanente,Q1721601
https://healthy.kaiserpermanente.org/southern-california/facilities/cardiovascular-plus-340083,kaiser_permanente_us,CardioVascular Plus,,Riverside,CA,,US,+1 951-789-4356,https://healthy.kaiserpermanente.org/southern-california/facilities/cardiovascular-plus-340083,,Kaiser Permanente,Q1721601
301736,kindercare,Mission Grove KinderCare,,Riverside,CA,,US,,https://www.kindercare.com/our-centers/riverside/ca/301736,,KinderCare Learning Centers,Q6410551
603,kohls_us,Kohl's,,Riverside,CA,,US,+1 951-780-0785,https://www.kohls.com/stores/ca/riverside-603.shtml,Mo-Sa 09:00-22:00; Su 09:00-21:00,Kohl's,Q967265
76241,little_free_library,Evan Charles #76241 Riverside CA,,Riverside,CA,,US,,,,Little Free Library,Q6650101
35662,little_free_library,marta gonzales #35662 Riverside CA,,Riverside,CA,,US,,,,Little Free Library,Q6650101
123505,little_free_library,Lucy's Little Library #123505 Riverside CA,,Riverside,CA,,US,,,,Little Free Library,Q6650101
108779,little_free_library,Brees Family Library #108779 Riverside CA,,Riverside,CA,,US,,,,Little Free Library,Q6650101
134321,little_free_library,Miss Sharon's Rainbow Room #134321 Riverside CA,,Riverside,CA,,US,,,,Little Free Library,Q6650101
54647,little_free_library,The Queen Bee Little Free Library #54647 Riverside CA,,Riverside,CA,,US,,,,Little Free Library,Q6650101
109093,little_free_library,Los Reyes #109093 Riverside CA,,Riverside,CA,,US,,,,Little Free Library,Q6650101
286508,marathon_petroleum_us,ARCO #66577,,RIVERSIDE,CA,,US,+1 562-254-1090,,,Arco,Q304769
286627,marathon_petroleum_us,ARCO #42611 AMPM,,Riverside,CA,,US,+1 951-780-7570,,,Arco,Q304769
https://locations.massageenvy.com/#1773629,massage_envy,Massage Envy Riverside Orangecrest,,Riverside Riverside,CA,,US,+1 951-789-0908,https://locations.massageenvy.com/california/riverside/19029-van-buren.html,Mo-Su 09:00-21:00,Massage Envy,Q10327170
https://locations.oreillyauto.com/ca/riverside/check-engine-light-testing-3814.html,oreilly,Your Riverside O'Reilly Auto Parts Store,,Riverside,CA,,US,+1 951-780-8721,https://locations.oreillyauto.com/ca/riverside/check-engine-light-testing-3814.html,Mo-Sa 07:30-22:00; Su 07:30-21:00,O'Reilly Auto Parts,Q7071951
https://locations.oreillyauto.com/ca/riverside/battery-testing-3814.html,oreilly,Your Riverside O'Reilly Auto Parts Store,,Riverside,CA,,US,+1 951-780-8721,https://locations.oreillyauto.com/ca/riverside/battery-testing-3814.html,Mo-Sa 07:30-22:00; Su 07:30-21:00,O'Reilly Auto Parts,Q7071951
https://locations.oreillyauto.com/ca/riverside/wiper-installation-3814.html,oreilly,Your Riverside O'Reilly Auto Parts Store,,Riverside,CA,,US,+1 951-780-8721,https://locations.oreillyauto.com/ca/riverside/wiper-installation-3814.html,Mo-Sa 07:30-22:00; Su 07:30-21:00,O'Reilly Auto Parts,Q7071951
https://locations.oreillyauto.com/ca/riverside/autopartes-3814.html,oreilly,Tu tienda O'Reilly Auto Parts en Riverside,,Riverside,CA,,US,+1 951-780-8721,https://locations.oreillyauto.com/ca/riverside/autopartes-3814.html,Mo-Sa 07:30-22:00; Su 07:30-21:00,O'Reilly Auto Parts,Q7071951
111597,pandaexpress,Van Buren & Trautwein,,Riverside,CA,,US,+1 951-697-7691,https://www.pandaexpress.com/locations/ca/riverside/8974-trautwein-road-space-b,Mo-Th 09:30-21:30; Fr-Sa 10:00-21:30; Su 09:30-21:30,Panda Express,Q1358690
0000889763,phillips_66_conoco_76,PINNACLE CONVENIENCE STATIONS,,RIVERSIDE,CA,,US,+1 951-776-0011,,,U76,Q1658320
ca_riverside_19040-van-buren-blvd,pizza_hut_us,19040 Van Buren Blvd,,Riverside,CA,,US,+1 951-780-8227,https://locations.pizzahut.com/ca/riverside/19040-van-buren-blvd,,Pizza Hut,Q191615
43198,seven_eleven_ca_us,7-Eleven,,Riverside,CA,,US,,https://www.7-eleven.com/locations/ca/riverside/8902-trautwein-rd-43198,,7-Eleven,Q259340
43183,seven_eleven_ca_us,7-Eleven,,Riverside,CA,,US,+1 951-780-7415,https://www.7-eleven.com/locations/ca/riverside/401-e-alessandro-blvd-43183,,7-Eleven,Q259340
43106,seven_eleven_ca_us,7-Eleven,,Riverside,CA,,US,+1 800-255-0711,https://www.7-eleven.com/locations/ca/riverside/2624-e-alessandro-blvd-43106,,7-Eleven,Q259340
https://www.sprouts.com/store/ca/riverside/e-alessandro-blvd/,sprouts_farmer_market,Sprouts Farmers Market 210-Riverside,,Riverside,CA,,US,+1 951-565-5400,https://www.sprouts.com/store/ca/riverside/e-alessandro-blvd/,Mo-Su 07:00-22:00,Sprouts Farmer Market,Q7581369
201,stater_bros_us,Stater Bros. Markets Mission Grove,"315 E Alessandro Blvd, Riverside, CA 92508, USA",Riverside,CA,,US,+1 951-565-5426,https://www.staterbros.com/stores/201,Mo-Su 06:00-23:00,Stater Bros.,Q7604016
https://restaurants.subway.com/#14899024,subway,Subway,,Riverside Riverside,CA,,US,+1 951-656-4283,https://restaurants.subway.com/united-states/ca/riverside/19530-van-buren-blvd,Mo-Sa 08:00-22:00; Su 08:00-21:00,Subway,Q244457
https://restaurants.subway.com/#14917052,subway,Subway Mission Grove Plaza S/C,,Riverside Riverside,CA,,US,+1 951-565-8444,https://restaurants.subway.com/united-states/ca/riverside/195-e-alessandro-blvd,,Subway,Q244457
https://restaurants.subway.com/#14914001,subway,Subway Orangewood Centre,,Riverside Riverside,CA,,US,+1 951-789-8202,https://restaurants.subway.com/united-states/ca/riverside/18590-van-buren-blvd,Mo-Fr 07:00-21:00; Sa 08:00-21:00; Su 09:00-21:00,Subway,Q244457
https://locations.tacobell.com/#6145671,taco_bell,Taco Bell,,Riverside,CA,,US,+1 951-780-2493,https://locations.tacobell.com/ca/riverside/181-e-alessandro-blvd.html,Mo-Su 08:00-02:00,Taco Bell,Q752941
https://locations.tacobell.com/#15490059,taco_bell,Taco Bell,,Riverside,CA,,US,+1 951-848-0126,https://locations.tacobell.com/ca/riverside/17965-van-buren-blvd.html,Mo-Su 07:00-01:00,Taco Bell,Q752941
031582,uhaul,Arco,2646 E Alessandro Bl,Riverside,CA,,US,+1 951-247-4652,,Mo-Sa 30:00-16:00; Su 00:00-15:00,U-Haul,Q7862902
9250800001,usps_collection_boxes,USPS COLLECTION BOX - BLUE BOX,361 E ALESSANDRO BLVD,RIVERSIDE,CA,,US,,,,United States Postal Service,Q668687
riverside_oil-change-gn0097,valvoline_instant_oil_change,Valvoline,7450 Mission Grove Pkwy. S ,Riverside,CA,,US,+1 951-780-2500,https://store.vioc.com/ca/riverside/oil-change-gn0097.html,,Valvoline Instant Oil Change,Q7912852
riverside_oil-change-gn0118,valvoline_instant_oil_change,Valvoline,18681 Van Buren Blvd. ,Riverside,CA,,US,+1 951-789-2882,https://store.vioc.com/ca/riverside/oil-change-gn0118.html,,Valvoline Instant Oil Change,Q7912852
A00000220093,verizon_us,Victra Riverside Alessandro,,RIVERSIDE,CA,,US,+1 951-776-9200,https://www.verizon.com/stores/details/california/riverside/victra-riverside-alessandro-1624322/,Mo-Fr 10:00-20:00; Sa 10:00-19:00; Su 11:00-19:00,Verizon,Q919641
,visa,,,RIVERSIDE,CA,,US,,,,,
,visa,,,RIVERSIDE,CA,,US,,,,,
,visa,,,RIVERSIDE,CA,,US,,,,,
,visa,,,RIVERSIDE,CA,,US,,,,,
,visa,,,RIVERSIDE,CA,,US,,,,,
,visa,,,RIVERSIDE,CA,,US,,,,,
,visa,,,RIVERSIDE,CA,,US,,,,,
,visa,,,RIVERSIDE,CA,,US,,,,,
,visa,,,RIVERSIDE,CA,,US,,,,,
,visa,,,RIVERSIDE,CA,,US,,,,,
,visa,,,RIVERSIDE,CA,,US,,,,,
,visa,,,RIVERSIDE,CA,,US,,,,,
,visa,,,RIVERSIDE,CA,,US,,,,,
,visa,,,RIVERSIDE,CA,,US,,,,,
,visa,,,RIVERSIDE,CA,,US,,,,,
,visa,,,RIVERSIDE,CA,,US,,,,,
,visa,,,RIVERSIDE,CA,,US,,,,,
,visa,,,RIVERSIDE,CA,,US,,,,,
,visa,,,RIVERSIDE,CA,,US,,,,,
,visa,,,RIVERSIDE,CA,,US,,,,,
,visa,,,RIVERSIDE,CA,,US,,,,,
,visa,,,RIVERSIDE,CA,,US,,,,,
,visa,,,RIVERSIDE,CA,,US,,,,,
,visa,,,RIVERSIDE,CA,,US,,,,,
,visa,,,WOODCREST,CA,,US,,,,,
,visa,,,RIVERSIDE,CA,,US,,,,,
,visa,,,RIVERSIDE,CA,,US,,,,,
,visa,,,RIVERSIDE,CA,,US,,,,,
,visa,,,RIVERSIDE,CA,,US,,,,,
,visa,,,RIVERSIDE,CA,,US,,,,,
,visa,,,RIVERSIDE,CA,,US,,,,,
https://www.walgreens.com/locator/walgreens-8917+trautwein+rd-riverside-ca-92508/id=7786,walgreens,Walgreens,,Riverside,CA,,US,+1 951-776-0470,https://www.walgreens.com/locator/walgreens-8917+trautwein+rd-riverside-ca-92508/id=7786,Mo-Su 07:00-23:00,Walgreens,Q1591889
8938__TRAUTWEIN__RD_RIVERSIDE_CA_92508,wellsfargo,,8938 TRAUTWEIN RD,RIVERSIDE,CA,,US,+1 800-869-3557,https://www.wellsfargo.com/locator/bank/8938__TRAUTWEIN__RD_RIVERSIDE_CA_92508/,,Wells Fargo,Q744149
483__E__ALESSANDRO__BLVD_RIVERSIDE_CA_92508,wellsfargo,Wells Fargo,483 E ALESSANDRO BLVD,RIVERSIDE,CA,,US,+1 951-328-2880,https://www.wellsfargo.com/locator/bank/483__E__ALESSANDRO__BLVD_RIVERSIDE_CA_92508/,Mo-Fr 09:00-17:00,Wells Fargo,Q744149
347__E__ALESSANDRO__BLVD_RIVERSIDE_CA_92508,wellsfargo,,347 E ALESSANDRO BLVD,RIVERSIDE,CA,,US,+1 800-869-3557,https://www.wellsfargo.com/locator/bank/347__E__ALESSANDRO__BLVD_RIVERSIDE_CA_92508/,,Wells Fargo,Q744149
https://locations.wendys.com/#9255269,wendys,"Wendy's 8745 Trautwein Road in Riverside, CA",,Riverside,CA,,US,+1 951-780-5846,https://locations.wendys.com/united-states/ca/riverside/8745-trautwein-road,"Mo-Su 06:30-10:30,06:30-22:00",Wendy's,Q550258
497d28cc3a16d71fd166df893d9f5060,western_union,7-11 STORE 43106,,Riverside,CA,,US,+1 951-697-8084,https://location.westernunion.com/us/ca/riverside/497d28cc3a16d71fd166df893d9f5060,,Western Union,Q861042
7c992468af78497e51b43551726ebd51,western_union,7-ELEVEN/SUNOCO #43183,,Riverside,CA,,US,+1 951-780-7415,https://location.westernunion.com/us/ca/riverside/7c992468af78497e51b43551726ebd51,,Western Union,Q861042
c2f9e2709cff69e356d186b5e8a9a740,western_union,ALBERTSONS #2514,,Riverside,CA,,US,+1 951-656-6603,https://location.westernunion.com/us/ca/riverside/c2f9e2709cff69e356d186b5e8a9a740,Mo-Su 08:00-20:00,Western Union,Q861042
dfc016928e5276d5f5f8f60543fa1058,western_union,7-ELEVEN/SUNOCO #43198,,Riverside,CA,,US,+1 951-653-6087,https://location.westernunion.com/us/ca/riverside/dfc016928e5276d5f5f8f60543fa1058,,Western Union,Q861042
9212,wingstop,Wingstop Riverside Van Buren Blvd,18560 Van Buren Blvd Ste 1A & 1B,Riverside,CA,,US,+1 951-789-9464,,,Wingstop,Q8025339
