Ref,Spider,Name,Address,City,State,Zipcode,Country,Phone,Website,Hours,Brand,WikiData
/locations/propane-offices/minnesota/worthington/959-east-gateway-dr,amerigas,"AmerGas Propane | Worthington, Minnesota",,Worthington,MN,,US,+1 507-376-3697,/locations/propane-offices/minnesota/worthington/959-east-gateway-dr,,AmeriGas,Q23130318
2280,anytime_fitness,Anytime Fitness,,Worthington,MN,,US,+1 507-295-7110,https://www.anytimefitness.com/gyms/2280/worthington-mn-56187/,,Anytime Fitness,Q4778364
https://locations.arbys.com/mn/worthington/1663-n-humiston-ave.html,arbys_us,"Arby's Fast-Food Drive Through Near You in Worthington, MN",,Worthington,MN,,US,+1 507-372-4944,https://locations.arbys.com/mn/worthington/1663-n-humiston-ave.html,Mo-Su 10:00-22:00,Arby's,Q630866
23884,asics_us,Brown's Shoe Fit Worthington,324 10th St,Worthington,MN,,US,+1 507-376-4160,,Mo-Fr 09:00-18:00; Sa 09:00-16:00,asics,Q327247
203574,bluerhino,CASEY'S GENERAL STORE #3263,,WORTHINGTON,MN,,US,+1 507-376-1010,,,Blue Rhino,Q65681213
178568,bluerhino,"Schwalbach Hardware, Inc #11988",,Worthington,MN,,US,+1 507-376-4555,,,Blue Rhino,Q65681213
152713,bluerhino,Walgreens #10189,,Worthington,MN,,US,+1 507-372-7496,,,Blue Rhino,Q65681213
203481,bluerhino,CASEY'S GENERAL STORE #1686,,WORTHINGTON,MN,,US,+1 507-376-4623,,,Blue Rhino,Q65681213
225218,bluerhino,CASEY'S GENERAL STORE #4379,,Worthington,MN,,US,+1 507-329-2354,,,Blue Rhino,Q65681213
WX000189,bmo,Walgreens,,Worthington,MN,,US,,,,BMO,Q4835981
P418172,bmo,Interstate Cenex,,Worthington,MN,,US,,,,BMO,Q4835981
12954,cenex,Blueline Junction,,Worthington,MN,,US,+1 507-372-4038,,24/7,Cenex,Q62127191
3369,cenex,Cooperative Energy Co,,Worthington,MN,,US,+1 507-376-4480,,24/7,Cenex,Q62127191
62361,citi,ATM Kwik Trip #1212-1,,Worthington,MN,,US,,,,Citibank,Q857063
62362,citi,ATM Kwik Trip #1212-2,,Worthington,MN,,US,,,,Citibank,Q857063
34538,citi,ATM AMERICAN BANK AND TRUST,,Worthington,MN,,US,,,,Citibank,Q857063
87388,citi,ATM Walgreens,,Worthington,MN,,US,,,,Citibank,Q857063
85777,citi,ATM UNITED PRAIRIE BANK,,Worthington,MN,,US,,,,Citibank,Q857063
62111,citi,ATM Kwik Trip #1028-1,,Worthington,MN,,US,,,,Citibank,Q857063
62112,citi,ATM Kwik Trip #1028-2,,Worthington,MN,,US,,,,Citibank,Q857063
34525,citi,ATM AMERICAN BANK AND TRUST,,Worthington,MN,,US,,,,Citibank,Q857063
70088354,cricket_wireless,Cricket Wireless Authorized Retailer,,Worthington,MN,,US,+1 507-295-2116,https://www.cricketwireless.com/stores/ll/US/MN/Worthington/1151-Ryans-Rd,Mo-Sa 10:00-19:00; Su 12:00-17:00,Cricket Wireless,Q5184987
1916,dominos_pizza_us,Domino's Pizza,,Worthington,MN,,US,+1 507-350-3333,https://pizza.dominos.com/minnesota/worthington/1300-humiston-ave,Mo-Th 10:30-24:00; Fr-Sa 10:30-01:00; Su 10:30-24:00,Domino's,Q839466
https://www.edwardjones.com/us-en/financial-advisor/john-standafer,edwardjones,John P Standafer,,Worthington,MN,,US,+1 507-376-9262,https://www.edwardjones.com/us-en/financial-advisor/john-standafer,,Edward Jones,Q5343830
110162,electrify_america,"Casey's Worthington #3 (Worthington, MN)",,Worthington,MN,,US,,,,Electrify America,Q59773555
Motorcraft4579USAEnglish,ford,"K & S Motors, Inc.",,Minnesota,MN,,US,+1 507-727-7000,,,Ford,Q44294
https://www.ford.com/dealerships/dealer-details/mn/worthington/billion-wf-inc/,ford_dealers_us,"Billion WF, Inc.",,Worthington,MN,,US,+1 507-666-3128,https://www.ford.com/dealerships/dealer-details/mn/worthington/billion-wf-inc/,Mo-Th 08:00-19:00; Fr-Sa 08:00-18:00,Ford Motor Company,Q44294
6c9f1b70-a9a6-e311-9471-0050568924e6,goodwill,Worthington Store,,Worthington,MN,,US,+1 507-376-6687,https://www.goodwill.org/locator/location/?store=NmM5ZjFiNzAtYTlhNi1lMzExLTk0NzEtMDA1MDU2ODkyNGU2&lat=NDMuNjM0ODM=&lng=LTk1LjU5NjA5,,Goodwill,Q5583655
https://salons.greatclips.com/us/mn/worthington/1151-ryans-rd,greatclips,Great Clips,,Worthington,MN,,US,+1 507-376-5566,https://salons.greatclips.com/us/mn/worthington/1151-ryans-rd,Mo-Fr 09:00-18:00; Sa 08:00-17:00; Su 11:00-17:00,Great Clips,Q5598967
23314,h_r_block,H&R Block,,Worthington,MN,,US,+1 507-376-4108,https://www.hrblock.com/local-tax-offices/minnesota/worthington/1039-oxford-st/23314/,,H&R Block,Q5627799
https://locations.jimmyjohns.com/mn/worthington/sandwiches-2485.html,jimmy_johns,Jimmy John's,,Worthington,MN,,US,+1 507-372-5646,https://locations.jimmyjohns.com/mn/worthington/sandwiches-2485.html,,Jimmy John's,Q1689380
https://locations.kfc.com/#11250239,kfc,Chicken Nuggets Near Worthington,,Worthington,MN,,US,,https://locations.kfc.com/mn/worthington/1720-n-humiston-avenue/chickennugget,Mo-Su 10:30-21:00,KFC,Q524757
68889,man_truck_and_bus,"RONÂ´S REPAIR, INC. ",,Worthington,MN,,US,+1 507-343-4265,,,MAN Truck & Bus,Q708667
https://locations.maurices.com/#11688469,maurices,maurices Worthington Rtl. Ctr.,,Worthington,MN,,US,+1 507-372-7522,https://locations.maurices.com/us/mn/worthington/1151-ryans-road,Mo-Fr 10:00-19:00; Sa 10:00-17:00; Su 12:00-17:00,maurices,Q6793571
https://locations.oreillyauto.com/mn/worthington/check-engine-light-testing-1805.html,oreilly,Your Worthington O'Reilly Auto Parts Store,,Worthington,MN,,US,+1 507-372-4050,https://locations.oreillyauto.com/mn/worthington/check-engine-light-testing-1805.html,Mo-Sa 07:30-20:00; Su 09:00-18:00,O'Reilly Auto Parts,Q7071951
https://locations.oreillyauto.com/mn/worthington/battery-testing-1805.html,oreilly,Your Worthington O'Reilly Auto Parts Store,,Worthington,MN,,US,+1 507-372-4050,https://locations.oreillyauto.com/mn/worthington/battery-testing-1805.html,Mo-Sa 07:30-20:00; Su 09:00-18:00,O'Reilly Auto Parts,Q7071951
https://locations.oreillyauto.com/mn/worthington/wiper-installation-1805.html,oreilly,Your Worthington O'Reilly Auto Parts Store,,Worthington,MN,,US,+1 507-372-4050,https://locations.oreillyauto.com/mn/worthington/wiper-installation-1805.html,Mo-Sa 07:30-20:00; Su 09:00-18:00,O'Reilly Auto Parts,Q7071951
https://locations.oreillyauto.com/mn/worthington/autopartes-1805.html,oreilly,Tu tienda O'Reilly Auto Parts en Worthington,,Worthington,MN,,US,+1 507-372-4050,https://locations.oreillyauto.com/mn/worthington/autopartes-1805.html,Mo-Sa 07:30-20:00; Su 09:00-18:00,O'Reilly Auto Parts,Q7071951
304,scooters_coffee_us,Oxford & N McMillan St,,Worthington,MN,,US,+1 507-727-1429,,Mo-Su 06:00-20:00,Scooter's Coffee,Q117280308
https://restaurants.subway.com/#14915702,subway,Subway,,Worthington Nobles,MN,,US,+1 507-372-5600,https://restaurants.subway.com/united-states/mn/worthington/1471-humeston-ave,Mo-We 08:00-22:00; Th-Fr 08:00-23:00; Sa-Su 08:00-22:00,Subway,Q244457
583874,taco_johns_us,Worthington,"1444 Oxford St, Worthington MN 56187",Worthington,MN,,US,+1 507-376-6661,https://locations.tacojohns.com/mn/worthington/1444-oxford-st/,Mo-Su 07:00-22:00,Taco John's,Q7673962
1388320,usps,WORTHINGTON,,WORTHINGTON,MN,,US,+1 507-376-4870,,Mo-Fr 08:30-16:30; Sa 09:00-11:00,United States Postal Service,Q668687
5618700006,usps_collection_boxes,USPS COLLECTION BOX - BLUE BOX,315 10TH ST,WORTHINGTON,MN,,US,,,,United States Postal Service,Q668687
5618700000,usps_collection_boxes,USPS COLLECTION BOX - BLUE BOX,850 10TH ST,WORTHINGTON,MN,,US,,,,United States Postal Service,Q668687
5618700001,usps_collection_boxes,USPS COLLECTION BOX - BLUE BOX,850 10TH ST,WORTHINGTON,MN,,US,,,,United States Postal Service,Q668687
5618700002,usps_collection_boxes,USPS COLLECTION BOX - BLUE BOX,850 10TH ST,WORTHINGTON,MN,,US,,,,United States Postal Service,Q668687
5618700014,usps_collection_boxes,USPS COLLECTION BOX - PO LOBBY,850 10TH ST,WORTHINGTON,MN,,US,,,,United States Postal Service,Q668687
5618700016,usps_collection_boxes,USPS COLLECTION BOX - PO LOBBY,850 10TH ST,WORTHINGTON,MN,,US,,,,United States Postal Service,Q668687
5618700025,usps_collection_boxes,USPS COLLECTION BOX - PO LOBBY,850 10TH ST,WORTHINGTON,MN,,US,,,,United States Postal Service,Q668687
5618700012,usps_collection_boxes,USPS COLLECTION BOX - BLUE BOX,1235 OXFORD ST,WORTHINGTON,MN,,US,,,,United States Postal Service,Q668687
5618700008,usps_collection_boxes,USPS COLLECTION BOX - BLUE BOX,1401 OXFORD ST,WORTHINGTON,MN,,US,,,,United States Postal Service,Q668687
5618700024,usps_collection_boxes,USPS COLLECTION BOX - BLUE BOX,1055 RYANS RD,WORTHINGTON,MN,,US,,,,United States Postal Service,Q668687
A00000250975,verizon_us,BeMobile Worthington,,Worthington,MN,,US,+1 507-727-8160,https://www.verizon.com/stores/details/minnesota/worthington/bemobile-worthington-1888822/,Mo-Fr 10:00-19:00; Sa 10:00-18:00; Su 11:00-16:00,Verizon,Q919641
,visa,,,WORTHINGTON,MN,,US,,,,,
,visa,,,WORTHINGTON,MN,,US,,,,,
,visa,,,WORTHINGTON,MN,,US,,,,,
,visa,,,WORTHINGTON,MN,,US,,,,,
,visa,,,WORTHINGTON,MN,,US,,,,,
,visa,,,WORTHINGTON,MN,,US,,,,,
,visa,,,WORTHINGTON,MN,,US,,,,,
,visa,,,WORTHINGTON,MN,,US,,,,,
,visa,,,WORTHINGTON,MN,,US,,,,,
,visa,,,WORTHINGTON,MN,,US,,,,,
,visa,,,WORTHINGTON,MN,,US,,,,,
,visa,,,WORTHINGTON,MN,,US,,,,,
,visa,,,WORTHINGTON,MN,,US,,,,,
,visa,,,WORTHINGTON,MN,,US,,,,,
,visa,,,WORTHINGTON,MN,,US,,,,,
,visa,,,WORTHINGTON,MN,,US,,,,,
,visa,,,WORTHINGTON,MN,,US,,,,,
,visa,,,WORTHINGTON,MN,,US,,,,,
,visa,,,WORTHINGTON,MN,,US,,,,,
,visa,,,WORTHINGTON,MN,,US,,,,,
,visa,,,WORTHINGTON,MN,,US,,,,,
,visa,,,WORTHINGTON,MN,,US,,,,,
,visa,,,WORTHINGTON,MN,,US,,,,,
,visa,,,WORTHINGTON,MN,,US,,,,,
,visa,,,WORTHINGTON,MN,,US,,,,,
,visa,,,WORTHINGTON,MN,,US,,,,,
https://www.walgreens.com/locator/walgreens-1321+oxford+st-worthington-mn-56187/id=10189,walgreens,Walgreens,,Worthington,MN,,US,+1 507-372-7496,https://www.walgreens.com/locator/walgreens-1321+oxford+st-worthington-mn-56187/id=10189,Mo-Su 09:00-21:00,Walgreens,Q1591889
1028__RYAN%27S__RD_WORTHINGTON_MN_56187,wellsfargo,,1028 RYAN'S RD,WORTHINGTON,MN,,US,+1 800-869-3557,https://www.wellsfargo.com/locator/bank/1028__RYAN%27S__RD_WORTHINGTON_MN_56187/,,Wells Fargo,Q744149
1010__2ND__AVE_WORTHINGTON_MN_56187,wellsfargo,Wells Fargo,1010 2ND AVE,WORTHINGTON,MN,,US,+1 507-376-3141,https://www.wellsfargo.com/locator/bank/1010__2ND__AVE_WORTHINGTON_MN_56187/,Mo-Fr 09:00-17:00,Wells Fargo,Q744149
95842dc1ed6be5de8b670fab3692acf8,western_union,PANADERIA MI TIERRA,,Worthington,MN,,US,+1 507-343-0324,https://location.westernunion.com/us/mn/worthington/95842dc1ed6be5de8b670fab3692acf8,Mo-Su 05:00-23:00,Western Union,Q861042
03f6f978cce65852839b385455f62c9f,western_union,WALMART #002820,,Worthington,MN,,US,+1 507-376-6446,https://location.westernunion.com/us/mn/worthington/03f6f978cce65852839b385455f62c9f,Mo-Su 07:00-21:00,Western Union,Q861042
