Ref,Spider,Name,Address,City,State,Zipcode,Country,Phone,Website,Hours,Brand,WikiData
194694,bluerhino,Hannaford #8209,,Madawaska,ME,,US,+1 207-728-6316,,,Blue Rhino,Q65681213
121678,bluerhino,Valley Fuel Stop,,Madawaska,ME,,US,+1 207-728-3221,,,Blue Rhino,Q65681213
91987,bluerhino,Bob's Service Center,,Madawaska,ME,,US,+1 207-728-3839,,,Blue Rhino,Q65681213
164452,bluerhino,Family Dollar #06806,,Madawaska,ME,,US,+1 207-728-4194,,,Blue Rhino,Q65681213
191299,bluerhino,Walgreens #19304,,Madawaska,ME,,US,+1 207-728-3815,,,Blue Rhino,Q65681213
,credit_union_us,Acadia FCU,,Madawaka,ME,,US,+1 207-834-6167,,Mo-Fr 09:00-05:00; Sa 08:30-12:00,,
,credit_union_us,NorState FCU,,Madawaska,ME,,US,+1 207-728-7555,,Mo-Fr 09:00-05:00,,
https://locations.oreillyauto.com/me/madawaska/check-engine-light-testing-4522.html,oreilly,Your Madawaska O'Reilly Auto Parts Store,,Madawaska,ME,,US,+1 207-728-3146,https://locations.oreillyauto.com/me/madawaska/check-engine-light-testing-4522.html,Mo-Fr 07:00-19:00; Sa 07:00-18:00; Su 09:00-17:00,O'Reilly Auto Parts,Q7071951
https://locations.oreillyauto.com/me/madawaska/wiper-installation-4522.html,oreilly,Your Madawaska O'Reilly Auto Parts Store,,Madawaska,ME,,US,+1 207-728-3146,https://locations.oreillyauto.com/me/madawaska/wiper-installation-4522.html,Mo-Fr 07:00-19:00; Sa 07:00-18:00; Su 09:00-17:00,O'Reilly Auto Parts,Q7071951
https://locations.oreillyauto.com/me/madawaska/battery-testing-4522.html,oreilly,Your Madawaska O'Reilly Auto Parts Store,,Madawaska,ME,,US,+1 207-728-3146,https://locations.oreillyauto.com/me/madawaska/battery-testing-4522.html,Mo-Fr 07:00-19:00; Sa 07:00-18:00; Su 09:00-17:00,O'Reilly Auto Parts,Q7071951
https://locations.oreillyauto.com/me/madawaska/autopartes-4522.html,oreilly,Tu tienda O'Reilly Auto Parts en Madawaska,,Madawaska,ME,,US,+1 207-728-3146,https://locations.oreillyauto.com/me/madawaska/autopartes-4522.html,Mo-Fr 07:00-19:00; Sa 07:00-18:00; Su 09:00-17:00,O'Reilly Auto Parts,Q7071951
https://restaurants.subway.com/#14913918,subway,Subway,,Madawaska Aroostook,ME,,US,+1 207-728-7199,https://restaurants.subway.com/united-states/me/madawaska/116-main-st,Mo-Su 08:00-21:00,Subway,Q244457
1371347,usps,MADAWASKA,,MADAWASKA,ME,,US,+1 207-728-4302,,Mo-Fr 08:30-16:00; Sa 08:30-12:00,United States Postal Service,Q668687
0475600012,usps_collection_boxes,USPS COLLECTION BOX - BLUE BOX,58 MAIN ST,MADAWASKA,ME,,US,,,,United States Postal Service,Q668687
0475600018,usps_collection_boxes,USPS COLLECTION BOX - BLUE BOX,78 FOX ST,MADAWASKA,ME,,US,,,,United States Postal Service,Q668687
0475600019,usps_collection_boxes,USPS COLLECTION BOX - BLUE BOX,131 MAIN ST,MADAWASKA,ME,,US,,,,United States Postal Service,Q668687
0475600006,usps_collection_boxes,USPS COLLECTION BOX - BLUE BOX,309 SAINT THOMAS ST,MADAWASKA,ME,,US,,,,United States Postal Service,Q668687
0475600013,usps_collection_boxes,USPS COLLECTION BOX - BLUE BOX,82 BRIDGE AVE,MADAWASKA,ME,,US,,,,United States Postal Service,Q668687
0475600005,usps_collection_boxes,USPS COLLECTION BOX - BLUE BOX,328 SAINT THOMAS ST,MADAWASKA,ME,,US,,,,United States Postal Service,Q668687
0475600020,usps_collection_boxes,USPS COLLECTION BOX - PO LOBBY,370 MAIN ST,MADAWASKA,ME,,US,,,,United States Postal Service,Q668687
0475600021,usps_collection_boxes,USPS COLLECTION BOX - PO LOBBY,370 MAIN ST,MADAWASKA,ME,,US,,,,United States Postal Service,Q668687
0475600023,usps_collection_boxes,USPS COLLECTION BOX - PO LOBBY,370 MAIN ST,MADAWASKA,ME,,US,,,,United States Postal Service,Q668687
0475600016,usps_collection_boxes,USPS COLLECTION BOX - BLUE BOX,370 MAIN ST,MADAWASKA,ME,,US,,,,United States Postal Service,Q668687
,visa,,,MADAWASKA,ME,,US,,,,,
,visa,,,MADAWASKA,ME,,US,,,,,
,visa,,,MADAWASKA,ME,,US,,,,,
,visa,,,MADAWASKA,ME,,US,,,,,
https://www.walgreens.com/locator/walgreens-429+main+st-madawaska-me-04756/id=19304,walgreens,Walgreens,,Madawaska,ME,,US,+1 207-728-3815,https://www.walgreens.com/locator/walgreens-429+main+st-madawaska-me-04756/id=19304,Mo-Su 08:00-20:00,Walgreens,Q1591889
0871d2a263a6932b9c355f39b41528fc,western_union,WALGREENS #19304,,Madawaska,ME,,US,+1 207-728-4037,https://location.westernunion.com/us/me/madawaska/0871d2a263a6932b9c355f39b41528fc,Mo-Fr 08:00-21:00; Sa 08:00-20:00; Su 08:00-19:00,Western Union,Q861042
