Ref,Spider,Name,Address,City,State,Zipcode,Country,Phone,Website,Hours,Brand,WikiData
Ford39750INDen,ford,"Hans Ford, Chennai",,Chennai,,,IN,+91 91764 06666,,,Ford,Q44294
72668483,moneygram,NBRS AIR TRAVELS - CHENNAI,,CHENNAI,,,IN,+91 98413 55573,,Mo-Su 10:00-18:30,MoneyGram,Q1944412
73278568,moneygram,MUTHOOT FINANCE LTD - #2886 - THIRUVALLO,,THIRUVALLORE,,,IN,+91 44 4261 2752,,Mo-Su 09:00-19:00,MoneyGram,Q1944412
73254249,moneygram,MUTHOOT FINANCE LTD - #560 - CHENNAI - P,,CHENNAI,,,IN,+91 44 4318 9892,,Mo-Su 09:00-19:00,MoneyGram,Q1944412
73385956,moneygram,DHANYA SAI AGENCIES,,SRIPERUMBUDUR,,,IN,+91 94456 07776,,Mo-Su 08:00-21:00,MoneyGram,Q1944412
73385943,moneygram,DILKUSH FOREX TRAVELS,,SRIPERUMBUDUR,,,IN,+91 95516 17786,,Mo-Su 08:00-21:00,MoneyGram,Q1944412
73542294,moneygram,R K AGENCY,,SRIPERUMBUDUR,,,IN,+91 81220 02044,,Mo-Su 08:00-21:00,MoneyGram,Q1944412
73648185,moneygram,P R TOURS AND TRAVELS,,CHENNAI,,,IN,+91 99408 34619,,Mo-Su 08:00-21:00,MoneyGram,Q1944412
73742052,moneygram,A NET WORLD,,CHENNAI,,,IN,+91 99529 37281,,Mo-Su 08:00-21:00,MoneyGram,Q1944412
73752291,moneygram,GRAND HUB,,CHENNAI,,,IN,+91 90949 69737,,Mo-Su 08:00-21:00,MoneyGram,Q1944412
73754134,moneygram,SS TOURS AND TRAVELS,,KANCHEEPURAM,,,IN,+91 87781 47255,,Mo-Su 08:00-21:00,MoneyGram,Q1944412
73732428,moneygram,TELEBEATS,,CHENNAI,,,IN,+91 98404 15415,,Mo-Su 08:00-21:00,MoneyGram,Q1944412
73815617,moneygram,ANNAMALAIYAR TOURS TRAVELS,,MOULIPAKKAM,,,IN,+91 95000 34513,,Mo-Su 08:00-21:00,MoneyGram,Q1944412
43485352,moneygram,MANAPPURAM FINANCE,,SRIPERUMBUDUR,,,IN,+91 93812 07301,,Mo-Sa 09:30-18:30; Su 00:00-24:00,MoneyGram,Q1944412
65742060,moneygram,MANAPPURAM FINANCE,,SRIPERUMBUDUR,,,IN,+91 44 2382 1467,,Mo-Fr 09:30-18:30; Sa-Su 00:00-24:00,MoneyGram,Q1944412
65820461,moneygram,MANAPPURAM FINANCE,,SRIPERUMBUDUR,,,IN,+91 44 2476 6602,,Mo-Sa 09:30-18:30; Su 00:00-24:00,MoneyGram,Q1944412
N234397,united_colors_of_benetton,Benetton Chennai,,CHENNAI,,,IN,+91 96638 66576,,,United Colors of Benetton,Q817139
,visa,,,CHENNAI,,,IN,,,,,
,visa,,,CHENNAI,,,IN,,,,,
,visa,,,PORUR,,,IN,,,,,
,visa,,,CHENNAI,,,IN,,,,,
,visa,,,CHENNAI,,,IN,,,,,
