Ref,Spider,Name,Address,City,State,Zipcode,Country,Phone,Website,Hours,Brand,WikiData
167389,bluerhino,Gary & Leos Iga #2 - #235845,,Conrad,MT,,US,+1 406-278-7843,,,Blue Rhino,Q65681213
3660,cenex,Mountain View Co-op,,Conrad,MT,,US,+1 406-278-5524,,24/7,Cenex,Q62127191
,credit_union_us,1st Liberty FCU,,Conrad,MT,,US,+1 406-278-3020,,Mo-Fr 09:00-05:00,,
Motorcraft5495USAEnglish,ford,Intercontinental Trk Bdy Inc,,Montana,MT,,US,,,,Ford,Q44294
Motorcraft5499USAEnglish,ford,"Courtesy Ford Sales, Inc.",,Montana,MT,,US,+1 406-278-5533,,,Ford,Q44294
26962,h_r_block,H&R Block,,Conrad,MT,,US,+1 406-278-7778,https://www.hrblock.com/local-tax-offices/montana/conrad/411-s-main-st/26962/,,H&R Block,Q5627799
Gary & Leo's Fresh Foods,iga,Gary & Leo's Fresh Foods,"600 South Main Street, Conrad, MT, 59425",Conrad,MT,,US,+1 402-747-2711,https://www.garyandleos.com/,,IGA,Q3146662
68530596,moneygram,CONRAD IGA,,CONRAD,MT,,US,+1 406-278-7843,,Mo-Su 06:00-23:00,MoneyGram,Q1944412
0000876479,phillips_66_conoco_76,CONRAD 1 1155,,CONRAD,MT,,US,+1 406-278-7971,,,Conoco,Q109341187
conrad-bldg-ctr-dib-0451-38966,ppgpaints,CONRAD BLDG CTR DIB 0451,,"Conrad, ",MT,,US,+1 260-748-5375,https://www.ppgpaints.com/store-locator/us/montana/conrad-paint-stores/conrad-bldg-ctr-dib-0451-38966,,PPG Paints,Q83891559
https://restaurants.subway.com/#14897567,subway,Subway Conrad Town Pump,,Conrad Montana,MT,,US,+1 406-278-0195,https://restaurants.subway.com/united-states/mt/conrad/215-north-main,Mo-Su 09:00-22:00,Subway,Q244457
1358954,usps,CONRAD,,CONRAD,MT,,US,+1 406-278-5863,,"Mo-Fr 08:30-13:00,14:00-17:00",United States Postal Service,Q668687
5942500000,usps_collection_boxes,USPS COLLECTION BOX - BLUE BOX,20 4TH AVE SW,CONRAD,MT,,US,,,,United States Postal Service,Q668687
5942500001,usps_collection_boxes,USPS COLLECTION BOX - BLUE BOX,600 S MAIN ST,CONRAD,MT,,US,,,,United States Postal Service,Q668687
5942500003,usps_collection_boxes,USPS COLLECTION BOX - PO LOBBY,14 5TH AVE SE,CONRAD,MT,,US,,,,United States Postal Service,Q668687
5942500005,usps_collection_boxes,USPS COLLECTION BOX - PO LOBBY,14 5TH AVE SE,CONRAD,MT,,US,,,,United States Postal Service,Q668687
5942500006,usps_collection_boxes,USPS COLLECTION BOX - PO LOBBY,14 5TH AVE SE,CONRAD,MT,,US,,,,United States Postal Service,Q668687
5942500002,usps_collection_boxes,USPS COLLECTION BOX - BLUE BOX,14 5TH AVE SE,CONRAD,MT,,US,,,,United States Postal Service,Q668687
5942500009,usps_collection_boxes,USPS COLLECTION BOX - PO LOBBY,14 5TH AVE SE,CONRAD,MT,,US,,,,United States Postal Service,Q668687
5942500004,usps_collection_boxes,USPS COLLECTION BOX - BLUE BOX,14 5TH AVE SE,CONRAD,MT,,US,,,,United States Postal Service,Q668687
,visa,,,CONRAD,MT,,US,,,,,
,visa,,,CONRAD,MT,,US,,,,,
,visa,,,CONRAD,MT,,US,,,,,
,visa,,,CONRAD,MT,,US,,,,,
,visa,,,CONRAD,MT,,US,,,,,
,visa,,,CONRAD,MT,,US,,,,,
,visa,,,CONRAD,MT,,US,,,,,
,visa,,,CONRAD,MT,,US,,,,,
,visa,,,CONRAD,MT,,US,,,,,
,visa,,,CONRAD,MT,,US,,,,,
,visa,,,CONRAD,MT,,US,,,,,
,visa,,,CUT BANK,MT,,US,,,,,
19__S__MAIN__ST_CONRAD_MT_59425,wellsfargo,,19 S MAIN ST,CONRAD,MT,,US,+1 800-869-3557,https://www.wellsfargo.com/locator/bank/19__S__MAIN__ST_CONRAD_MT_59425/,,Wells Fargo,Q744149
