Ref,Spider,Name,Address,City,State,Zipcode,Country,Phone,Website,Hours,Brand,WikiData
https://locations.99only.com/ca/concord/discount-store-247.html,99_cents_only_us,99 Cents Only Stores,,Concord,CA,,US,+1 925-687-2996,https://locations.99only.com/ca/concord/discount-store-247.html,Mo 08:00-21:00; Tu 07:00-21:00; We 08:00-21:00; Th 07:00-21:00; Fr-Su 08:00-21:00,99 Cents Only Stores,Q4646294
781,aaa,Concord,,Concord,CA,,US,+1 925-808-6201,,,American Automobile Association,Q463436
1855 Gateway Blvd,allied_universal,Allied Universal,,Concord,CA,,US,+1 510-839-4041,https://www.aus.com/san-francisco-security-systems-services,,Allied Universal,Q4732537
https://storelocations.ae.com/#1725833,american_eagle_outfitters,American Eagle Store Sunvalley Mall,,Concord,CA,,US,+1 925-798-0370,https://storelocations.ae.com/us/ca/concord/450-sunvalley-mall.html,Mo-Sa 10:00-20:00; Su 11:00-19:00,American Eagle Store,Q2842931
/locations/propane-offices/california/concord/4051-port-chicago-hwy,amerigas,"AmerGas Propane | Concord, California",,Concord,CA,,US,+1 925-755-8398,/locations/propane-offices/california/concord/4051-port-chicago-hwy,,AmeriGas,Q23130318
3221,anytime_fitness,Anytime Fitness,,Concord,CA,,US,+1 925-363-3301,https://www.anytimefitness.com/gyms/3221/concord-ca-94520/,,Anytime Fitness,Q4778364
https://stores.ashleyfurniture.com/store/us/california/concord/7710000035/,ashley_furniture,"Ashley Store Concord, CA",,Concord,CA,,US,+1 925-521-1977,https://stores.ashleyfurniture.com/store/us/california/concord/7710000035/,,Ashley Furniture,Q4805437
16451,asics_us,Road Runner Sports - Concord,1975 Diamond Blvd,Concord,CA,,US,+1 925-825-8052,,Mo-Su 10:00-20:00,asics,Q327247
11067,asics_us,REI - Concord,1975 Diamond Blvd,Concord,CA,,US,+1 925-825-9400,,Mo-Fr 10:00-20:00; Sa 10:00-19:00; Su 10:00-16:00,asics,Q327247
62006,asics_us,Finish Line,120 Sunvalley Mall #121b,Concord,CA,,US,+1 925-686-5283,,,asics,Q327247
62007,asics_us,Lady Foot Locker,226 Sunvalley Mall,Concord,CA,,US,+1 925-798-5320,,,asics,Q327247
160277,att_us,CONCORD VERANDA STORE,,Concord,CA,,US,+1 925-692-0068,https://www.att.com/stores/california/concord/160277,Mo-Sa 10:00-20:00; Su 10:00-18:00,AT&T,Q298594
USAA26A59,audi,Audi Concord,"1300 Concord Ave, Concord, CA 94520",Concord,CA,,US,+1 925-771-2888,,,Audi,Q23317
https://locations.auntieannes.com/#7129,auntie_annes,Auntie Anne's Sun Valley Mall,,Concord,CA,,US,+1 925-676-9648,https://locations.auntieannes.com/ca/concord/472-sun-valley-mall,Mo-Su 11:00-19:00,Auntie Anne's,Q4822010
4128,autozone_us,AutoZone Auto Parts Concord,,Concord,CA,,US,+1 925-798-5265,https://www.autozone.com/locations/ca/concord/2051-monument-blvd.html,Mo-Sa 07:30-22:00; Su 08:00-21:00,AutoZone,Q4826087
https://www.avis.com/en/locations/us/ca/concord/ccr,avis,Avis U S A Concord,,Concord,CA,,US,+1 925-798-2847,https://www.avis.com/en/locations/us/ca/concord/ccr,Mo-Fr 08:00-16:45; Sa-Su 08:00-12:00,Avis,Q791136
https://www.banfield.com/locations/veterinarians/ca/concord/crd,banfield_pet_hospital,"Concord, CA",,Concord,CA,,US,+1 925-689-8736,https://www.banfield.com/locations/veterinarians/ca/concord/crd,Mo-Fr 07:00-18:00; Sa-Su 08:00-18:00,Banfield Pet Hospital,Q2882416
https://locators.bankofamerica.com/ca/concord/financial-centers-concord-16969.html,bankofamerica,Bank of America Financial Center & Walk-Up ATM | Concord Main,,Concord,CA,,US,+1 925-655-6201,https://locators.bankofamerica.com/ca/concord/financial-centers-concord-16969.html,Mo-Fr 09:00-17:00; Sa 09:00-16:00,Bank of America,Q487907
https://locations.baskinrobbins.com/ca/concord/1924-grant-st-340372-br,baskin_robbins_us,Baskin-Robbinsâ„¢,,Concord,CA,,US,+1 925-798-1660,https://locations.baskinrobbins.com/ca/concord/1924-grant-st-340372-br,Mo-Th 11:00-21:00; Fr-Sa 11:00-22:00; Su 11:00-21:00,Baskin-Robbins,Q584601
BBW00369,bathandbodyworks_us,SUNVALLEY SHOPPING CENTER,,CONCORD,CA,,US,+1 925-798-0275,,Mo-Sa 10:00-20:00; Su 11:00-19:00,Bath & Body Works,Q810773
https://www.benihana.com/locations/concord-ca-co/,benihana,"Concord, CA",, Concord,CA,,US,+1 925-827-4220,https://www.benihana.com/locations/concord-ca-co/,,Benihana,Q4887996
https://local.biglots.com/#13190688,biglots,Big Lots - Concord,,Concord,CA,,US,+1 925-689-5471,https://local.biglots.com/ca/concord/2060-monument-blvd,Mo-Sa 09:00-21:00; Su 09:00-19:00,Big Lots,Q4905973
156580,bluerhino,Walgreens #15003,,Concord,CA,,US,+1 925-689-7812,,,Blue Rhino,Q65681213
210525,bluerhino,BP West Coast Products LLC ARCO AMPM #7041,,Concord,CA,,US,+1 925-822-3211,,,Blue Rhino,Q65681213
152221,bluerhino,Walgreens #3164,,Concord,CA,,US,+1 925-674-9477,,,Blue Rhino,Q65681213
144287,bluerhino,Solano Valero,,Concord,CA,,US,+1 925-686-4151,,,Blue Rhino,Q65681213
116144,bluerhino,Lowe's #2604,,Concord,CA,,US,+1 925-566-9000,,,Blue Rhino,Q65681213
04497_01,bmw_group,BMW Concord,,Concord,CA,,US,+1 925-682-3577,https://www.bmwconcord.com/schedule-service.html,,BMW,Q26678
04497_3,bmw_group,"BMW Concord, Certified Collision Repair Center",,Concord,CA,,US,+1 925-682-3577,,,BMW,Q26678
43292_1,bmw_group,BMW Motorcycles of Concord,,Concord,CA,,US,+1 925-954-4121,https://www.bmwmcconcord.com,,BMW Motorrad,Q249173
1957,bricks_minifigs_ca_us,California &#8211; Anaheim,1105 S. Euclid Suite B,Fullerton,CA,,US,+1 657-378-9777,https://bricksandminifigs.com/anaheim-ca/,,Bricks & Minifigs,Q109329121
5802,camp_bow_wow,Camp Bow Wow Diablo Valley,,Concord,CA,,US,+1 925-446-4724,,,Camp Bow Wow,Q121322343
0395,carpet_one_floor_and_home_us,Carpet One Floor & Home,,Concord,CA,,US,+1 925-609-8000,https://www.carpet1concord.com/,,Carpet One Floor & Home,Q121335910
2043194,chase_us,Concord Downtown - New branch,,Concord,CA,,US,+1 925-682-5501,https://locator.chase.com/ca/concord/2097-salvio-st,Mo-Fr 09:00-17:00; Sa 09:00-14:00,Chase,Q524629
13509,chevrolet,CONCORD CHEVROLET,,Concord,CA,,US,+1 925-682-6400,https://www.concordchevrolet.com,Mo-Sa 09:00-20:00; Su 10:00-19:00,Chevrolet,Q29570
352352,chevron,Chevron Station #352352,1001 WILLOW PASS COURT,CONCORD,CA,,US,+1 925-682-2100,,,Chevron,Q319642
001.005.0086,chilis,Concord,,Concord,CA,,US,+1 925-676-4062,https://www.chilis.com/locations/us/california/concord/concord/,Mo-Th 11:00-22:00; Fr-Sa 11:00-23:00; Su 11:00-22:00,Chili's,Q1072948
ca_concord_2002-salvio-st,chipotle, ,,Concord,CA,,US,+1 925-969-7751,https://locations.chipotle.com/ca/concord/2002-salvio-st,,Chipotle,Q465751
https://locations.chuckecheese.com/us/ca/concord/1611-willow-pass-rd.,chuckecheese,Chuck E. Cheese,,Concord,CA,,US,+1 925-689-2808,https://locations.chuckecheese.com/us/ca/concord/1611-willow-pass-rd.,Mo-Th 11:00-21:00; Fr 11:00-22:00; Sa 10:00-22:00; Su 11:00-21:00,Chuck E. Cheese,Q2438391
35772,citi,ATM BAC COMMUNITY BANK,,Concord,CA,,US,,,,Citibank,Q857063
26329,citi,ATM 7ELEVEN-FCTI,,Concord,CA,,US,,,,Citibank,Q857063
88570,citi,ATM Walgreens,,Concord,CA,,US,,,,Citibank,Q857063
24636,citi,ATM 7ELEVEN-FCTI,,Concord,CA,,US,,,,Citibank,Q857063
88286,citi,ATM Walgreens,,Concord,CA,,US,,,,Citibank,Q857063
28696,citi,ATM 7ELEVEN-FCTI,,Concord,CA,,US,,,,Citibank,Q857063
28010,citi,ATM 7ELEVEN-FCTI,,Concord,CA,,US,,,,Citibank,Q857063
34929,citi,ATM Ampm,,Concord,CA,,US,,,,Citibank,Q857063
concord/5952,claires,Shop Ear Piercings & Jewelry at Sunvalley,,CONCORD,CA,,US,+1 925-827-0964,https://stores.claires.com/us/ca/concord/5952.html,Mo-Sa 10:00-20:00; Su 11:00-18:00,Claire's,Q2974996
ca_concord_2075-diamond-blvd,costplus_worldmarket,World Market The Veranda,,Concord,CA,,US,+1 925-826-0582,https://stores.worldmarket.com/ca/concord/2075-diamond-blvd.html,Mo-Sa 10:00-20:00; Su 11:00-18:00,Cost Plus World Market,Q5174750
10089243,cricket_wireless,Cricket Wireless Authorized Retailer,,Concord,CA,,US,+1 925-290-0044,https://www.cricketwireless.com/stores/ll/US/CA/Concord/1803-Monument-Blvd,Mo-Sa 10:00-20:00; Su 11:00-18:00,Cricket Wireless,Q5184987
10089255,cricket_wireless,Cricket Wireless Authorized Retailer,,Concord,CA,,US,+1 925-332-5372,https://www.cricketwireless.com/stores/ll/US/CA/Concord/1759-Willow-Pass-Rd,Mo-Sa 10:00-20:00; Su 11:00-18:00,Cricket Wireless,Q5184987
12553593,daiso_us,Concord,,Concord,CA,,US,+1 925-687-8341,,Mo-Sa 10:00-21:00; Su 10:00-20:00,Daiso Japan,Q866991
246699,dennys,Denny's,,Concord,CA,,US,+1 925-798-4040,https://locations.dennys.com/CA/CONCORD/246699,24/7,Denny's,Q1189695
7778,dominos_pizza_us,Domino's Pizza,,Concord,CA,,US,+1 925-826-5040,https://pizza.dominos.com/california/concord/901-sunvalley-blvd,Mo-Th 10:30-24:00; Fr-Sa 10:30-01:00; Su 10:30-24:00,Domino's,Q839466
8461,dominos_pizza_us,Domino's Pizza,,Concord,CA,,US,+1 925-827-3030,https://pizza.dominos.com/california/concord/3544-clayton-road,Mo-Th 10:30-24:00; Fr-Sa 10:30-01:00; Su 10:30-24:00,Domino's,Q839466
https://www.edwardjones.com/us-en/financial-advisor/umberto-leone,edwardjones,Umberto Leone,,Concord,CA,,US,+1 925-798-4946,https://www.edwardjones.com/us-en/financial-advisor/umberto-leone,Mo-Fr 08:00-17:00,Edward Jones,Q5343830
140119,electrify_america,"Regency Willows Shopping Center (Concord, CA)",,Concord,CA,,US,,,,Electrify America,Q59773555
3837,elpolloloco,El Pollo Loco,,Concord,CA,,US,+1 925-375-1178,,,El Pollo Loco,Q2353849
E123CG,enterprise,Concord Harrison & Concord Ave.,,Concord,CA,,US,+1 925-685-3900,,,Enterprise Rent-A-Car,Q17085454
E123X3,enterprise,Truck Rental Concord,,Concord,CA,,US,+1 925-295-3000,,,Enterprise Rent-A-Car,Q17085454
E12307,enterprise,Concord Monument Blvd.,,Concord,CA,,US,+1 925-688-8900,,,Enterprise Rent-A-Car,Q17085454
1-sunvalley-mall,express,Sunvalley Shopping Center,,Concord,CA,,US,+1 925-825-7567,https://stores.express.com/us/ca/concord/1-sunvalley-mall,Mo-Sa 10:00-20:00; Su 11:00-19:00,Express,Q1384784
1000000256,extra_space_storage,Concord Self Storage at 1599 Solano Way,,Concord,CA,,US,+1 925-689-9740,https://www.extraspace.com/storage/facilities/us/california/concord/1000000256/,Mo-Su 06:00-22:00,Extra Space Storage,Q5422162
500172,extra_space_storage,Concord self storage at 2580 Monument Blvd,,Concord,CA,,US,+1 925-687-7203,https://www.extraspace.com/storage/facilities/us/california/concord/500172/,Mo-Fr 09:30-18:00; Sa 09:00-17:30,Extra Space Storage,Q5422162
200320676,exxonmobil,GAWFCO'S WILLOW PASS STATION,,CONCORD,CA,,US,+1 925-979-0467,https://www.exxon.com/en/find-station/exxon-concord-ca-gawfcoswillowpassstation-200320676,Mo-Su 05:00-23:00,Exxon,Q109675651
https://locations.fivebelow.com/ca/concord/1975-diamond-blvd,five_below,Five Below Willows Shopping Center,,Concord,CA,,US,,https://locations.fivebelow.com/ca/concord/1975-diamond-blvd,Mo-Sa 10:00-20:00; Su 11:00-18:00,Five Below,Q5455836
https://branches.fleetpride.com/ca/concord/truckparts-con.html,fleet_pride_us,FleetPride,,Concord,CA,,US,+1 925-680-5306,https://branches.fleetpride.com/ca/concord/truckparts-con.html,Mo-Fr 08:00-17:00; Sa 08:00-12:00,FleetPride,Q121436710
https://stores.footlocker.com/ca/concord/305-sun-valley-mall-7405.html,footlocker,"Foot Locker in Concord: Concord, California | Approved | Own It",,Concord,CA,,US,+1 925-827-2734,https://stores.footlocker.com/ca/concord/305-sun-valley-mall-7405.html,Mo-Sa 10:00-20:00; Su 11:00-19:00,Foot Locker,Q63335
Motorcraft2410USAEnglish,ford,Future Ford Lincoln of Concord,,California,CA,,US,+1 925-686-5000,,,Ford,Q44294
https://www.ford.com/dealerships/dealer-details/ca/concord/future-ford-of-concord/,ford_dealers_us,Future Ford of Concord,,Concord,CA,,US,+1 925-515-2513,https://www.ford.com/dealerships/dealer-details/ca/concord/future-ford-of-concord/,Mo-Sa 08:30-20:00; Su 10:00-19:00,Ford Motor Company,Q44294
https://locations.forever21.com/#35647028,forever21_us,Sunvalley Shopping Center,,Concord,CA,,US,+1 925-349-3732,https://locations.forever21.com/us/stores/ca/concord/329-sun-valley-mall,Mo-Fr 11:00-20:00; Sa 10:00-21:00; Su 11:00-19:00,Forever 21,Q1060537
https://www.fuddruckers.com/concord,fuddruckers,Concord,,Concord,CA,,US,+1 925-825-1443,https://www.fuddruckers.com/concord,,Fuddruckers,Q5507056
0167,gamestop_us,Sun Valley Mall,,Concord,CA,,US,+1 925-686-9191,https://www.gamestop.com/search/?store=0167,Mo-Sa 10:00-20:00; Su 11:00-19:00,GameStop,Q202210
https://www.goldencorral.com/locations/location-detail/2697/golden-corral-diamond-blvd/,golden_corral,"Golden Corral 2697, Concord, CA",,Concord,CA,,US,+1 925-685-1002,https://www.goldencorral.com/locations/location-detail/2697/golden-corral-diamond-blvd/,,Golden Corral,Q4039560
b6db6cb0-32cf-e411-b4ab-0050568924e6,goodwill,1659 Willow Pass Road Store,,Concord,CA,,US,+1 925-687-8361,https://www.goodwill.org/locator/location/?store=YjZkYjZjYjAtMzJjZi1lNDExLWI0YWItMDA1MDU2ODkyNGU2&lat=MzcuOTcyNzE=&lng=LTEyMi4wNDI0,,Goodwill,Q5583655
https://www.habitburger.com/locations/concord/,habit_burger,The Habit Burger Grill,,Concord,CA,,US,+1 925-798-5285,https://www.habitburger.com/locations/concord/,Mo-Th 10:30-21:30; Fr-Sa 10:30-22:00; Su 10:30-21:30,The Habit Burger Grill,Q18158741
0223,helzberg_diamonds,Helzberg Diamonds,,Concord,CA,,US,+1 925-671-2571,https://www.helzberg.com/store?storeId=0223,Mo-Sa 11:00-19:00; Su 12:00-18:00,Helzberg Diamonds,Q16995161
US0703,hm,Sunvalley Shopping Center,,Concord,CA,,US,+1 855-466-7467,,Mo-Sa 11:00-19:00; Su 11:00-18:00,H&M,Q188326
8922,honey_baked,HoneyBaked of Concord,,Concord,CA,,US,+1 925-689-1510,https://www.honeybaked.com/stores/8922,,Honey Baked Ham,Q5893363
9924362,hugo_boss,BOSS Menswear Shop,,Concord,CA,,US,,https://www.hugoboss.com/us/storedetail?storeid=9924362,Mo-Sa 10:00-21:00; Su 11:00-20:00,Hugo Boss,Q491627
3501,h_r_block,H&R Block,,Concord,CA,,US,+1 925-680-6801,https://www.hrblock.com/local-tax-offices/california/concord/salvio-pacheco-square/3501/,,H&R Block,Q5627799
116,ikes,Concord,,Concord,CA,,US,+1 925-609-8811,https://locations.ikessandwich.com/ca/concord/116/,,Ike's Love & Sandwiches,Q112028897
swift-plaza,indigo,Swift Plaza,,Concord,CA,,US,+1 925-798-5099,,,Indigo,Q3559970
https://locations.jackinthebox.com/us/ca/concord/1051-willow-pass-ct,jackinthebox,Jack in the Box,,Concord,CA,,US,+1 925-466-3369,https://locations.jackinthebox.com/us/ca/concord/1051-willow-pass-ct,Mo-Su 04:00-04:00,Jack in the Box,Q1538507
https://locations.jackinthebox.com/us/ca/concord/1710-monument-blvd,jackinthebox,Jack in the Box,,Concord,CA,,US,+1 925-822-3302,https://locations.jackinthebox.com/us/ca/concord/1710-monument-blvd,Mo-Su 04:00-04:00,Jack in the Box,Q1538507
https://office.jacksonhewitt.com/#27577023,jackson_hewitt,Jackson Hewitt,,Concord,CA,,US,+1 925-349-5626,https://office.jacksonhewitt.com/tax-preparation-services-locations/en/ca/concord/1924-grant-st/14361,Mo-Fr 10:00-20:00; Sa 10:00-18:00; Su 12:00-17:00,Jackson Hewitt,Q6117132
https://locations.jamba.com/#616-Jamba,jambajuice,Jamba Willows Shopping Center,,Concord,CA,,US,+1 925-969-9430,https://locations.jamba.com/ca/concord/1975-diamond-blvd,Mo-Su 08:30-20:00,Jamba Juice,Q3088784
https://stores.jdsports.com/ca/concord/sunvalley-shopping-center.html,jdsports_us,JD Sports,,Concord,CA,,US,+1 925-686-5283,https://stores.jdsports.com/ca/concord/sunvalley-shopping-center.html,Mo-We 11:00-19:00; Th 11:00-21:00; Fr-Sa 11:00-19:00; Su 11:00-18:00,JD Sports,Q6108019
https://healthy.kaiserpermanente.org/northern-california/facilities/step-olivera-133373,kaiser_permanente_us,Step Olivera,,Concord,CA,,US,+1 925-603-1961,https://healthy.kaiserpermanente.org/northern-california/facilities/step-olivera-133373,,Kaiser Permanente,Q1721601
https://healthy.kaiserpermanente.org/northern-california/facilities/pueblo-del-sol-133977,kaiser_permanente_us,Pueblo Del Sol,,Concord,CA,,US,+1 925-676-2580,https://healthy.kaiserpermanente.org/northern-california/facilities/pueblo-del-sol-133977,,Kaiser Permanente,Q1721601
https://healthy.kaiserpermanente.org/northern-california/facilities/new-start-recovery-solutions-concord-133593,kaiser_permanente_us,New Start Recovery Solutions - Concord,,Concord,CA,,US,+1 530-854-4119,https://healthy.kaiserpermanente.org/northern-california/facilities/new-start-recovery-solutions-concord-133593,,Kaiser Permanente,Q1721601
https://healthy.kaiserpermanente.org/northern-california/facilities/john-muir-medical-center-concord-campus-100299,kaiser_permanente_us,John Muir Medical Center-Concord Campus,,Concord,CA,,US,+1 925-682-8200,https://healthy.kaiserpermanente.org/northern-california/facilities/john-muir-medical-center-concord-campus-100299,,Kaiser Permanente,Q1721601
https://healthy.kaiserpermanente.org/northern-california/facilities/john-muir-behavioral-health-outpatient-center-133265,kaiser_permanente_us,John Muir Behavioral Health Outpatient Center,,Concord,CA,,US,+1 925-674-4140,https://healthy.kaiserpermanente.org/northern-california/facilities/john-muir-behavioral-health-outpatient-center-133265,,Kaiser Permanente,Q1721601
https://healthy.kaiserpermanente.org/northern-california/facilities/davita-concord-dialysis-339807,kaiser_permanente_us,DaVita Concord Dialysis,,Concord,CA,,US,+1 866-544-6741,https://healthy.kaiserpermanente.org/northern-california/facilities/davita-concord-dialysis-339807,,Kaiser Permanente,Q1721601
https://locations.kfc.com/#11246637,kfc,Chicken Nuggets Near Concord,,Concord,CA,,US,,https://locations.kfc.com/ca/concord/2160-monument-boulevard/chickennugget,,KFC,Q524757
114996,little_free_library,The Veranda Little Free Library #114996 Concord CA,,Concord,CA,,US,,,,Little Free Library,Q6650101
128894,little_free_library,Monument First 5 Center's Little Library #128894 Concord CA,,Concord,CA,,US,,,,Little Free Library,Q6650101
169783,little_free_library,F.E.A.S.T. (Forage Treasury) Little Free Library #169783 Concord CA,,Concord,CA,,US,,,,Little Free Library,Q6650101
158621,little_free_library,#158621 #158621 Concord CA,,Concord,CA,,US,,,,Little Free Library,Q6650101
109928,little_free_library,Susan Metzger #109928 Concord CA,,Concord,CA,,US,,,,Little Free Library,Q6650101
50513,lovisa,Lovisa,,Concord,CA,,US,+1 818-302-7286,,,Lovisa,Q106298409
https://locations.massageenvy.com/#1773647,massage_envy,Massage Envy The Willows,,Concord Concord,CA,,US,+1 925-689-3689,https://locations.massageenvy.com/california/concord/1975-diamond-blvd..html,Mo-Fr 09:00-22:00; Sa 10:00-20:00; Su 10:00-19:00,Massage Envy,Q10327170
17018,mattress_firm_us,Mattress Firm Concord Avenue,,Concord,CA,,US,+1 925-671-0160,https://www.mattressfirm.com/en-us/stores/ca/concord/502101/,,Mattress Firm,Q6791878
https://locations.modpizza.com/#23558149,modpizza,MOD Pizza Diamond Boulevard,,Concord,CA,,US,+1 925-452-6190,https://locations.modpizza.com/usa/ca/concord/2015-diamond-blvd,Mo-We 10:30-22:00; Th-Sa 10:30-23:00; Su 10:30-22:00,MOD Pizza,Q19903469
66577111,moneygram,LAS MONTANAS SUPERMARKET,,CONCORD,CA,,US,+1 925-686-5123,,Mo-Su 07:00-21:00,MoneyGram,Q1944412
66579782,moneygram,M LHUILLIER FINANCIAL SERVICES - CONCORD,,CONCORD,CA,,US,+1 925-609-7788,,Mo-Su 08:00-20:00,MoneyGram,Q1944412
NNA5774,nissan_europe,CONCORD NISSAN,,CONCORD,CA,,US,+1 925-676-4400,https://www.concord-nissan.com,Mo-Sa 09:00-20:00; Su 10:00-18:00,Nissan,Q20165
https://locations.noodles.com/ca/concord/1110-concord-avenue.html,noodles_and_company_us,Noodles & Company Concord,,Concord,CA,,US,+1 925-691-3844,https://locations.noodles.com/ca/concord/1110-concord-avenue.html,Mo-Su 10:30-21:00,Noodles and Company,Q7049673
https://locations.oreillyauto.com/ca/concord/wiper-installation-2949.html,oreilly,Your Concord O'Reilly Auto Parts Store,,Concord,CA,,US,+1 925-798-3604,https://locations.oreillyauto.com/ca/concord/wiper-installation-2949.html,Mo-Sa 07:30-22:00; Su 08:00-20:00,O'Reilly Auto Parts,Q7071951
https://locations.oreillyauto.com/ca/concord/check-engine-light-testing-2949.html,oreilly,Your Concord O'Reilly Auto Parts Store,,Concord,CA,,US,+1 925-798-3604,https://locations.oreillyauto.com/ca/concord/check-engine-light-testing-2949.html,Mo-Sa 07:30-22:00; Su 08:00-20:00,O'Reilly Auto Parts,Q7071951
https://locations.oreillyauto.com/ca/concord/battery-testing-2949.html,oreilly,Your Concord O'Reilly Auto Parts Store,,Concord,CA,,US,+1 925-798-3604,https://locations.oreillyauto.com/ca/concord/battery-testing-2949.html,Mo-Sa 07:30-22:00; Su 08:00-20:00,O'Reilly Auto Parts,Q7071951
https://locations.oreillyauto.com/ca/concord/autopartes-2949.html,oreilly,Tu tienda O'Reilly Auto Parts en Concord,,Concord,CA,,US,+1 925-798-3604,https://locations.oreillyauto.com/ca/concord/autopartes-2949.html,Mo-Sa 07:30-22:00; Su 08:00-20:00,O'Reilly Auto Parts,Q7071951
https://locations.oreillyauto.com/ca/concord/check-engine-light-testing-2557.html,oreilly,Your Concord O'Reilly Auto Parts Store,,Concord,CA,,US,+1 925-798-1181,https://locations.oreillyauto.com/ca/concord/check-engine-light-testing-2557.html,Mo-Sa 07:30-21:00; Su 08:00-20:00,O'Reilly Auto Parts,Q7071951
https://locations.oreillyauto.com/ca/concord/wiper-installation-2557.html,oreilly,Your Concord O'Reilly Auto Parts Store,,Concord,CA,,US,+1 925-798-1181,https://locations.oreillyauto.com/ca/concord/wiper-installation-2557.html,Mo-Sa 07:30-21:00; Su 08:00-20:00,O'Reilly Auto Parts,Q7071951
https://locations.oreillyauto.com/ca/concord/battery-testing-2557.html,oreilly,Your Concord O'Reilly Auto Parts Store,,Concord,CA,,US,+1 925-798-1181,https://locations.oreillyauto.com/ca/concord/battery-testing-2557.html,Mo-Sa 07:30-21:00; Su 08:00-20:00,O'Reilly Auto Parts,Q7071951
https://locations.oreillyauto.com/ca/concord/autopartes-2557.html,oreilly,Tu tienda O'Reilly Auto Parts en Concord,,Concord,CA,,US,+1 925-798-1181,https://locations.oreillyauto.com/ca/concord/autopartes-2557.html,Mo-Sa 07:30-21:00; Su 08:00-20:00,O'Reilly Auto Parts,Q7071951
112906,pandaexpress,Concord & Meridian,,Concord,CA,,US,+1 925-602-0611,https://www.pandaexpress.com/locations/ca/concord/1100-concord-avenue,Mo-Th 09:30-21:30; Fr 09:30-22:00; Sa-Su 09:30-21:30,Panda Express,Q1358690
16526046,peets_coffee_us,Concord - Veranda,,Concord,CA,,US,+1 925-246-9870,https://peets.app.link?&$fallback_url=https%3A%2F%2Forder.peets.com%2Flocation%2Fconcord-veranda%2Fmenu&$type=order&~campaign=orderaheadonline&~channel=web&~feature=menu&~tags=concord-veranda,Mo-Th 05:00-18:30; Fr 05:00-19:00; Sa-Su 06:00-19:00,Peet's Coffee,Q1094101
16526048,peets_coffee_us,DT Concord,,Concord,CA,,US,+1 925-405-3650,https://peets.app.link?&$fallback_url=https%3A%2F%2Forder.peets.com%2Flocation%2Fdt-concord%2Fmenu&$type=order&~campaign=orderaheadonline&~channel=web&~feature=menu&~tags=dt-concord,Mo-Su 06:00-18:00,Peet's Coffee,Q1094101
052228,penske,Concord Tow World,,CONCORD,CA,,US,+1 925-686-3814,https://www.pensketruckrental.com/locations/us/california/concord/052228/,,Penske,Q81234570
https://stores.petco.com/#27959663,petco,Petco Concord,,Concord,CA,,US,+1 925-356-0217,https://stores.petco.com/ca/concord/pet-supplies-concord-ca-1335.html,Mo-Sa 09:00-20:00; Su 10:00-19:00,Petco,Q7171798
0000877501,phillips_66_conoco_76,FOUR CORNERS AUTOMOTIVE SVC INC,,CONCORD,CA,,US,+1 925-682-3142,,24/7,U76,Q1658320
https://www.plannedparenthood.org/health-center/california/concord/94520/concord-health-center-3269-90200,planned_parenthood,Planned Parenthood,,Concord,CA,,US,,https://www.plannedparenthood.org/health-center/california/concord/94520/concord-health-center-3269-90200,,Planned Parenthood,Q2553262
ppg-paints-8117-21444,ppgpaints,PPG Paints 8117,,"Concord, ",CA,,US,+1 925-685-2722,https://www.ppgpaints.com/store-locator/us/california/concord-paint-stores/ppg-paints-8117-21444,,PPG Paints,Q83891559
home-depot-0634-7806,ppgpaints,HOME DEPOT 0634,,"Concord, ",CA,,US,+1 925-798-9600,https://www.ppgpaints.com/store-locator/us/california/concord-paint-stores/home-depot-0634-7806,,PPG Paints,Q83891559
fregosi-and-co-paints-inc-32701,ppgpaints,FREGOSI & CO PAINTS INC,,"Concord, ",CA,,US,+1 925-609-9925,https://www.ppgpaints.com/store-locator/us/california/concord-paint-stores/fregosi-and-co-paints-inc-32701,,PPG Paints,Q83891559
https://www.publicstorage.com/self-storage-ca-concord/149.html,public_storage_us,Public Storage,,Concord,CA,,US,+1 925-338-0590,https://www.publicstorage.com/self-storage-ca-concord/149.html,,Public Storage,Q1156045
https://www.publicstorage.com/self-storage-ca-concord/321.html,public_storage_us,Public Storage,,Concord,CA,,US,+1 925-338-0591,https://www.publicstorage.com/self-storage-ca-concord/321.html,,Public Storage,Q1156045
https://www.publicstorage.com/self-storage-ca-concord/317.html,public_storage_us,Public Storage,,Concord,CA,,US,+1 925-435-1135,https://www.publicstorage.com/self-storage-ca-concord/317.html,,Public Storage,Q1156045
2530,ross_dress_for_less_us,Concord,,Concord,CA,,US,+1 925-363-3504,,Mo-Th 09:00-22:00; Fr-Sa 08:30-22:30; Su 09:00-21:00,Ross Dress for Less,Q3442791
2033,round_table_pizza,Round Table Pizza Willow Pass,,Concord ,CA,,US,+1 925-689-8900,https://ordering.roundtablepizza.com/site/rt1122,,Round Table Pizza,Q7371139
2451,round_table_pizza,Round Table Pizza Port Chicago Hwy,,Concord ,CA,,US,+1 925-825-1993,https://ordering.roundtablepizza.com/site/rt1127,,Round Table Pizza,Q7371139
6612,sams_club,Concord Sam's Club,,Concord,CA,,US,+1 925-687-1400,https://www.samsclub.com/club/concord-ca-sams-club/6612,Mo 10:00-20:00; Sa 09:00-20:00; Su 10:00-18:00,Sam's Club,Q1972120
https://locations.scrubsandbeyond.com/ca/concord/scrubs-concord-ca-313.html,scrubs_and_beyond,Nursing Uniforms & Medical Scrubs at 114A Sun Valley Mall | Scrubs & Beyond Near Me,,Concord,CA,,US,+1 925-689-2570,https://locations.scrubsandbeyond.com/ca/concord/scrubs-concord-ca-313.html,Mo-Sa 10:00-20:00; Su 11:00-19:00,Scrubs and Beyond,Q119972011
10133694570617754000,sleep_number_us,Sleep Number,,Concord,CA,,US,,https://www.sleepnumber.com/stores/ca/concord/2095-diamond-blvd,Mo-Su 11:00-19:00,Sleep Number,Q7447640
1057,sola_salon_studios,Concord Willows,,Concord,CA,,US,+1 415-629-9991,https://www.solasalonstudios.com/locations/concord-willows,,Sola Salon Studios,Q64337426
1628,speedee_us,"Concord, CA",,Concord,CA,,US,+1 925-687-6062,https://www.speedeeoil.com/concord-ca-1628/,Mo-Fr 08:00-18:00; Sa 08:30-17:00,SpeeDee Oil Change and Auto Service,Q120537032
https://restaurants.subway.com/#14906091,subway,Subway Concord North Business Park,,Concord Contra Costa,CA,,US,+1 925-788-6553,https://restaurants.subway.com/united-states/ca/concord/4065-nelson-ave,Tu 10:00-19:00; We 16:00-19:00; Th 10:00-19:00; Fr-Sa 16:00-19:00; Su 11:00-19:00,Subway,Q244457
https://restaurants.subway.com/#14899894,subway,Subway Solano Plaza,,Concord Contra Costa,CA,,US,+1 925-332-7185,https://restaurants.subway.com/united-states/ca/concord/2166-solano-way,Mo-Fr 07:00-21:00; Sa 08:00-21:00; Su 09:00-20:00,Subway,Q244457
https://restaurants.subway.com/#14897035,subway,Subway Olivera Crossing Shopping Ctr,,Concord Contra Costa,CA,,US,+1 925-288-1572,https://restaurants.subway.com/united-states/ca/concord/3375-port-chicago-hwy,Mo-Fr 07:00-21:00; Sa 08:00-20:00; Su 09:00-19:00,Subway,Q244457
https://restaurants.subway.com/#14900177,subway,Subway,,Concord Contra Costa,CA,,US,+1 925-602-0640,https://restaurants.subway.com/united-states/ca/concord/1751-willow-pass-rd,Mo-Su 10:00-20:00,Subway,Q244457
https://restaurants.subway.com/#14900400,subway,Subway Sunvalley Shopping Center,,Concord Contra Costa,CA,,US,+1 925-753-1000,https://restaurants.subway.com/united-states/ca/concord/301-sun-valley-mall,Mo-Sa 09:00-20:00; Su 10:00-19:00,Subway,Q244457
https://restaurants.subway.com/#14911776,subway,Subway Four Corners S/C,,Concord Contra Costa,CA,,US,+1 925-689-8511,https://restaurants.subway.com/united-states/ca/concord/1701-monument-blvd,Mo-Su 08:00-21:00,Subway,Q244457
https://restaurants.subway.com/#14906967,subway,Subway /Gas Station/C-Store,,Concord Contra Costa,CA,,US,+1 925-682-2100,https://restaurants.subway.com/united-states/ca/concord/1001-willow-pass-court,Mo-Fr 06:30-20:00; Sa-Su 08:00-20:00,Subway,Q244457
https://stores.sunglasshut.com/us/ca/concord/341-sun-valley-mall,sunglass_hut_1,Sunglass Hut at Macy's,,Concord,CA,,US,+1 925-689-8971,https://stores.sunglasshut.com/us/ca/concord/341-sun-valley-mall,Mo-Sa 10:00-21:00; Su 11:00-19:00,Sunglass Hut,Q136311
https://www.sutterhealth.org/find-location/facility/concord-outreach-clinic,sutter_health,Concord Outreach Clinic,,Concord,CA,,US,+1 415-600-1092,https://www.sutterhealth.org/find-location/facility/concord-outreach-clinic,Mo-Fr 08:00-17:00,Sutter Health,Q7650154
https://www.sutterhealth.org/find-location/facility/sutter-care-at-home-concord-hospice,sutter_health,Sutter Care at Home - Concord (Hospice),,Concord,CA,,US,+1 925-363-4120,https://www.sutterhealth.org/find-location/facility/sutter-care-at-home-concord-hospice,,Sutter Health,Q7650154
https://www.sutterhealth.org/find-location/facility/sutter-care-at-home-concord-home-health,sutter_health,Sutter Care at Home - Concord (Home Health),,Concord,CA,,US,+1 925-677-4240,https://www.sutterhealth.org/find-location/facility/sutter-care-at-home-concord-home-health,,Sutter Health,Q7650154
https://locations.tacobell.com/#6144859,taco_bell,Taco Bell,,Concord,CA,,US,+1 925-405-0293,https://locations.tacobell.com/ca/concord/2475-olivera-rd-.html,Mo-We 07:00-01:00; Th-Sa 07:00-02:00; Su 07:00-01:00,Taco Bell,Q752941
https://locations.tacobell.com/#6145877,taco_bell,Taco Bell,,Concord,CA,,US,+1 925-687-0166,https://locations.tacobell.com/ca/concord/1698-monument-blvd.html,Mo-We 08:00-01:00; Th-Sa 08:00-02:00; Su 08:00-01:00,Taco Bell,Q752941
https://locations.tacobell.com/#6146733,taco_bell,Taco Bell,,Concord,CA,,US,+1 925-822-3414,https://locations.tacobell.com/ca/concord/1221-concord-avenue.html,Mo-Fr 07:00-24:00; Sa 08:00-24:00; Su 09:00-24:00,Taco Bell,Q752941
https://locations.tacobell.com/#6147395,taco_bell,Taco Bell,,Concord,CA,,US,+1 925-691-9500,https://locations.tacobell.com/ca/concord/1001-willow-pass-court.html,Mo-Th 07:00-24:00; Fr-Sa 07:00-01:00; Su 08:00-24:00,Taco Bell,Q752941
0059,tillys,Concord Sunvalley Shopping Center,,Concord,CA,,US,+1 925-691-4382,,Mo-Sa 11:00-07:00; Su 12:00-06:00,Tillys,Q7802889
08777,tjx,Concord,2075 Diamond Blvd ,Concord,CA,,US,+1 925-692-1129,,Mo-Sa 09:30-21:30; Su 10:00-20:00,TJ Maxx,Q10860683
8931,tmobile_us,Willow Pass - Park N Shop,,Concord,CA,,US,+1 925-363-4597,https://www.t-mobile.com/store-locator/ca/concord/willow-pass-park-n-shop,,T-Mobile,Q3511885
2C37,tmobile_us,Costco Concord CA,,Concord,CA,,US,+1 925-501-7501,https://www.t-mobile.com/store-locator/ca/concord/costco-concord-ca,,T-Mobile,Q3511885
1469,tmobile_us,Sunvalley Mall,,Concord,CA,,US,+1 925-609-9918,https://www.t-mobile.com/store-locator/ca/concord/sunvalley-mall,,T-Mobile,Q3511885
60,trader_joes_us,Trader Joe's Concord (60),,Concord,CA,,US,+1 925-689-2990,https://locations.traderjoes.com/ca/concord/60/,Mo-Su 08:00-21:00,Trader Joe's,Q688825
00511,twenty_four_hour_fitness_us,Concord,,Concord,CA,,US,+1 925-674-8412,https://www.24hourfitness.com/Website/Club/00511,,24 Hour Fitness Sport,Q4631849
053315,uhaul,Bahal Motors,1251 Franquette Av Unit A,Concord,CA,,US,+1 925-686-2796,,Mo-Fr 00:00-18:00; Sa 00:00-17:00,U-Haul,Q7862902
815035,uhaul,U-Haul of Concord,2291 Monument Bl,Concord,CA,,US,+1 925-827-0661,,Mo-Th 00:00-19:00; Fr 00:00-20:00; Sa 00:00-19:00; Su 00:00-17:00,U-Haul,Q7862902
1358900,usps,CONCORD,,CONCORD,CA,,US,+1 925-687-0533,,Mo-Fr 09:00-17:00; Sa 09:00-14:00,United States Postal Service,Q668687
1384757,usps,TODOS SANTOS,,CONCORD,CA,,US,+1 925-798-3849,,Mo-Fr 09:00-17:00,United States Postal Service,Q668687
9452000140,usps_collection_boxes,USPS COLLECTION BOX - BLUE BOX,115 MASON CIR,CONCORD,CA,,US,,,,United States Postal Service,Q668687
9452000003,usps_collection_boxes,USPS COLLECTION BOX - BLUE BOX,4075 SPRIG DR,CONCORD,CA,,US,,,,United States Postal Service,Q668687
9452000163,usps_collection_boxes,USPS COLLECTION BOX - BLUE BOX,5105 PORT CHICAGO HWY,CONCORD,CA,,US,,,,United States Postal Service,Q668687
9452000181,usps_collection_boxes,USPS COLLECTION BOX - BLUE BOX,3700 PORT CHICAGO HWY,CONCORD,CA,,US,,,,United States Postal Service,Q668687
9452000098,usps_collection_boxes,USPS COLLECTION BOX - BLUE BOX,3357 PORT CHICAGO HWY STE# 57,CONCORD,CA,,US,,,,United States Postal Service,Q668687
9452000212,usps_collection_boxes,USPS COLLECTION BOX - BLUE BOX,109 WELLINGTON AVE,CONCORD,CA,,US,,,,United States Postal Service,Q668687
9452000189,usps_collection_boxes,USPS COLLECTION BOX - BLUE BOX,2700 GRANT ST,CONCORD,CA,,US,,,,United States Postal Service,Q668687
9452000075,usps_collection_boxes,USPS COLLECTION BOX - BLUE BOX,2600 PARK AVE,CONCORD,CA,,US,,,,United States Postal Service,Q668687
9452000108,usps_collection_boxes,USPS COLLECTION BOX - BLUE BOX,2354 STANWELL DR,CONCORD,CA,,US,,,,United States Postal Service,Q668687
9452000000,usps_collection_boxes,USPS COLLECTION BOX - BLUE BOX,2425 EAST ST,CONCORD,CA,,US,,,,United States Postal Service,Q668687
9452000203,usps_collection_boxes,USPS COLLECTION BOX - BLUE BOX,2540 EAST ST,CONCORD,CA,,US,,,,United States Postal Service,Q668687
9452000148,usps_collection_boxes,USPS COLLECTION BOX - BLUE BOX,2043 EAST ST,CONCORD,CA,,US,,,,United States Postal Service,Q668687
9452000061,usps_collection_boxes,USPS COLLECTION BOX - BLUE BOX,1301 GALAXY WAY,CONCORD,CA,,US,,,,United States Postal Service,Q668687
9452000193,usps_collection_boxes,USPS COLLECTION BOX - BLUE BOX,2151 SALVIO ST,CONCORD,CA,,US,,,,United States Postal Service,Q668687
9452000217,usps_collection_boxes,USPS COLLECTION BOX - BLUE BOX,1400 WILLOW PASS CT,CONCORD,CA,,US,,,,United States Postal Service,Q668687
9452000060,usps_collection_boxes,USPS COLLECTION BOX - BLUE BOX,1341 GALAXY WAY,CONCORD,CA,,US,,,,United States Postal Service,Q668687
9452000229,usps_collection_boxes,USPS COLLECTION BOX - PO LOBBY,2121 MERIDIAN PARK BLVD,CONCORD,CA,,US,,,,United States Postal Service,Q668687
9452000213,usps_collection_boxes,USPS COLLECTION BOX - APC,2121 MERIDIAN PARK BLVD,CONCORD,CA,,US,,,,United States Postal Service,Q668687
9452000135,usps_collection_boxes,USPS COLLECTION BOX - BLUE BOX,1855 WILLOW PASS RD,CONCORD,CA,,US,,,,United States Postal Service,Q668687
9452000023,usps_collection_boxes,USPS COLLECTION BOX - BLUE BOX,1820 GALINDO ST,CONCORD,CA,,US,,,,United States Postal Service,Q668687
9452000012,usps_collection_boxes,USPS COLLECTION BOX - BLUE BOX,2000 CLAYTON RD,CONCORD,CA,,US,,,,United States Postal Service,Q668687
9452000131,usps_collection_boxes,USPS COLLECTION BOX - BLUE BOX,1669 WILLOW PASS RD,CONCORD,CA,,US,,,,United States Postal Service,Q668687
9452000055,usps_collection_boxes,USPS COLLECTION BOX - BLUE BOX,1465 ENEA CIR,CONCORD,CA,,US,,,,United States Postal Service,Q668687
9452000197,usps_collection_boxes,USPS COLLECTION BOX - BLUE BOX,1001 GALAXY WAY,CONCORD,CA,,US,,,,United States Postal Service,Q668687
9452000204,usps_collection_boxes,USPS COLLECTION BOX - BLUE BOX,1350 GALINDO ST,CONCORD,CA,,US,,,,United States Postal Service,Q668687
9452000210,usps_collection_boxes,USPS COLLECTION BOX - BLUE BOX,1390 WILLOW PASS RD,CONCORD,CA,,US,,,,United States Postal Service,Q668687
9452000044,usps_collection_boxes,USPS COLLECTION BOX - BLUE BOX,1975 DIAMOND BLVD,CONCORD,CA,,US,,,,United States Postal Service,Q668687
9452000112,usps_collection_boxes,USPS COLLECTION BOX - BLUE BOX,341 SUN VALLEY MALL,CONCORD,CA,,US,,,,United States Postal Service,Q668687
9452000081,usps_collection_boxes,USPS COLLECTION BOX - BLUE BOX,1955 MONUMENT BLVD,CONCORD,CA,,US,,,,United States Postal Service,Q668687
USA166,vans,Vans Store - SUN VALLEY,,Concord,CA,,US,+1 925-686-5143,https://www.vans.com/en-us/stores/ca/concord/usa166,Mo-Fr 11:00-19:00; Sa 11:00-20:00; Su 11:00-19:00,Vans,Q1135366
A00000251140,verizon_us,Victra Concord Sun Valley,,Concord,CA,,US,+1 925-222-2156,https://www.verizon.com/stores/details/california/concord/victra-concord-sun-valley-1774622/,Mo-Sa 10:00-20:00; Su 11:00-19:00,Verizon,Q919641
10902,vestis_uniform_services_us,Vestis Concord,,Concord,CA,,US,+1 925-521-8730,https://www.vestis.com/our-locations/vestis-concord,,Vestis,Q122947676
,visa,,,CONCORD,CA,,US,,,,,
,visa,,,CONCORD,CA,,US,,,,,
,visa,,,CONCORD,CA,,US,,,,,
,visa,,,CONCORD,CA,,US,,,,,
,visa,,,CONCORD,CA,,US,,,,,
,visa,,,CONCORD,CA,,US,,,,,
,visa,,,CONCORD,CA,,US,,,,,
,visa,,,CONCORD,CA,,US,,,,,
,visa,,,CONCORD,CA,,US,,,,,
,visa,,,CONCORD,CA,,US,,,,,
,visa,,,CONCORD,CA,,US,,,,,
,visa,,,CONCORD,CA,,US,,,,,
,visa,,,CONCORD,CA,,US,,,,,
,visa,,,CONCORD,CA,,US,,,,,
,visa,,,CONCORD,CA,,US,,,,,
,visa,,,CONCORD,CA,,US,,,,,
,visa,,,BAY POINT,CA,,US,,,,,
,visa,,,CONCORD,CA,,US,,,,,
,visa,,,CONCORD,CA,,US,,,,,
,visa,,,CONCORD,CA,,US,,,,,
,visa,,,CONCORD,CA,,US,,,,,
,visa,,,CONCORD,CA,,US,,,,,
,visa,,,CONCORD,CA,,US,,,,,
,visa,,,CONCORD,CA,,US,,,,,
,visa,,,CONCORD,CA,,US,,,,,
,visa,,,CONCORD,CA,,US,,,,,
,visa,,,CONCORD,CA,,US,,,,,
,visa,,,CONCORD,CA,,US,,,,,
,visa,,,CONCORD,CA,,US,,,,,
,visa,,,CONCORD,CA,,US,,,,,
,visa,,,CONCORD,CA,,US,,,,,
,visa,,,CONCORD,CA,,US,,,,,
,visa,,,CONCORD,CA,,US,,,,,
,visa,,,CONCORD,CA,,US,,,,,
,visa,,,CONCORD,CA,,US,,,,,
,visa,,,CONCORD,CA,,US,,,,,
,visa,,,CONCORD,CA,,US,,,,,
,visa,,,CONCORD,CA,,US,,,,,
,visa,,,CONCORD,CA,,US,,,,,
,visa,,,CONCORD,CA,,US,,,,,
,visa,,,CONCORD,CA,,US,,,,,
,visa,,,CONCORD,CA,,US,,,,,
,visa,,,CONCORD,CA,,US,,,,,
,visa,,,CONCORD,CA,,US,,,,,
,visa,,,CONCORD,CA,,US,,,,,
,visa,,,CONCORD,CA,,US,,,,,
,visa,,,CONCORD,CA,,US,,,,,
,visa,,,CONCORD,CA,,US,,,,,
,visa,,,CONCORD,CA,,US,,,,,
,visa,,,CONCORD,CA,,US,,,,,
,visa,,,CONCORD,CA,,US,,,,,
,visa,,,CONCORD,CA,,US,,,,,
,visa,,,CONCORD,CA,,US,,,,,
,visa,,,CONCORD,CA,,US,,,,,
,visa,,,CONCORD,CA,,US,,,,,
,visa,,,CONCORD,CA,,US,,,,,
,visa,,,CONCORD,CA,,US,,,,,
,visa,,,CONCORD,CA,,US,,,,,
,visa,,,CONCORD,CA,,US,,,,,
,visa,,,CONCORD,CA,,US,,,,,
,visa,,,CONCORD,CA,,US,,,,,
,visa,,,CONCORD,CA,,US,,,,,
,visa,,,CONCORD,CA,,US,,,,,
,visa,,,CONCORD,CA,,US,,,,,
,visa,,,CONCORD,CA,,US,,,,,
,visa,,,CONCORD,CA,,US,,,,,
,visa,,,CONCORD,CA,,US,,,,,
,visa,,,CONCORD,CA,,US,,,,,
,visa,,,CONCORD,CA,,US,,,,,
,visa,,,CONCORD,CA,,US,,,,,
,visa,,,CONCORD,CA,,US,,,,,
,visa,,,CONCORD,CA,,US,,,,,
,visa,,,CONCORD,CA,,US,,,,,
,visa,,,CONCORD,CA,,US,,,,,
,visa,,,CONCORD,CA,,US,,,,,
,visa,,,CONCORD,CA,,US,,,,,
,visa,,,CONCORD,CA,,US,,,,,
,visa,,,CONCORD,CA,,US,,,,,
,visa,,,CONCORD,CA,,US,,,,,
,visa,,,CONCORD,CA,,US,,,,,
,visa,,,CONCORD,CA,,US,,,,,
,visa,,,CONCORD,CA,,US,,,,,
,visa,,,CONCORD,CA,,US,,,,,
,visa,,,CONCORD,CA,,US,,,,,
,visa,,,CONCORD,CA,,US,,,,,
,visa,,,CONCORD,CA,,US,,,,,
https://www.walgreens.com/locator/walgreens-1800+concord+ave-concord-ca-94520/id=3164,walgreens,Walgreens,,Concord,CA,,US,+1 925-674-9477,https://www.walgreens.com/locator/walgreens-1800+concord+ave-concord-ca-94520/id=3164,Mo-Su 07:00-22:00,Walgreens,Q1591889
https://www.walgreens.com/locator/walgreens-1990+monument+blvd-concord-ca-94520/id=15003,walgreens,Walgreens,,Concord,CA,,US,+1 925-689-7812,https://www.walgreens.com/locator/walgreens-1990+monument+blvd-concord-ca-94520/id=15003,Mo-Fr 07:00-23:00; Sa-Su 07:00-22:00,Walgreens,Q1591889
2190__WILLOW__PASS__RD_CONCORD_CA_94520,wellsfargo,Wells Fargo,2190 WILLOW PASS RD,CONCORD,CA,,US,+1 925-671-1520,https://www.wellsfargo.com/locator/bank/2190__WILLOW__PASS__RD_CONCORD_CA_94520/,Mo-Fr 09:00-17:00,Wells Fargo,Q744149
2035__DIAMOND__BLVD_CONCORD_CA_94520,wellsfargo,,2035 DIAMOND BLVD,CONCORD,CA,,US,+1 800-869-3557,https://www.wellsfargo.com/locator/bank/2035__DIAMOND__BLVD_CONCORD_CA_94520/,,Wells Fargo,Q744149
80dc945ad7322d981317427776f9eafc,western_union,7-ELEVEN #14197,,Concord,CA,,US,+1 925-685-5920,https://location.westernunion.com/us/ca/concord/80dc945ad7322d981317427776f9eafc,,Western Union,Q861042
1153ff61f5d8ac038613bea8cee38427,western_union,ENVIOS CALIFORNIA,,Concord,CA,,US,+1 925-822-3344,https://location.westernunion.com/us/ca/concord/1153ff61f5d8ac038613bea8cee38427,Mo-Su 08:30-21:00,Western Union,Q861042
1d3b969fece92c883731ea8e4751d40f,western_union,7-ELEVEN #18886,,Concord,CA,,US,+1 925-689-3552,https://location.westernunion.com/us/ca/concord/1d3b969fece92c883731ea8e4751d40f,,Western Union,Q861042
559e89bee0f6d28ed628f37a6004ea83,western_union,LA MORENITA MARKET,,Concord,CA,,US,+1 925-609-8748,https://location.westernunion.com/us/ca/concord/559e89bee0f6d28ed628f37a6004ea83,Mo-Su 08:00-21:00,Western Union,Q861042
e4b18722569b6ae7b91252dac96e0681,western_union,J JEWERLY & FASHION,,Concord,CA,,US,+1 925-270-3788,https://location.westernunion.com/us/ca/concord/e4b18722569b6ae7b91252dac96e0681,Mo-Su 10:00-20:00,Western Union,Q861042
b192516203b67c970d3d371a8f75bde3,western_union,7-ELEVEN #27353,,Concord,CA,,US,+1 925-687-6711,https://location.westernunion.com/us/ca/concord/b192516203b67c970d3d371a8f75bde3,,Western Union,Q861042
79faaca64817210f49fd549a4a3ee4b7,western_union,PRIME YEARS NUTRITION,,Concord,CA,,US,+1 925-446-6323,https://location.westernunion.com/us/ca/concord/79faaca64817210f49fd549a4a3ee4b7,Mo-Su 09:00-20:00,Western Union,Q861042
concord,whole_foods,Concord,2085 Diamond Blvd,Concord,CA,,US,+1 925-695-3180,https://www.wholefoodsmarket.com/stores/concord,Mo-Su 08:00-21:00,Whole Foods,Q1809448
81,windsor_us,Sunvalley Shopping Center,,Concord,CA,,US,+1 888-495-4957,https://www.windsorstore.com/pages/ca-concord-sunvalley-shopping-center,,Windsor,Q72981668
205261,wingstop,Wingstop Concord Concord Ave,1100 Concord Ave,Concord,CA,,US,+1 925-270-1400,,,Wingstop,Q8025339
