Ref,Spider,Name,Address,City,State,Zipcode,Country,Phone,Website,Hours,Brand,WikiData
111006,bluerhino,Ted's Market,,Independence,VA,,US,+1 276-773-2210,,,Blue Rhino,Q65681213
191337,bluerhino,Quik Chek,,Independence,VA,,US,+1 276-773-3451,,,Blue Rhino,Q65681213
76147,citi,ATM SKYLINE NATIONAL BANK 05,,Independence,VA,,US,,,,Citibank,Q857063
76146,citi,ATM SKYLINE NATIONAL BANK 05,,Independence,VA,,US,,,,Citibank,Q857063
57207,citi,ATM Food City,,Independence,VA,,US,,,,Citibank,Q857063
76166,citi,ATM SKYLINE NATIONAL BANK 05,,Independence,VA,,US,,,,Citibank,Q857063
https://www.edwardjones.com/us-en/financial-advisor/ches-helmick,edwardjones,Ches Helmick,,Independence,VA,,US,+1 276-236-2133,https://www.edwardjones.com/us-en/financial-advisor/ches-helmick,Mo-Th 07:30-17:30; Fr 08:00-12:00,Edward Jones,Q5343830
https://local.fedex.com/#25233757,fedex,,,Independence,VA,,US,+1 800-463-3339,https://local.fedex.com/en-us/va/independence/intak,,FedEx,Q459477
158647,marathon_petroleum_us,Grayson Express,,Independence,VA,,US,+1 276-773-9173,,,Marathon,Q458363
https://restaurants.subway.com/#14912887,subway,Subway Guynn Shopping Center,,Independence Grayson,VA,,US,+1 276-773-9303,https://restaurants.subway.com/united-states/va/independence/580-e-main-st,Mo 09:00-21:00; Tu 09:00-18:00; We 10:00-17:30; Th 10:00-21:00; Fr 09:00-20:00; Sa 09:00-16:00,Subway,Q244457
1367884,usps,INDEPENDENCE,,INDEPENDENCE,VA,,US,+1 276-773-2261,,"Mo-Fr 08:30-12:30,13:30-16:30; Sa 08:30-11:30",United States Postal Service,Q668687
2434800000,usps_collection_boxes,USPS COLLECTION BOX - BLUE BOX,301 DAVIS ST,INDEPENDENCE,VA,,US,,,,United States Postal Service,Q668687
2434800002,usps_collection_boxes,USPS COLLECTION BOX - PO LOBBY,301 DAVIS ST,INDEPENDENCE,VA,,US,,,,United States Postal Service,Q668687
2434800004,usps_collection_boxes,USPS COLLECTION BOX - PO LOBBY,301 DAVIS ST,INDEPENDENCE,VA,,US,,,,United States Postal Service,Q668687
2434800001,usps_collection_boxes,USPS COLLECTION BOX - BLUE BOX,572 E MAIN ST,INDEPENDENCE,VA,,US,,,,United States Postal Service,Q668687
,visa,,,INDEPENDENCE,VA,,US,,,,,
,visa,,,INDEPENDENCE,VA,,US,,,,,
,visa,,,INDEPENDENCE,VA,,US,,,,,
,visa,,,INDEPENDENCE,VA,,US,,,,,
,visa,,,INDEPENDENCE,VA,,US,,,,,
,visa,,,INDEPENDENCE,VA,,US,,,,,
,visa,,,INDEPENDENCE,VA,,US,,,,,
,visa,,,INDEPENDENCE,VA,,US,,,,,
