Ref,Spider,Name,Address,City,State,Zipcode,Country,Phone,Website,Hours,Brand,WikiData
https://awrestaurants.com/locations/iowa/sigourney/805-e-jackson/,awrestaurants,A&W Restaurant,,Sigourney,IA,,US,+1 641-622-3354,https://awrestaurants.com/locations/iowa/sigourney/805-e-jackson/,Mo-Fr 10:30-21:00; Sa-Su 10:30-22:00,A&W Restaurants,Q277641
202685,bluerhino,CASEY'S GENERAL STORE #3396,,SIGOURNEY,IA,,US,+1 641-622-2698,,,Blue Rhino,Q65681213
164106,bluerhino,Brothers Market #0714,,Sigourney,IA,,US,+1 641-622-2191,,,Blue Rhino,Q65681213
12309781388055259100100000000000,bp,BP,,Sigourney,IA,,US,+1 641-622-3320,,Mo-Su 05:00-22:00,BP,Q152057
65488,citi,ATM MIDWESTONE BANK SIGOURNEY,,Sigourney,IA,,US,,,,Citibank,Q857063
32963,family_dollar_us,FAMILY DOLLAR #12963,,Sigourney,IA,,US,+1 515-612-9241,https://www.familydollar.com/locations/ia/sigourney/32963/,Mo-Su 08:00-21:00,Family Dollar,Q5433101
https://local.fedex.com/#61078602,fedex,FedEx Authorized ShipCenter,,Sigourney,IA,,US,+1 641-622-9013,https://local.fedex.com/en-us/ia/sigourney/dsmbp,,FedEx,Q459477
https://local.fedex.com/#27751912,fedex,FedEx Authorized ShipCenter,,Sigourney,IA,,US,+1 641-622-9013,https://local.fedex.com/en-us/ia/sigourney/00bv8,,FedEx,Q459477
Motorcraft3584USAEnglish,ford,"Wagler Motor Co., Inc",,Iowa,IA,,US,+1 641-622-3260,,,Ford,Q44294
https://www.ford.com/dealerships/dealer-details/ia/sigourney/helmuth-ford/,ford_dealers_us,Helmuth Ford,,Sigourney,IA,,US,+1 641-622-3260,https://www.ford.com/dealerships/dealer-details/ia/sigourney/helmuth-ford/,Mo-Fr 08:00-17:00; Sa 08:00-12:00,Ford Motor Company,Q44294
16225,h_r_block,H&R Block,,Sigourney,IA,,US,+1 641-622-3188,https://www.hrblock.com/local-tax-offices/iowa/sigourney/109-e-marion-st/16225/,,H&R Block,Q5627799
https://restaurants.subway.com/#14904210,subway,Subway,,Sigourney Keokuk,IA,,US,+1 641-622-3196,https://restaurants.subway.com/united-states/ia/sigourney/213-w-jackson,Mo-Su 08:00-20:30,Subway,Q244457
1381643,usps,SIGOURNEY,,SIGOURNEY,IA,,US,+1 641-622-3280,,"Mo-Fr 08:00-11:30,12:30-16:00; Sa 09:00-10:00",United States Postal Service,Q668687
5259100002,usps_collection_boxes,USPS COLLECTION BOX - BLUE BOX,115 W WASHINGTON ST,SIGOURNEY,IA,,US,,,,United States Postal Service,Q668687
5259100005,usps_collection_boxes,USPS COLLECTION BOX - PO LOBBY,115 W WASHINGTON ST,SIGOURNEY,IA,,US,,,,United States Postal Service,Q668687
5259100006,usps_collection_boxes,USPS COLLECTION BOX - PO LOBBY,115 W WASHINGTON ST,SIGOURNEY,IA,,US,,,,United States Postal Service,Q668687
,visa,,,SIGOURNEY,IA,,US,,,,,
,visa,,,SIGOURNEY,IA,,US,,,,,
,visa,,,SIGOURNEY,IA,,US,,,,,
,visa,,,SIGOURNEY,IA,,US,,,,,
,visa,,,SIGOURNEY,IA,,US,,,,,
,visa,,,SIGOUMEY,IA,,US,,,,,
,visa,,,SIGOUMEY,IA,,US,,,,,
,visa,,,SIGOURNEY,IA,,US,,,,,
