Ref,Spider,Name,Address,City,State,Zipcode,Country,Phone,Website,Hours,Brand,WikiData
c40c147274862fa53e3ad05b6f495afc,western_union,PAREEK JEWELLERS,,Mumbai,MAHARASHTRA,,IN,+91 22 2844 5872,https://location.westernunion.com/in/maharashtra/mumbai/c40c147274862fa53e3ad05b6f495afc,Mo-Su 08:00-23:00,Western Union,Q861042
b69093965efbd7909625bd35fc8d04a3,western_union,SHAIKH TOURS AND TRAVELS,,Mumbai,MAHARASHTRA,,IN,+91 99870 04245,https://location.westernunion.com/in/maharashtra/mumbai/b69093965efbd7909625bd35fc8d04a3,Mo-Su 08:00-24:00,Western Union,Q861042
bc4d0ea1bfe94e9ba088a87f40a3e46b,western_union,BLUE TELECOM,,Mumbai,MAHARASHTRA,,IN,+91 85916 63315,https://location.westernunion.com/in/maharashtra/mumbai/bc4d0ea1bfe94e9ba088a87f40a3e46b,Mo-Su 07:00-22:00,Western Union,Q861042
aa5685071a86564419645527e4477364,western_union,STAR TELECOM,,Mumbai,MAHARASHTRA,,IN,+91 95945 22544,https://location.westernunion.com/in/maharashtra/mumbai/aa5685071a86564419645527e4477364,Mo-Su 07:00-22:00,Western Union,Q861042
b50b860cfe0090aab67b4390f03d94ec,western_union,BISMILLAH TELECOM,,Mumbai,MAHARASHTRA,,IN,+91 98194 57529,https://location.westernunion.com/in/maharashtra/mumbai/b50b860cfe0090aab67b4390f03d94ec,Mo-Su 08:00-20:00,Western Union,Q861042
1af898a8e31d478ecdda7bb7e8d90a2e,western_union,PAUL MERCHANTS LIMITED,,Mumbai,MAHARASHTRA,,IN,+91 22 6456 0085,https://location.westernunion.com/in/maharashtra/mumbai/1af898a8e31d478ecdda7bb7e8d90a2e,Mo-Su 08:00-24:00,Western Union,Q861042
addd777fa7ea075389d6497b06ca51ca,western_union,SHRADDHA STORES,,Mumbai,MAHARASHTRA,,IN,+91 96645 81600,https://location.westernunion.com/in/maharashtra/mumbai/addd777fa7ea075389d6497b06ca51ca,Mo-Su 08:00-23:30,Western Union,Q861042
37c11a0c3b1ceb3ddc2304d62949823e,western_union,AL SAFAR TRAVELS,,Mumbai,MAHARASHTRA,,IN,+91 95881 43786,https://location.westernunion.com/in/maharashtra/mumbai/37c11a0c3b1ceb3ddc2304d62949823e,Mo-Su 08:00-21:00,Western Union,Q861042
8f9ec87e2801c12402c7da072bb61086,western_union,SOLANKI GOLD,,Mumbai,MAHARASHTRA,,IN,+91 98676 26783,https://location.westernunion.com/in/maharashtra/mumbai/8f9ec87e2801c12402c7da072bb61086,Mo-Su 08:00-23:30,Western Union,Q861042
10dde8ee19b04c410bca6f51963f8db7,western_union,BHAVIKA GOLD,,Mumbai,MAHARASHTRA,,IN,+91 99871 12448,https://location.westernunion.com/in/maharashtra/mumbai/10dde8ee19b04c410bca6f51963f8db7,Mo-Su 09:00-21:00,Western Union,Q861042
9b963af1ab97749b91fe9c410842d3b1,western_union,SHRI SAI JEWELLERS,,Mumbai,MAHARASHTRA,,IN,+91 22 2863 5512,https://location.westernunion.com/in/maharashtra/mumbai/9b963af1ab97749b91fe9c410842d3b1,Mo-Su 08:00-21:00,Western Union,Q861042
d24bf5f935b52e62fdc7cb0577c04b20,western_union,J B SOLANKI AND SONS,,Mumbai,MAHARASHTRA,,IN,+91 98202 70113,https://location.westernunion.com/in/maharashtra/mumbai/d24bf5f935b52e62fdc7cb0577c04b20,Mo-Su 07:00-22:00,Western Union,Q861042
8e6dfb69d5723ee5705f6e5def80b686,western_union,ANSARI MOBILE SHOP,,Mumbai,MAHARASHTRA,,IN,+91 77381 90392,https://location.westernunion.com/in/maharashtra/mumbai/8e6dfb69d5723ee5705f6e5def80b686,Mo-Su 07:00-22:00,Western Union,Q861042
43d8f6c8a1cca78359a4666786f24d8c,western_union,XPERT MOBILE SERVICE,,Mumbai,MAHARASHTRA,,IN,+91 73783 78281,https://location.westernunion.com/in/maharashtra/mumbai/43d8f6c8a1cca78359a4666786f24d8c,Mo-Su 07:00-22:00,Western Union,Q861042
27422289795a691a9732f2dc89db8fd9,western_union,NATIONAL MOBILE,,Mumbai Suburban,MAHARASHTRA,,IN,+91 97682 33630,https://location.westernunion.com/in/maharashtra/mumbai-suburban/27422289795a691a9732f2dc89db8fd9,Mo-Su 07:00-22:00,Western Union,Q861042
e9c247c6c936d5af997467fbf6f2d540,western_union,E WORLD,,Mumbai,MAHARASHTRA,,IN,+91 99308 53837,https://location.westernunion.com/in/maharashtra/mumbai/e9c247c6c936d5af997467fbf6f2d540,Mo-Su 09:00-22:00,Western Union,Q861042
a5850064aef6afb51da66896f1b27c68,western_union,KHAN TELECOM,,Mumbai,MAHARASHTRA,,IN,+91 70214 68050,https://location.westernunion.com/in/maharashtra/mumbai/a5850064aef6afb51da66896f1b27c68,Mo-Su 07:00-22:00,Western Union,Q861042
345442c5bb6b28a30b98c7a236022a03,western_union,AL HADI ENTERPRISE,,Mumbai Suburban,MAHARASHTRA,,IN,+91 95948 69369,https://location.westernunion.com/in/maharashtra/mumbai-suburban/345442c5bb6b28a30b98c7a236022a03,Mo-Su 08:00-20:00,Western Union,Q861042
7fbb6c6533296530b0f1da1dbdcb3487,western_union,STAR ENTERPRISES,,Mumbai,MAHARASHTRA,,IN,+91 97682 37850,https://location.westernunion.com/in/maharashtra/mumbai/7fbb6c6533296530b0f1da1dbdcb3487,Mo-Su 08:00-23:30,Western Union,Q861042
096f335e1f4f319a802594e64571eeca,western_union,FAMOUS TRAVELS,,Mumbai,MAHARASHTRA,,IN,+91 98670 55571,https://location.westernunion.com/in/maharashtra/mumbai/096f335e1f4f319a802594e64571eeca,Mo-Su 07:00-22:00,Western Union,Q861042
66a6a40e39634a2c0fe7601154df367f,western_union,SWAMI KRUPA SERVICES,,Mumbai,MAHARASHTRA,,IN,+91 92203 40549,https://location.westernunion.com/in/maharashtra/mumbai/66a6a40e39634a2c0fe7601154df367f,Mo-Su 07:00-22:00,Western Union,Q861042
c2f7930360b2205cdfa790ca07bfbaa5,western_union,AMBICA JEWELLERS,,Mumbai,MAHARASHTRA,,IN,+91 98922 51390,https://location.westernunion.com/in/maharashtra/mumbai/c2f7930360b2205cdfa790ca07bfbaa5,Mo-Su 07:00-21:00,Western Union,Q861042
68270fc72fee1d7f7af8e32235fe9e82,western_union,AZHAR ENTERPRISES,,Mumbai Suburban,MAHARASHTRA,,IN,+91 90222 53555,https://location.westernunion.com/in/maharashtra/mumbai-suburban/68270fc72fee1d7f7af8e32235fe9e82,Mo-Su 08:00-21:00,Western Union,Q861042
