Ref,Spider,Name,Address,City,State,Zipcode,Country,Phone,Website,Hours,Brand,WikiData
21252,citi,SORIANA SAN RAMON,,Saltillo,COAHUILA,,MX,+52 800 110 3990,,,Citibank,Q857063
753,first_cash,First Cash Pawn,,Saltillo,Coahuila,,MX,+52 844 410 1240,,,First Cash Pawn,
,visa,,,RAMOS ARIZPE,COAHUILA,,MX,,,,,
,visa,,,SALTILLO,COAHUILA,,MX,,,,,
,visa,,,SALTILLO,COAHUILA,,MX,,,,,
,visa,,,SALTILLO,COAHUILA,,MX,,,,,
,visa,,,SALTILLO,COAHUILA,,MX,,,,,
,visa,,,SALTILLO,COAHUILA,,MX,,,,,
,visa,,,SALTILLO,COAHUILA,,MX,,,,,
4ef54879c2a32aadd9504132f14a4f94,western_union,OXXO REFORMA SLF,,Saltillo,COAHUILA,,MX,+52 81 8389 2121,https://location.westernunion.com/mx/coahuila/saltillo/4ef54879c2a32aadd9504132f14a4f94,Mo-Su 08:00-22:00,Western Union,Q861042
e722b0577a92f165ad2bcfaec5dd02b7,western_union,OXXO REFORMA SLF,,Saltillo,COAHUILA,,MX,+52 81 8389 2121,https://location.westernunion.com/mx/coahuila/saltillo/e722b0577a92f165ad2bcfaec5dd02b7,Mo-Su 08:00-22:00,Western Union,Q861042
66bfc361b22df70a485a113f6be461d3,western_union,OXXO REFORMA SLF,,Saltillo,COAHUILA,,MX,+52 81 8389 2121,https://location.westernunion.com/mx/coahuila/saltillo/66bfc361b22df70a485a113f6be461d3,Mo-Su 08:00-22:00,Western Union,Q861042
541612de5aca026bdb9afd1684ebcd8a,western_union,BANORTE 00083 SALTILLO PLAZA FUNDADORES,,Saltillo,COAHUILA,,MX,+52 800 833 4700,https://location.westernunion.com/mx/coahuila/saltillo/541612de5aca026bdb9afd1684ebcd8a,Mo-Fr 09:00-17:00,Western Union,Q861042
bec2c33ae53d462216ec9bb6440e4599,western_union,OXXO PROVIVIENDA SLF,,Saltillo,COAHUILA,,MX,+52 81 8389 2121,https://location.westernunion.com/mx/coahuila/saltillo/bec2c33ae53d462216ec9bb6440e4599,Mo-Su 08:00-22:00,Western Union,Q861042
1c017ac775299f95f1c2b80ea68723e4,western_union,OXXO PROVIVIENDA SLF,,Saltillo,COAHUILA,,MX,+52 81 8389 2121,https://location.westernunion.com/mx/coahuila/saltillo/1c017ac775299f95f1c2b80ea68723e4,Mo-Su 08:00-22:00,Western Union,Q861042
41c377a6ee37172dac94bb9046756bf8,western_union,OXXO PROVIVIENDA SLF,,Saltillo,COAHUILA,,MX,+52 81 8389 2121,https://location.westernunion.com/mx/coahuila/saltillo/41c377a6ee37172dac94bb9046756bf8,Mo-Su 08:00-22:00,Western Union,Q861042
0c2a1365857c8c1e67c270f888c5df2c,western_union,OXXO CONDESA SLF,,Saltillo,COAHUILA,,MX,+52 81 8389 2121,https://location.westernunion.com/mx/coahuila/saltillo/0c2a1365857c8c1e67c270f888c5df2c,Mo-Su 08:00-22:00,Western Union,Q861042
577c646648cbf3457050681a3914e48f,western_union,OXXO CONDESA SLF,,Saltillo,COAHUILA,,MX,+52 81 8389 2121,https://location.westernunion.com/mx/coahuila/saltillo/577c646648cbf3457050681a3914e48f,Mo-Su 08:00-22:00,Western Union,Q861042
6e3c4829c5777742bf9944e326b6842c,western_union,OXXO CONDESA SLF,,Saltillo,COAHUILA,,MX,+52 81 8389 2121,https://location.westernunion.com/mx/coahuila/saltillo/6e3c4829c5777742bf9944e326b6842c,Mo-Su 08:00-22:00,Western Union,Q861042
ac3ed312266363d8e9c4f947e926ca64,western_union,OXXO HUMBOLT SLF,,Saltillo,COAHUILA,,MX,+52 81 8389 2121,https://location.westernunion.com/mx/coahuila/saltillo/ac3ed312266363d8e9c4f947e926ca64,Mo-Su 08:00-22:00,Western Union,Q861042
506a4e4348e3848a37ae5f80bb5dab87,western_union,OXXO HUMBOLT SLF,,Saltillo,COAHUILA,,MX,+52 81 8389 2121,https://location.westernunion.com/mx/coahuila/saltillo/506a4e4348e3848a37ae5f80bb5dab87,Mo-Su 08:00-22:00,Western Union,Q861042
56def5fd6af145ea7d3300d94807dc7c,western_union,OXXO HUMBOLT SLF,,Saltillo,COAHUILA,,MX,+52 81 8389 2121,https://location.westernunion.com/mx/coahuila/saltillo/56def5fd6af145ea7d3300d94807dc7c,Mo-Su 08:00-22:00,Western Union,Q861042
5f1f50871324e522ed3424d57fc2ca47,western_union,OXXO CLINICA 89 SLF,,Saltillo,COAHUILA,,MX,+52 81 8389 2121,https://location.westernunion.com/mx/coahuila/saltillo/5f1f50871324e522ed3424d57fc2ca47,Mo-Su 08:00-22:00,Western Union,Q861042
d3c3ac56c63e88f8c276ba230d6ee3e1,western_union,OXXO CLINICA 89 SLF,,Saltillo,COAHUILA,,MX,+52 81 8389 2121,https://location.westernunion.com/mx/coahuila/saltillo/d3c3ac56c63e88f8c276ba230d6ee3e1,Mo-Su 08:00-22:00,Western Union,Q861042
52cb96538c4288e6401535e4d7cdb392,western_union,OXXO SAN RAMON SLF,,Saltillo,COAHUILA,,MX,+52 81 8389 2121,https://location.westernunion.com/mx/coahuila/saltillo/52cb96538c4288e6401535e4d7cdb392,Mo-Su 08:00-22:00,Western Union,Q861042
08a5f966decb671baca912fb0aee9964,western_union,BANCOPPEL 0315 ECHEVERRIA,,Saltillo,COAHUILA,,MX,(+52) 667-589999,https://location.westernunion.com/mx/coahuila/saltillo/08a5f966decb671baca912fb0aee9964,Mo-Su 08:30-21:00,Western Union,Q861042
fde44c011795dcc753aa17d7d1278f78,western_union,BANCOPPEL 0315 ECHEVERRIA,,Saltillo,COAHUILA,,MX,(+52) 667-589999,https://location.westernunion.com/mx/coahuila/saltillo/fde44c011795dcc753aa17d7d1278f78,Mo-Su 08:30-21:00,Western Union,Q861042
5ac77c656f4c110094410a37cad4515d,western_union,BANCOPPEL 0315 ECHEVERRIA,,Saltillo,COAHUILA,,MX,(+52) 667-589999,https://location.westernunion.com/mx/coahuila/saltillo/5ac77c656f4c110094410a37cad4515d,Mo-Su 08:30-21:00,Western Union,Q861042
ee7c50f0fa223a27c22b8296b0d8dbf1,western_union,OXXO NUEVA VIZCAYA SLF,,Saltillo,COAHUILA,,MX,+52 81 8389 2121,https://location.westernunion.com/mx/coahuila/saltillo/ee7c50f0fa223a27c22b8296b0d8dbf1,Mo-Su 08:00-22:00,Western Union,Q861042
ab3834b5d8ae6d06e50b71f934209664,western_union,OXXO NUEVA VIZCAYA SLF,,Saltillo,COAHUILA,,MX,+52 81 8389 2121,https://location.westernunion.com/mx/coahuila/saltillo/ab3834b5d8ae6d06e50b71f934209664,Mo-Su 08:00-22:00,Western Union,Q861042
ca91af961823c83d14f2b019f75b36fb,western_union,OXXO NUEVA VIZCAYA SLF,,Saltillo,COAHUILA,,MX,+52 81 8389 2121,https://location.westernunion.com/mx/coahuila/saltillo/ca91af961823c83d14f2b019f75b36fb,Mo-Su 08:00-22:00,Western Union,Q861042
12084af8670724f656ad166d195102f4,western_union,OXXO SAN RAMON SLF,,Saltillo,COAHUILA,,MX,+52 81 8389 2121,https://location.westernunion.com/mx/coahuila/saltillo/12084af8670724f656ad166d195102f4,Mo-Su 08:00-22:00,Western Union,Q861042
8a3a5ea940dee8283d2443fce7dcd80b,western_union,OXXO SAN RAMON SLF,,Saltillo,COAHUILA,,MX,+52 81 8389 2121,https://location.westernunion.com/mx/coahuila/saltillo/8a3a5ea940dee8283d2443fce7dcd80b,Mo-Su 08:00-22:00,Western Union,Q861042
404904509293c01b6694fb9b62656b06,western_union,OXXO MARAVILLAS SLF,,Saltillo,COAHUILA,,MX,+52 81 8389 2121,https://location.westernunion.com/mx/coahuila/saltillo/404904509293c01b6694fb9b62656b06,Mo-Su 08:00-22:00,Western Union,Q861042
e590fec0b0e6ac8df1172b476f5da518,western_union,OXXO MARAVILLAS SLF,,Saltillo,COAHUILA,,MX,+52 81 8389 2121,https://location.westernunion.com/mx/coahuila/saltillo/e590fec0b0e6ac8df1172b476f5da518,Mo-Su 08:00-22:00,Western Union,Q861042
b83c2ab70c3adb88784744ce1cae5f81,western_union,OXXO MARAVILLAS SLF,,Saltillo,COAHUILA,,MX,+52 81 8389 2121,https://location.westernunion.com/mx/coahuila/saltillo/b83c2ab70c3adb88784744ce1cae5f81,Mo-Su 08:00-22:00,Western Union,Q861042
