Ref,Spider,Name,Address,City,State,Zipcode,Country,Phone,Website,Hours,Brand,WikiData
5442,autozone_us,AutoZone Auto Parts Los Angeles,,Los Angeles,CA,,US,+1 213-388-7481,https://www.autozone.com/locations/ca/los-angeles/1250-s-vermont-ave--1.html,Mo-Sa 07:30-22:00; Su 07:30-21:00,AutoZone,Q4826087
https://locators.bankofamerica.com/ca/losangeles/financial-centers-los-angeles-9203.html,bankofamerica,Bank of America Financial Center & Walk-Up ATM | Pico-Vermont,,Los Angeles,CA,,US,+1 213-637-1877,https://locators.bankofamerica.com/ca/losangeles/financial-centers-los-angeles-9203.html,Mo-Fr 10:00-16:00,Bank of America,Q487907
https://locators.bankofamerica.com/ca/losangeles/atm-los-angeles-110098.html,bankofamerica,Bank of America Walk-Up ATM | Western & Venice,,Los Angeles,CA,,US,+1 844-401-8500,https://locators.bankofamerica.com/ca/losangeles/atm-los-angeles-110098.html,,Bank of America,Q487907
https://locators.bankofamerica.com/ca/losangeles/atm-los-angeles-109896.html,bankofamerica,Bank of America Walk-Up ATM | Olympic & Hoover,,Los Angeles,CA,,US,+1 844-401-8500,https://locators.bankofamerica.com/ca/losangeles/atm-los-angeles-109896.html,,Bank of America,Q487907
196362,bluerhino,U-Haul International #712021,,Los Angeles,CA,,US,+1 323-594-1949,,,Blue Rhino,Q65681213
193069,bluerhino,Pico Build Supply Corp. #298059,,Los Angeles,CA,,US,+1 213-388-9127,,,Blue Rhino,Q65681213
169106,bluerhino,United Pacific  #155,,Los Angeles,CA,,US,+1 213-383-6947,,,Blue Rhino,Q65681213
229477,bluerhino,Food 4 Less #375,,Los Angeles,CA,,US,+1 213-386-1680,,,Blue Rhino,Q65681213
174812,bluerhino,Northgate Market #33,,Los Angeles,CA,,US,+1 213-249-9173,,,Blue Rhino,Q65681213
10981,bluerhino,Ace - Alvarado Paint & Hardware #09185,,Los Angeles,CA,,US,+1 213-382-1305,,,Blue Rhino,Q65681213
146107,bluerhino,Kenk USA - Alvarado St.,,Los Angeles,CA,,US,+1 213-739-0190,,,Blue Rhino,Q65681213
2038495,chase_us,Olympic and Normandie - New branch,,Los Angeles,CA,,US,+1 213-368-0838,https://locator.chase.com/ca/los-angeles/2970-w-olympic-blvd,Mo-Fr 09:00-17:00; Sa 09:00-14:00,Chase,Q524629
26883,citi,ATM 7ELEVEN-FCTI,,Los Angeles,CA,,US,,,,Citibank,Q857063
48375,citi,ATM CVS,,Los Angeles,CA,,US,,,,Citibank,Q857063
58646,citi,ATM HANMI BANK,,Los Angeles,CA,,US,,,,Citibank,Q857063
58633,citi,ATM HANMI BANK,,Los Angeles,CA,,US,,,,Citibank,Q857063
36037,citi,ATM BANK OF HOPE12,,Los Angeles.,CA,,US,,,,Citibank,Q857063
39074,citi,ATM CBB BANK,,Los Angeles,CA,,US,,,,Citibank,Q857063
58631,citi,ATM HANMI BANK,,Los Angeles,CA,,US,,,,Citibank,Q857063
66991,citi,ATM OPEN BANK,,Los Angeles,CA,,US,,,,Citibank,Q857063
85910,citi,ATM US METRO BANK 12,,Los Angeles,CA,,US,,,,Citibank,Q857063
58647,citi,ATM HANMI BANK,,Los Angeles,CA,,US,,,,Citibank,Q857063
28461,citi,ATM 7ELEVEN-FCTI,,Los Angeles,CA,,US,,,,Citibank,Q857063
27883,citi,ATM 7ELEVEN-FCTI,,Los Angeles,CA,,US,,,,Citibank,Q857063
36026,citi,ATM BANK OF HOPE12,,Los Angeles,CA,,US,,,,Citibank,Q857063
26757,citi,ATM 7ELEVEN-FCTI,,Los Angeles,CA,,US,,,,Citibank,Q857063
36036,citi,ATM BANK OF HOPE12,,La Crescenta,CA,,US,,,,Citibank,Q857063
70039711,cricket_wireless,Cricket Wireless Authorized Retailer,,Los Angeles,CA,,US,+1 213-368-9200,https://www.cricketwireless.com/stores/ll/US/CA/Los-Angeles/2201-W-Pico-Blvd,Mo-Sa 10:00-19:00; Su 10:00-18:00,Cricket Wireless,Q5184987
9626,cvs_us,CVS Pharmacy y m√°s,,Los Angeles,CA,,US,+1 323-731-9247,https://www.cvs.com/store-locator/los-angeles-ca-pharmacies/1701-south-western-avenue-los-angeles-ca-90006/storeid=9626,Mo-Su 07:00-22:00,CVS Pharmacy,Q2078880
8376,dominos_pizza_us,Domino's Pizza,,Los Angeles,CA,,US,+1 213-748-7774,https://pizza.dominos.com/california/los-angeles/1740-s-hoover-st,Mo-Th 10:00-24:00; Fr-Sa 10:00-01:00; Su 10:00-24:00,Domino's,Q839466
5502,elpolloloco,El Pollo Loco,,Los Angeles,CA,,US,+1 213-380-2772,,,El Pollo Loco,Q2353849
5906,elpolloloco,El Pollo Loco,,Los Angeles,CA,,US,+1 213-380-7721,,,El Pollo Loco,Q2353849
3540,elpolloloco,El Pollo Loco,,Los Angeles,CA,,US,+1 323-732-5626,,,El Pollo Loco,Q2353849
501742,extra_space_storage,Los Angeles Self Storage at 2800 W Pico Blvd,,Los Angeles,CA,,US,+1 323-733-4488,https://www.extraspace.com/storage/facilities/us/california/los_angeles/501742/,Mo-Fr 09:30-18:00; Sa 09:00-17:30,Extra Space Storage,Q5422162
7930,extra_space_storage,Los Angeles Self Storage at 1810 Venice Blvd,,Los Angeles,CA,,US,+1 323-568-1650,https://www.extraspace.com/storage/facilities/us/california/los_angeles/7930/,Mo-Fr 09:30-18:00; Sa 09:00-17:30,Extra Space Storage,Q5422162
3897,h_r_block,H&R Block,,Los Angeles,CA,,US,+1 213-381-6790,https://www.hrblock.com/local-tax-offices/california/los-angeles/1514-s-vermont-ave-ste-g/3897/,,H&R Block,Q5627799
3877,h_r_block,H&R Block,,Los Angeles,CA,,US,+1 213-487-3542,https://www.hrblock.com/local-tax-offices/california/los-angeles/1003-s-alvarado-st/3877/,,H&R Block,Q5627799
1232-s-vermont-ave,indigo,1232 S Vermont Ave,,Los Angeles,CA,,US,+1 310-446-7925,,,Indigo,Q3559970
https://healthy.kaiserpermanente.org/southern-california/facilities/alden-terrace-convalescent-hospital-175216,kaiser_permanente_us,Alden Terrace Convalescent Hospital,,Los Angeles,CA,,US,+1 213-382-8461,https://healthy.kaiserpermanente.org/southern-california/facilities/alden-terrace-convalescent-hospital-175216,,Kaiser Permanente,Q1721601
https://locations.kfc.com/#11247314,kfc,Chicken Nuggets Near Los Angeles,,Los Angeles,CA,,US,,https://locations.kfc.com/ca/los-angeles/2801-west-olympic-boulevard/chickennugget,Mo-Su 10:00-23:00,KFC,Q524757
11686,little_free_library,LAPD Olympic Station #11686 Los Angeles CA,,Los Angeles,CA,,US,,,,Little Free Library,Q6650101
72226126,moneygram,MUNDO CHECK CASHING,,LOS ANGELES,CA,,US,+1 213-388-3848,,Mo-Su 08:00-21:00,MoneyGram,Q1944412
72226142,moneygram,MUNDO CHECK CASHING,,LOS ANGELES,CA,,US,+1 213-365-8065,,Mo-Su 08:00-21:00,MoneyGram,Q1944412
74615748,moneygram,UNION XPRESS INC - #1 - LOS ANGELES - LO,,LOS ANGELES,CA,,US,+1 323-732-7016,,Mo-Fr 07:30-20:00; Sa 08:00-19:00; Su 08:30-18:00,MoneyGram,Q1944412
https://locations.oreillyauto.com/ca/losangeles/battery-testing-3057.html,oreilly,Your Los Angeles O'Reilly Auto Parts Store,,Los Angeles,CA,,US,+1 323-730-8750,https://locations.oreillyauto.com/ca/losangeles/battery-testing-3057.html,Mo-Sa 07:30-21:00; Su 08:00-21:00,O'Reilly Auto Parts,Q7071951
https://locations.oreillyauto.com/ca/losangeles/autopartes-3057.html,oreilly,Tu tienda O'Reilly Auto Parts en Los Angeles,,Los Angeles,CA,,US,+1 323-730-8750,https://locations.oreillyauto.com/ca/losangeles/autopartes-3057.html,Mo-Sa 07:30-21:00; Su 08:00-21:00,O'Reilly Auto Parts,Q7071951
0000878046,phillips_66_conoco_76,UNITED OIL 155,,LOS ANGELES,CA,,US,+1 213-383-6947,,,U76,Q1658320
ca_los-angeles_1555-s-western-ave,pizza_hut_us,1555 S Western Ave,,Los Angeles,CA,,US,+1 323-734-7713,https://locations.pizzahut.com/ca/los-angeles/1555-s-western-ave,,Pizza Hut,Q191615
https://www.plannedparenthood.org/health-center/california/koreatown/90006/koreatown-health-center-3795-90070,planned_parenthood,Planned Parenthood,,Koreatown,CA,,US,,https://www.plannedparenthood.org/health-center/california/koreatown/90006/koreatown-health-center-3795-90070,,Planned Parenthood,Q2553262
shilpark-paint-32714,ppgpaints,SHILPARK PAINT,,"Los Angeles, ",CA,,US,+1 323-732-7093,https://www.ppgpaints.com/store-locator/us/california/los-angeles-paint-stores/shilpark-paint-32714,,PPG Paints,Q83891559
05426,rite_aid_us,Rite Aid #05426 Los Angeles,,Los Angeles,CA,,US,+1 323-735-0774,https://locations2.riteaid.com.yext-cdn.com/ca/los-angeles/1815-south-vermont-avenue.html,Mo-Sa 08:00-22:00; Su 09:00-22:00,Rite Aid,Q3433273
997097,rocket_us,Rocket,,Los Angeles,CA,,US,+1 213-383-6947,,,Rocket,Q121513516
39203,seven_eleven_ca_us,7-Eleven,,Los Angeles,CA,,US,+1 800-255-0711,https://www.7-eleven.com/locations/ca/los-angeles/1833-s-vermont-ave-39203,,7-Eleven,Q259340
902,shellrecharge,Olympic PD,,Los Angeles,CA,,US,,,,Shell Recharge,Q105883058
1816,shellrecharge,1148 S WESTERN AVE,,Los Angeles,CA,,US,,,,Shell Recharge,Q105883058
https://restaurants.subway.com/#14895223,subway,Subway,,Los Angeles Los Angeles,CA,,US,+1 323-731-3592,https://restaurants.subway.com/united-states/ca/los-angeles/1728-south-western-ave,Mo-Su 07:00-24:00,Subway,Q244457
https://restaurants.subway.com/#14910423,subway,Subway,,Los Angeles Los Angeles,CA,,US,+1 213-744-0444,https://restaurants.subway.com/united-states/ca/los-angeles/1600-south-hoover-street,Mo-Sa 07:00-23:00; Su 08:00-23:00,Subway,Q244457
https://restaurants.subway.com/#14897157,subway,Subway Gold Plaza,,Los Angeles Los Angeles,CA,,US,+1 213-382-8598,https://restaurants.subway.com/united-states/ca/los-angeles/1101-s-vermont-avenue,Mo-Fr 07:30-21:00; Sa 08:00-20:00; Su 08:30-20:00,Subway,Q244457
https://restaurants.subway.com/#14896379,subway,Subway,,Los Angeles Los Angeles,CA,,US,+1 213-388-3040,https://restaurants.subway.com/united-states/ca/los-angeles/1013-s-alvarado-st,,Subway,Q244457
1SMC,tmobile_us,Western & Venice,,Los Angeles,CA,,US,+1 323-643-1899,https://www.t-mobile.com/store-locator/ca/los-angeles/western-venice,,T-Mobile,Q3511885
037750,uhaul,VFSKJ Inc,1555 Venice Bl,Los Angeles,CA,,US,+1 213-481-1044,,Mo-Fr 30:00-17:00,U-Haul,Q7862902
041439,uhaul,LA Pack N Ship,3003 W Olympic Bl 106,Los Angeles,CA,,US,+1 213-251-1048,,Mo-Fr 00:00-18:00; Sa 00:00-14:00,U-Haul,Q7862902
712032,uhaul,U-Haul Moving & Storage of Downtown,1836 S Arapahoe St,Los Angeles,CA,,US,+1 213-746-5910,,Mo-Th 00:00-19:00; Fr 00:00-20:00; Sa 00:00-19:00; Su 00:00-17:00,U-Haul,Q7862902
712021,uhaul,U-Haul of Koreatown,1600 S Western Av,Los Angeles,CA,,US,+1 323-731-3171,,Mo-Th 00:00-19:00; Fr 00:00-20:00; Sa 00:00-19:00; Su 00:00-17:00,U-Haul,Q7862902
9000600045,usps_collection_boxes,USPS COLLECTION BOX - PO LOBBY,2390 W PICO BLVD LOBBY,LOS ANGELES,CA,,US,,,,United States Postal Service,Q668687
9000600051,usps_collection_boxes,USPS COLLECTION BOX - PO LOBBY,2390 W PICO BLVD LOBBY,LOS ANGELES,CA,,US,,,,United States Postal Service,Q668687
9000600057,usps_collection_boxes,USPS COLLECTION BOX - PO LOBBY,2390 W PICO BLVD LOBBY,LOS ANGELES,CA,,US,,,,United States Postal Service,Q668687
9000600061,usps_collection_boxes,USPS COLLECTION BOX - PO LOBBY,2390 W PICO BLVD LOBBY,LOS ANGELES,CA,,US,,,,United States Postal Service,Q668687
9000600008,usps_collection_boxes,USPS COLLECTION BOX - BLUE BOX,1157 S BERENDO ST,LOS ANGELES,CA,,US,,,,United States Postal Service,Q668687
9000600013,usps_collection_boxes,USPS COLLECTION BOX - BLUE BOX,2922 W PICO BLVD,LOS ANGELES,CA,,US,,,,United States Postal Service,Q668687
9000600022,usps_collection_boxes,USPS COLLECTION BOX - BLUE BOX,998 S WESTERN AVE,LOS ANGELES,CA,,US,,,,United States Postal Service,Q668687
9000600058,usps_collection_boxes,USPS COLLECTION BOX - BLUE BOX,3250 W OLYMPIC (1ST LEVEL PK),LOS ANGELES,CA,,US,,,,United States Postal Service,Q668687
A00000256067,verizon_us,Your Wireless Los Angeles,,LOS ANGELES,CA,,US,+1 213-388-3311,https://www.verizon.com/stores/details/california/los-angeles/western-332991/,Mo-Su 10:00-19:00,Verizon,Q919641
A00000343438,verizon_us,Your Wireless Los Angeles W Olympic,,Los Angeles,CA,,US,+1 323-733-0300,https://www.verizon.com/stores/details/california/los-angeles/ultimate-wireless-la-olympic-blvd-1633022/,Mo-Su 10:00-19:00,Verizon,Q919641
,visa,,,DOWNEY,CA,,US,,,,,
,visa,,,LA CRESCENTA,CA,,US,,,,,
,visa,,,LA,CA,,US,,,,,
,visa,,,LOS ANGELES,CA,,US,,,,,
,visa,,,LOS ANGELES,CA,,US,,,,,
,visa,,,LOS ANGELES,CA,,US,,,,,
,visa,,,LOS ANGELES,CA,,US,,,,,
,visa,,,LOS ANGELES,CA,,US,,,,,
,visa,,,LOS ANGELES,CA,,US,,,,,
,visa,,,LOS ANGELES,CA,,US,,,,,
,visa,,,LOS ANGELES,CA,,US,,,,,
,visa,,,LOS ANGELES,CA,,US,,,,,
,visa,,,LOS ANGELES,CA,,US,,,,,
,visa,,,LOS ANGELES,CA,,US,,,,,
,visa,,,LOS ANGELES,CA,,US,,,,,
,visa,,,LOS ANGELES,CA,,US,,,,,
,visa,,,LOS ANGELES,CA,,US,,,,,
,visa,,,LOS ANGELES,CA,,US,,,,,
,visa,,,LOS ANGELES,CA,,US,,,,,
,visa,,,LOS ANGELES,CA,,US,,,,,
,visa,,,LOS ANGELES,CA,,US,,,,,
,visa,,,LOS ANGELES,CA,,US,,,,,
,visa,,,LOS ANGELES,CA,,US,,,,,
,visa,,,LOS ANGELES,CA,,US,,,,,
,visa,,,LOS ANGELES,CA,,US,,,,,
,visa,,,LOS ANGELES,CA,,US,,,,,
,visa,,,LOS ANGELES,CA,,US,,,,,
,visa,,,LOS ANGELES,CA,,US,,,,,
,visa,,,LOS ANGELES,CA,,US,,,,,
,visa,,,LOS ANGELES,CA,,US,,,,,
,visa,,,LOS ANGELES,CA,,US,,,,,
,visa,,,LOS ANGELES,CA,,US,,,,,
,visa,,,LOS ANGELES,CA,,US,,,,,
,visa,,,LOS ANGELES,CA,,US,,,,,
,visa,,,LOS ANGELES,CA,,US,,,,,
,visa,,,LOS ANGELES,CA,,US,,,,,
,visa,,,LOS ANGELES,CA,,US,,,,,
,visa,,,LOS ANGELES,CA,,US,,,,,
,visa,,,LOS ANGELES,CA,,US,,,,,
,visa,,,LOS ANGELES,CA,,US,,,,,
,visa,,,LOS ANGELES,CA,,US,,,,,
,visa,,,LOS ANGELES,CA,,US,,,,,
,visa,,,LOS ANGELES,CA,,US,,,,,
,visa,,,LOS ANGELES,CA,,US,,,,,
,visa,,,LOS ANGELES,CA,,US,,,,,
,visa,,,LOS ANGELES,CA,,US,,,,,
,visa,,,LOS ANGELES,CA,,US,,,,,
,visa,,,LOS ANGELES,CA,,US,,,,,
,visa,,,LOS ANGELES,CA,,US,,,,,
,visa,,,LOS ANGELES,CA,,US,,,,,
,visa,,,LOS ANGELES,CA,,US,,,,,
,visa,,,LOS ANGELES,CA,,US,,,,,
,visa,,,LOS ANGELES,CA,,US,,,,,
,visa,,,LOS ANGELES,CA,,US,,,,,
,visa,,,LOS ANGELES,CA,,US,,,,,
,visa,,,LOS ANGELES,CA,,US,,,,,
,visa,,,LOS ANGELES,CA,,US,,,,,
,visa,,,LOS ANGELES,CA,,US,,,,,
,visa,,,LOS ANGELES,CA,,US,,,,,
,visa,,,LA,CA,,US,,,,,
,visa,,,LOS ANGELES,CA,,US,,,,,
,visa,,,LOS ANGELES,CA,,US,,,,,
,visa,,,LOS ANGELES,CA,,US,,,,,
,visa,,,LOS ANGELES,CA,,US,,,,,
,visa,,,LOS ANGELES,CA,,US,,,,,
,visa,,,LOS ANGELES,CA,,US,,,,,
,visa,,,LOS ANGELES,CA,,US,,,,,
,visa,,,LOS ANGELES,CA,,US,,,,,
,visa,,,LOS ANGELES,CA,,US,,,,,
,visa,,,LOS ANGELES,CA,,US,,,,,
,visa,,,LOS ANGELES,CA,,US,,,,,
,visa,,,LOS ANGELES,CA,,US,,,,,
,visa,,,LOS ANGELES,CA,,US,,,,,
,visa,,,LOS ANGELES,CA,,US,,,,,
,visa,,,LOS ANGELES,CA,,US,,,,,
,visa,,,LOS ANGELES,CA,,US,,,,,
,visa,,,LOS ANGELES,CA,,US,,,,,
,visa,,,LOS ANGELES,CA,,US,,,,,
,visa,,,LOS ANGELES,CA,,US,,,,,
,visa,,,LOS ANGELES,CA,,US,,,,,
,visa,,,LOS ANGELES,CA,,US,,,,,
,visa,,,LOS ANGELES,CA,,US,,,,,
,visa,,,LOS ANGELES,CA,,US,,,,,
,visa,,,LOS ANGELES,CA,,US,,,,,
,visa,,,LOS ANGELES,CA,,US,,,,,
,visa,,,LOS ANGELES,CA,,US,,,,,
,visa,,,LOS ANGELES,CA,,US,,,,,
,visa,,,LOS ANGELES,CA,,US,,,,,
,visa,,,LOS ANGELES,CA,,US,,,,,
,visa,,,LOS ANGELES,CA,,US,,,,,
,visa,,,LOS ANGELES,CA,,US,,,,,
,visa,,,LOS ANGELES,CA,,US,,,,,
,visa,,,LOS ANGELES,CA,,US,,,,,
,visa,,,LOS ANGELES,CA,,US,,,,,
,visa,,,LOS ANGELES,CA,,US,,,,,
,visa,,,LOS ANGELES,CA,,US,,,,,
,visa,,,LOS ANGELES,CA,,US,,,,,
,visa,,,LOS ANGELES,CA,,US,,,,,
,visa,,,LOS ANGELES,CA,,US,,,,,
,visa,,,LOS ANGELES,CA,,US,,,,,
,visa,,,LOS ANGELES,CA,,US,,,,,
,visa,,,LOS ANGELES,CA,,US,,,,,
,visa,,,LOS ANGELES,CA,,US,,,,,
,visa,,,LOS ANGELES,CA,,US,,,,,
,visa,,,LOS ANGELES,CA,,US,,,,,
,visa,,,LOS ANGELES.,CA,,US,,,,,
,visa,,,LOS ANGELES,CA,,US,,,,,
,visa,,,LOS ANGELES,CA,,US,,,,,
,visa,,,LOS ANGELES,CA,,US,,,,,
,visa,,,LOS ANGELES,CA,,US,,,,,
,visa,,,LOS ANGELES,CA,,US,,,,,
,visa,,,LOS ANGELES,CA,,US,,,,,
,visa,,,LOS ANGELES,CA,,US,,,,,
,visa,,,LOS ANGELES,CA,,US,,,,,
,visa,,,LOS ANGELES,CA,,US,,,,,
,visa,,,LOS ANGELES,CA,,US,,,,,
,visa,,,LOS ANGELES,CA,,US,,,,,
,visa,,,LOS ANGELES,CA,,US,,,,,
,visa,,,LOS ANGELES,CA,,US,,,,,
,visa,,,LOS ANGELES,CA,,US,,,,,
,visa,,,LOS ANGELES,CA,,US,,,,,
,visa,,,LOS ANGELES,CA,,US,,,,,
,visa,,,LOS ANGELES,CA,,US,,,,,
,visa,,,LOS ANGELES,CA,,US,,,,,
,visa,,,LOS ANGELES,CA,,US,,,,,
,visa,,,LOS ANGELES,CA,,US,,,,,
,visa,,,LOS ANGELES,CA,,US,,,,,
,visa,,,LOS ANGELES,CA,,US,,,,,
,visa,,,LOS ANGELES,CA,,US,,,,,
,visa,,,LOS ANGELES,CA,,US,,,,,
,visa,,,NORTH HILLS,CA,,US,,,,,
,visa,,,LOS ANGELES,CA,,US,,,,,
1309__ALVARADO__ST_LOS__ANGELES_CA_90006,wellsfargo,,1309 ALVARADO ST,LOS ANGELES,CA,,US,+1 800-869-3557,https://www.wellsfargo.com/locator/bank/1309__ALVARADO__ST_LOS__ANGELES_CA_90006/,,Wells Fargo,Q744149
1091__S__HOOVER__ST_LOS__ANGELES_CA_90006,wellsfargo,,1091 S HOOVER ST,LOS ANGELES,CA,,US,+1 800-869-3557,https://www.wellsfargo.com/locator/bank/1091__S__HOOVER__ST_LOS__ANGELES_CA_90006/,,Wells Fargo,Q744149
50f03674dc852be10ce9b848ad2639f2,western_union,KOREA TOWN POST LLC,,Los Angeles,CA,,US,+1 213-739-8833,https://location.westernunion.com/us/ca/los-angeles/50f03674dc852be10ce9b848ad2639f2,Mo-Fr 09:30-17:00; Sa 09:30-13:00,Western Union,Q861042
8b41defca44b30b4f4c5ab1a057d75ee,western_union,KOREA TOWN POST LLC,,Los Angeles,CA,,US,+1 213-739-8833,https://location.westernunion.com/us/ca/los-angeles/8b41defca44b30b4f4c5ab1a057d75ee,Mo-Fr 09:30-17:00; Sa 09:30-13:00,Western Union,Q861042
1e02514e67ff3c9929ea390fb2208f98,western_union,SIMPLY GO SUPER MARKET,,Los Angeles,CA,,US,+1 323-641-0354,https://location.westernunion.com/us/ca/los-angeles/1e02514e67ff3c9929ea390fb2208f98,Mo-Su 07:00-21:00,Western Union,Q861042
9125ed8695310a2989c310296fe4636d,western_union,LUCKY LIU DEVELOPMENT LLC,,Los Angeles,CA,,US,+1 213-388-3900,https://location.westernunion.com/us/ca/los-angeles/9125ed8695310a2989c310296fe4636d,Mo-Su 09:00-18:00,Western Union,Q861042
18f7d3bf2cc956433864077ed7293969,western_union,7-ELEVEN #21030,,Los Angeles,CA,,US,+1 213-386-0165,https://location.westernunion.com/us/ca/los-angeles/18f7d3bf2cc956433864077ed7293969,,Western Union,Q861042
eb693c2be86ba4c668b806c14ab3bcb0,western_union,123 DISCOUNT INC,,Los Angeles,CA,,US,+1 323-690-2266,https://location.westernunion.com/us/ca/los-angeles/eb693c2be86ba4c668b806c14ab3bcb0,Mo-Su 08:00-20:30,Western Union,Q861042
055d52b8a90c1218cb3d5e0ac7387750,western_union,MALDONADO'S DISCOUNT STORE,,Los Angeles,CA,,US,+1 323-635-9438,https://location.westernunion.com/us/ca/los-angeles/055d52b8a90c1218cb3d5e0ac7387750,Mo-Su 06:00-19:00,Western Union,Q861042
90142,wingstop,Wingstop Los Angeles S. Western Ave @ Venice Blvd,1707 S. Western Ave,Los Angeles,CA,,US,+1 747-800-9464,,,Wingstop,Q8025339
