Ref,Spider,Name,Address,City,State,Zipcode,Country,Phone,Website,Hours,Brand,WikiData
https://local.pharmacy.albertsons.com/#5672669,albertsons,Albertsons Pharmacy,,Los Angeles,CA,,US,+1 323-295-3330,https://local.pharmacy.albertsons.com/ca/los-angeles/3901-crenshaw-blvd.html,,Albertsons,Q2831861
https://local.albertsons.com/#5603414,albertsons,Albertsons,,Los Angeles,CA,,US,+1 323-295-1919,https://local.albertsons.com/ca/los-angeles/3901-crenshaw-blvd.html,,Albertsons,Q2831861
https://locations.auntieannes.com/#7167,auntie_annes,Auntie Anne's Baldwin Hills Crenshaw Plaza II,,Los Angeles,CA,,US,+1 323-299-4161,https://locations.auntieannes.com/ca/los-angeles/3650-martin-luther-king-blvd-7167,,Auntie Anne's,Q4822010
https://locations.auntieannes.com/#7141,auntie_annes,Auntie Anne's Baldwin Hills Crenshaw Plaza,,Los Angeles,CA,,US,+1 323-299-4161,https://locations.auntieannes.com/ca/los-angeles/3650-martin-luther-king-blvd-7141,Mo-Sa 10:00-20:00; Su 11:00-19:00,Auntie Anne's,Q4822010
https://locators.bankofamerica.com/ca/losangeles/financial-centers-los-angeles-8088.html,bankofamerica,Bank of America Financial Center & Walk-Up ATM | Crenshaw Center,,Los Angeles,CA,,US,+1 323-290-6822,https://locators.bankofamerica.com/ca/losangeles/financial-centers-los-angeles-8088.html,Mo-Fr 10:00-16:00,Bank of America,Q487907
https://locations.baskinrobbins.com/ca/los-angeles/4066-s-victoria-ave-360037-br,baskin_robbins_us,Baskin-Robbinsâ„¢,,Los Angeles,CA,,US,+1 323-299-4014,https://locations.baskinrobbins.com/ca/los-angeles/4066-s-victoria-ave-360037-br,Mo-Su 11:00-22:00,Baskin-Robbins,Q584601
BBW01650,bathandbodyworks_us,BALDWIN HILLS,,LOS ANGELES,CA,,US,+1 323-299-9890,,Mo-Sa 10:00-19:00; Su 11:00-19:00,Bath & Body Works,Q810773
//locations.carters.com/ca/los-angeles/carters-los-angeles-baldwin-ca,carters_us,Carter's Baldwin Hills,,Los Angeles,CA,,US,+1 323-293-3691,https://locations.carters.com/ca/los-angeles/carters-los-angeles-baldwin-ca,Mo-Sa 10:00-20:00; Su 11:00-19:00,Carter's,Q5047083
ca_baldwin-hills_3939-crenshaw-blvd,chipotle, ,,Baldwin Hills,CA,,US,+1 323-347-2108,https://locations.chipotle.com/ca/baldwin-hills/3939-crenshaw-blvd,,Chipotle,Q465751
30181,citi,ATM 7ELEVEN-FCTI,,Los Angeles,CA,,US,,,,Citibank,Q857063
29956,citi,ATM 7ELEVEN-FCTI,,Los Angeles,CA,,US,,,,Citibank,Q857063
losangeles/5087,claires,Shop Ear Piercings & Jewelry at Baldwin Hills Crenshaw,,LOS ANGELES,CA,,US,+1 323-291-1812,https://stores.claires.com/us/ca/losangeles/5087.html,Mo-Sa 10:00-20:00; Su 11:00-19:00,Claire's,Q2974996
230,daniels_jewelers_us,Baldwin Hills Crenshaw Plaza,,Baldwin Hills,CA,,US,+1 323-294-8050,,Mo-Sa 10:00-20:00; Su 11:00-19:00,Daniel's Jewelers,Q120763875
5975,elpolloloco,El Pollo Loco,,Los Angeles,CA,,US,+1 323-295-8122,,,El Pollo Loco,Q2353849
200328828,exxonmobil,JAMES GAS & MART INC.,,LOS ANGELES,CA,,US,+1 323-296-0234,https://www.exxon.com/en/find-station/mobil-losangeles-ca-jamesgasmartinc-200328828,Mo-Su 06:00-23:00,Mobil,Q109676002
https://stores.footlocker.com/ca/losangeles/3650-west-martin-luther-king-jr.-boulevard-8141.html,footlocker,"Foot Locker in Baldwin Hills: Los Angeles, California | Approved | Own It",,Los Angeles,CA,,US,+1 323-293-1659,https://stores.footlocker.com/ca/losangeles/3650-west-martin-luther-king-jr.-boulevard-8141.html,Mo-Sa 10:00-20:00; Su 11:00-19:00,Foot Locker,Q63335
6141,h_r_block,H&R Block,,Los Angeles,CA,,US,+1 323-296-0097,https://www.hrblock.com/local-tax-offices/california/los-angeles/baldwin-hills-crenshaw-mall/6141/,,H&R Block,Q5627799
ca_los-angeles_breakfast-3625-stocker-st-003,ihop,IHOP Breakfast Restaurants Near You at 3625 Stocker St,,Los Angeles,CA,,US,+1 323-291-0001,https://restaurants.ihop.com/en-us/ca/los-angeles/breakfast-3625-stocker-st-003,,IHOP,Q1185675
https://locations.jackinthebox.com/us/ca/los-angeles/4210-crenshaw-blvd,jackinthebox,Jack in the Box,,Los Angeles,CA,,US,+1 323-293-0034,https://locations.jackinthebox.com/us/ca/los-angeles/4210-crenshaw-blvd,Mo-Sa 06:00-23:00; Su 07:00-23:00,Jack in the Box,Q1538507
https://office.jacksonhewitt.com/#27577082,jackson_hewitt,Jackson Hewitt,,Los Angeles,CA,,US,+1 562-661-5300,https://office.jacksonhewitt.com/tax-preparation-services-locations/en/ca/los-angeles/3825-s-crenshaw-boulevard/15351,Mo-Sa 09:00-20:00; Su 12:00-16:00,Jackson Hewitt,Q6117132
https://healthy.kaiserpermanente.org/southern-california/facilities/view-park-convalescent-center-174737,kaiser_permanente_us,View Park Convalescent Center,,Los Angeles,CA,,US,+1 323-295-7737,https://healthy.kaiserpermanente.org/southern-california/facilities/view-park-convalescent-center-174737,,Kaiser Permanente,Q1721601
https://healthy.kaiserpermanente.org/southern-california/facilities/st-annes-family-services-enhanced-care-management-ecm-172912,kaiser_permanente_us,St Anne's Family Services - Enhanced Care Management (ECM),,Los Angeles,CA,,US,+1 213-381-2931,https://healthy.kaiserpermanente.org/southern-california/facilities/st-annes-family-services-enhanced-care-management-ecm-172912,,Kaiser Permanente,Q1721601
https://healthy.kaiserpermanente.org/southern-california/facilities/baldwin-hills-crenshaw-medical-offices-332581,kaiser_permanente_us,Baldwin Hills-Crenshaw Medical Offices,,Los Angeles,CA,,US,+1 833-574-2273,https://healthy.kaiserpermanente.org/southern-california/facilities/baldwin-hills-crenshaw-medical-offices-332581,,Kaiser Permanente,Q1721601
//locations.oshkosh.com/ca/los-angeles/oshkosh-los-angeles-baldwin-ca,oshkosh_us,Oshkosh B'gosh Baldwin Hills,,Los Angeles,CA,,US,+1 323-293-3691,https://locations.oshkosh.com/ca/los-angeles/oshkosh-los-angeles-baldwin-ca,Mo-Sa 10:00-20:00; Su 11:00-19:00,OshKosh B'gosh,Q1417347
111225,pandaexpress,Baldwin Hills Plaza,,Los Angeles,CA,,US,+1 323-291-9200,https://www.pandaexpress.com/locations/ca/los-angeles/3650-mlking-jr-blvd-#137,Mo-Sa 10:00-20:00; Su 11:00-19:00,Panda Express,Q1358690
ca_los-angeles_4356-leimert-blvd,pizza_hut_us,4356 Leimert Blvd,,Los Angeles,CA,,US,+1 323-291-4000,https://locations.pizzahut.com/ca/los-angeles/4356-leimert-blvd,,Pizza Hut,Q191615
ca_los-angeles_4020-marlton-ave,pizza_hut_us,4020 Marlton Ave,,Los Angeles,CA,,US,,https://locations.pizzahut.com/ca/los-angeles/4020-marlton-ave,,Pizza Hut,Q191615
https://www.publicstorage.com/self-storage-ca-los-angeles/218.html,public_storage_us,Public Storage,,Los Angeles,CA,,US,+1 323-218-0464,https://www.publicstorage.com/self-storage-ca-los-angeles/218.html,,Public Storage,Q1156045
location-8722,sbarro,Baldwin Hills,3650 Martin Luther Kg Jr,LOS ANGELES,CA,,US,,https://sbarro.com/locations/ca/los-angeles/baldwin-hills/,,Sbarro,Q2589409
34754,seven_eleven_ca_us,7-Eleven Store,,Los Angeles,CA,,US,+1 323-299-9417,https://www.7-eleven.com/locations/ca/los-angeles/4299-s-crenshaw-blvd-34754,,7-Eleven,Q259340
1265,shellrecharge,5609 N Figueroa St,,Los Angeles,CA,,US,,,,Shell Recharge,Q105883058
1254,shellrecharge,4259 Leimert Blvd,,Los Angeles,CA,,US,,,,Shell Recharge,Q105883058
3701-w-santa-rosalia-dr,staples,"Staples Los Angeles, CA",,Los Angeles,CA,,US,,https://stores.staples.com/ca/los-angeles/3701-w-santa-rosalia-dr,Mo-Fr 08:00-20:00; Sa 09:00-18:00; Su 10:00-18:00,Staples,Q785943
https://restaurants.subway.com/#14913215,subway,Subway Baldwin Hills Crenshaw Plaza,,Los Angeles Los Angeles,CA,,US,+1 323-293-7771,https://restaurants.subway.com/united-states/ca/los-angeles/3939-crenshaw-blvd,Mo-Fr 07:00-22:00; Sa-Su 08:00-22:00,Subway,Q244457
https://locations.tacobell.com/#6143725,taco_bell,Taco Bell,,Los Angeles,CA,,US,+1 213-262-2623,https://locations.tacobell.com/ca/los-angeles/4050-marlton-ave.html,Mo-Sa 08:00-24:00; Su 09:00-24:00,Taco Bell,Q752941
08125,tjx,Los Angeles,3650 M.L. King Jr. Blvd,Los Angeles,CA,,US,+1 323-296-5935,,Mo-Sa 10:00-20:00; Su 11:00-19:00,TJ Maxx,Q10860683
1359781,usps,CRENSHAW,,LOS ANGELES,CA,,US,+1 323-295-0099,,Mo-Fr 08:30-17:00; Sa 08:30-15:30,United States Postal Service,Q668687
9000800009,usps_collection_boxes,USPS COLLECTION BOX - BLUE BOX,6101 BEDFORD AVE,LOS ANGELES,CA,,US,,,,United States Postal Service,Q668687
9000800048,usps_collection_boxes,USPS COLLECTION BOX - BLUE BOX,5441 SENFORD AVE,LOS ANGELES,CA,,US,,,,United States Postal Service,Q668687
9000800056,usps_collection_boxes,USPS COLLECTION BOX - BLUE BOX,5261 W 57TH ST,LOS ANGELES,CA,,US,,,,United States Postal Service,Q668687
9000800027,usps_collection_boxes,USPS COLLECTION BOX - BLUE BOX,6611 LA CIENEGA WESTWAY ST,LOS ANGELES,CA,,US,,,,United States Postal Service,Q668687
9000800068,usps_collection_boxes,USPS COLLECTION BOX - BLUE BOX,5110 W GOLDLEAF CIR,LOS ANGELES,CA,,US,,,,United States Postal Service,Q668687
9000800026,usps_collection_boxes,USPS COLLECTION BOX - BLUE BOX,6202 S FAIRFAX AVE,LOS ANGELES,CA,,US,,,,United States Postal Service,Q668687
9000800022,usps_collection_boxes,USPS COLLECTION BOX - BLUE BOX,4554 DON RICARDO DR,LOS ANGELES,CA,,US,,,,United States Postal Service,Q668687
9000800058,usps_collection_boxes,USPS COLLECTION BOX - PO LOBBY,3894 CRENSHAW BLVD LOBBY,LOS ANGELES,CA,,US,,,,United States Postal Service,Q668687
9000800076,usps_collection_boxes,USPS COLLECTION BOX - PO LOBBY,3894 CRENSHAW BLVD LOBBY,LOS ANGELES,CA,,US,,,,United States Postal Service,Q668687
9000800097,usps_collection_boxes,USPS COLLECTION BOX - PO LOBBY,3894 CRENSHAW BLVD LOBBY,LOS ANGELES,CA,,US,,,,United States Postal Service,Q668687
,visa,,,LOS ANGELES,CA,,US,,,,,
,visa,,,LOS ANGELES,CA,,US,,,,,
,visa,,,LOS ANGELES,CA,,US,,,,,
,visa,,,LOS ANGELES,CA,,US,,,,,
,visa,,,LOS ANGELES,CA,,US,,,,,
,visa,,,LOS ANGELES,CA,,US,,,,,
,visa,,,LOS ANGELES,CA,,US,,,,,
,visa,,,LOS ANGELES,CA,,US,,,,,
,visa,,,LOS ANGELES,CA,,US,,,,,
,visa,,,LOS ANGELES,CA,,US,,,,,
,visa,,,LOS ANGELES,CA,,US,,,,,
,visa,,,LOS ANGELES,CA,,US,,,,,
,visa,,,LOS ANGELES,CA,,US,,,,,
,visa,,,LOS ANGELES,CA,,US,,,,,
,visa,,,LOS ANGELES,CA,,US,,,,,
,visa,,,LOS ANGELES,CA,,US,,,,,
,visa,,,LOS ANGELES,CA,,US,,,,,
,visa,,,LOS ANGELES,CA,,US,,,,,
,visa,,,LOS ANGELES,CA,,US,,,,,
,visa,,,LOS ANGELES,CA,,US,,,,,
,visa,,,LOS ANGELES,CA,,US,,,,,
,visa,,,LOS ANGELES,CA,,US,,,,,
,visa,,,LOS ANGELES,CA,,US,,,,,
,visa,,,LOS ANGELES,CA,,US,,,,,
,visa,,,LOS ANGELES,CA,,US,,,,,
,visa,,,LOS ANGELES,CA,,US,,,,,
,visa,,,LOS ANGELES,CA,,US,,,,,
,visa,,,LOS ANGELES,CA,,US,,,,,
,visa,,,LOS ANGELES,CA,,US,,,,,
,visa,,,LOS ANGELES,CA,,US,,,,,
,visa,,,LOS ANGELES,CA,,US,,,,,
,visa,,,LOS ANGELES,CA,,US,,,,,
,visa,,,LOS ANGELES,CA,,US,,,,,
,visa,,,LOS ANGELES,CA,,US,,,,,
,visa,,,LOS ANGELES,CA,,US,,,,,
,visa,,,LOS ANGELES,CA,,US,,,,,
,visa,,,LOS ANGELES,CA,,US,,,,,
,visa,,,LOS ANGELES,CA,,US,,,,,
,visa,,,LOS ANGELES,CA,,US,,,,,
,visa,,,LOS ANGELES,CA,,US,,,,,
,visa,,,LOS ANGELES,CA,,US,,,,,
3649__STOCKER__ST_LOS__ANGELES_CA_90008,wellsfargo,Wells Fargo,3649 STOCKER ST,LOS ANGELES,CA,,US,+1 323-294-7102,https://www.wellsfargo.com/locator/bank/3649__STOCKER__ST_LOS__ANGELES_CA_90008/,Mo-Fr 09:00-17:00,Wells Fargo,Q744149
8914,wingstop,Wingstop Los Angeles Crenshaw Blvd,3825 Crenshaw Blvd Ste 104,Los Angeles,CA,,US,+1 323-296-9464,,,Wingstop,Q8025339
