Ref,Spider,Name,Address,City,State,Zipcode,Country,Phone,Website,Hours,Brand,WikiData
72483215,moneygram,RADHIKA ENTERPRISES - THANE - BHAYANDER,,THANE,,,IN,+91 99202 85324,,Mo-Su 09:00-21:00,MoneyGram,Q1944412
72551503,moneygram,ANKETA TELECOM,,BHAYANDER,,,IN,+91 99874 94502,,Mo-Su 08:00-21:00,MoneyGram,Q1944412
72533000,moneygram,KRISHI TOURS AND TRAVELS,,THANE,,,IN,+91 81086 65966,,Mo-Su 08:00-21:00,MoneyGram,Q1944412
72560989,moneygram,MEHATA PAN BIDI,,BHAYANDER,,,IN,+91 99697 06972,,Mo-Su 08:00-21:00,MoneyGram,Q1944412
72564338,moneygram,VISHAL NIRMAL,,THANE,,,IN,+91 80827 37183,,Mo-Su 08:00-21:00,MoneyGram,Q1944412
73276528,moneygram,MUTHOOT FINANCE LTD - #2660 - THANE - MU,,THANE,,,IN,+91 22 6534 4073,,Mo-Su 09:00-19:00,MoneyGram,Q1944412
73314901,moneygram,MUTHOOT FINCORP LIMITED - #F1364 - NEW B,,THANE,,,IN,+91 22 2816 9770,,Mo-Sa 09:00-17:30; Su 00:00-24:00,MoneyGram,Q1944412
72961478,moneygram,SHAH TOURS AND TRAVELS,,BHAYANDER,,,IN,+91 97690 45314,,Mo-Su 08:00-21:00,MoneyGram,Q1944412
72970634,moneygram,SANCHI TRAVELS,,THANE,,,IN,+91 98210 47978,,Mo-Su 08:00-21:00,MoneyGram,Q1944412
73387695,moneygram,A D ENTERPRISES,,THANE,,,IN,+91 96993 79954,,Mo-Su 08:00-21:00,MoneyGram,Q1944412
73414209,moneygram,BHOOMI TOURS AND TRAVELS,,THANE,,,IN,+91 99309 98880,,Mo-Su 08:00-21:00,MoneyGram,Q1944412
73387666,moneygram,JAY COMPUTERS,,THANE,,,IN,+91 92246 61188,,Mo-Su 08:00-21:00,MoneyGram,Q1944412
73387653,moneygram,S K TAILOR,,THANE,,,IN,+91 80801 72815,,Mo-Su 08:00-21:00,MoneyGram,Q1944412
73412337,moneygram,SHREE RAMDEV ENTERPRISES,,THANE,,,IN,+91 91673 73273,,Mo-Su 08:00-21:00,MoneyGram,Q1944412
73432906,moneygram,SHREE DHANLAXMI ENTERPRISES,,THANE,,,IN,+91 96195 41341,,Mo-Su 08:00-21:00,MoneyGram,Q1944412
73449614,moneygram,BHOOMI TOURS AND TRAVELS,,MUMBAI,,,IN,+91 98210 98880,,Mo-Su 08:00-21:00,MoneyGram,Q1944412
73536734,moneygram,ASHAR TRAVELS,,THANE,,,IN,+91 98331 52471,,Mo-Su 08:00-21:00,MoneyGram,Q1944412
73536381,moneygram,KHATHESWAR GENRAL STORE,,THANE,,,IN,+91 84250 64196,,Mo-Su 08:00-21:00,MoneyGram,Q1944412
73535230,moneygram,PARI TOURS & TRAVELS,,THANE,,,IN,+91 88794 84827,,Mo-Su 08:00-21:00,MoneyGram,Q1944412
73535395,moneygram,SEVA BHAVNA TOURS & TRAVELS,,THANE,,,IN,+91 97021 63117,,Mo-Su 08:00-21:00,MoneyGram,Q1944412
73534668,moneygram,VIDHI JEWELLERS,,THANE,,,IN,+91 98198 43345,,Mo-Su 08:00-21:00,MoneyGram,Q1944412
73641771,moneygram,SADHANA MONEY TRANSFER TOURS & TRAVELS,,THANE,,,IN,+91 90297 30552,,Mo-Su 08:00-21:00,MoneyGram,Q1944412
73636715,moneygram,SKYKING INTER NATIONAL,,BHAYANDER,,,IN,+91 99874 94943,,Mo-Su 08:00-21:00,MoneyGram,Q1944412
73736709,moneygram,AARJAV TOURS & TRAVELS,,MUMBAI,,,IN,+91 80808 64880,,Mo-Su 08:00-21:00,MoneyGram,Q1944412
73727349,moneygram,PRIYANKA TRAVEL SERVICES,,THANE,,,IN,+91 98929 54690,,Mo-Su 08:00-21:00,MoneyGram,Q1944412
73823272,moneygram,SHOHEL BAKERY AND GENERAL STORE,,BHAYANDER,,,IN,+91 90822 07691,,Mo-Su 08:00-21:00,MoneyGram,Q1944412
73042532,moneygram,YASHVI TOURS TRAVELS,,THANE,,,IN,+91 92242 24922,,Mo-Su 08:00-21:00,MoneyGram,Q1944412
71229690,moneygram,CREATIVE BUSINESS SOLUTION - THANE - THA,,THANE,,,IN,+91 98920 55277,,Mo-Su 09:00-21:00,MoneyGram,Q1944412
,visa,,,BHAYANDER,,,IN,,,,,
,visa,,,MUMBAI,,,IN,,,,,
