Ref,Spider,Name,Address,City,State,Zipcode,Country,Phone,Website,Hours,Brand,WikiData
4690,autozone_us,AutoZone Auto Parts South Hills,,South Hills,PA,,US,+1 412-306-1908,https://www.autozone.com/locations/pa/south-hills/220-washington-rd.html,Mo-Sa 07:30-21:00; Su 09:00-19:00,AutoZone,Q4826087
205826,bluerhino,Rite Aid #01094,,Pittsburgh,PA,,US,+1 412-388-1601,,,Blue Rhino,Q65681213
102354,bluerhino,Banksville BP,,Pittsburg,PA,,US,+1 412-341-1044,,,Blue Rhino,Q65681213
206850,bluerhino,Rite Aid #10931,,PITTSBURGH,PA,,US,+1 412-571-2550,,,Blue Rhino,Q65681213
140593,bluerhino,Las Palmas IGA,,Pittsburgh,PA,,US,+1 412-388-5018,,,Blue Rhino,Q65681213
31603165628731521600100000000000,bp,BP,,Pittsburgh,PA,,US,+1 412-341-3113,,Mo-Su 05:00-23:00,BP,Q152057
128170,bp,BP,,Pittsburgh,PA,,US,+1 412-531-2424,,,BP,Q152057
85235797489001521600100000000000,bp,BP,,Pittsburgh,PA,,US,+1 412-341-1044,,24/7,BP,Q152057
80971,citi,ATM Sunoco,,Pittsburgh,PA,,US,,,,Citibank,Q857063
50115,citi,ATM CVS,,Dormont,PA,,US,,,,Citibank,Q857063
73229,citi,ATM Rite Aid,,Pittsburgh,PA,,US,,,,Citibank,Q857063
73130,citi,ATM Rite Aid,,Pittsburgh,PA,,US,,,,Citibank,Q857063
4144,cvs_us,CVS Pharmacy,,Pittsburgh,PA,,US,+1 412-341-2269,https://www.cvs.com/store-locator/pittsburgh-pa-pharmacies/3075-w-liberty-ave-pittsburgh-pa-15216/storeid=4144,Mo-Su 08:00-22:00,CVS Pharmacy,Q2078880
8562,dollartree,DollarTree,,Pittsburgh,PA,,US,+1 412-207-1097,,Mo-Sa 09:00-22:00; Su 10:00-21:00,Dollar Tree,Q5289230
359540,dunkin_us,Dunkin',,Pittsburgh,PA,,US,+1 412-415-8876,https://locations.dunkindonuts.com/en/pa/pittsburgh/1523-banksville-rd/359540,Mo-Su 05:00-21:00,Dunkin',Q847743
348529,dunkin_us,Dunkin',,Pittsburgh,PA,,US,+1 412-572-6701,https://locations.dunkindonuts.com/en/pa/pittsburgh/2961-w-liberty-ave/348529,Mo-Su 05:00-21:00,Dunkin',Q847743
4,eatnpark,Dormont,,Pittsburgh,PA,,US,+1 412-561-4944,https://locations.eatnpark.com/pa/pittsburgh/restaurants-4.html,Mo-Su 07:00-23:00,Eat'n Park,Q5331211
14,eatnpark,Banksville,,Pittsburgh,PA,,US,+1 412-561-7894,https://locations.eatnpark.com/pa/pittsburgh/restaurants-14.html,Mo-Su 07:00-23:00,Eat'n Park,Q5331211
320207,extra_space_storage,Pittsburgh Self Storage at 1005 E Entry Dr,,Pittsburgh,PA,,US,+1 412-344-3700,https://www.extraspace.com/storage/facilities/us/pennsylvania/pittsburgh/320207/,Mo-Fr 09:30-18:00; Sa 09:00-17:30,Extra Space Storage,Q5422162
23809,firestone_auto_care,Firestone Complete Auto Care,,Pittsburgh,PA,,US,+1 412-265-6356,https://local.firestonecompleteautocare.com/pennsylvania/pittsburgh/2950-banksville-rd/,,Firestone,Q420837
7343,fresenius_kidney_care_us,Fresenius Kidney Care Banksville,,Pittsburgh,PA,,US,+1 800-881-5101,https://www.freseniuskidneycare.com/dialysis-centers/pennsylvania/7343,Mo 05:00-20:00; Tu 05:00-17:00; We 05:00-20:00; Th 05:00-17:00; Fr 05:00-20:00; Sa 05:00-17:00,,
5449bb93-458a-e111-8dde-005056934050,goodwill,Banksville Store,,Pittsburgh,PA,,US,+1 412-942-0090,https://www.goodwill.org/locator/location/?store=NTQ0OWJiOTMtNDU4YS1lMTExLThkZGUtMDA1MDU2OTM0MDUw&lat=NDAuNDA0Mjg=&lng=LTgwLjAzOTk4,,Goodwill,Q5583655
377dc842-2aa3-ed11-8107-00505689ac90,goodwill,West Liberty Donation Express Center,,Pittsburgh,PA,,US,+1 412-785-3343,https://www.goodwill.org/locator/location/?store=Mzc3ZGM4NDItMmFhMy1lZDExLTgxMDctMDA1MDU2ODlhYzkw&lat=NDAuMzk4NjE=&lng=LTgwLjAyNzAz,,Goodwill,Q5583655
https://salons.greatclips.com/us/pa/pittsburgh/2961-w-liberty-ave,greatclips,Great Clips,,Pittsburgh,PA,,US,+1 412-207-8343,https://salons.greatclips.com/us/pa/pittsburgh/2961-w-liberty-ave,Mo-Fr 10:00-19:00; Sa 09:00-18:00; Su 10:00-17:00,Great Clips,Q5598967
37544,h_r_block,H&R Block,,Pittsburgh,PA,,US,+1 412-561-0949,https://www.hrblock.com/local-tax-offices/pennsylvania/pittsburgh/banksville-plaza/37544/,,H&R Block,Q5627799
Market on Broadway Avenue IGA,iga,Market on Broadway Avenue IGA,"1604 Broadway Avenue, Pittsburgh, PA, 15216",Pittsburgh,PA,,US,+1 412-388-5018,https://marketbroadway.iga.com,,IGA,Q3146662
https://office.jacksonhewitt.com/#27579753,jackson_hewitt,Jackson Hewitt,,Pittsburgh,PA,,US,+1 412-563-9000,https://office.jacksonhewitt.com/tax-preparation-services-locations/en/pa/pittsburgh/3022-banksville-rd/17222,Mo-Fr 09:00-20:00; Sa 09:00-19:00; Su 10:00-17:00,Jackson Hewitt,Q6117132
3718,mightyflame,SGII SUNOCO,,Pitt,PA,,US,+1 814-812-4220,,,Mighty Flame,
448,mightyflame,COGO'S #784  - INDEPENDENT,,DORMONT,PA,,US,+1 412-531-2424,,,Mighty Flame,
3744,mightyflame,SUNOCO A PLUS,,PITTSBURGH,PA,,US,+1 412-531-7262,,,Mighty Flame,
NNA3948,nissan_europe,#1 COCHRAN NISSAN OF SOUTH HILLS,,PITTSBURGH,PA,,US,+1 412-343-3200,https://www.cochrannissanpittsburgh.com,Mo-Tu 09:00-20:00; We 09:00-18:00; Th 09:00-20:00; Fr 09:00-18:00; Sa 09:00-17:00,Nissan,Q20165
01094,rite_aid_us,Rite Aid #01094 Pittsburgh,,Pittsburgh,PA,,US,+1 412-388-1601,https://locations2.riteaid.com.yext-cdn.com/pa/pittsburgh/3210-banksville-road.html,Mo-Fr 08:00-22:00; Sa-Su 09:00-21:00,Rite Aid,Q3433273
10931,rite_aid_us,Rite Aid #10931 Pittsburgh,,Pittsburgh,PA,,US,+1 412-571-2550,https://locations2.riteaid.com.yext-cdn.com/pa/pittsburgh/2501-banksville-road.html,Mo-Sa 08:00-22:00; Su 08:00-20:00,Rite Aid,Q3433273
2515-banksville-road,staples,"Staples Pittsburgh, PA",,Pittsburgh,PA,,US,,https://stores.staples.com/pa/pittsburgh/2515-banksville-road,Mo-Fr 09:00-20:00; Sa 09:00-18:00; Su 11:00-18:00,Staples,Q785943
https://restaurants.subway.com/#14902491,subway,Subway,,Pittsburgh Allegheny,PA,,US,+1 412-344-1345,https://restaurants.subway.com/united-states/pa/pittsburgh/3147-banksville-rd,Mo-Fr 09:00-20:00; Sa 10:00-20:00; Su 10:00-19:00,Subway,Q244457
https://restaurants.subway.com/#14913650,subway,Subway,,Pittsburgh Allegheny,PA,,US,+1 412-531-1286,https://restaurants.subway.com/united-states/pa/pittsburgh/1347-w-liberty-ave,Mo-Sa 09:00-21:00; Su 09:00-20:00,Subway,Q244457
0363487002,sunoco_us,Sunoco,,PITTSBURGH,PA,,US,+1 412-531-7262,,24/7,Sunoco,Q1423218
0002419012,sunoco_us,Sunoco,,PITTSBURGH,PA,,US,+1 412-563-3240,,Mo-Su 05:00-23:00,Sunoco,Q1423218
80132,supercuts,Banksville Plaza,3143 Banksville Ave,Pittsburgh,PA,,US,+1 412-563-7630,https://www.supercuts.com/checkin/80132,Mo-Fr 09:00-19:00; Sa 09:00-18:00; Su 09:00-17:00,Supercuts,Q7643239
4SHT,tmobile_us,Banksville Plaza,,Pittsburgh,PA,,US,+1 412-207-3267,https://www.t-mobile.com/store-locator/pa/pittsburgh/banksville-plaza,,T-Mobile,Q3511885
1436632,usps,SOUTH HILLS,,PITTSBURGH,PA,,US,+1 412-531-5498,,"Mo-Fr 09:00-13:00,14:00-17:00; Sa 09:00-12:00",United States Postal Service,Q668687
1521600057,usps_collection_boxes,USPS COLLECTION BOX - BLUE BOX,312 BEVERLY RD,PITTSBURGH,PA,,US,,,,United States Postal Service,Q668687
1521600035,usps_collection_boxes,USPS COLLECTION BOX - BLUE BOX,694 ROBINWOOD DR,PITTSBURGH,PA,,US,,,,United States Postal Service,Q668687
1521600036,usps_collection_boxes,USPS COLLECTION BOX - BLUE BOX,617 HAMPSHIRE AVE,PITTSBURGH,PA,,US,,,,United States Postal Service,Q668687
1521600014,usps_collection_boxes,USPS COLLECTION BOX - BLUE BOX,1554 BEECHVIEW AVE,PITTSBURGH,PA,,US,,,,United States Postal Service,Q668687
1521600041,usps_collection_boxes,USPS COLLECTION BOX - BLUE BOX,2748 W LIBERTY AVE,PITTSBURGH,PA,,US,,,,United States Postal Service,Q668687
1521600019,usps_collection_boxes,USPS COLLECTION BOX - BLUE BOX,2201 BROADWAY AVE,PITTSBURGH,PA,,US,,,,United States Postal Service,Q668687
1521600031,usps_collection_boxes,USPS COLLECTION BOX - BLUE BOX,801 NORTHRIDGE DR,PITTSBURGH,PA,,US,,,,United States Postal Service,Q668687
1521600027,usps_collection_boxes,USPS COLLECTION BOX - BLUE BOX,1571 MCFARLAND RD,PITTSBURGH,PA,,US,,,,United States Postal Service,Q668687
1521600012,usps_collection_boxes,USPS COLLECTION BOX - BLUE BOX,3101 BANKSVILLE RD,PITTSBURGH,PA,,US,,,,United States Postal Service,Q668687
1521600011,usps_collection_boxes,USPS COLLECTION BOX - BLUE BOX,3005 BANKSVILLE RD,PITTSBURGH,PA,,US,,,,United States Postal Service,Q668687
1521600045,usps_collection_boxes,USPS COLLECTION BOX - BLUE BOX,3263 W LIBERTY AVE,PITTSBURGH,PA,,US,,,,United States Postal Service,Q668687
1521600008,usps_collection_boxes,USPS COLLECTION BOX - BLUE BOX,2857 BANKSVILLE RD,PITTSBURGH,PA,,US,,,,United States Postal Service,Q668687
1521600074,usps_collection_boxes,USPS COLLECTION BOX - BLUE BOX,2971 ESPY AVE,PITTSBURGH,PA,,US,,,,United States Postal Service,Q668687
1521600068,usps_collection_boxes,USPS COLLECTION BOX - PO LOBBY,3038 W LIBERTY AVE-LOBBY-STAMPED,PITTSBURGH,PA,,US,,,,United States Postal Service,Q668687
1521600067,usps_collection_boxes,USPS COLLECTION BOX - PO LOBBY,3038 W LIBERTY AVE-LOBBY-STAMPED,PITTSBURGH,PA,,US,,,,United States Postal Service,Q668687
1521600069,usps_collection_boxes,USPS COLLECTION BOX - PO LOBBY,3038 W LIBERTY AVE-LOBBY-METERED,PITTSBURGH,PA,,US,,,,United States Postal Service,Q668687
1521600070,usps_collection_boxes,USPS COLLECTION BOX - PO LOBBY,3038 W LIBERTY AVE-LOBBY-BARCODE,PITTSBURGH,PA,,US,,,,United States Postal Service,Q668687
1521600081,usps_collection_boxes,USPS COLLECTION BOX - PO LOBBY,3038 W LIBERTY AVE,PITTSBURGH,PA,,US,,,,United States Postal Service,Q668687
1521600046,usps_collection_boxes,USPS COLLECTION BOX - BLUE BOX,3038 W LIBERTY AVE,PITTSBURGH,PA,,US,,,,United States Postal Service,Q668687
1521600061,usps_collection_boxes,USPS COLLECTION BOX - BLUE BOX,3038 W LIBERTY AVE,PITTSBURGH,PA,,US,,,,United States Postal Service,Q668687
1521600032,usps_collection_boxes,USPS COLLECTION BOX - BLUE BOX,1600 POTOMAC AVE,PITTSBURGH,PA,,US,,,,United States Postal Service,Q668687
1521600072,usps_collection_boxes,USPS COLLECTION BOX - BLUE BOX,2644 BANKSVILLE RD REAR,PITTSBURGH,PA,,US,,,,United States Postal Service,Q668687
1521600075,usps_collection_boxes,USPS COLLECTION BOX - BLUE BOX,1426 POTOMAC AVE,PITTSBURGH,PA,,US,,,,United States Postal Service,Q668687
1521600042,usps_collection_boxes,USPS COLLECTION BOX - BLUE BOX,2882 W LIBERTY AVE,PITTSBURGH,PA,,US,,,,United States Postal Service,Q668687
1521600023,usps_collection_boxes,USPS COLLECTION BOX - BLUE BOX,1001 E ENTRY DR,PITTSBURGH,PA,,US,,,,United States Postal Service,Q668687
1521600039,usps_collection_boxes,USPS COLLECTION BOX - BLUE BOX,865 TROPICAL AVE,PITTSBURGH,PA,,US,,,,United States Postal Service,Q668687
,visa,,,PITTSBURGH,PA,,US,,,,,
,visa,,,PITTSBURGH,PA,,US,,,,,
,visa,,,PITTSBURGH,PA,,US,,,,,
,visa,,,PITTSBURGH,PA,,US,,,,,
,visa,,,PITTSBURGH,PA,,US,,,,,
,visa,,,PITTSBURGH,PA,,US,,,,,
,visa,,,PITTSBURGH,PA,,US,,,,,
,visa,,,PITTSBURGH,PA,,US,,,,,
,visa,,,PITTSBURGH,PA,,US,,,,,
,visa,,,PITTSBURGH,PA,,US,,,,,
,visa,,,DORMONT,PA,,US,,,,,
,visa,,,PITTSBURGH,PA,,US,,,,,
,visa,,,PITTSBURGH,PA,,US,,,,,
,visa,,,PITTSBURGH,PA,,US,,,,,
,visa,,,PITTSBUGH,PA,,US,,,,,
,visa,,,PITTSBURGH,PA,,US,,,,,
,visa,,,PITTSBURGH,PA,,US,,,,,
,visa,,,PITTSBURGH,PA,,US,,,,,
,visa,,,PITTSBURGH,PA,,US,,,,,
,visa,,,PITTSBURGH,PA,,US,,,,,
,visa,,,PITTSBURGH,PA,,US,,,,,
,visa,,,PITTSBURGH,PA,,US,,,,,
,visa,,,PITTSBURGH,PA,,US,,,,,
,visa,,,PITTSBURGH,PA,,US,,,,,
,visa,,,PITTSBURGH,PA,,US,,,,,
,visa,,,PITTSBURGH,PA,,US,,,,,
,visa,,,PITTSBURGH,PA,,US,,,,,
,visa,,,PITTSBURGH,PA,,US,,,,,
,visa,,,PITTSBURGH,PA,,US,,,,,
,visa,,,PITTSBURGH,PA,,US,,,,,
,visa,,,PITTSBURGH,PA,,US,,,,,
,visa,,,DORMONT,PA,,US,,,,,
,visa,,,PITTSBURGH,PA,,US,,,,,
,visa,,,PITTSBURGH,PA,,US,,,,,
,visa,,,DORMONT,PA,,US,,,,,
,visa,,,PITTSBURGH,PA,,US,,,,,
,visa,,,PITTSBURGH,PA,,US,,,,,
,visa,,,PITTSBURGH,PA,,US,,,,,
,visa,,,PITTSBURGH,PA,,US,,,,,
,visa,,,PITTSBURGH,PA,,US,,,,,
,visa,,,PITTSBURGH,PA,,US,,,,,
,visa,,,PITTSBURGH,PA,,US,,,,,
,visa,,,PITTSBURGH,PA,,US,,,,,
,visa,,,PITTSBURGH,PA,,US,,,,,
,visa,,,PITTSBURGH,PA,,US,,,,,
,visa,,,PITTSBURGH,PA,,US,,,,,
,visa,,,PITTSBURGH,PA,,US,,,,,
,visa,,,MT. LEBANON,PA,,US,,,,,
,visa,,,MOUNT LEBANON,PA,,US,,,,,
,visa,,,PITTSBURGH,PA,,US,,,,,
https://www.vocellipizza.com/dormont_pa,vocelli_pizza_us,Dormont,,Dormont,PA,,US,,https://www.vocellipizza.com/dormont_pa,,Vocelli Pizza,Q7939247
