Ref,Spider,Name,Address,City,State,Zipcode,Country,Phone,Website,Hours,Brand,WikiData
72023358,moneygram,MERCANTILE BANK LIMITED - #321 - FENI -,,FENI,,,BD,217133013792,,Mo-Th 10:00-17:00; Fr 00:00-24:00; Sa-Su 10:00-17:00,MoneyGram,Q1944412
68431048,moneygram,AGRANI BANK - FENI - SUBAR BAZAR BRANCH,,FENI,,,BD,+880 1717-708336,,Mo-Th 09:00-16:00; Fr 00:00-24:00; Sa-Su 09:00-16:00,MoneyGram,Q1944412
67429420,moneygram,ONE BANK LTD - FENI BRANCH,,FENI,,,BD,+880 331-62362,,24/7,MoneyGram,Q1944412
68162870,moneygram,JBL - COLLEGE ROAD-0408,,FENI SADAR,,,BD,+880 331-73375,,24/7,MoneyGram,Q1944412
68162883,moneygram,JBL - FENI CORP.-0107,,FENI SADAR,,,BD,+880 331-74335,,24/7,MoneyGram,Q1944412
68162906,moneygram,JBL - MOHIPAL-0635,,FENI SADAR,,,BD,+880 331-74366,,24/7,MoneyGram,Q1944412
68162896,moneygram,JBL - HAZIR BAZAR-0844,,FENI SADAR,,,BD,+880 1713-107079,,24/7,MoneyGram,Q1944412
72633748,moneygram,PUBALI BANK LIMITED - #2711 - FENI - MOH,,FENI,,,BD,+880 1713-037350,,Mo-Th 09:00-18:00; Fr 00:00-24:00; Sa-Su 09:00-18:00,MoneyGram,Q1944412
72758267,moneygram,ISLAMI BANK BANGLADESH LIMITED - FENI -,,FENI,,,BD,+880 1713-425872,,Mo-Th 09:00-18:00; Fr 00:00-24:00; Sa 09:00-12:00; Su 09:00-18:00,MoneyGram,Q1944412
72881150,moneygram,BANK ASIA LIMITED - #73 - FENI BR.,,FENI,,,BD,+880 1714-112681,,Mo-Th 09:30-17:00; Fr-Sa 00:00-24:00; Su 09:30-17:00,MoneyGram,Q1944412
69023015,moneygram,FSIBL - BKHTER MUNSI BAZAR BRANCH,,FENI,,,BD,39001713375034,,24/7,MoneyGram,Q1944412
73022293,moneygram,JAMUNA BANK LTD - #521 - FENI - MOHIPAL,,FENI,,,BD,+880 331-62435,,Mo-Th 10:00-16:00; Fr-Sa 00:00-24:00; Su 10:00-16:00,MoneyGram,Q1944412
68846426,moneygram,PBL - FENI  BRANCH,,FENI,,,BD,+880 1711-404353,,Mo-Th 09:00-18:00; Fr 00:00-24:00; Sa-Su 09:00-18:00,MoneyGram,Q1944412
69054699,moneygram,MERCANTILE BANK LIMITED - KORAISH MUNSHI,,FENI,,,BD,+880 1787-681252,,24/7,MoneyGram,Q1944412
68844457,moneygram,PBL - DAGON BHUIYAN BRANCH,,FENI,,,BD,+880 1917-704814,,Mo-Th 09:00-18:00; Fr 00:00-24:00; Sa-Su 09:00-18:00,MoneyGram,Q1944412
68842653,moneygram,PBL - CHHAGALNAIYA  BRANCH,,FENI,,,BD,+880 1714-103799,,Mo-Th 09:00-18:00; Fr 00:00-24:00; Sa-Su 09:00-18:00,MoneyGram,Q1944412
68844664,moneygram,PBL - FULGAZI BRANCH,,FENI,,,BD,+880 1937-404333,,Mo-Th 09:00-18:00; Fr 00:00-24:00; Sa-Su 09:00-18:00,MoneyGram,Q1944412
68846057,moneygram,PBL - SONAGAZI  BRANCH,,FENI,,,BD,+880 1713-082851,,Mo-Th 09:00-18:00; Fr 00:00-24:00; Sa-Su 09:00-18:00,MoneyGram,Q1944412
68844635,moneygram,PBL - FENI BAZAR  BRANCH,,FENI,,,BD,+880 1711-401290,,Mo-Th 09:00-18:00; Fr 00:00-24:00; Sa-Su 09:00-18:00,MoneyGram,Q1944412
68842543,moneygram,PBL - BANGLA BAZAR  BRANCH,,FENI,,,BD,+880 1711-435026,,Mo-Th 09:00-18:00; Fr 00:00-24:00; Sa-Su 09:00-18:00,MoneyGram,Q1944412
69134739,moneygram,FSIBL - LASKERHAT BRANCH,,FENI,,,BD,+880 1938-886170,,24/7,MoneyGram,Q1944412
73632052,moneygram,MEGHNA - #2106 - MEGHNA-MOHIPAL BRANCH,,FENI,,,BD,+880 1777-797823,,Mo-Th 10:00-18:00; Fr 00:00-24:00; Sa 10:00-17:00; Su 10:00-18:00,MoneyGram,Q1944412
73631707,moneygram,UNION BANK - #265300529 - UBL-FAZILPUR S,,CHATTOGRAM,,,BD,+880 1812-492100,,Mo-Su 10:00-16:00,MoneyGram,Q1944412
73631079,moneygram,UNION BANK - #265300529 - UBL-FENI,,CHATTOGRAM,,,BD,+880 1716-146909,,Mo-Su 10:00-16:00,MoneyGram,Q1944412
73685517,moneygram,NRB BANK LIMITED - FENI - FENI BRANCH,,FENI,,,BD,+880 9666-456369,,Mo-Th 10:00-16:00; Fr-Sa 00:00-24:00; Su 10:00-16:00,MoneyGram,Q1944412
73695413,moneygram,MUTUAL TRUST BANK LTD - MTB-FENI HOSPITA,,FENI,,,BD,+880 2-9346592,,Mo-Th 10:00-16:00; Fr-Sa 00:00-24:00; Su 10:00-16:00,MoneyGram,Q1944412
73716651,moneygram,MERCANTILE BANK LIMITED - #5131 - FENI -,,FENI,,,BD,+880 1818-291928,,Mo-Th 10:00-17:00; Fr-Sa 00:00-24:00; Su 10:00-17:00,MoneyGram,Q1944412
73781628,moneygram,AB BANK LIMITED - FARIDPUR BRANCH-ABBL,,FENI,,,BD,+880 631-63090,,Mo-Th 10:00-16:00; Fr-Sa 00:00-24:00; Su 10:00-16:00,MoneyGram,Q1944412
73783833,moneygram,BASIC BANK LIMITED - #55300526 - FENI -,,FENI,,,BD,+880 331-63303,,Mo-Th 10:00-16:00; Fr-Sa 00:00-24:00; Su 10:00-16:00,MoneyGram,Q1944412
73804644,moneygram,DIGITAL CENTRE - FENI - DIGITAL CENTRE,,FENI,,,BD,+880 1813-842020,,Mo-Th 09:30-17:00; Fr-Sa 00:00-24:00; Su 09:30-17:00,MoneyGram,Q1944412
73807722,moneygram,SIBL - #5806972 - FENI - MUKTIJODDA COMP,,FENI,,,BD,+880 1819-507400,,Mo-Th 10:00-16:00; Fr-Sa 00:00-24:00; Su 10:00-16:00,MoneyGram,Q1944412
73773393,moneygram,AL MADINA AGRO COMLPEX - FENI - AL MADIN,,FENI,,,BD,+880 1934-444999,,Mo-Th 09:30-17:00; Fr-Sa 00:00-24:00; Su 09:30-17:00,MoneyGram,Q1944412
73831785,moneygram,UNION DIGITAL CENTRE - FENI - UNION DIGI,,FENI,,,BD,+880 1731-656922,,Mo-Th 09:30-17:00; Fr-Sa 00:00-24:00; Su 09:30-17:00,MoneyGram,Q1944412
73916736,moneygram,M/S NEW SEBA FARMACY - FENI - M/S NEW SE,,FENI,,,BD,+880 1811-502088,,Mo-Th 09:30-17:00; Fr-Sa 00:00-24:00; Su 09:30-17:00,MoneyGram,Q1944412
73995061,moneygram,IFIC BANK - #452041 - FENI BRANCH-IFIC,,FENI,,,BD,+880 9666-716250,,Mo-Th 10:00-18:00; Fr-Sa 00:00-24:00; Su 10:00-17:00,MoneyGram,Q1944412
74021549,moneygram,GLOBAL ISLAMI BANK LIMITED - #BD0010004,,FENI,,,BD,+880 1818-401693,,Mo-Th 10:00-16:30; Fr-Sa 00:00-24:00; Su 10:00-16:30,MoneyGram,Q1944412
74272576,moneygram,PREMIER BANK - #66142 - FENI-PBL,,FENI,,,BD,+880 331-73107,,Mo-Th 10:00-18:00; Fr 00:00-24:00; Sa 10:00-13:00; Su 10:00-18:00,MoneyGram,Q1944412
74317923,moneygram,M/S. ABEDIN ENTERPRISE - FENI - M/S. ABE,,FENI,,,BD,+880 1812-098693,,Mo-Th 09:30-17:00; Fr-Sa 00:00-24:00; Su 09:30-17:00,MoneyGram,Q1944412
70139613,moneygram,DUTCH-BANGLA BANK LIMITED - FENI - FENI,,FENI,,,BD,+880 331-74490,,24/7,MoneyGram,Q1944412
74372926,moneygram,FORAYEZI ENTERPRISE - FENI - MOHIPAL AGE,,FENI,,,BD,+880 1817-056559,,Mo-Su 08:00-20:00,MoneyGram,Q1944412
70181467,moneygram,TMSS - FENI,,FENI,,,BD,+880 1713-377279,,24/7,MoneyGram,Q1944412
74361199,moneygram,DIGITAL CENTRE - FENI - DIGITAL CENTRE,,FENI,,,BD,+880 1813-842020,,Mo-Th 09:30-17:00; Fr-Sa 00:00-24:00; Su 09:30-17:00,MoneyGram,Q1944412
74372528,moneygram,M/S. ASHRAF ENTERPRISE - FENI - M/S. ASH,,FENI,,,BD,+880 1848-585813,,Mo-Th 09:30-17:00; Fr-Sa 00:00-24:00; Su 09:30-17:00,MoneyGram,Q1944412
70369771,moneygram,STANDARD BANK LIMITED - FENI - FENI,,FENI,,,BD,+880 1817-757511,,24/7,MoneyGram,Q1944412
70407400,moneygram,EBL - FENI - FENI  BRANCH,,FENI,,,BD,+880 331-73563,,24/7,MoneyGram,Q1944412
74509427,moneygram,SADIYA INTERNATIONAL - #1942 - FENI,,FENI,,,BD,+880 1827-849813,,Mo-Su 08:00-20:00,MoneyGram,Q1944412
74526976,moneygram,TASMIA TELECOM - #438 - FENI,,FENI,,,BD,+880 1817-568685,,Mo-Su 08:00-20:00,MoneyGram,Q1944412
74544916,moneygram,R. A ENTERPRISE - #7232 - FENI,,FENI,,,BD,+880 1824-863487,,Mo-Su 08:00-20:00,MoneyGram,Q1944412
74548983,moneygram,RIPON ENTERPRISE - #2819 - FENI,,FENI,,,BD,+880 1740-639191,,Mo-Su 08:00-20:00,MoneyGram,Q1944412
74558850,moneygram,MAA ENTERPRISE - #2024 - FENI,,FENI,,,BD,+880 1838-750822,,Mo-Su 08:00-20:00,MoneyGram,Q1944412
74707083,moneygram,BANK ASIA AGENT BANKING OUTLET - FENI -,,FENI,,,BD,+880 1828-586321,,Mo-Th 09:30-17:00; Fr-Sa 00:00-24:00; Su 09:30-17:00,MoneyGram,Q1944412
74706521,moneygram,BANK ASIA AGENT BANKING - FENI - BANK AS,,FENI,,,BD,+880 1815-318687,,Mo-Th 09:30-17:00; Fr-Sa 00:00-24:00; Su 09:30-17:00,MoneyGram,Q1944412
70675889,moneygram,PBL - #4741 - FENI - LEMUA BAZAR BRANCH,,FENI,,,BD,+880 1937-404368,,Mo-Th 09:00-18:00; Fr 00:00-24:00; Sa-Su 09:00-18:00,MoneyGram,Q1944412
75001555,moneygram,NIZAM TRADERS - #4631 - FENI,,FENI,,,BD,+880 1731-321971,,Mo-Su 08:00-20:00,MoneyGram,Q1944412
43287725,moneygram,NCC,,FENI,,,BD,+880 331-73177,,24/7,MoneyGram,Q1944412
44797447,moneygram,TCBL,,FENI,,,BD,+880 331-73430,,24/7,MoneyGram,Q1944412
65018710,moneygram,IBBL -  SONAGAZI   BRANCH,,FENI,,,BD,+880 1714-036536,,24/7,MoneyGram,Q1944412
65016974,moneygram,IBBL -  CHHAGALNAIYA   BRANCH,,FENI,,,BD,+880 1713-425932,,24/7,MoneyGram,Q1944412
65017070,moneygram,IBBL -  DAGUNBHUIYAN   BRANCH,,FENI,,,BD,0034871,,24/7,MoneyGram,Q1944412
65017258,moneygram,IBBL -  FENI   BRANCH,,FENI,,,BD,+880 1711-889941,,24/7,MoneyGram,Q1944412
65241024,moneygram,AGRANI BANK,,FENI,,,BD,2576012,,Mo-Th 09:00-16:00; Fr 00:00-24:00; Sa-Su 09:00-16:00,MoneyGram,Q1944412
65241503,moneygram,AGRANI BANK,,FENI,,,BD,9345112,,Mo-Th 09:00-16:00; Fr 00:00-24:00; Sa-Su 09:00-16:00,MoneyGram,Q1944412
65241529,moneygram,AGRANI BANK,,FENI,,,BD,+880 331-61754,,Mo-Th 09:00-16:00; Fr 00:00-24:00; Sa-Su 09:00-16:00,MoneyGram,Q1944412
65241532,moneygram,AGRANI BANK,,FENI,,,BD,+880 331-74305,,Mo-Th 09:00-16:00; Fr 00:00-24:00; Sa-Su 09:00-16:00,MoneyGram,Q1944412
65241587,moneygram,AGRANI BANK,,FENI,,,BD,2278092,,Mo-Th 09:00-16:00; Fr 00:00-24:00; Sa-Su 09:00-16:00,MoneyGram,Q1944412
65241590,moneygram,AGRANI BANK,,FENI,,,BD,2456078,,Mo-Th 09:00-16:00; Fr 00:00-24:00; Sa-Su 09:00-16:00,MoneyGram,Q1944412
65241613,moneygram,AGRANI BANK,,FENI,,,BD,+880 331-73441,,Mo-Th 09:00-16:00; Fr 00:00-24:00; Sa-Su 09:00-16:00,MoneyGram,Q1944412
65241626,moneygram,AGRANI BANK,,FENI,,,BD,2379452,,Mo-Th 09:00-16:00; Fr 00:00-24:00; Sa-Su 09:00-16:00,MoneyGram,Q1944412
65408731,moneygram,AIBL - #46,,FENI,,,BD,+880 331-63548,,24/7,MoneyGram,Q1944412
66589002,moneygram,NCC - FENI - CHAGALNAIYA BRANCH,,FENI,,,BD,332278110,,24/7,MoneyGram,Q1944412
66643511,moneygram,BRAC BANK LTD - #1801 - FENI - SONAGAZI,,FENI,,,BD,0332576188,,24/7,MoneyGram,Q1944412
66892113,moneygram,EXIM - FENI - CHAGOLNAIYA BR,,FENI,,,BD,+880 1730-097265,,24/7,MoneyGram,Q1944412
66892197,moneygram,EXIM - FENI BR,,FENI,,,BD,+880 1711-308032,,24/7,MoneyGram,Q1944412
66997979,moneygram,NCC - #0086 - FENI - SONAGAZI BRANCH,,FENI,,,BD,0332576577,,24/7,MoneyGram,Q1944412
67069369,moneygram,IBBL - FENI    COLLEGE ROAD   BRANCH,,FENI,,,BD,+880 1755-551140,,24/7,MoneyGram,Q1944412
67069932,moneygram,MERCANTILE BANK LIMITED - #131 - FENI -,,FENI,,,BD,+880 1713-452994,,24/7,MoneyGram,Q1944412
67070138,moneygram,MERCANTILE BANK LIMITED - #143 - FENI -,,FENI,,,BD,+880 1730-328684,,24/7,MoneyGram,Q1944412
67070361,moneygram,MERCANTILE BANK LIMITED - #155 - FENI -,,FENI,,,BD,+880 1711-303711,,24/7,MoneyGram,Q1944412
67130751,moneygram,SHAHJALAL - FENI BRANCH,,FENI,,,BD,+880 331-69021,,24/7,MoneyGram,Q1944412
67217823,moneygram,NBL - Daganbhuiyan Branch,,FENI,,,BD,+880 1713-330629,,24/7,MoneyGram,Q1944412
67218725,moneygram,NBL - Sonagazi Branch,,FENI,,,BD,+880 1730-329687,,24/7,MoneyGram,Q1944412
67218893,moneygram,NBL - Feni Branch,,FENI,,,BD,+880 1713-103051,,24/7,MoneyGram,Q1944412
67109850,moneygram,BCBL - FENI,,FENI,,,BD,+880 1812-384767,,24/7,MoneyGram,Q1944412
67430312,moneygram,FSIBL - Feni Branch,,FENI,,,BD,311711123436,,24/7,MoneyGram,Q1944412
67429381,moneygram,ONE BANK LTD - DAGON BHUIYAN BRANCH,,FENI,,,BD,332379097,,24/7,MoneyGram,Q1944412
67766400,moneygram,BRAC BANK LTD - #117 - FENI - SME UNIT O,,FENI,,,BD,+880 1713-368588,,24/7,MoneyGram,Q1944412
67786040,moneygram,NCC - MOHIPAL BRANCH,,FENI,,,BD,+880 1917-163395,,24/7,MoneyGram,Q1944412
67072903,moneygram,SIBL - FENI - FENI BRANCH,,FENI,,,BD,+880 331-74104,,24/7,MoneyGram,Q1944412
