Ref,Spider,Name,Address,City,State,Zipcode,Country,Phone,Website,Hours,Brand,WikiData
6810,aaa,Edmond OK North,,Edmond,OK,,US,+1 405-340-5222,,,American Automobile Association,Q463436
210380,bluerhino,Deer Creek Daily Stop,,Edmond,OK,,US,+1 215-272-7553,,,Blue Rhino,Q65681213
222130,bluerhino,Jack Be #1010 - AWG #4226,,Edmond,OK,,US,+1 405-323-0684,,,Blue Rhino,Q65681213
223920,bluerhino,7-Eleven #42026,,Edmond,OK,,US,+1 405-513-7253,,,Blue Rhino,Q65681213
218267,bluerhino,Dollar General #23158,,EDMOND,OK,,US,+1 405-861-8132,,,Blue Rhino,Q65681213
35071_50001,bmw_group,"Gerber Collision Edmond, Independent Certified Collision Repair Center of Jackie Cooper Imports",,Edmond,OK,,US,+1 405-493-6240,,,BMW,Q26678
2039718,chase_us,Edmond Rd and Santa Fe - New branch,,Edmond,OK,,US,+1 405-715-7150,https://locator.chase.com/ok/edmond/2307-w-edmond-rd,Mo-Fr 09:00-17:00; Sa 09:00-13:00,Chase,Q524629
60848,citi,ATM KIRKPATRICK BANK DEER CREEK,,Oklahoma City,OK,,US,,,,Citibank,Q857063
84830,citi,ATM TRANSFUND - 7-ELEVEN,,Oklahoma City,OK,,US,,,,Citibank,Q857063
84835,citi,ATM TRANSFUND - 7-ELEVEN,,Oklahoma City,OK,,US,,,,Citibank,Q857063
67706,citi,ATM PEOPLES BANK AND TRUST,,Edmond,OK,,US,,,,Citibank,Q857063
48485,citi,ATM CVS,,Oklahoma City,OK,,US,,,,Citibank,Q857063
60854,citi,ATM KIRKPATRICK BANK RALPHS PHARMACY,,Edmond,OK,,US,,,,Citibank,Q857063
,credit_union_us,True Sky CU,,Edmond,OK,,US,+1 405-682-1990,,Mo-Th 08:30-05:00; Fr 08:30-05:30; Sa 09:00-12:00,,
2512,cvs_us,CVS Pharmacy,,Oklahoma City,OK,,US,+1 405-341-1142,https://www.cvs.com/store-locator/oklahoma-city-ok-pharmacies/17850-north-pennsylvania-ave-oklahoma-city-ok-73012/storeid=2512,Mo-Su 07:00-23:00,CVS Pharmacy,Q2078880
https://www.edwardjones.com/us-en/financial-advisor/chad-mikles,edwardjones,Chad W Mikles,,Edmond,OK,,US,+1 405-330-5881,https://www.edwardjones.com/us-en/financial-advisor/chad-mikles,,Edward Jones,Q5343830
1000001013,extra_space_storage,Edmond Self Storage at 17720 Griffin Dr,,Edmond,OK,,US,+1 405-509-8306,https://www.extraspace.com/storage/facilities/us/oklahoma/edmond/1000001013/,Mo-Fr 09:30-18:00; Sa 09:00-17:30,Extra Space Storage,Q5422162
https://salons.greatclips.com/us/ok/edmond/3033-nw-178th-st,greatclips,Great Clips,,Edmond,OK,,US,+1 405-216-3345,https://salons.greatclips.com/us/ok/edmond/3033-nw-178th-st,Mo-Sa 09:00-19:00; Su 10:00-18:00,Great Clips,Q5598967
302004,kindercare,West Edmond KinderCare,,Edmond,OK,,US,,https://www.kindercare.com/our-centers/edmond/ok/302004,,KinderCare Learning Centers,Q6410551
33877,little_free_library,SilverHawk Library #33877 Edmond OK,,Edmond,OK,,US,,,,Little Free Library,Q6650101
170007,little_free_library,Kristen Crawford #170007 #170007 Edmond OK,,Edmond,OK,,US,,,,Little Free Library,Q6650101
123258,little_free_library,The Weaver Tucker Library #123258 Edmond OK,,Edmond,OK,,US,,,,Little Free Library,Q6650101
157102,little_free_library,Ginger Sutton #157102 Edmond OK,,Edmond,OK,,US,,,,Little Free Library,Q6650101
128535,little_free_library,Little Library - Trails North #128535 Edmond OK,,Edmond,OK,,US,,,,Little Free Library,Q6650101
116138,little_free_library,"Sunset School, Edmond Kiwanis Club #116138 Edmond OK",,Edmond,OK,,US,,,,Little Free Library,Q6650101
https://www.mercy.net/content/mercy/us/en/practice/edmond/mercy-clinic-primary-care-north-portland.html,mercy,Mercy Clinic Primary Care - North Portland,,Edmond,OK,,US,+1 405-531-4271,https://www.mercy.net/practice/mercy-clinic-primary-care-north-portland,Mo-Fr 07:30-17:00,Mercy,Q30289045
https://www.mercy.net/content/mercy/us/en/practice/edmond/mercy-clinic-orthopedic-surgery-north-portland.html,mercy,Mercy Clinic Orthopedic Surgery - North Portland,,Edmond,OK,,US,+1 405-947-0911,https://www.mercy.net/practice/mercy-clinic-orthopedic-surgery-north-portland,,Mercy,Q30289045
https://www.publicstorage.com/self-storage-ok-edmond/5779.html,public_storage_us,Public Storage,,Edmond,OK,,US,+1 405-666-4624,https://www.publicstorage.com/self-storage-ok-edmond/5779.html,,Public Storage,Q1156045
https://www.publicstorage.com/self-storage-ok-edmond/2587.html,public_storage_us,Public Storage,,Edmond,OK,,US,+1 405-531-0998,https://www.publicstorage.com/self-storage-ok-edmond/2587.html,,Public Storage,Q1156045
https://www.publicstorage.com/self-storage-ok-edmond/2614.html,public_storage_us,Public Storage,,Edmond,OK,,US,+1 405-300-4959,https://www.publicstorage.com/self-storage-ok-edmond/2614.html,,Public Storage,Q1156045
https://locations.qdoba.com/us/ok/edmond/3033-nw-178th-street.html,qdoba,QDOBA 178th Street OKC,,Edmond,OK,,US,+1 405-906-3038,https://locations.qdoba.com/us/ok/edmond/3033-nw-178th-street.html,Mo-Su 10:30-22:00,Qdoba,Q1363885
81170,ritasitalianice,Ritaâ€™s of Edmond OK,,Edmond,OK,,US,+1 405-216-3225,https://www.ritasice.com/location/ritas-of-edmond-ok/,,Rita's Italian Ice,Q7336456
42026,seven_eleven_ca_us,7-Eleven,,Edmond,OK,,US,+1 405-229-5067,https://www.7-eleven.com/locations/ok/edmond/17901-n-may-ave-42026,,7-Eleven,Q259340
83313,supercuts,Supercuts,18001 N Western Ave Ste 102,Edmond,OK,,US,+1 405-657-2017,https://www.supercuts.com/checkin/83313,Mo-Fr 09:00-18:00; Sa 09:00-17:00; Su 10:00-17:00,Supercuts,Q7643239
https://locations.tacobell.com/#72863906,taco_bell,Taco Bell,,Edmond,OK,,US,+1 405-960-0244,https://locations.tacobell.com/ok/edmond/2921-nw-178-st-.html,Mo-Su 07:00-02:00,Taco Bell,Q752941
,visa,,,EDMOND,OK,,US,,,,,
,visa,,,EDMOND,OK,,US,,,,,
,visa,,,EDMOND,OK,,US,,,,,
,visa,,,EDMOND,OK,,US,,,,,
,visa,,,EDMOND,OK,,US,,,,,
,visa,,,EDMOND,OK,,US,,,,,
,visa,,,OKLAHOMA CITY,OK,,US,,,,,
,visa,,,OKLAHOMA CITY,OK,,US,,,,,
,visa,,,EDMOND,OK,,US,,,,,
,visa,,,EDMOND,OK,,US,,,,,
,visa,,,EDMOND,OK,,US,,,,,
,visa,,,EDMOND,OK,,US,,,,,
,visa,,,EDMOND,OK,,US,,,,,
,visa,,,OAKLAHOMA CITY,OK,,US,,,,,
,visa,,,EDMOND,OK,,US,,,,,
,visa,,,EDMOND,OK,,US,,,,,
https://locations.wendys.com/#16032301,wendys,"Wendy's 178th & Western in Oklahoma City, OK",,Oklahoma City,OK,,US,+1 405-938-1227,https://locations.wendys.com/united-states/ok/oklahoma-city/1128-nw-178th-street,"Mo-Su 06:30-10:30,06:30-22:00",Wendy's,Q550258
6fd30065104ab0df1e1c9900537c92a1,western_union,HOMELAND #164,,Edmond,OK,,US,+1 405-603-0020,https://location.westernunion.com/us/ok/edmond/6fd30065104ab0df1e1c9900537c92a1,Mo-Su 09:00-21:00,Western Union,Q861042
c2cfded782750204a6ce235b5973b9d3,western_union,7-ELEVEN / SUNOCO #41480,,Edmond,OK,,US,+1 405-513-7253,https://location.westernunion.com/us/ok/edmond/c2cfded782750204a6ce235b5973b9d3,,Western Union,Q861042
5e968c111c9edf556bd3f7f621387c93,western_union,7-ELEVEN #42026,,Edmond,OK,,US,+1 405-229-5067,https://location.westernunion.com/us/ok/edmond/5e968c111c9edf556bd3f7f621387c93,,Western Union,Q861042
