Ref,Spider,Name,Address,City,State,Zipcode,Country,Phone,Website,Hours,Brand,WikiData
1354,first_cash,First Cash Pawn,,Valle De Santiago,Guanajuato,,MX,+52 456 649 8554,,,First Cash Pawn,
4342,first_cash,First Cash Pawn,,Valle De Santiago,Guanajuato,,MX,+52 456 643 8729,,,First Cash Pawn,
,visa,,,VALLE DE SANTIAGO,GUANAJUATO,,MX,,,,,
,visa,,,VALLE DE SANTIAGO,GUANAJUATO,,MX,,,,,
,visa,,,VALLE DE SANTIAGO,GUANAJUATO,,MX,,,,,
,visa,,,VALLE DE SANTIAGO,GUANAJUATO,,MX,,,,,
,visa,,,VALLE DE SANTIAGO,GUANAJUATO,,MX,,,,,
,visa,,,VALLE DE SANTIAGO,GUANAJUATO,,MX,,,,,
,visa,,,VALLE DE SANTIAGO,GUANAJUATO,,MX,,,,,
,visa,,,VALLE DE SANTIAGO,GUANAJUATO,,MX,,,,,
,visa,,,VALLE DE SANTIAGO,GUANAJUATO,,MX,,,,,
,visa,,,VALLE DE SANTIAGO,GUANAJUATO,,MX,,,,,
,visa,,,VALLE DE SANTIAGO,GUANAJUATO,,MX,,,,,
,visa,,,LEON,GUANAJUATO,,MX,,,,,
,visa,,,VALLE DE SANTIAGO,GUANAJUATO,,MX,,,,,
652f576ad3a2ff944967428cce4ef4ed,western_union,CAJA CERANO CHARCO DE PANTOJA GTO,,Valle De Santiago,GUANAJUATO,,MX,+52 81 2133 2160,https://location.westernunion.com/mx/guanajuato/valle-de-santiago/652f576ad3a2ff944967428cce4ef4ed,Mo-Fr 08:30-16:30; Sa 08:30-14:00,Western Union,Q861042
4e4ff78bc36ef2ee5d09b7b7ec80cf13,western_union,CAJA CERANO CHARCO DE PANTOJA GTO,,Valle De Santiago,GUANAJUATO,,MX,+52 81 2133 2160,https://location.westernunion.com/mx/guanajuato/valle-de-santiago/4e4ff78bc36ef2ee5d09b7b7ec80cf13,Mo-Fr 08:30-16:30; Sa 08:30-14:00,Western Union,Q861042
eaaeb43fe466b2f1b1f77e5bbe7aa32a,western_union,CAJA CERANO CHARCO DE PANTOJA GTO,,Valle De Santiago,GUANAJUATO,,MX,+52 81 2133 2160,https://location.westernunion.com/mx/guanajuato/valle-de-santiago/eaaeb43fe466b2f1b1f77e5bbe7aa32a,Mo-Fr 08:30-16:30; Sa 08:30-14:00,Western Union,Q861042
b17ea562b1fab98fa994ede93d38b650,western_union,ELECZION VALLE DE SANTIAGO 1180,,Valle De Santiago,GUANAJUATO,,MX,+52 55 5246 0700,https://location.westernunion.com/mx/guanajuato/valle-de-santiago/b17ea562b1fab98fa994ede93d38b650,Mo-Su 06:30-23:30,Western Union,Q861042
4472fb974209a80428a2851bf71c4885,western_union,ELECZION VALLE DE SANTIAGO 1180,,Valle De Santiago,GUANAJUATO,,MX,+52 55 5246 0700,https://location.westernunion.com/mx/guanajuato/valle-de-santiago/4472fb974209a80428a2851bf71c4885,Mo-Su 06:30-23:30,Western Union,Q861042
ec92b11b856efa5cb1aea12bf914e29c,western_union,ELEKTRA 3020 VALLE SANTIAGO,,Valle De Santiago,GUANAJUATO,,MX,+52 55 1720 8177,https://location.westernunion.com/mx/guanajuato/valle-de-santiago/ec92b11b856efa5cb1aea12bf914e29c,Mo-Su 09:00-21:00,Western Union,Q861042
1bfb45ff42afc27ba1b67c64a61cf32a,western_union,ELEKTRA 3020 VALLE SANTIAGO,,Valle De Santiago,GUANAJUATO,,MX,+52 55 1720 8177,https://location.westernunion.com/mx/guanajuato/valle-de-santiago/1bfb45ff42afc27ba1b67c64a61cf32a,Mo-Su 09:00-21:00,Western Union,Q861042
fe5bf57edc421ae4a1116f1640043c8a,western_union,ELEKTRA 3020 VALLE SANTIAGO,,Valle De Santiago,GUANAJUATO,,MX,+52 55 1720 8177,https://location.westernunion.com/mx/guanajuato/valle-de-santiago/fe5bf57edc421ae4a1116f1640043c8a,Mo-Su 09:00-21:00,Western Union,Q861042
b0effcadb7e56e4b60a29baeab5c2f12,western_union,OXXO ARTEGA BJX,,Valle De Santiago,GUANAJUATO,,MX,+52 81 8389 2121,https://location.westernunion.com/mx/guanajuato/valle-de-santiago/b0effcadb7e56e4b60a29baeab5c2f12,Mo-Su 08:00-22:00,Western Union,Q861042
08bd9a8bf86431289482a7d078e75bd4,western_union,OXXO ARTEGA BJX,,Valle De Santiago,GUANAJUATO,,MX,+52 81 8389 2121,https://location.westernunion.com/mx/guanajuato/valle-de-santiago/08bd9a8bf86431289482a7d078e75bd4,Mo-Su 08:00-22:00,Western Union,Q861042
c29f39ee62259abaf3bd1a7215e382d6,western_union,OXXO ARTEGA BJX,,Valle De Santiago,GUANAJUATO,,MX,+52 81 8389 2121,https://location.westernunion.com/mx/guanajuato/valle-de-santiago/c29f39ee62259abaf3bd1a7215e382d6,Mo-Su 08:00-22:00,Western Union,Q861042
9849863e5d8055defb05924fd5d30498,western_union,MODATELAS 131 AP CASH,,Valle De Santiago,GUANAJUATO,,MX,+52 473 643 0159,https://location.westernunion.com/mx/guanajuato/valle-de-santiago/9849863e5d8055defb05924fd5d30498,Mo-Su 08:00-20:00,Western Union,Q861042
a0f2add5699132b4646e2112cb132d85,western_union,MODATELAS 131 AP CASH,,Valle De Santiago,GUANAJUATO,,MX,+52 473 643 0159,https://location.westernunion.com/mx/guanajuato/valle-de-santiago/a0f2add5699132b4646e2112cb132d85,Mo-Su 08:00-20:00,Western Union,Q861042
e9180a28f8a6f7cbf8dba6125323f35e,western_union,ISSEG VALLE D SANTIAGO MANUEL DOBLAD 193,,Valle De Santiago,GUANAJUATO,,MX,+52 800 224 7734,https://location.westernunion.com/mx/guanajuato/valle-de-santiago/e9180a28f8a6f7cbf8dba6125323f35e,Mo-Su 07:00-21:00,Western Union,Q861042
48996fa01b54f37ef17cf892f7d45123,western_union,ISSEG VALLE D SANTIAGO MANUEL DOBLAD 193,,Valle De Santiago,GUANAJUATO,,MX,+52 800 224 7734,https://location.westernunion.com/mx/guanajuato/valle-de-santiago/48996fa01b54f37ef17cf892f7d45123,Mo-Su 07:00-21:00,Western Union,Q861042
a76e7b7aeb481940a096468e3462b941,western_union,ISSEG VALLE D SANTIAGO MANUEL DOBLAD 193,,Valle De Santiago,GUANAJUATO,,MX,+52 800 224 7734,https://location.westernunion.com/mx/guanajuato/valle-de-santiago/a76e7b7aeb481940a096468e3462b941,Mo-Su 07:00-21:00,Western Union,Q861042
b4d61f887b91add1e6847e0548484ccd,western_union,MODATELAS 131 AP CASH,,Valle De Santiago,GUANAJUATO,,MX,+52 473 643 0159,https://location.westernunion.com/mx/guanajuato/valle-de-santiago/b4d61f887b91add1e6847e0548484ccd,Mo-Su 08:00-20:00,Western Union,Q861042
09bb3316e821318654c794b7656e0890,western_union,ISSEG VALLE DE SANTIAGO ARTEAGA 036,,Valle De Santiago,GUANAJUATO,,MX,+52 800 224 7734,https://location.westernunion.com/mx/guanajuato/valle-de-santiago/09bb3316e821318654c794b7656e0890,Mo-Su 07:00-21:00,Western Union,Q861042
112632ed4023ee7a31219e1c5a36df45,western_union,ISSEG VALLE DE SANTIAGO ARTEAGA 036,,Valle De Santiago,GUANAJUATO,,MX,+52 800 224 7734,https://location.westernunion.com/mx/guanajuato/valle-de-santiago/112632ed4023ee7a31219e1c5a36df45,Mo-Su 07:00-21:00,Western Union,Q861042
fba738ac9561af8502b1ac56c4227b8b,western_union,ISSEG VALLE DE SANTIAGO ARTEAGA 036,,Valle De Santiago,GUANAJUATO,,MX,+52 800 224 7734,https://location.westernunion.com/mx/guanajuato/valle-de-santiago/fba738ac9561af8502b1ac56c4227b8b,Mo-Su 07:00-21:00,Western Union,Q861042
ec6cc111e1ef59094387e9a5120df46e,western_union,ISSEG VALLE SANTIAGO H COLEG MILITAR 130,,Valle De Santiago,GUANAJUATO,,MX,+52 800 224 7734,https://location.westernunion.com/mx/guanajuato/valle-de-santiago/ec6cc111e1ef59094387e9a5120df46e,Mo-Su 07:00-21:00,Western Union,Q861042
5367c0808eadd03d91b4379a15b63fdd,western_union,ISSEG VALLE SANTIAGO H COLEG MILITAR 130,,Valle De Santiago,GUANAJUATO,,MX,+52 800 224 7734,https://location.westernunion.com/mx/guanajuato/valle-de-santiago/5367c0808eadd03d91b4379a15b63fdd,Mo-Su 07:00-21:00,Western Union,Q861042
c4f58489c8643305703f5d37b3c42302,western_union,ISSEG VALLE SANTIAGO H COLEG MILITAR 130,,Valle De Santiago,GUANAJUATO,,MX,+52 800 224 7734,https://location.westernunion.com/mx/guanajuato/valle-de-santiago/c4f58489c8643305703f5d37b3c42302,Mo-Su 07:00-21:00,Western Union,Q861042
4c902c6e232ee54cc7b6fcc5437c4b9e,western_union,OXXO GRANADOS BJX,,Valle De Santiago,GUANAJUATO,,MX,+52 81 8389 2121,https://location.westernunion.com/mx/guanajuato/valle-de-santiago/4c902c6e232ee54cc7b6fcc5437c4b9e,Mo-Su 08:00-22:00,Western Union,Q861042
00a98724b7af8631427efda5b0cbddd1,western_union,OXXO GRANADOS BJX,,Valle De Santiago,GUANAJUATO,,MX,+52 81 8389 2121,https://location.westernunion.com/mx/guanajuato/valle-de-santiago/00a98724b7af8631427efda5b0cbddd1,Mo-Su 08:00-22:00,Western Union,Q861042
add05ed2ecca5e0a90caddc120a8a1a3,western_union,OXXO GRANADOS BJX,,Valle De Santiago,GUANAJUATO,,MX,+52 81 8389 2121,https://location.westernunion.com/mx/guanajuato/valle-de-santiago/add05ed2ecca5e0a90caddc120a8a1a3,Mo-Su 08:00-22:00,Western Union,Q861042
f26702de579c8555435c3281004a05c6,western_union,TELECOMM 11054,,Valle De Santiago,GUANAJUATO,,MX,+52 800 800 8930,https://location.westernunion.com/mx/guanajuato/valle-de-santiago/f26702de579c8555435c3281004a05c6,Mo-Fr 09:00-15:30,Western Union,Q861042
85d8efdde64e04dd99758e5fbbd54ae2,western_union,TELECOMM 11054,,Valle De Santiago,GUANAJUATO,,MX,+52 800 800 8930,https://location.westernunion.com/mx/guanajuato/valle-de-santiago/85d8efdde64e04dd99758e5fbbd54ae2,Mo-Su 09:00-20:00,Western Union,Q861042
782e1606b77f6d6bb844d03bf06bad82,western_union,TELECOMM 11054,,Valle De Santiago,GUANAJUATO,,MX,+52 800 800 9889,https://location.westernunion.com/mx/guanajuato/valle-de-santiago/782e1606b77f6d6bb844d03bf06bad82,Mo-Fr 09:00-15:00,Western Union,Q861042
e620499dd24f73a18923d7c1d22ba928,western_union,OXXO VALLE CENTRO BJX,,Valle De Santiago,GUANAJUATO,,MX,+52 81 8389 2121,https://location.westernunion.com/mx/guanajuato/valle-de-santiago/e620499dd24f73a18923d7c1d22ba928,Mo-Su 08:00-22:00,Western Union,Q861042
07789f051000102a84cbc53cc17900f5,western_union,OXXO VALLE CENTRO BJX,,Valle De Santiago,GUANAJUATO,,MX,+52 81 8389 2121,https://location.westernunion.com/mx/guanajuato/valle-de-santiago/07789f051000102a84cbc53cc17900f5,Mo-Su 08:00-22:00,Western Union,Q861042
9814c4a57b37f486b00c2ed9e7315f9b,western_union,OXXO VALLE CENTRO BJX,,Valle De Santiago,GUANAJUATO,,MX,+52 81 8389 2121,https://location.westernunion.com/mx/guanajuato/valle-de-santiago/9814c4a57b37f486b00c2ed9e7315f9b,Mo-Su 08:00-22:00,Western Union,Q861042
1f2325b7770ea4118746188527d656d2,western_union,ELEKTRA 482,,Valle De Santiago,GUANAJUATO,,MX,+52 55 1720 8177,https://location.westernunion.com/mx/guanajuato/valle-de-santiago/1f2325b7770ea4118746188527d656d2,Mo-Su 09:00-21:00,Western Union,Q861042
94a17e03fc52a844337279791f7f5f43,western_union,ELEKTRA 482,,Valle De Santiago,GUANAJUATO,,MX,+52 55 1720 8177,https://location.westernunion.com/mx/guanajuato/valle-de-santiago/94a17e03fc52a844337279791f7f5f43,Mo-Su 09:00-21:00,Western Union,Q861042
f13fb5792097b81aa6ccb02c7bd3c633,western_union,ELEKTRA PPR 5915,,Valle De Santiago,GUANAJUATO,,MX,+52 55 1720 8177,https://location.westernunion.com/mx/guanajuato/valle-de-santiago/f13fb5792097b81aa6ccb02c7bd3c633,Mo-Su 09:00-21:00,Western Union,Q861042
a6f4285ebbcee6be5e96ce20ddb3097c,western_union,ELEKTRA PPR 5915,,Valle De Santiago,GUANAJUATO,,MX,+52 55 1720 8177,https://location.westernunion.com/mx/guanajuato/valle-de-santiago/a6f4285ebbcee6be5e96ce20ddb3097c,Mo-Su 09:00-20:00,Western Union,Q861042
3f160766adaf1fb5d014a5b4e3371a21,western_union,ELEKTRA PPR 5915,,Valle De Santiago,GUANAJUATO,,MX,+52 55 1720 8177,https://location.westernunion.com/mx/guanajuato/valle-de-santiago/3f160766adaf1fb5d014a5b4e3371a21,Mo-Su 09:00-21:00,Western Union,Q861042
2ef0a65f832c28168cd875683f5e610d,western_union,BANCOPPEL 0257 ARTEAGA,,Valle De Santiago,GUANAJUATO,,MX,+52 55 5301 2155,https://location.westernunion.com/mx/guanajuato/valle-de-santiago/2ef0a65f832c28168cd875683f5e610d,Mo-Sa 10:00-20:00; Su 10:00-17:00,Western Union,Q861042
55634ff55a7ffc15b67520f79cbb25c3,western_union,BANCOPPEL 0257 ARTEAGA,,Valle De Santiago,GUANAJUATO,,MX,+52 55 5301 2155,https://location.westernunion.com/mx/guanajuato/valle-de-santiago/55634ff55a7ffc15b67520f79cbb25c3,Mo-Sa 10:00-20:00; Su 10:00-17:00,Western Union,Q861042
328ff2c66c7b375ba9722e013684491b,western_union,BANCOPPEL 0257 ARTEAGA,,Valle De Santiago,GUANAJUATO,,MX,+52 55 5301 2155,https://location.westernunion.com/mx/guanajuato/valle-de-santiago/328ff2c66c7b375ba9722e013684491b,Mo-Sa 10:00-20:00; Su 10:00-17:00,Western Union,Q861042
4909b47e58bc639274273ffeb8677fb2,western_union,ELECZION VALLE DE SANTIAGO 1180,,Valle De Santiago,GUANAJUATO,,MX,+52 55 5246 0700,https://location.westernunion.com/mx/guanajuato/valle-de-santiago/4909b47e58bc639274273ffeb8677fb2,Mo-Su 06:30-23:30,Western Union,Q861042
110f974a998f912c8bc629c92275a522,western_union,EL BODEGON VALLE DE SANTIAGO,,Valle De Santiago,GUANAJUATO,,MX,+52 312 138 8886,https://location.westernunion.com/mx/guanajuato/valle-de-santiago/110f974a998f912c8bc629c92275a522,Mo-Sa 10:00-20:30; Su 10:00-14:00,Western Union,Q861042
d0a243f7956cfcdf7d0086d4467fc641,western_union,EL BODEGON VALLE DE SANTIAGO,,Valle De Santiago,GUANAJUATO,,MX,+52 312 138 8886,https://location.westernunion.com/mx/guanajuato/valle-de-santiago/d0a243f7956cfcdf7d0086d4467fc641,Mo-Sa 10:00-20:30; Su 10:00-14:00,Western Union,Q861042
524b77874f7c4211eed2720b7a43bf22,western_union,EL BODEGON VALLE DE SANTIAGO,,Valle De Santiago,GUANAJUATO,,MX,+52 312 138 8886,https://location.westernunion.com/mx/guanajuato/valle-de-santiago/524b77874f7c4211eed2720b7a43bf22,Mo-Sa 10:00-20:30; Su 10:00-14:00,Western Union,Q861042
a6d06ca7fd27e12ed97ca6e1d2977c5b,western_union,CAJA CERANO VALLE DE SANTIAGO GTO,,Valle De Santiago,GUANAJUATO,,MX,+52 81 2133 2160,https://location.westernunion.com/mx/guanajuato/valle-de-santiago/a6d06ca7fd27e12ed97ca6e1d2977c5b,Mo-Fr 08:30-16:30; Sa 08:30-14:00,Western Union,Q861042
4ae555fddcaa3a6d8a078eade7cdda7a,western_union,CAJA CERANO VALLE DE SANTIAGO GTO,,Valle De Santiago,GUANAJUATO,,MX,+52 81 2133 2160,https://location.westernunion.com/mx/guanajuato/valle-de-santiago/4ae555fddcaa3a6d8a078eade7cdda7a,Mo-Fr 08:30-16:30; Sa 08:30-14:00,Western Union,Q861042
21ebc03d39f81d949a2949928cbf9754,western_union,CAJA CERANO VALLE DE SANTIAGO GTO,,Valle De Santiago,GUANAJUATO,,MX,+52 81 2133 2160,https://location.westernunion.com/mx/guanajuato/valle-de-santiago/21ebc03d39f81d949a2949928cbf9754,Mo-Fr 08:30-16:30; Sa 08:30-14:00,Western Union,Q861042
8fa021228031f6d23ba82a55bf7cf5fd,western_union,SERVICIOS RAZO IMX,,Valle De Santiago,GUANAJUATO,,MX,+52 800 733 3300,https://location.westernunion.com/mx/guanajuato/valle-de-santiago/8fa021228031f6d23ba82a55bf7cf5fd,Mo-Fr 09:00-17:00; Sa 09:00-14:00,Western Union,Q861042
e13a7539cc2d623c4fd37feff5ac60bb,western_union,SERVICIOS RAZO IMX,,Valle De Santiago,GUANAJUATO,,MX,+52 800 733 3300,https://location.westernunion.com/mx/guanajuato/valle-de-santiago/e13a7539cc2d623c4fd37feff5ac60bb,Mo-Fr 09:00-17:00; Sa 09:00-14:00,Western Union,Q861042
543cf33e3dda10d7e44dac0c82cf6205,western_union,ELEKTRA 482,,Valle De Santiago,GUANAJUATO,,MX,+52 55 1720 8177,https://location.westernunion.com/mx/guanajuato/valle-de-santiago/543cf33e3dda10d7e44dac0c82cf6205,Mo-Su 09:00-20:00,Western Union,Q861042
8f5072cc9c2ff479ced72d59909033f9,western_union,FARM GUAD 5 DE MAYO VALLE DE SANTIAGO,,Valle De Santiago,GUANAJUATO,,MX,+52 800 833 4700,https://location.westernunion.com/mx/guanajuato/valle-de-santiago/8f5072cc9c2ff479ced72d59909033f9,Mo-Su 08:00-20:00,Western Union,Q861042
4b0020e69a08024f18d10b1c64c5d797,western_union,FARM GUAD 5 DE MAYO VALLE DE SANTIAGO,,Valle De Santiago,GUANAJUATO,,MX,+52 800 833 4700,https://location.westernunion.com/mx/guanajuato/valle-de-santiago/4b0020e69a08024f18d10b1c64c5d797,Mo-Su 08:00-20:00,Western Union,Q861042
8107ec637c3f1ef7b9deaeaf80f961d8,western_union,FARM GUAD 5 DE MAYO VALLE DE SANTIAGO,,Valle De Santiago,GUANAJUATO,,MX,+52 800 833 4700,https://location.westernunion.com/mx/guanajuato/valle-de-santiago/8107ec637c3f1ef7b9deaeaf80f961d8,Mo-Su 08:00-20:00,Western Union,Q861042
7342f0309fa1c2ba59b843af9353caa2,western_union,WALDOS VALLE DE SANTIAGO GTO 6509,,Valle De Santiago,GUANAJUATO,,MX,+52 55 5246 0700,https://location.westernunion.com/mx/guanajuato/valle-de-santiago/7342f0309fa1c2ba59b843af9353caa2,Mo-Su 06:30-23:30,Western Union,Q861042
f7b23fad0749085ecfef089caa161486,western_union,FUNDACION DONDE VALLE DE SANTIAGO ID392,,Valle De Santiago,GUANAJUATO,,MX,+52 999 940 7550,https://location.westernunion.com/mx/guanajuato/valle-de-santiago/f7b23fad0749085ecfef089caa161486,Mo-Su 08:00-20:00,Western Union,Q861042
7f54c4b9273c9fb51e6b28eaa45e9233,western_union,FUNDACION DONDE VALLE DE SANTIAGO ID392,,Valle De Santiago,GUANAJUATO,,MX,+52 999 940 7550,https://location.westernunion.com/mx/guanajuato/valle-de-santiago/7f54c4b9273c9fb51e6b28eaa45e9233,Mo-Su 08:00-20:00,Western Union,Q861042
abfb803cf2dff870a515ca379e674658,western_union,FUNDACION DONDE VALLE DE SANTIAGO ID392,,Valle De Santiago,GUANAJUATO,,MX,+52 999 940 7550,https://location.westernunion.com/mx/guanajuato/valle-de-santiago/abfb803cf2dff870a515ca379e674658,Mo-Su 08:00-20:00,Western Union,Q861042
9bc543f64c88f289e766dbc68de48b40,western_union,OXXO AGRICULTORES BJX,,Valle De Santiago,GUANAJUATO,,MX,+52 81 8389 2121,https://location.westernunion.com/mx/guanajuato/valle-de-santiago/9bc543f64c88f289e766dbc68de48b40,Mo-Su 08:00-22:00,Western Union,Q861042
48383f5ec8ec5776965967647e55df04,western_union,OXXO AGRICULTORES BJX,,Valle De Santiago,GUANAJUATO,,MX,+52 81 8389 2121,https://location.westernunion.com/mx/guanajuato/valle-de-santiago/48383f5ec8ec5776965967647e55df04,Mo-Su 08:00-22:00,Western Union,Q861042
ba6b9181e9c9e15a01441c0604229cbd,western_union,TIENDAS NETO VALLE SANTIAGO 9081,,Valle De Santiago,GUANAJUATO,,MX,+52 456 106 0075,https://location.westernunion.com/mx/guanajuato/valle-de-santiago/ba6b9181e9c9e15a01441c0604229cbd,Mo-Su 07:00-22:00,Western Union,Q861042
1af3861d2c3cb93e5d6398acadd1002c,western_union,TIENDAS NETO VALLE SANTIAGO 9081,,Valle De Santiago,GUANAJUATO,,MX,+52 456 106 0075,https://location.westernunion.com/mx/guanajuato/valle-de-santiago/1af3861d2c3cb93e5d6398acadd1002c,Mo-Su 07:00-22:00,Western Union,Q861042
ade44ff2e0c1508bfc98d506e42341a9,western_union,TIENDAS NETO VALLE SANTIAGO 9081,,Valle De Santiago,GUANAJUATO,,MX,+52 456 106 0075,https://location.westernunion.com/mx/guanajuato/valle-de-santiago/ade44ff2e0c1508bfc98d506e42341a9,Mo-Su 07:00-22:00,Western Union,Q861042
a461c3e87ec783241872b8c01e0e32fa,western_union,OXXO PANTEON MUNICIPAL    BJX,,Valle De Santiago,GUANAJUATO,,MX,+52 81 8389 2121,https://location.westernunion.com/mx/guanajuato/valle-de-santiago/a461c3e87ec783241872b8c01e0e32fa,Mo-Su 08:00-22:00,Western Union,Q861042
3d194e4d4023016a556651945bcaeeed,western_union,OXXO PANTEON MUNICIPAL    BJX,,Valle De Santiago,GUANAJUATO,,MX,+52 81 8389 2121,https://location.westernunion.com/mx/guanajuato/valle-de-santiago/3d194e4d4023016a556651945bcaeeed,Mo-Su 08:00-22:00,Western Union,Q861042
a76f8d49c66e56b3de54ff684a75d946,western_union,OXXO PANTEON MUNICIPAL    BJX,,Valle De Santiago,GUANAJUATO,,MX,+52 81 8389 2121,https://location.westernunion.com/mx/guanajuato/valle-de-santiago/a76f8d49c66e56b3de54ff684a75d946,Mo-Su 08:00-22:00,Western Union,Q861042
6ccb9c379f2a738b88233b0ce4acab6d,western_union,AURRERA VALLE DE SANTIAGO 2017,,Valle De Santiago,GUANAJUATO,,MX,+52 800 833 4700,https://location.westernunion.com/mx/guanajuato/valle-de-santiago/6ccb9c379f2a738b88233b0ce4acab6d,Mo-Su 07:00-23:00,Western Union,Q861042
76c26fe9fd04d6c281e5c343f42161dc,western_union,AURRERA VALLE DE SANTIAGO 2017,,Valle De Santiago,GUANAJUATO,,MX,+52 800 833 4700,https://location.westernunion.com/mx/guanajuato/valle-de-santiago/76c26fe9fd04d6c281e5c343f42161dc,Mo-Su 07:00-23:00,Western Union,Q861042
16bcea2dcc4482566cacac43271f1c80,western_union,AURRERA VALLE DE SANTIAGO 2017,,Valle De Santiago,GUANAJUATO,,MX,+52 800 833 4700,https://location.westernunion.com/mx/guanajuato/valle-de-santiago/16bcea2dcc4482566cacac43271f1c80,Mo-Su 07:00-23:00,Western Union,Q861042
87f4e00611bd8fcd9597534729ad513a,western_union,OXXO HURAPO BJX,,Valle De Santiago,GUANAJUATO,,MX,+52 81 8389 2121,https://location.westernunion.com/mx/guanajuato/valle-de-santiago/87f4e00611bd8fcd9597534729ad513a,Mo-Su 08:00-22:00,Western Union,Q861042
f440b292fe6753ac0704c2b0ed24b66f,western_union,OXXO HURAPO BJX,,Valle De Santiago,GUANAJUATO,,MX,+52 81 8389 2121,https://location.westernunion.com/mx/guanajuato/valle-de-santiago/f440b292fe6753ac0704c2b0ed24b66f,Mo-Su 08:00-22:00,Western Union,Q861042
71e8c4928c11dee71248c1ec83df7eec,western_union,OXXO HURAPO BJX,,Valle De Santiago,GUANAJUATO,,MX,+52 81 8389 2121,https://location.westernunion.com/mx/guanajuato/valle-de-santiago/71e8c4928c11dee71248c1ec83df7eec,Mo-Su 08:00-22:00,Western Union,Q861042
e573dcfcf0cdd1cc80a294602cbdaeaa,western_union,OXXO AGRICULTORES BJX,,Valle De Santiago,GUANAJUATO,,MX,+52 81 8389 2121,https://location.westernunion.com/mx/guanajuato/valle-de-santiago/e573dcfcf0cdd1cc80a294602cbdaeaa,Mo-Su 08:00-22:00,Western Union,Q861042
41b99d301fba0fb41ffd51539121dc8e,western_union,OXXO EL JARRON BJX,,Valle De Santiago,GUANAJUATO,,MX,+52 81 8389 2121,https://location.westernunion.com/mx/guanajuato/valle-de-santiago/41b99d301fba0fb41ffd51539121dc8e,Mo-Su 08:00-22:00,Western Union,Q861042
00334b61ff219554621701daa2fa82d6,western_union,OXXO EL JARRON BJX,,Valle De Santiago,GUANAJUATO,,MX,+52 81 8389 2121,https://location.westernunion.com/mx/guanajuato/valle-de-santiago/00334b61ff219554621701daa2fa82d6,Mo-Su 08:00-22:00,Western Union,Q861042
f363012ee518adb02a4288834628c0ed,western_union,OXXO EL JARRON BJX,,Valle De Santiago,GUANAJUATO,,MX,+52 81 8389 2121,https://location.westernunion.com/mx/guanajuato/valle-de-santiago/f363012ee518adb02a4288834628c0ed,Mo-Su 08:00-22:00,Western Union,Q861042
