Ref,Spider,Name,Address,City,State,Zipcode,Country,Phone,Website,Hours,Brand,WikiData
502,anytime_fitness,Anytime Fitness,,Indianola,IA,,US,+1 515-961-8848,https://www.anytimefitness.com/gyms/502/indianola-ia-50125/,,Anytime Fitness,Q4778364
https://locations.arbys.com/ia/indianola/408-n-jefferson.html,arbys_us,"Arby's Fast-Food Drive Through Near You in Indianola, IA",,Indianola,IA,,US,+1 515-961-2255,https://locations.arbys.com/ia/indianola/408-n-jefferson.html,Mo-Su 10:00-22:00,Arby's,Q630866
https://awrestaurants.com/locations/iowa/indianola/109-e-2nd-street/,awrestaurants,A&W Restaurant,,Indianola,IA,,US,+1 515-961-3553,https://awrestaurants.com/locations/iowa/indianola/109-e-2nd-street/,Mo-Su 10:30-21:00,A&W Restaurants,Q277641
202408,bluerhino,CASEY'S GENERAL STORE #2097,,INDIANOLA,IA,,US,+1 515-962-2217,,,Blue Rhino,Q65681213
218218,bluerhino,Dollar General #22960,,INDIANOLA,IA,,US,+1 515-690-8053,,,Blue Rhino,Q65681213
202391,bluerhino,CASEY'S GENERAL STORE #1908,,INDIANOLA,IA,,US,+1 515-961-6628,,,Blue Rhino,Q65681213
202356,bluerhino,CASEY'S GENERAL STORE #1623,,INDIANOLA,IA,,US,+1 515-961-5730,,,Blue Rhino,Q65681213
202702,bluerhino,CASEY'S GENERAL STORE #3512,,INDIANOLA,IA,,US,+1 515-961-4965,,,Blue Rhino,Q65681213
151942,bluerhino,Walgreens #5943,,Indianola,IA,,US,+1 515-961-2976,,,Blue Rhino,Q65681213
126692,bluerhino,Do It Best- Circle B #2759,,Indianola,IA,,US,+1 515-961-5381,,,Blue Rhino,Q65681213
202609,bluerhino,CASEY'S GENERAL STORE #2894,,INDIANOLA,IA,,US,+1 515-961-5322,,,Blue Rhino,Q65681213
67776,citi,ATM PEOPLES SAVINGS BANK,,Indianola,IA,,US,,,,Citibank,Q857063
86260,citi,ATM Walgreens,,Indianola,IA,,US,,,,Citibank,Q857063
60235,citi,ATM Indy 66,,Indianola,IA,,US,,,,Citibank,Q857063
8592,dollartree,DollarTree,,Indianola,IA,,US,+1 515-808-6018,,Mo-Sa 09:00-21:00; Su 09:00-20:00,Dollar Tree,Q5289230
1716,dominos_pizza_us,Domino's Pizza,,Indianola,IA,,US,+1 515-552-1030,https://pizza.dominos.com/iowa/indianola/1011-n-jefferson-way-400,Mo-Th 10:00-24:00; Fr-Sa 10:00-01:00; Su 10:00-24:00,Domino's,Q839466
https://www.edwardjones.com/us-en/financial-advisor/alan-bentley,edwardjones,Alan Bentley,,Indianola,IA,,US,+1 515-961-2056,https://www.edwardjones.com/us-en/financial-advisor/alan-bentley,Mo-Fr 08:00-16:30,Edward Jones,Q5343830
https://www.efaststop.com/store-locator/pv/3000/id/343,fast_stop_us,Indianola FAST STOP Express (AGRILAND FS),,Indianola,IA,,US,+1 515-961-8408,https://www.efaststop.com/store-locator/pv/3000/id/343,,FAST STOP,Q116734101
https://local.fedex.com/#25197819,fedex,,,Indianola,IA,,US,+1 800-463-3339,https://local.fedex.com/en-us/ia/indianola/vjruu,,FedEx,Q459477
https://local.fedex.com/#34427682,fedex,,,Indianola,IA,,US,+1 800-463-3339,https://local.fedex.com/en-us/ia/indianola/dsmea,,FedEx,Q459477
https://local.fedex.com/#25234008,fedex,,,Indianola,IA,,US,+1 800-463-3339,https://local.fedex.com/en-us/ia/indianola/dsmbh,,FedEx,Q459477
Motorcraft3616USAEnglish,ford,"Noble Ford, Inc.",,Iowa,IA,,US,+1 515-961-8151,,,Ford,Q44294
https://www.ford.com/dealerships/dealer-details/ia/indianola/deyarman-ford-indianola/,ford_dealers_us,DeYarman Ford Indianola,,Indianola,IA,,US,+1 515-512-9931,https://www.ford.com/dealerships/dealer-details/ia/indianola/deyarman-ford-indianola/,Mo-Th 09:00-19:00; Fr-Sa 09:00-18:00,Ford Motor Company,Q44294
2a1a94c9-458a-e111-8dde-005056934050,goodwill,"Indianola, IA   Goodwill",,Indianola,IA,,US,+1 515-961-6400,https://www.goodwill.org/locator/location/?store=MmExYTk0YzktNDU4YS1lMTExLThkZGUtMDA1MDU2OTM0MDUw&lat=NDEuMzYzNDY=&lng=LTkzLjU2MDk3,,Goodwill,Q5583655
https://salons.greatclips.com/us/ia/indianola/1214-n-jefferson-way,greatclips,Great Clips,,Indianola,IA,,US,+1 515-961-0282,https://salons.greatclips.com/us/ia/indianola/1214-n-jefferson-way,Mo-Fr 09:00-20:00; Sa 08:00-17:00; Su 10:00-16:00,Great Clips,Q5598967
1506338,hardees_us,Hardee's,,Indianola,IA,,US,+1 515-961-2198,https://locations.hardees.com/ia/indianola/300-east-trail-ridge-ave,,Hardee's,Q1585088
16341,h_r_block,H&R Block,,Indianola,IA,,US,+1 515-961-6035,https://www.hrblock.com/local-tax-offices/iowa/indianola/109-e-salem-ave/16341/,,H&R Block,Q5627799
https://office.jacksonhewitt.com/#27577606,jackson_hewitt,Jackson Hewitt,,Indianola,IA,,US,+1 515-418-9062,https://office.jacksonhewitt.com/tax-preparation-services-locations/en/ia/indianola/1500-n-jefferson-way/51491,Mo-Sa 11:00-19:00; Su 12:00-16:00,Jackson Hewitt,Q6117132
https://locations.jimmyjohns.com/ia/indianola/sandwiches-1091.html,jimmy_johns,Jimmy John's,,Indianola,IA,,US,+1 515-962-5050,https://locations.jimmyjohns.com/ia/indianola/sandwiches-1091.html,,Jimmy John's,Q1689380
https://locations.maurices.com/#11688340,maurices,maurices Indianola Plaza,,Indianola,IA,,US,+1 515-961-1985,https://locations.maurices.com/us/ia/indianola/1214-n-jefferson-way,Mo-Fr 10:00-19:00; Sa 10:00-18:00; Su 11:00-17:00,maurices,Q6793571
71459981,moneygram,WAL-MART - #1491,,INDIANOLA,IA,,US,+1 515-961-8955,,Mo-Su 07:00-21:00,MoneyGram,Q1944412
5806,murphy_usa_us,,,Indianola,IA,,US,+1 515-961-3630,,Mo-Sa 05:00-22:30; Su 06:00-22:30,Murphy USA,Q19604459
https://locations.oreillyauto.com/ia/indianola/check-engine-light-testing-337.html,oreilly,Your Indianola O'Reilly Auto Parts Store,,Indianola,IA,,US,+1 515-961-0601,https://locations.oreillyauto.com/ia/indianola/check-engine-light-testing-337.html,Mo-Sa 07:30-21:00; Su 09:00-20:00,O'Reilly Auto Parts,Q7071951
https://locations.oreillyauto.com/ia/indianola/wiper-installation-337.html,oreilly,Your Indianola O'Reilly Auto Parts Store,,Indianola,IA,,US,+1 515-961-0601,https://locations.oreillyauto.com/ia/indianola/wiper-installation-337.html,Mo-Sa 07:30-21:00; Su 09:00-20:00,O'Reilly Auto Parts,Q7071951
https://locations.oreillyauto.com/ia/indianola/autopartes-337.html,oreilly,Tu tienda O'Reilly Auto Parts en Indianola,,Indianola,IA,,US,+1 515-961-0601,https://locations.oreillyauto.com/ia/indianola/autopartes-337.html,Mo-Sa 07:30-21:00; Su 09:00-20:00,O'Reilly Auto Parts,Q7071951
https://locations.oreillyauto.com/ia/indianola/battery-testing-337.html,oreilly,Your Indianola O'Reilly Auto Parts Store,,Indianola,IA,,US,+1 515-961-0601,https://locations.oreillyauto.com/ia/indianola/battery-testing-337.html,Mo-Sa 07:30-21:00; Su 09:00-20:00,O'Reilly Auto Parts,Q7071951
284,scooters_coffee_us,Kentucky & Jefferson Way,,Indianola,IA,,US,+1 515-442-9727,,Mo-Sa 05:30-20:00; Su 06:00-20:00,Scooter's Coffee,Q117280308
https://restaurants.subway.com/#14904145,subway,Subway,,Indianola Warren,IA,,US,+1 515-961-2315,https://restaurants.subway.com/united-states/ia/indianola/501-n-jefferson,Mo-Fr 07:00-21:00; Sa 08:00-21:00; Su 10:00-20:00,Subway,Q244457
https://locations.tacobell.com/#6146567,taco_bell,Taco Bell,,Indianola,IA,,US,+1 515-330-9740,https://locations.tacobell.com/ia/indianola/1303-n-jefferson-way.html,Mo-Su 08:00-02:00,Taco Bell,Q752941
583670,taco_johns_us,Indianola,"1103 N Jefferson Way, Indianola IA 50125",Indianola,IA,,US,+1 515-961-3335,https://locations.tacojohns.com/ia/indianola/1103-n-jefferson-way/,Mo-Su 07:00-22:00,Taco John's,Q7673962
991F,tmobile_us,Jefferson & Iowa,,Indianola,IA,,US,+1 515-808-7141,https://www.t-mobile.com/store-locator/ia/indianola/jefferson-iowa,,T-Mobile,Q3511885
6682,upsstore,Indianola,1214 N Jefferson Way,Indianola,IA,,US,+1 515-961-1945,https://locations.theupsstore.com/ia/indianola/1214-n-jefferson-way,,UPS Store,Q7771029
1367920,usps,INDIANOLA,,INDIANOLA,IA,,US,+1 515-961-5976,,Mo-Fr 09:00-16:30; Sa 09:00-12:00,United States Postal Service,Q668687
5012500019,usps_collection_boxes,USPS COLLECTION BOX - BLUE BOX,201 W 1ST AVE,INDIANOLA,IA,,US,,,,United States Postal Service,Q668687
5012500028,usps_collection_boxes,USPS COLLECTION BOX - BLUE BOX,201 W 1ST AVE,INDIANOLA,IA,,US,,,,United States Postal Service,Q668687
5012500030,usps_collection_boxes,USPS COLLECTION BOX - PO LOBBY,201 W 1ST AVE,INDIANOLA,IA,,US,,,,United States Postal Service,Q668687
5012500032,usps_collection_boxes,USPS COLLECTION BOX - PO LOBBY,201 W 1ST AVE,INDIANOLA,IA,,US,,,,United States Postal Service,Q668687
5012500018,usps_collection_boxes,USPS COLLECTION BOX - BLUE BOX,207 E EUCLID AVE,INDIANOLA,IA,,US,,,,United States Postal Service,Q668687
5012500017,usps_collection_boxes,USPS COLLECTION BOX - BLUE BOX,910 N JEFFERSON WAY,INDIANOLA,IA,,US,,,,United States Postal Service,Q668687
,visa,,,INDIANOLA,IA,,US,,,,,
,visa,,,INDIANOLA,IA,,US,,,,,
,visa,,,INDIANOLA,IA,,US,,,,,
,visa,,,INDIANOLA,IA,,US,,,,,
,visa,,,INDIANOLA,IA,,US,,,,,
,visa,,,INDIANOLA,IA,,US,,,,,
,visa,,,INDIANOLA,IA,,US,,,,,
,visa,,,INDIANOLA,IA,,US,,,,,
,visa,,,INDIANOLA,IA,,US,,,,,
,visa,,,INDIANOLA,IA,,US,,,,,
,visa,,,INDIANOLA,IA,,US,,,,,
,visa,,,INDIANOLA,IA,,US,,,,,
,visa,,,INDIANOLA,IA,,US,,,,,
,visa,,,INDIANOLA,IA,,US,,,,,
,visa,,,INDIANOLA,IA,,US,,,,,
,visa,,,INDIANOLA,IA,,US,,,,,
,visa,,,INDIANOLA,IA,,US,,,,,
,visa,,,INDIANOLA,IA,,US,,,,,
,visa,,,INDIANOLA,IA,,US,,,,,
,visa,,,INDIANOLA,IA,,US,,,,,
,visa,,,INDIANOLA,IA,,US,,,,,
,visa,,,INDIANOLA,IA,,US,,,,,
,visa,,,INDIANOLA,IA,,US,,,,,
,visa,,,INDIANOLA,IA,,US,,,,,
,visa,,,INDIANOLA,IA,,US,,,,,
,visa,,,INDIANOLA,IA,,US,,,,,
https://www.walgreens.com/locator/walgreens-1000+n+jefferson+way-indianola-ia-50125/id=5943,walgreens,Walgreens,,Indianola,IA,,US,+1 515-961-4867,https://www.walgreens.com/locator/walgreens-1000+n+jefferson+way-indianola-ia-50125/id=5943,Mo-Sa 07:00-22:00; Su 08:00-22:00,Walgreens,Q1591889
509__N__JEFFERSON__WAY_INDIANOLA_IA_50125,wellsfargo,Wells Fargo,509 N JEFFERSON WAY,INDIANOLA,IA,,US,+1 515-961-0593,https://www.wellsfargo.com/locator/bank/509__N__JEFFERSON__WAY_INDIANOLA_IA_50125/,Mo-Fr 09:00-17:00,Wells Fargo,Q744149
95a1404c9c9ca25a34121790d5860be6,western_union,WALMART #001491,,Indianola,IA,,US,+1 515-961-8955,https://location.westernunion.com/us/ia/indianola/95a1404c9c9ca25a34121790d5860be6,Mo-Su 07:00-21:00,Western Union,Q861042
indianola-ymca,ymca,Indianola YMCA,306 E Scenic Valley Dr,Indianola,IA,,US,+1 515-777-7746,https://www.ymca.org/locations/indianola-ymca,Mo-Th 05:00-21:00; Fr 05:00-19:00; Sa 07:00-16:00; Su 10:00-16:00,YMCA,Q157169
