Ref,Spider,Name,Address,City,State,Zipcode,Country,Phone,Website,Hours,Brand,WikiData
4886,anytime_fitness,Anytime Fitness,,Madison,SD,,US,+1 605-427-0856,https://www.anytimefitness.com/gyms/4886/madison-sd-57042/,,Anytime Fitness,Q4778364
204130,bluerhino,CASEY'S GENERAL STORE #1718,,MADISON,SD,,US,+1 605-256-3013,,,Blue Rhino,Q65681213
208026,bluerhino,Runnings Supply #51,,Madison,SD,,US,+1 605-256-4545,,,Blue Rhino,Q65681213
MADISDYD,builders_firstsource_us,Madison SD Yard,,Madison,SD,,US,+1 605-256-4529,https://www.bldr.com/location/madison-sd-yard/MADISDYD,Mo-Fr 07:00-17:00; Sa 08:00-12:00,Builders FirstSource,Q27686100
10183,cenex,Classic Corner LP,,Madison,SD,,US,+1 605-256-0338,,24/7,Cenex,Q62127191
8949,cenex,Farmers & Merchants Coop Oil C,,Madison,SD,,US,+1 605-256-4516,,24/7,Cenex,Q62127191
04643,chevrolet,PROSTROLLO MOTOR COMPANY,,Madison,SD,,US,+1 605-256-9111,https://www.prostrollogm.com,Mo-Fr 08:00-18:00; Sa 08:00-15:00,Chevrolet,Q29570
56481,citi,ATM First PREMIER Bank,,Madison,SD,,US,,,,Citibank,Q857063
55867,citi,ATM FIRST INTERSTATE BANK,,Madison,SD,,US,,,,Citibank,Q857063
55374,citi,ATM First Bank & Trust Brkns,,Madison,SD,,US,,,,Citibank,Q857063
54219,citi,ATM EAST RIVER FCU,,Madison,SD,,US,,,,Citibank,Q857063
https://www.edwardjones.com/us-en/financial-advisor/derrick-wiebe,edwardjones,Derrick Wiebe,,Madison,SD,,US,+1 605-256-3550,https://www.edwardjones.com/us-en/financial-advisor/derrick-wiebe,Mo-Fr 08:00-17:00,Edward Jones,Q5343830
https://local.fedex.com/#25236374,fedex,,,Madison,SD,,US,+1 800-463-3339,https://local.fedex.com/en-us/sd/madison/fsdae,,FedEx,Q459477
Motorcraft4695USAEnglish,ford,Prostrollo Auto Plaza Co.,,South Dakota,SD,,US,+1 800-777-4146,,,Ford,Q44294
https://www.ford.com/dealerships/dealer-details/sd/madison/prostrollo-auto-plaza-co/,ford_dealers_us,Prostrollo Auto Plaza Co.,,Madison,SD,,US,+1 605-636-6374,https://www.ford.com/dealerships/dealer-details/sd/madison/prostrollo-auto-plaza-co/,Mo-Fr 08:00-18:00; Sa 08:00-15:00,Ford Motor Company,Q44294
39536,h_r_block,H&R Block,,Madison,SD,,US,+1 605-256-4204,https://www.hrblock.com/local-tax-offices/south-dakota/madison/210-n-egan-ave/39536/,,H&R Block,Q5627799
https://locations.oreillyauto.com/sd/madison/check-engine-light-testing-5570.html,oreilly,Your Madison O'Reilly Auto Parts Store,,Madison,SD,,US,+1 605-291-4107,https://locations.oreillyauto.com/sd/madison/check-engine-light-testing-5570.html,Mo-Sa 07:30-20:00; Su 09:00-18:00,O'Reilly Auto Parts,Q7071951
https://locations.oreillyauto.com/sd/madison/wiper-installation-5570.html,oreilly,Your Madison O'Reilly Auto Parts Store,,Madison,SD,,US,+1 605-291-4107,https://locations.oreillyauto.com/sd/madison/wiper-installation-5570.html,Mo-Sa 07:30-20:00; Su 09:00-18:00,O'Reilly Auto Parts,Q7071951
https://locations.oreillyauto.com/sd/madison/battery-testing-5570.html,oreilly,Your Madison O'Reilly Auto Parts Store,,Madison,SD,,US,+1 605-291-4107,https://locations.oreillyauto.com/sd/madison/battery-testing-5570.html,Mo-Sa 07:30-20:00; Su 09:00-18:00,O'Reilly Auto Parts,Q7071951
https://locations.oreillyauto.com/sd/madison/autopartes-5570.html,oreilly,Tu tienda O'Reilly Auto Parts en Madison,,Madison,SD,,US,+1 605-291-4107,https://locations.oreillyauto.com/sd/madison/autopartes-5570.html,Mo-Sa 07:30-20:00; Su 09:00-18:00,O'Reilly Auto Parts,Q7071951
https://pizzaranch.com/locations/sd/madison/1111-nw-2nd-st,pizza_ranch_us,Pizza Ranch Madison,,Madison,SD,,US,+1 605-256-3333,https://pizzaranch.com/locations/sd/madison/1111-nw-2nd-st,Mo-Su 11:00-21:00,Pizza Ranch,Q7199978
259,scooters_coffee_us,745A Washington,,Madison,SD,,US,+1 605-556-0151,,Mo-Fr 06:00-20:00; Sa-Su 07:00-19:00,Scooter's Coffee,Q117280308
https://restaurants.subway.com/#14913713,subway,Subway,,Madison Lake,SD,,US,+1 605-256-0075,https://restaurants.subway.com/united-states/sd/madison/224-n-washington-avenue,Mo-Fr 07:30-21:00; Sa 09:00-21:00; Su 10:30-21:00,Subway,Q244457
1371369,usps,MADISON,,MADISON,SD,,US,+1 605-256-2035,,Mo-Fr 08:30-16:30; Sa 09:00-11:00,United States Postal Service,Q668687
5704200002,usps_collection_boxes,USPS COLLECTION BOX - BLUE BOX,119 E CENTER ST,MADISON,SD,,US,,,,United States Postal Service,Q668687
5704200003,usps_collection_boxes,USPS COLLECTION BOX - BLUE BOX,119 E CENTER ST,MADISON,SD,,US,,,,United States Postal Service,Q668687
5704200008,usps_collection_boxes,USPS COLLECTION BOX - PO LOBBY,119 E CENTER ST,MADISON,SD,,US,,,,United States Postal Service,Q668687
5704200009,usps_collection_boxes,USPS COLLECTION BOX - BLUE BOX,741 S WASHINGTON AVE,MADISON,SD,,US,,,,United States Postal Service,Q668687
A00000038100,verizon_us,Wireless World - Madison,,MADISON,SD,,US,+1 605-256-9722,https://www.verizon.com/stores/details/south-dakota/madison/wireless-world-madison-1889622/,Mo-Fr 09:00-18:00; Sa 09:00-16:00,Verizon,Q919641
,visa,,,MADISON,SD,,US,,,,,
,visa,,,MADISON,SD,,US,,,,,
,visa,,,MADISON,SD,,US,,,,,
,visa,,,MADISON,SD,,US,,,,,
,visa,,,MADISON,SD,,US,,,,,
,visa,,,MADISON,SD,,US,,,,,
,visa,,,MADISON,SD,,US,,,,,
,visa,,,MADISON,SD,,US,,,,,
,visa,,,MADISON,SD,,US,,,,,
,visa,,,MADISON,SD,,US,,,,,
,visa,,,MADISON,SD,,US,,,,,
,visa,,,MADISON,SD,,US,,,,,
,visa,,,MADISON,SD,,US,,,,,
,visa,,,MADISON,SD,,US,,,,,
,visa,,,MADISON,SD,,US,,,,,
,visa,,,MADISON,SD,,US,,,,,
,visa,,,MADISON,SD,,US,,,,,
,visa,,,MADISON,SD,,US,,,,,
,visa,,,MADISON,SD,,US,,,,,
,visa,,,MADISON,SD,,US,,,,,
,visa,,,MADISON,SD,,US,,,,,
,visa,,,MADISON,SD,,US,,,,,
,visa,,,MADISON,SD,,US,,,,,
,visa,,,MADISON,SD,,US,,,,,
,visa,,,MADISON,SD,,US,,,,,
,visa,,,MADISON,SD,,US,,,,,
,visa,,,MADISON,SD,,US,,,,,
,visa,,,MADISON,SD,,US,,,,,
200__N__EGAN__AVE_MADISON_SD_57042,wellsfargo,Wells Fargo,200 N EGAN AVE,MADISON,SD,,US,+1 605-256-4551,https://www.wellsfargo.com/locator/bank/200__N__EGAN__AVE_MADISON_SD_57042/,Mo-Fr 09:00-17:00,Wells Fargo,Q744149
