Ref,Spider,Name,Address,City,State,Zipcode,Country,Phone,Website,Hours,Brand,WikiData
1052506,alamo,Milwaukee Mitchell International Airport,,Milwaukee,WI,,US,+1 833-571-5615,,,ALAMO,Q1429287
/locations/propane-offices/wisconsin/milwaukee/6034-south-howell-ave,amerigas,"AmerGas Propane | Milwaukee, Wisconsin",,Milwaukee,WI,,US,+1 414-483-3341,/locations/propane-offices/wisconsin/milwaukee/6034-south-howell-ave,,AmeriGas,Q23130318
https://locations.auntieannes.com/#6009,auntie_annes,Auntie Anne's Milwaukee Gen Mitchell Int'l Airport - Concourse C,,Milwaukee,WI,,US,+1 414-481-9411,https://locations.auntieannes.com/wi/milwaukee/5300-s-howell-ave,Mo-Su 05:30-20:00,Auntie Anne's,Q4822010
4498,autozone_us,AutoZone Auto Parts Milwaukee,,Milwaukee,WI,,US,+1 414-615-9049,https://www.autozone.com/locations/wi/milwaukee/145-w-oklahoma-ave.html,Mo-Sa 07:30-21:00; Su 08:00-20:00,AutoZone,Q4826087
https://www.avis.com/en/locations/us/wi/milwaukee/mke,avis,Avis U S A Milwaukee Airport,,Milwaukee,WI,,US,+1 414-482-8345,https://www.avis.com/en/locations/us/wi/milwaukee/mke,Mo-Th 07:00-00:00; Fr 07:00-22:00; Sa 07:00-20:00; Su 07:00-00:00,Avis,Q791136
204935,bluerhino,Bay View Quick Mart,,Milwaukee,WI,,US,+1 414-481-0933,,,Blue Rhino,Q65681213
169681,bluerhino,Pick N' Save #6878,,Milwaukee,WI,,US,+1 414-294-2144,,,Blue Rhino,Q65681213
73417,bluerhino,Speedway #4025,,Milwaukee,WI,,US,+1 414-481-6550,,,Blue Rhino,Q65681213
155734,bluerhino,Walgreens #649,,Milwaukee,WI,,US,+1 414-482-1470,,,Blue Rhino,Q65681213
66637,bluerhino,Milwaukee,,Milwaukee,WI,,US,+1 414-483-0071,,,Blue Rhino,Q65681213
155735,bluerhino,Walgreens #1652,,Milwaukee,WI,,US,+1 414-482-3515,,,Blue Rhino,Q65681213
199256,bluerhino,Airport Vineyard,,Milwaukee,WI,,US,+1 414-455-3133,,,Blue Rhino,Q65681213
73613,bluerhino,Speedway #4604,,Milwaukee,WI,,US,+1 414-483-6242,,,Blue Rhino,Q65681213
73722,bluerhino,Speedway #7510,,Milwaukee,WI,,US,+1 414-762-3071,,,Blue Rhino,Q65681213
57865363007095320700100000000000,bp,BP,,Milwaukee,WI,,US,+1 414-763-2023,,Mo-Su 06:00-22:00,BP,Q152057
32184819752005320700100000000000,bp,BP,,Milwaukee,WI,,US,+1 414-744-8154,,Mo-Su 05:00-24:00,BP,Q152057
65164470337255320700100000000000,bp,BP,,Milwaukee,WI,,US,+1 414-831-2650,,24/7,BP,Q152057
20339056082035320700100000000000,bp,BP,,Milwaukee,WI,,US,+1 414-482-2662,,24/7,BP,Q152057
128592,bp,BP,,Milwaukee,WI,,US,+1 414-769-6866,,,BP,Q152057
11779820787595320700100000000000,bp,Amoco,,Milwaukee,WI,,US,+1 414-747-9265,,Mo-Th 06:00-21:00; Fr-Sa 06:00-22:00; Su 06:00-21:00,BP,Q152057
62689378490235320700100000000000,bp,BP,,Milwaukee,WI,,US,+1 414-294-3386,,24/7,BP,Q152057
701.032.0060,chilis,Milwaukee Airport,,Milwaukee,WI,,US,+1 414-747-5252,https://www.chilis.com/locations/us/wisconsin/milwaukee/milwaukee-airport/,Mo-Fr 05:00-21:00; Sa 05:00-19:30; Su 05:00-21:00,Chili's,Q1072948
https://locations.chuckecheese.com/us/wi/milwaukee/2701-chase-ave.,chuckecheese,Chuck E. Cheese,,Milwaukee,WI,,US,+1 414-483-8655,https://locations.chuckecheese.com/us/wi/milwaukee/2701-chase-ave.,Mo-Th 11:00-21:00; Fr 11:00-22:00; Sa 10:00-22:00; Su 11:00-21:00,Chuck E. Cheese,Q2438391
76619,citi,ATM Speedway,,Milwaukee,WI,,US,,,,Citibank,Q857063
79126,citi,ATM Speedway,,Milwaukee,WI,,US,,,,Citibank,Q857063
55612,citi,ATM FIRST FED SAV BK OF WI,,Milwaukee,WI,,US,,,,Citibank,Q857063
58188,citi,ATM Gingerz Sportz Pub & Grill,,Milwaukee,WI,,US,,,,Citibank,Q857063
90574,citi,ATM Walgreens,,Milwaukee,WI,,US,,,,Citibank,Q857063
90053,citi,ATM Walgreens,,Milwaukee,WI,,US,,,,Citibank,Q857063
78092,citi,ATM Speedway,,Milwaukee,WI,,US,,,,Citibank,Q857063
82246,citi,ATM Target,,Milwaukee,WI,,US,,,,Citibank,Q857063
3ac25820-4ba8-49a5-8157-fd38927175fc,concentra_us,Airport Milwaukee,,Milwaukee,WI,,US,,https://www.concentra.com/urgent-care-centers/wisconsin/milwaukee/airport-milwaukee-urgent-care/,,Concentra,Q5158304
6044,cousins_subs_us,St. Francis - E. Layton Ave. & Penn. Ave.,,St. Francis,WI,,US,+1 414-481-8700,https://www.cousinssubs.com/order/cousins-subs-st-francis-e-layton-ave,,Cousins Subs,Q5178843
8302,cousins_subs_us,Milwaukee - 6th & Layton,,Milwaukee,WI,,US,+1 414-294-5633,https://www.cousinssubs.com/order/cousins-subs-milwaukee-6th-layton,,Cousins Subs,Q5178843
87235,cousins_subs_us,Milwaukee Airport â€“ Concourse C (Past security checkpoint),,Milwaukee,WI,,US,10000000000,https://www.cousinssubs.com/order/milwaukee-airport-gate-c,,Cousins Subs,Q5178843
,credit_union_us,Brewery CU,,Milwaukee,WI,,US,+1 414-755-0047,,Mo-Fr 10:00-06:00; Sa 09:00-12:00,,
99,culvers_us,"Culver's of Milwaukee, WI - W Layton Ave",,Milwaukee,WI,,US,+1 414-489-7777,http://www.culvers.com/restaurants/milwaukee-layton,Mo-Fr 10:00-22:00; Su 10:00-22:00,Culver's,Q1143589
16059,cvs_us,CVS Pharmacy,,Milwaukee,WI,,US,+1 414-483-1190,https://www.cvs.com/store-locator/milwaukee-wi-pharmacies/2950-s-chase-ave-milwaukee-wi-53207/storeid=16059,"Mo-Fr 09:00-13:30,14:00-19:00; Sa 10:00-13:30,14:00-18:00; Su 11:00-13:30,14:00-17:00",CVS Pharmacy,Q2078880
248084,dennys,Denny's,,Milwaukee,WI,,US,+1 414-744-7101,https://locations.dennys.com/WI/MILWAUKEE/248084,24/7,Denny's,Q1189695
9709,dominos_pizza_us,Domino's Pizza,,Milwaukee,WI,,US,+1 414-533-4000,https://pizza.dominos.com/wisconsin/milwaukee/552-w-layton-ave,Mo-Th 10:30-01:00; Fr-Sa 10:30-02:00; Su 10:30-01:00,Domino's,Q839466
300605,dunkin_us,Dunkin',,Milwaukee,WI,,US,+1 414-815-6743,https://locations.dunkindonuts.com/en/wi/milwaukee/151-w-layton-ave/300605,24/7,Dunkin',Q847743
https://www.edwardjones.com/us-en/financial-advisor/greg-baumgardt,edwardjones,Greg Baumgardt,,Milwaukee,WI,,US,+1 414-294-4034,https://www.edwardjones.com/us-en/financial-advisor/greg-baumgardt,,Edward Jones,Q5343830
E144K2,enterprise,Lake Ferry,,Milwaukee,WI,,US,+1 414-489-2649,,,Enterprise Rent-A-Car,Q17085454
MKET61,enterprise,Milwaukee Mitchell International Airport,,Milwaukee,WI,,US,+1 414-294-5880,,,Enterprise Rent-A-Car,Q17085454
200316641,exxonmobil,Mobil,,MILWAUKEE,WI,,US,,https://www.exxon.com/en/find-station/mobil-milwaukee-wi-mobil-200316641,Mo-Tu 04:00-00:00; We 00:00-24:00; Th-Su 04:00-00:00,Mobil,Q109676002
https://local.fedex.com/#25197851,fedex,,,Milwaukee,WI,,US,+1 800-463-3339,https://local.fedex.com/en-us/wi/milwaukee/tbu22,,FedEx,Q459477
https://local.fedex.com/#25207353,fedex,,,Milwaukee,WI,,US,+1 800-463-3339,https://local.fedex.com/en-us/wi/milwaukee/tbb3t,,FedEx,Q459477
https://local.fedex.com/#492838,fedex,FedEx Ship Center,,Milwaukee,WI,,US,+1 800-463-3339,https://local.fedex.com/en-us/wi/milwaukee/mkea,,FedEx,Q459477
https://www.goldencorral.com/locations/location-detail/2692/golden-corral-west-layton-avenue/,golden_corral,"Golden Corral 2692, Milwaukee, WI",,Milwaukee,WI,,US,+1 414-482-7500,https://www.goldencorral.com/locations/location-detail/2692/golden-corral-west-layton-avenue/,,Golden Corral,Q4039560
36d6bf4c-2083-e211-87d7-0050568924e6,goodwill,Bay View Store,,Milwaukee,WI,,US,+1 414-744-6014,https://www.goodwill.org/locator/location/?store=MzZkNmJmNGMtMjA4My1lMjExLTg3ZDctMDA1MDU2ODkyNGU2&lat=NDIuOTg3MDg=&lng=LTg3LjkxMTE0,,Goodwill,Q5583655
https://salons.greatclips.com/us/wi/milwaukee/260-w-holt-ave,greatclips,Great Clips,,Milwaukee,WI,,US,+1 414-481-9500,https://salons.greatclips.com/us/wi/milwaukee/260-w-holt-ave,Mo-Fr 08:00-19:00; Sa 08:00-17:00; Su 09:00-16:00,Great Clips,Q5598967
mkeaiht-home2-suites-milwaukee-airport,hilton,Home2 Suites by Hilton Milwaukee Airport,,,WI,,US,+1 414-481-2900,https://www.hilton.com/ar/hotels/mkeaiht-home2-suites-milwaukee-airport/,,Home2 Suites by Hilton,Q5887912
30036,huntingtonbank,Holt Plaza,,Milwaukee,WI,,US,+1 414-247-6307,https://www.huntington.com/Community/branch-info?locationId=30036,Mo-Fr 09:00-17:00; Sa 09:00-12:00; Su 00:00-00:00,Huntington Bank,Q798819
https://locations.jimmyjohns.com/wi/milwaukee/sandwiches-1010.html,jimmy_johns,Jimmy John's,,Milwaukee,WI,,US,+1 414-747-9666,https://locations.jimmyjohns.com/wi/milwaukee/sandwiches-1010.html,,Jimmy John's,Q1689380
https://locations.kfc.com/#11247872,kfc,Chicken Nuggets Near Milwaukee,,Milwaukee,WI,,US,,https://locations.kfc.com/wi/milwaukee/110-west-layton-avenue/chickennugget,Mo-Th 11:00-20:00; Fr-Sa 11:00-21:00; Su 11:00-20:00,KFC,Q524757
MKECY,marriott,Courtyard Milwaukee Airport,,Milwaukee,WI,,US,+1 414-747-4405,https://www.marriott.com/MKECY,,Courtyard by Marriott,Q1053170
MKEFA,marriott,Four Points by Sheraton Milwaukee Airport,,Milwaukee,WI,,US,+1 414-481-2400,https://www.marriott.com/MKEFA,,Four Points by Sheraton,Q1439966
2035,mightyflame,HOMETOWN,,MILWAUKEE,WI,,US,+1 414-744-2187,,,Mighty Flame,
74949472,moneygram,MONEY MART - MILWAUKEE,,MILWAUKEE,WI,,US,+1 414-935-2947,,Mo-Fr 09:00-19:00; Sa-Su 09:00-17:00,MoneyGram,Q1944412
1052505,national,Milwaukee General Mitchell National Rent A Car,,Milwaukee,WI,,US,+1 833-571-5614,,,NATIONAL,Q1424142
393,piggly_wiggly_us,Piggly Wiggly,,Milwaukee,WI,,US,+1 414-489-7642,https://www.shopthepig.com/,,Piggly Wiggly,Q3388303
wi_milwaukee_3131-s-kinnickinnic-ave,pizza_hut_us,3131 S Kinnickinnic Ave,,Milwaukee,WI,,US,+1 414-769-1776,https://locations.pizzahut.com/wi/milwaukee/3131-s-kinnickinnic-ave,,Pizza Hut,Q191615
home-depot-4941-13595,ppgpaints,HOME DEPOT 4941,,"Milwaukee, ",WI,,US,+1 414-481-8770,https://www.ppgpaints.com/store-locator/us/wisconsin/milwaukee-paint-stores/home-depot-4941-13595,,PPG Paints,Q83891559
32432,smilebrands,Midwest Dental Milwaukee South,5007 S Howell Ave.,Milwaukee,WI,,US,+1 414-744-3322,https://midwest-dental.com/locations/wisconsin-dental-centers/milwaukee-wi/,,Smile Brands Inc.,Q108286823
2169,snap_fitness,"Bay View, WI",2450 S Kinnickinnic Ave,Milwaukee,WI,,US,+1 414-486-7627,https://www.snapfitness.com/us/gyms/bay-view-wi,24/7,Snap Fitness,Q7547254
https://restaurants.subway.com/#14895725,subway,Subway Bp Gas Station/C-Store,,Milwaukee Milwaukee,WI,,US,+1 414-744-6111,https://restaurants.subway.com/united-states/wi/milwaukee/4709-s-howell-ave,Mo-Fr 07:00-21:30; Sa 07:00-22:00; Su 09:00-20:30,Subway,Q244457
https://restaurants.subway.com/#14913895,subway,Subway Chase Plaza,,Milwaukee Milwaukee,WI,,US,+1 414-744-2770,https://restaurants.subway.com/united-states/wi/milwaukee/2970-south-chase-avenue,Mo-Sa 09:00-21:00; Su 09:00-20:00,Subway,Q244457
https://restaurants.subway.com/#14915041,subway,Subway,,Bay View Milwaukee,WI,,US,+1 414-502-2001,https://restaurants.subway.com/united-states/wi/bay-view/2915-s-kinnickinnic-ave,Mo-Fr 09:00-21:00; Sa-Su 10:00-20:00,Subway,Q244457
https://locations.tacobell.com/#6145055,taco_bell,Taco Bell,,Milwaukee,WI,,US,+1 414-747-0580,https://locations.tacobell.com/wi/milwaukee/230-w-layton-ave-.html,Mo-Th 07:00-02:00; Fr-Sa 07:00-04:00; Su 07:00-02:00,Taco Bell,Q752941
https://locations.tacobell.com/#6146207,taco_bell,Taco Bell,,Milwaukee,WI,,US,+1 414-383-6449,https://locations.tacobell.com/wi/milwaukee/150-w-holt-ave.html,Mo 12:00-22:00; Tu-Su 09:00-22:00,Taco Bell,Q752941
632023,taco_johns_us,Milwaukee - NOW OPEN,"4650 S. 5th Street, Milwaukee WI 53207",Milwaukee,WI,,US,+1 414-285-5069,https://locations.tacojohns.com/wi/milwaukee/4650-5th-street/,Mo-Sa 06:00-22:00; Su 07:00-22:00,Taco John's,Q7673962
599E,tmobile_us,W Oklahoma & S Chase Ave,,Milwaukee,WI,,US,+1 414-269-2020,https://www.t-mobile.com/store-locator/wi/milwaukee/w-oklahoma-s-chase-ave,,T-Mobile,Q3511885
016792,uhaul,Super 8,5253 S Howell Ave,Milwaukee,WI,,US,+1 414-982-3849,,Tu 30:00-23:00; We 00:00-17:00; Th 00:00-23:00; Fr-Sa 00:00-18:00,U-Haul,Q7862902
030043,uhaul,BP On Clement,1203 E Oklahoma Ave,Milwaukee,WI,,US,+1 262-649-8654,,Mo-Fr 00:00-16:00; Sa 00:00-16:00; Su 00:00-18:00,U-Haul,Q7862902
038791,uhaul,Devon Self Storage Holdings,2922 S 5th Crt,Milwaukee,WI,,US,+1 414-744-7088,,Mo-Fr 00:00-17:00; Sa 30:00-16:00,U-Haul,Q7862902
1438296,usps,AMC RETAIL CENTER,,MILWAUKEE,WI,,US,+1 414-481-0272,,Mo-Fr 08:00-22:00; Sa 08:00-20:00; Su 10:00-18:00,United States Postal Service,Q668687
1354251,usps,BAY VIEW SAINT FRANCIS,,MILWAUKEE,WI,,US,+1 414-481-0204,,Mo-Fr 08:00-17:00; Sa 09:00-12:00,United States Postal Service,Q668687
5320700059,usps_collection_boxes,USPS COLLECTION BOX - BLUE BOX,1775 E BOLIVAR AVE,MILWAUKEE,WI,,US,,,,United States Postal Service,Q668687
5320700098,usps_collection_boxes,USPS COLLECTION BOX - PO LOBBY,1603 E OKLAHOMA AVE,MILWAUKEE,WI,,US,,,,United States Postal Service,Q668687
5320700004,usps_collection_boxes,USPS COLLECTION BOX - BLUE BOX,401 E LINCOLN AVE,MILWAUKEE,WI,,US,,,,United States Postal Service,Q668687
5320700010,usps_collection_boxes,USPS COLLECTION BOX - BLUE BOX,1009 E RUSSELL AVE,MILWAUKEE,WI,,US,,,,United States Postal Service,Q668687
5320700089,usps_collection_boxes,USPS COLLECTION BOX - PO LOBBY,1603 E OKLAHOMA AVE,MILWAUKEE,WI,,US,,,,United States Postal Service,Q668687
5320700091,usps_collection_boxes,USPS COLLECTION BOX - PO LOBBY,1603 E OKLAHOMA AVE,MILWAUKEE,WI,,US,,,,United States Postal Service,Q668687
5320700023,usps_collection_boxes,USPS COLLECTION BOX - BLUE BOX,2701 S HOWELL AVE,MILWAUKEE,WI,,US,,,,United States Postal Service,Q668687
5320700061,usps_collection_boxes,USPS COLLECTION BOX - BLUE BOX,3598 S CLEMENT AVE,MILWAUKEE,WI,,US,,,,United States Postal Service,Q668687
5320700072,usps_collection_boxes,USPS COLLECTION BOX - BLUE BOX,801 E HOWARD AVE,MILWAUKEE,WI,,US,,,,United States Postal Service,Q668687
5320700031,usps_collection_boxes,USPS COLLECTION BOX - BLUE BOX,3701 S HOWELL AVE,MILWAUKEE,WI,,US,,,,United States Postal Service,Q668687
5320700044,usps_collection_boxes,USPS COLLECTION BOX - BLUE BOX,5300 S HOWELL AVE,MILWAUKEE,WI,,US,,,,United States Postal Service,Q668687
5320700063,usps_collection_boxes,USPS COLLECTION BOX - BLUE BOX,3400 S 1ST PL,MILWAUKEE,WI,,US,,,,United States Postal Service,Q668687
5320700012,usps_collection_boxes,USPS COLLECTION BOX - BLUE BOX,4015 S HOWELL AVE,MILWAUKEE,WI,,US,,,,United States Postal Service,Q668687
5320700037,usps_collection_boxes,USPS COLLECTION BOX - BLUE BOX,131 W LAYTON AVE,MILWAUKEE,WI,,US,,,,United States Postal Service,Q668687
,visa,,,MILWAUKEE,WI,,US,,,,,
,visa,,,MILWAUKEE,WI,,US,,,,,
,visa,,,MILWAUKEE,WI,,US,,,,,
,visa,,,MILWAUKEE,WI,,US,,,,,
,visa,,,MILWAUKEE,WI,,US,,,,,
,visa,,,MILWAUKEE,WI,,US,,,,,
,visa,,,MILWAUKEE,WI,,US,,,,,
,visa,,,MILWAUKEE,WI,,US,,,,,
,visa,,,MILWAUKEE,WI,,US,,,,,
,visa,,,MILWAUKEE,WI,,US,,,,,
,visa,,,MILWAUKEE,WI,,US,,,,,
,visa,,,MILWAUKEE,WI,,US,,,,,
,visa,,,MILWAUKEE,WI,,US,,,,,
,visa,,,MILWAUKEE,WI,,US,,,,,
,visa,,,MILWAUKEE,WI,,US,,,,,
,visa,,,MILWAUKEE,WI,,US,,,,,
,visa,,,MILWAUKEE,WI,,US,,,,,
,visa,,,MILWAUKEE,WI,,US,,,,,
,visa,,,MILWAUKEE,WI,,US,,,,,
,visa,,,MILWAUKEE,WI,,US,,,,,
,visa,,,MILWAUKEE,WI,,US,,,,,
,visa,,,MILWAUKEE,WI,,US,,,,,
,visa,,,MILWAUKEE,WI,,US,,,,,
,visa,,,MILWAUKEE,WI,,US,,,,,
,visa,,,MILWAUKEE,WI,,US,,,,,
,visa,,,MILWAUKEE,WI,,US,,,,,
,visa,,,MILWAUKEE,WI,,US,,,,,
,visa,,,MILWAUKEE,WI,,US,,,,,
,visa,,,MILWAUKEE,WI,,US,,,,,
,visa,,,MILWAUKEE,WI,,US,,,,,
,visa,,,MILWAUKEE,WI,,US,,,,,
,visa,,,MILWAUKEE,WI,,US,,,,,
,visa,,,MILWAUKEE,WI,,US,,,,,
,visa,,,MILWAUKEE,WI,,US,,,,,
,visa,,,MILWAUKEE,WI,,US,,,,,
,visa,,,MILWAUKEE,WI,,US,,,,,
,visa,,,MILWAUKEE,WI,,US,,,,,
,visa,,,MILWAUKEE,WI,,US,,,,,
,visa,,,MILWAUKEE,WI,,US,,,,,
,visa,,,MILWAUKEE,WI,,US,,,,,
,visa,,,MILWAUKEE,WI,,US,,,,,
,visa,,,MILWAUKEE,WI,,US,,,,,
,visa,,,MILWAUKEE,WI,,US,,,,,
,visa,,,MILWAUKEE,WI,,US,,,,,
,visa,,,MILWAUKEE,WI,,US,,,,,
,visa,,,MILWAUKEE,WI,,US,,,,,
,visa,,,MILWAUKEE,WI,,US,,,,,
,visa,,,MILWAUKEE,WI,,US,,,,,
,visa,,,MILWAUKEE,WI,,US,,,,,
,visa,,,MILWAUKEE,WI,,US,,,,,
,visa,,,MILWAUKEE,WI,,US,,,,,
,visa,,,MILWAUKEE,WI,,US,,,,,
,visa,,,MILWAUKEE,WI,,US,,,,,
,visa,,,MILWAUKEE,WI,,US,,,,,
,visa,,,MILWAUKEE,WI,,US,,,,,
,visa,,,MILWAUKEE,WI,,US,,,,,
,visa,,,MILWAUKEE,WI,,US,,,,,
,visa,,,MILWAUKEE,WI,,US,,,,,
,visa,,,MILWAUKEE,WI,,US,,,,,
,visa,,,MILWAUKEE,WI,,US,,,,,
,visa,,,MILWAUKEE,WI,,US,,,,,
,visa,,,MILWAUKEE,WI,,US,,,,,
,visa,,,MILWAUKEE,WI,,US,,,,,
,visa,,,MILWAUKEE,WI,,US,,,,,
,visa,,,MILWAUKEE,WI,,US,,,,,
,visa,,,MILWAUKEE,WI,,US,,,,,
,visa,,,MILWAUKEE,WI,,US,,,,,
,visa,,,MILWAUKEE,WI,,US,,,,,
,visa,,,MILWAUKEE,WI,,US,,,,,
,visa,,,MILWAUKEE,WI,,US,,,,,
,visa,,,MILWAUKEE,WI,,US,,,,,
,visa,,,MILWAUKEE,WI,,US,,,,,
,visa,,,MILWAUKEE,WI,,US,,,,,
,visa,,,MILWAUKEE,WI,,US,,,,,
,visa,,,MILWAUKEE,WI,,US,,,,,
,visa,,,MILWAUKEE,WI,,US,,,,,
,visa,,,MILWAUKEE,WI,,US,,,,,
,visa,,,MILWAUKEE,WI,,US,,,,,
,visa,,,MILWAUKEE,WI,,US,,,,,
,visa,,,MILWAUKEE,WI,,US,,,,,
,visa,,,MILWAUKEE,WI,,US,,,,,
,visa,,,MILWAUKEE,WI,,US,,,,,
,visa,,,MILWAUKEE,WI,,US,,,,,
,visa,,,MILWAUKEE,WI,,US,,,,,
,visa,,,MILWAUKEE,WI,,US,,,,,
,visa,,,MILWAUKEE,WI,,US,,,,,
,visa,,,MILWAUKEE,WI,,US,,,,,
,visa,,,MILWAUKEE,WI,,US,,,,,
,visa,,,MILWAUKEE,WI,,US,,,,,
,visa,,,MILWAUKEE,WI,,US,,,,,
,visa,,,MILWAUKEE,WI,,US,,,,,
,visa,,,MILWAUKEE,WI,,US,,,,,
,visa,,,MILWAUKEE,WI,,US,,,,,
,visa,,,MILWAUKEE,WI,,US,,,,,
,visa,,,MILWAUKEE,WI,,US,,,,,
,visa,,,MILWAUKEE,WI,,US,,,,,
,visa,,,MILWAUKEE,WI,,US,,,,,
,visa,,,MILWAUKEE,WI,,US,,,,,
,visa,,,MILWAUKEE,WI,,US,,,,,
,visa,,,MILWAUKEE,WI,,US,,,,,
,visa,,,MILWAUKEE,WI,,US,,,,,
,visa,,,MILWAUKEE,WI,,US,,,,,
,visa,,,MILWAUKEE,WI,,US,,,,,
,visa,,,MILWAUKEE,WI,,US,,,,,
,visa,,,MILWAUKEE,WI,,US,,,,,
,visa,,,MILWAUKEE,WI,,US,,,,,
,visa,,,MILWAUKEE,WI,,US,,,,,
,visa,,,MILWAUKEE,WI,,US,,,,,
,visa,,,MILWAUKEE,WI,,US,,,,,
,visa,,,MILWAUKEE,WI,,US,,,,,
,visa,,,MILWAUKEE,WI,,US,,,,,
,visa,,,MILWAUKEE,WI,,US,,,,,
,visa,,,MILWAUKEE,WI,,US,,,,,
,visa,,,MILWAUKEE,WI,,US,,,,,
,visa,,,MILWAUKEE,WI,,US,,,,,
,visa,,,MUSKEGO,WI,,US,,,,,
,visa,,,MILWAUKEE,WI,,US,,,,,
,visa,,,MILWAUKEE,WI,,US,,,,,
,visa,,,MILWAUKEE,WI,,US,,,,,
,visa,,,MILWAUKEE,WI,,US,,,,,
,visa,,,MILWAUKEE,WI,,US,,,,,
,visa,,,BAYVIEW,WI,,US,,,,,
https://www.walgreens.com/locator/walgreens-3701+s+howell+ave-milwaukee-wi-53207/id=649,walgreens,Walgreens,,Milwaukee,WI,,US,+1 414-482-1470,https://www.walgreens.com/locator/walgreens-3701+s+howell+ave-milwaukee-wi-53207/id=649,Mo-Su 07:00-23:00,Walgreens,Q1591889
https://www.walgreens.com/locator/walgreens-3109+s+kinnickinnic+ave-milwaukee-wi-53207/id=1652,walgreens,Walgreens,,Milwaukee,WI,,US,+1 414-482-3515,https://www.walgreens.com/locator/walgreens-3109+s+kinnickinnic+ave-milwaukee-wi-53207/id=1652,Mo-Su 07:00-22:00,Walgreens,Q1591889
131__W__LAYTON__AVE__STE__100_MILWAUKEE_WI_53207,wellsfargo,Wells Fargo,131 W LAYTON AVE STE 100,MILWAUKEE,WI,,US,+1 414-482-3801,https://www.wellsfargo.com/locator/bank/131__W__LAYTON__AVE__STE__100_MILWAUKEE_WI_53207/,Mo-Fr 09:00-17:00,Wells Fargo,Q744149
https://locations.wendys.com/#9254136,wendys,"Wendy's Layton Avenue in Milwaukee, WI",,Milwaukee,WI,,US,+1 414-747-4679,https://locations.wendys.com/united-states/wi/milwaukee/580-w-layton-avenue,"Mo-Su 06:30-10:30,09:00-22:00",Wendy's,Q550258
https://locations.wendys.com/#9254134,wendys,"Wendy's 3050 S. Chase in Milwaukee, WI",,Milwaukee,WI,,US,+1 414-744-9160,https://locations.wendys.com/united-states/wi/milwaukee/3050-s-chase,"Mo-Su 06:30-10:30,09:00-22:00",Wendy's,Q550258
61da192cff42753067a7610ab263ba6a,western_union,PICK 'N SAVE #878,,Milwaukee,WI,,US,+1 414-294-2144,https://location.westernunion.com/us/wi/milwaukee/61da192cff42753067a7610ab263ba6a,Mo-Su 08:00-22:00,Western Union,Q861042
