Ref,Spider,Name,Address,City,State,Zipcode,Country,Phone,Website,Hours,Brand,WikiData
https://stores.advanceautoparts.com/pa/carnegie/1011-washington-ave,advance_auto_parts_us,Advance Auto Parts,,Carnegie,PA,,US,+1 412-276-4260,https://stores.advanceautoparts.com/pa/carnegie/1011-washington-ave,Mo-Sa 07:30-21:00; Su 08:00-20:00,Advance Auto Parts,Q4686051
https://stores.aldi.us/#4421144,aldi_sud_us,ALDI  1160 Washington Avenue,,Carnegie,PA,,US,+1 855-955-2534,https://stores.aldi.us/pa/carnegie/1160-washington-avenue,"Mo-Su 08:30-20:00,09:00-20:00",ALDI,Q41171672
78151,bluerhino,Walmart #5040,,Carnegie,PA,,US,+1 412-429-1285,,,Blue Rhino,Q65681213
101905,bluerhino,Lowe's #2417,,Carnegie,PA,,US,+1 412-200-3101,,,Blue Rhino,Q65681213
153513,bluerhino,Walgreens #09950,,Carnegie,PA,,US,+1 412-429-3601,,,Blue Rhino,Q65681213
214284,bluerhino,Marathon Gas,,Heidelberg,PA,,US,+1 412-276-8155,,,Blue Rhino,Q65681213
160629,bluerhino,GetGo #3205,,Carnegie,PA,,US,+1 412-276-6107,,,Blue Rhino,Q65681213
160737,bluerhino,GetGo #3705,,Carnegie,PA,,US,+1 412-276-0925,,,Blue Rhino,Q65681213
25022016173651510600100000000000,bp,BP,,CARNEGIE,PA,,US,+1 281-222-6472,,Mo-Su 06:00-23:00,BP,Q152057
67589498,chase_us,DU ISLAND - 875408,,CARNEGIE,PA,,US,+1 800-935-9935,https://locator.chase.com/pa/carnegie/2200-washington-pike,,Chase,Q524629
88794,citi,ATM Walgreens,,Carnegie,PA,,US,,,,Citibank,Q857063
76393,citi,ATM SOUTHWEST COMMUNITIES FEDERAL CREDIT UNI,,Carnegie,PA,,US,,,,Citibank,Q857063
50826,citi,ATM CVS,,Carnegie,PA,,US,,,,Citibank,Q857063
060812,citizens_us,Citizens Carnegie,,Carnegie,PA,,US,+1 412-276-4100,,Mo-Th 09:00-16:00; Fr 09:00-17:00,Citizens,Q5122694
ATM-293,citizens_us,,,Carnegie,PA,,US,+1 412-276-4100,,24/7,Citizens,Q5122694
ATM-2021,citizens_us,,,Carnegie,PA,,US,,,,Citizens,Q5122694
3999,cvs_us,CVS Pharmacy,,Carnegie,PA,,US,+1 412-279-5020,https://www.cvs.com/store-locator/carnegie-pa-pharmacies/401-chestnut-st-carnegie-pa-15106/storeid=3999,Mo-Th 08:00-22:00; Fr-Sa 08:00-23:00; Su 08:00-22:00,CVS Pharmacy,Q2078880
362852,dunkin_us,Dunkin',,Carnegie,PA,,US,+1 412-248-8554,https://locations.dunkindonuts.com/en/pa/carnegie/500-east-main-street/362852,Mo-Su 05:00-21:00,Dunkin',Q847743
Motorcraft3156USAEnglish,ford,"Woltz & Wind Ford, Inc.",,Pennsylvania,PA,,US,+1 412-279-4551,,,Ford,Q44294
https://www.ford.com/dealerships/dealer-details/pa/heidelberg/woltz-&-wind-ford-inc/,ford_dealers_us,"Woltz & Wind Ford, Inc.",,Heidelberg,PA,,US,+1 412-810-6353,https://www.ford.com/dealerships/dealer-details/pa/heidelberg/woltz-&-wind-ford-inc/,Mo-Th 09:00-19:00; Fr 09:00-17:30; Sa 09:00-16:00,Ford Motor Company,Q44294
3705,gianteagle,Carnegie Parkway GetGo,,Carnegie,PA,,US,+1 412-276-0925,,24/7,Giant Eagle,Q1522721
3205,gianteagle,Carnegie Parkway GetGo,,Carnegie,PA,,US,+1 412-276-6107,,24/7,Giant Eagle,Q1522721
b08c8691-da13-e411-afbc-0050568924e6,goodwill,Heidelberg Outlet,,Heidelberg,PA,,US,+1 412-249-8748,https://www.goodwill.org/locator/location/?store=YjA4Yzg2OTEtZGExMy1lNDExLWFmYmMtMDA1MDU2ODkyNGU2&lat=NDAuMzg4MzE=&lng=LTgwLjA4ODI2,,Goodwill,Q5583655
36767,h_r_block,H&R Block,,Heidelberg,PA,,US,+1 412-276-8703,https://www.hrblock.com/local-tax-offices/pennsylvania/heidelberg/raceway-plaza/36767/,,H&R Block,Q5627799
https://office.jacksonhewitt.com/#27579029,jackson_hewitt,Jackson Hewitt,,Carnegie,PA,,US,+1 412-533-9195,https://office.jacksonhewitt.com/tax-preparation-services-locations/en/pa/carnegie/1063-washington-avenue/19899,Mo-We 09:00-17:00; Th-Fr 11:00-19:00; Sa 09:00-17:00; Su 12:00-16:00,Jackson Hewitt,Q6117132
157895,marathon_petroleum_us,KNORRS AUTOMOTIVE,,CARNEGIE,PA,,US,+1 412-276-6464,,,Marathon,Q458363
158931,marathon_petroleum_us,Marathon,,HEIDELBERG,PA,,US,+1 412-276-8155,,,Marathon,Q458363
https://locations.oreillyauto.com/pa/heidelberg/check-engine-light-testing-5296.html,oreilly,Your Heidelberg O'Reilly Auto Parts Store,,Heidelberg,PA,,US,+1 412-506-6350,https://locations.oreillyauto.com/pa/heidelberg/check-engine-light-testing-5296.html,Mo-Sa 07:30-20:00; Su 09:00-19:00,O'Reilly Auto Parts,Q7071951
https://locations.oreillyauto.com/pa/heidelberg/wiper-installation-5296.html,oreilly,Your Heidelberg O'Reilly Auto Parts Store,,Heidelberg,PA,,US,+1 412-506-6350,https://locations.oreillyauto.com/pa/heidelberg/wiper-installation-5296.html,Mo-Sa 07:30-20:00; Su 09:00-19:00,O'Reilly Auto Parts,Q7071951
https://locations.oreillyauto.com/pa/heidelberg/battery-testing-5296.html,oreilly,Your Heidelberg O'Reilly Auto Parts Store,,Heidelberg,PA,,US,+1 412-506-6350,https://locations.oreillyauto.com/pa/heidelberg/battery-testing-5296.html,Mo-Sa 07:30-20:00; Su 09:00-19:00,O'Reilly Auto Parts,Q7071951
https://locations.oreillyauto.com/pa/heidelberg/autopartes-5296.html,oreilly,Tu tienda O'Reilly Auto Parts en Heidelberg,,Heidelberg,PA,,US,+1 412-506-6350,https://locations.oreillyauto.com/pa/heidelberg/autopartes-5296.html,Mo-Sa 07:30-20:00; Su 09:00-19:00,O'Reilly Auto Parts,Q7071951
058944,penske,Carnegie Motors,,CARNEGIE,PA,,US,+1 412-221-7570,https://www.pensketruckrental.com/locations/us/pennsylvania/carnegie/058944/,,Penske,Q81234570
ppg-paints-9785-22120,ppgpaints,PPG Paints 9785,,"Carnegie, ",PA,,US,+1 412-276-1922,https://www.ppgpaints.com/store-locator/us/pennsylvania/carnegie-paint-stores/ppg-paints-9785-22120,,PPG Paints,Q83891559
8378,regal_nails_us,"Regal Nails, Salon &#038; Spa",2200 Washington Pike,Carnegie,PA,,US,+1 412-276-1995,,,Regal Nails,Q108918028
https://restaurants.subway.com/#14916486,subway,Subway Wal-Mart #5040,,Carnegie Allegheny,PA,,US,+1 412-200-2930,https://restaurants.subway.com/united-states/pa/carnegie/2200-washington-pike,Mo-Sa 09:00-21:00; Su 09:00-20:00,Subway,Q244457
https://restaurants.subway.com/#14908331,subway,Subway,,Carnegie Allegheny,PA,,US,+1 412-429-7730,https://restaurants.subway.com/united-states/pa/carnegie/1160-washington-ave,Mo-Sa 09:00-21:30; Su 09:00-20:00,Subway,Q244457
0055755300,sunoco_us,Sunoco,,CARNEGIE,PA,,US,,,Mo-Sa 06:00-21:00; Su 08:00-16:00,Sunoco,Q1423218
1357069,usps,CARNEGIE,,CARNEGIE,PA,,US,+1 412-276-2487,,Mo-Fr 08:30-16:30; Sa 09:00-12:00,United States Postal Service,Q668687
1510600014,usps_collection_boxes,USPS COLLECTION BOX - BLUE BOX,645 LINDSAY RD,CARNEGIE,PA,,US,,,,United States Postal Service,Q668687
1510600013,usps_collection_boxes,USPS COLLECTION BOX - BLUE BOX,401 LINDSAY RD,CARNEGIE,PA,,US,,,,United States Postal Service,Q668687
1510600012,usps_collection_boxes,USPS COLLECTION BOX - BLUE BOX,301 LINDSAY RD,CARNEGIE,PA,,US,,,,United States Postal Service,Q668687
1510600016,usps_collection_boxes,USPS COLLECTION BOX - BLUE BOX,2100 OLD WASHINGTON PIKE,CARNEGIE,PA,,US,,,,United States Postal Service,Q668687
1510600017,usps_collection_boxes,USPS COLLECTION BOX - BLUE BOX,1631 E RAILROAD ST,CARNEGIE,PA,,US,,,,United States Postal Service,Q668687
1510600038,usps_collection_boxes,USPS COLLECTION BOX - BLUE BOX,1 KEYSTONE DR,CARNEGIE,PA,,US,,,,United States Postal Service,Q668687
1510600037,usps_collection_boxes,USPS COLLECTION BOX - BLUE BOX,1100 WASHINGTON AVE,CARNEGIE,PA,,US,,,,United States Postal Service,Q668687
1510600053,usps_collection_boxes,USPS COLLECTION BOX - BLUE BOX,1100 WASHINGTON AVE,CARNEGIE,PA,,US,,,,United States Postal Service,Q668687
1510600058,usps_collection_boxes,USPS COLLECTION BOX - BLUE BOX,1 VETERANS WAY REAR,CARNEGIE,PA,,US,,,,United States Postal Service,Q668687
1510600059,usps_collection_boxes,USPS COLLECTION BOX - BLUE BOX,200 3RD AVE,CARNEGIE,PA,,US,,,,United States Postal Service,Q668687
1510600022,usps_collection_boxes,USPS COLLECTION BOX - BLUE BOX,900 WASHINGTON AVE,CARNEGIE,PA,,US,,,,United States Postal Service,Q668687
1510600025,usps_collection_boxes,USPS COLLECTION BOX - BLUE BOX,4 W MAIN ST,CARNEGIE,PA,,US,,,,United States Postal Service,Q668687
1510600048,usps_collection_boxes,USPS COLLECTION BOX - BLUE BOX,4 W MAIN ST,CARNEGIE,PA,,US,,,,United States Postal Service,Q668687
1510600039,usps_collection_boxes,USPS COLLECTION BOX - BLUE BOX,139 E MAIN ST,CARNEGIE,PA,,US,,,,United States Postal Service,Q668687
1510600049,usps_collection_boxes,USPS COLLECTION BOX - PO LOBBY,139 E MAIN ST,CARNEGIE,PA,,US,,,,United States Postal Service,Q668687
1510600061,usps_collection_boxes,USPS COLLECTION BOX - BLUE BOX,400 LYDIA ST,CARNEGIE,PA,,US,,,,United States Postal Service,Q668687
1510600063,usps_collection_boxes,USPS COLLECTION BOX - PO LOBBY,139 E MAIN ST,CARNEGIE,PA,,US,,,,United States Postal Service,Q668687
1510600024,usps_collection_boxes,USPS COLLECTION BOX - BLUE BOX,509 E MAIN ST,CARNEGIE,PA,,US,,,,United States Postal Service,Q668687
1510600004,usps_collection_boxes,USPS COLLECTION BOX - BLUE BOX,102 BROADWAY ST,CARNEGIE,PA,,US,,,,United States Postal Service,Q668687
1510600057,usps_collection_boxes,USPS COLLECTION BOX - BLUE BOX,555 N BELL AVE,CARNEGIE,PA,,US,,,,United States Postal Service,Q668687
1510600042,usps_collection_boxes,USPS COLLECTION BOX - BLUE BOX,600 N BELL AVE BLDG 2,CARNEGIE,PA,,US,,,,United States Postal Service,Q668687
1510600003,usps_collection_boxes,USPS COLLECTION BOX - BLUE BOX,600 N BELL AVE,CARNEGIE,PA,,US,,,,United States Postal Service,Q668687
1510600028,usps_collection_boxes,USPS COLLECTION BOX - BLUE BOX,800 BELL AVE BLDG 6,CARNEGIE,PA,,US,,,,United States Postal Service,Q668687
,visa,,,MONROEVILLE,PA,,US,,,,,
,visa,,,CARNEGIE,PA,,US,,,,,
,visa,,,CARNEGIE,PA,,US,,,,,
,visa,,,CARNEGIE,PA,,US,,,,,
,visa,,,CARNEGIE,PA,,US,,,,,
,visa,,,CARNEGIE,PA,,US,,,,,
,visa,,,CARNEGIE,PA,,US,,,,,
,visa,,,CARNEGIE,PA,,US,,,,,
,visa,,,CARNEGIE,PA,,US,,,,,
,visa,,,CARNEGIE,PA,,US,,,,,
,visa,,,CARNEGIE,PA,,US,,,,,
,visa,,,CARNEGIE,PA,,US,,,,,
,visa,,,CARNEGIE,PA,,US,,,,,
,visa,,,CARNEGIE,PA,,US,,,,,
,visa,,,CARNEGIE,PA,,US,,,,,
,visa,,,CARNEGIE,PA,,US,,,,,
,visa,,,CARNEGIE,PA,,US,,,,,
,visa,,,CARNEGIE,PA,,US,,,,,
,visa,,,CARNEGIE,PA,,US,,,,,
,visa,,,CARNEGIE,PA,,US,,,,,
,visa,,,CARNEGIE,PA,,US,,,,,
,visa,,,CARNEGIE,PA,,US,,,,,
,visa,,,CARNEGIE,PA,,US,,,,,
,visa,,,CARNEGIE,PA,,US,,,,,
,visa,,,CARNEGIE,PA,,US,,,,,
,visa,,,CARNEGIE,PA,,US,,,,,
,visa,,,CARNEGIE,PA,,US,,,,,
,visa,,,CARNEGIE,PA,,US,,,,,
,visa,,,CARNEGIE,PA,,US,,,,,
,visa,,,CARNEGIE,PA,,US,,,,,
,visa,,,CARNEGIE,PA,,US,,,,,
,visa,,,HEIDELBERG,PA,,US,,,,,
,visa,,,HEIDELBERG,PA,,US,,,,,
,visa,,,CARNEGIE,PA,,US,,,,,
,visa,,,CARNEGIE,PA,,US,,,,,
,visa,,,CARNEGIE,PA,,US,,,,,
,visa,,,CARNEGIE,PA,,US,,,,,
,visa,,,CARNEGIE,PA,,US,,,,,
,visa,,,CARNEGIE,PA,,US,,,,,
,visa,,,CARNEGIE,PA,,US,,,,,
,visa,,,CARNEGIE,PA,,US,,,,,
,visa,,,CARNEGIE,PA,,US,,,,,
,visa,,,CARNEGIE,PA,,US,,,,,
,visa,,,CARNEGIE,PA,,US,,,,,
,visa,,,CARNERGIE,PA,,US,,,,,
,visa,,,CARNERGIE,PA,,US,,,,,
,visa,,,HEIDELBERG,PA,,US,,,,,
,visa,,,PITTSBURGH,PA,,US,,,,,
,visa,,,CARNEGIE,PA,,US,,,,,
,visa,,,HEIDELBERG,PA,,US,,,,,
,visa,,,CARNEGIE,PA,,US,,,,,
,visa,,,CARNEGIE,PA,,US,,,,,
,visa,,,CARNEGIE,PA,,US,,,,,
,visa,,,CARNEGIE,PA,,US,,,,,
,visa,,,CARNEGIE,PA,,US,,,,,
,visa,,,CARNEGIE,PA,,US,,,,,
,visa,,,HEIDELBERG,PA,,US,,,,,
,visa,,,CARNEGIE,PA,,US,,,,,
,visa,,,CARNEGIE,PA,,US,,,,,
,visa,,,CARNEGIE,PA,,US,,,,,
,visa,,,CARNEGIE,PA,,US,,,,,
,visa,,,CARNEGIE,PA,,US,,,,,
,visa,,,CARNEGIE,PA,,US,,,,,
,visa,,,CARNEGIE,PA,,US,,,,,
,visa,,,CARNEGIE,PA,,US,,,,,
,visa,,,CARNEGIE,PA,,US,,,,,
,visa,,,CARNEGIE,PA,,US,,,,,
,visa,,,CARNEGIE,PA,,US,,,,,
,visa,,,CARNEGIE,PA,,US,,,,,
,visa,,,PITTSBURGH,PA,,US,,,,,
,visa,,,CORAOPOLIS,PA,,US,,,,,
https://www.walgreens.com/locator/walgreens-2055+old+washington+pike-carnegie-pa-15106/id=9950,walgreens,Walgreens,,Carnegie,PA,,US,+1 412-429-3601,https://www.walgreens.com/locator/walgreens-2055+old+washington+pike-carnegie-pa-15106/id=9950,Mo-Su 08:00-21:00,Walgreens,Q1591889
fbbf6e2d159c5be71ea678729e4a8071,western_union,WALMART #005040,,Carnegie,PA,,US,+1 412-429-1285,https://location.westernunion.com/us/pa/carnegie/fbbf6e2d159c5be71ea678729e4a8071,Mo-Su 07:00-21:00,Western Union,Q861042
