Ref,Spider,Name,Address,City,State,Zipcode,Country,Phone,Website,Hours,Brand,WikiData
https://stores.advanceautoparts.com/pa/moon-township/6658-university-blvd,advance_auto_parts_us,Advance Auto Parts,,Moon Township,PA,,US,+1 412-262-2422,https://stores.advanceautoparts.com/pa/moon-township/6658-university-blvd,Mo-Sa 07:30-21:00; Su 08:00-20:00,Advance Auto Parts,Q4686051
https://stores.aldi.us/#18238337,aldi_sud_us,"ALDI  2830 Gracy Ctr.Way,Ste.100",,Moon Township,PA,,US,+1 855-955-2534,https://stores.aldi.us/pa/moon-township/2830-gracy-ctr-wayste-100,Mo-Su 09:00-20:00,ALDI,Q41171672
11913,asics_us,DICK'S Sporting Goods - Coraopolis,345 Court St,Coraopolis,PA,,US,+1 724-273-3400,,,asics,Q327247
https://locations.auntieannes.com/#5319,auntie_annes,Auntie Anne's Pittsburgh Int'l Airport II - Term D,,Pittsburgh,PA,,US,+1 412-472-9089,https://locations.auntieannes.com/pa/pittsburgh/1000-airport-blvd-5319,Mo-Su 09:00-18:00,Auntie Anne's,Q4822010
4622,autozone_us,AutoZone Auto Parts Coraopolis,,Coraopolis,PA,,US,+1 412-299-1207,https://www.autozone.com/locations/pa/coraopolis/6052-university-blvd.html,Mo-Sa 07:30-21:00; Su 09:00-18:00,AutoZone,Q4826087
https://www.avis.com/en/locations/us/pa/coraopolis/y4c,avis,Avis U S A Coraopolis,,Coraopolis,PA,,US,+1 412-262-1602,https://www.avis.com/en/locations/us/pa/coraopolis/y4c,Mo-Fr 08:00-16:00; Sa 08:00-14:00,Avis,Q791136
https://www.avis.com/en/locations/us/pa/coraopolis/uby4c,avis,Avis U S A Coraopolis,,Coraopolis,PA,,US,+1 412-262-1602,https://www.avis.com/en/locations/us/pa/coraopolis/uby4c,Mo-Fr 09:00-15:00,Avis,Q791136
https://local.biglots.com/#13784691,biglots,Big Lots - Coraopolis,,Coraopolis,PA,,US,+1 412-470-6883,https://local.biglots.com/pa/coraopolis/2820-gracy-center-way,Mo 10:00-21:00; Tu-Sa 09:00-21:00; Su 10:00-19:00,Big Lots,Q4905973
160504,bluerhino,Giant Eagle #68,,Coraopolis,PA,,US,+1 412-264-3856,,,Blue Rhino,Q65681213
153662,bluerhino,Walgreens #10917,,Moon Township,PA,,US,+1 412-269-2501,,,Blue Rhino,Q65681213
160769,bluerhino,Walmart #4644 - Supercenter,,Coraopolis,PA,,US,+1 412-893-0143,,,Blue Rhino,Q65681213
168784,bluerhino,Par Mar #81,,Coraopolis,PA,,US,+1 412-264-6140,,,Blue Rhino,Q65681213
160715,bluerhino,GetGo #3642,,Moon Twp.,PA,,US,+1 412-264-3020,,,Blue Rhino,Q65681213
77503,bluerhino,AAFES - C E Kelly Main Store #1072104,,Coraopolis,PA,,US,+1 412-329-7436,,,Blue Rhino,Q65681213
159323,bluerhino,Busy Beaver #67,,Coraopolis,PA,,US,+1 412-832-1324,,,Blue Rhino,Q65681213
182223,bluerhino,Rossi's Market,,Coraopolis,PA,,US,+1 412-859-3333,,,Blue Rhino,Q65681213
86327_50001,bmw_group,"Caliber Collision Coraopolis, Independent Certified Collision Repair Center of Sewickley BMW",,Coraopolis,PA,,US,+1 412-264-3300,,,BMW,Q26678
46906,bobevans_us,Coraopolis,,Moon Township,PA,,US,+1 412-269-0333,https://www.bobevans.com/locations/coraopolis,Mo-Su 07:00-21:00,Bob Evans,Q4932386
55217257889211510800100000000000,bp,BP,,Coraopolis,PA,,US,+1 412-264-6140,,Mo-Fr 05:00-24:00; Sa 06:00-24:00; Su 06:00-23:00,BP,Q152057
65722173754111510800100000000000,bp,BP,,Coraopolis,PA,,US,+1 412-375-7358,,Mo-Su 05:00-23:00,BP,Q152057
1134-thorn-run-rd-extension,brueggers,Bruegger's Bagels Thorn Run/Moon Township,,Coraopolis,PA,,US,+1 412-264-2243,https://locations.brueggers.com/us/pa/coraopolis/1134-thorn-run-rd-extension,Mo-Su 06:00-14:00,Bruegger's,Q4978656
38,busy_beaver,True Value of Moon Township,1011 Beaver Grade Rd,Moon Township,PA,,US,+1 412-832-1324,https://busybeaver.com/stores/moon-township/,,Busy Beaver,Q108394482
389C,carpet_one_floor_and_home_us,Rusmur Floors Carpet One Floor & Home,,Moon Township,PA,,US,+1 412-262-4707,https://www.rusmurfloors.com/,,Carpet One Floor & Home,Q121335910
10151,chevrolet,"NORTHSTAR CHEVROLET, INC.",,MOON TOWNSHIP,PA,,US,+1 412-264-3325,https://www.northstarchevy.net,Mo-Tu 09:00-20:00; We 09:00-18:00; Th 09:00-20:00; Fr-Sa 09:00-17:30,Chevrolet,Q29570
pa_coraopolis_927-brodhead-rd,chipotle, ,,Coraopolis,PA,,US,+1 412-329-4580,https://locations.chipotle.com/pa/coraopolis/927-brodhead-rd,,Chipotle,Q465751
55140,citi,ATM FedEx Employees Credit Association,,Moon Township,PA,,US,,,,Citibank,Q857063
68719,citi,ATM PNC AT SHEETZ,,Moon Township,PA,,US,,,,Citibank,Q857063
44824,citi,ATM CLEARVIEW FEDERAL CREDIT UNION,,Moon Township,PA,,US,,,,Citibank,Q857063
44823,citi,ATM CLEARVIEW FEDERAL CREDIT UNION,,Moon Township,PA,,US,,,,Citibank,Q857063
44822,citi,ATM CLEARVIEW FEDERAL CREDIT UNION,,Moon Township,PA,,US,,,,Citibank,Q857063
44819,citi,ATM CLEARVIEW FEDERAL CREDIT UNION,,Moon Township,PA,,US,,,,Citibank,Q857063
44821,citi,ATM CLEARVIEW FEDERAL CREDIT UNION,,Moon Township,PA,,US,,,,Citibank,Q857063
44820,citi,ATM CLEARVIEW FEDERAL CREDIT UNION,,Moon Township,PA,,US,,,,Citibank,Q857063
92503,citi,ATM Walgreens,,Moon,PA,,US,,,,Citibank,Q857063
73333,citi,ATM Rite Aid,,Coraopolis,PA,,US,,,,Citibank,Q857063
060850,citizens_us,Citizens Moon,,Coraopolis,PA,,US,+1 412-269-1700,,Mo-Th 09:00-16:00; Fr 09:00-17:00; Sa 09:00-12:00,Citizens,Q5122694
ATM-288,citizens_us,,,Coraopolis,PA,,US,+1 412-262-4714,,,Citizens,Q5122694
ATM-289,citizens_us,,,Coraopolis,PA,,US,+1 412-269-1700,,24/7,Citizens,Q5122694
ATM-320,citizens_us,,,Pittsburgh,PA,,US,+1 412-787-5500,,24/7,Citizens,Q5122694
ATM-2005,citizens_us,,,Coraopolis,PA,,US,,,,Citizens,Q5122694
,credit_union_us,Clearview FCU,,Moon Township,PA,,US,+1 412-269-3011,,Mo-Th 09:00-05:00; Fr 09:00-06:00; Sa 09:00-02:00,,
,credit_union_us,West-Aircomm FCU,,Moon Township,PA,,US,+1 412-264-2613,,Mo-We 09:00-04:45; Th 09:00-06:00; Fr 09:00-04:45,,
80078104,cricket_wireless,Cricket Wireless Authorized Retailer,,Coraopolis,PA,,US,+1 412-264-0144,https://www.cricketwireless.com/stores/ll/US/PA/Coraopolis/1011-4th-Ave,Mo-Sa 10:00-19:00; Su 12:00-17:00,Cricket Wireless,Q5184987
9082,dominos_pizza_us,Domino's Pizza,,Moon Township,PA,,US,+1 724-457-7070,https://pizza.dominos.com/pennsylvania/moon-township/1300-brodhead-road-unit-e,Mo-Th 10:30-01:00; Fr-Sa 10:30-02:00; Su 10:30-01:00,Domino's,Q839466
358009,dunkin_us,Dunkin',,Coraopolis,PA,,US,+1 412-200-2838,https://locations.dunkindonuts.com/en/pa/coraopolis/781-aten-rd/358009,Mo-Su 05:00-21:00,Dunkin',Q847743
357132,dunkin_us,Dunkin',,Coraopolis,PA,,US,+1 412-472-3090,https://locations.dunkindonuts.com/en/pa/coraopolis/pittsburgh-international-airport/357132,Mo-Su 04:30-20:00,Dunkin',Q847743
357131,dunkin_us,Dunkin',,Coraopolis,PA,,US,+1 412-472-0463,https://locations.dunkindonuts.com/en/pa/coraopolis/pittsburgh-international-airport/357131,Mo-Su 04:30-18:00,Dunkin',Q847743
350359,dunkin_us,Dunkin',,Coraopolis,PA,,US,+1 412-474-3245,https://locations.dunkindonuts.com/en/pa/coraopolis/830-beaver-grade-rd/350359,Mo-Su 05:00-21:00,Dunkin',Q847743
41,eatnpark,Moon Township,,Moon Twsp,PA,,US,+1 412-264-7201,https://locations.eatnpark.com/pa/moontwsp/restaurants-41.html,Mo-Su 07:00-23:00,Eat'n Park,Q5331211
E14007,enterprise,Moon Township,,Moon Township,PA,,US,+1 412-269-9200,,,Enterprise Rent-A-Car,Q17085454
1104,european_wax_center_us,European Wax Center,,Moon Township,PA,,US,+1 412-870-4050,https://locations.waxcenter.com/pa/moontownship/moon-township-university-centre-1104.html,Mo-Fr 09:00-20:00; Sa-Su 09:00-18:00,European Wax Center,Q5413426
200322867,exxonmobil,CORAOPOLIS HEIGHTS ROAD,,CORAOPOLIS,PA,,US,+1 412-269-1016,https://www.exxon.com/en/find-station/mobil-coraopolis-pa-coraopolisheightsroad-200322867,Mo-Su 06:00-00:00,Mobil,Q109676002
200321856,exxonmobil,MINI MART,,CORAOPOLIS,PA,,US,+1 412-269-9299,https://www.exxon.com/en/find-station/mobil-coraopolis-pa-minimart-200321856,24/7,Mobil,Q109676002
16624,firestone_auto_care,Firestone Complete Auto Care,,Coraopolis,PA,,US,+1 412-756-8271,https://local.firestonecompleteautocare.com/pennsylvania/coraopolis/5920-university-blvd/,,Firestone,Q420837
https://restaurants.fiveguys.com/#53184543,five_guys_us,Five Guys Moon Township,,Moon Township,PA,,US,+1 412-375-7527,https://restaurants.fiveguys.com/9898-university-blvd,"Mo-Su 11:00-21:30,11:00-22:00",Five Guys,Q1131810
535407,follett,RMU Spirit Store - Robert Morris University,,Moon Township,PA,,US,+1 412-397-2665,https://www.bkstr.com/rmustore/home,,,
Motorcraft3208USAEnglish,ford,Moon Township Ford,,Pennsylvania,PA,,US,+1 412-264-2360,,,Ford,Q44294
https://www.ford.com/dealerships/dealer-details/pa/moon-township/moon-township-ford/,ford_dealers_us,Moon Township Ford,,Moon Township,PA,,US,+1 412-525-7707,https://www.ford.com/dealerships/dealer-details/pa/moon-township/moon-township-ford/,Mo-Th 09:00-20:00; Fr 09:00-18:00; Sa 09:00-17:00,Ford Motor Company,Q44294
3642,gianteagle,Moon Township GetGo,,Coraopolis,PA,,US,+1 412-264-3020,,Mo-Su 06:00-22:00,Giant Eagle,Q1522721
68,gianteagle,Moon Township Giant Eagle,,Coraopolis,PA,,US,+1 412-264-3856,,Mo-Su 07:00-22:00,Giant Eagle,Q1522721
https://stores.gnc.com/#24059398,gnc,GNC Moon Plaza,,,PA,,US,+1 412-269-4041,https://stores.gnc.com/all-stores-pennsylvania/coraopolis/5990-university-blvd,Mo-Sa 10:00-19:00; Su 11:00-18:00,GNC,Q4808595
https://salons.greatclips.com/us/pa/moon-township/5990-university-blvd,greatclips,Great Clips,,Moon Township,PA,,US,+1 412-262-5477,https://salons.greatclips.com/us/pa/moon-township/5990-university-blvd,Mo-Fr 09:00-20:00; Sa 09:00-18:00; Su 09:00-17:00,Great Clips,Q5598967
10064,huntingtonbank,Moon Township ,,Moon Township,PA,,US,+1 412-264-5338,https://www.huntington.com/Community/branch-info?locationId=10064,Mo-Th 09:00-16:00; Fr 09:00-17:00; Sa 09:00-12:00; Su 00:00-00:00,Huntington Bank,Q798819
36679,h_r_block,H&R Block,,Coraopolis,PA,,US,+1 412-262-4115,https://www.hrblock.com/local-tax-offices/pennsylvania/coraopolis/moon-plaza/36679/,,H&R Block,Q5627799
37574,h_r_block,H&R Block,,Coraopolis,PA,,US,+1 412-269-1030,https://www.hrblock.com/local-tax-offices/pennsylvania/coraopolis/936-5th-ave/37574/,,H&R Block,Q5627799
https://office.jacksonhewitt.com/#27580521,jackson_hewitt,Jackson Hewitt,,Moon Township,PA,,US,+1 412-563-9000,https://office.jacksonhewitt.com/tax-preparation-services-locations/en/pa/moon-township/7500-university-boulevard/54644,Mo-Fr 09:00-20:00; Sa 09:00-19:00; Su 11:00-17:00,Jackson Hewitt,Q6117132
https://locations.kfc.com/#11249926,kfc,Chicken Nuggets Near Coraopolis,,Coraopolis,PA,,US,,https://locations.kfc.com/pa/coraopolis/6901-university-boulevard/chickennugget,Mo-Su 10:30-22:30,KFC,Q524757
301281,kindercare,Moon Township East KinderCare,,Moon Township,PA,,US,,https://www.kindercare.com/our-centers/moon-township/pa/301281,,KinderCare Learning Centers,Q6410551
301089,kindercare,Moon Township West KinderCare,,Moon Township,PA,,US,,https://www.kindercare.com/our-centers/moon-township/pa/301089,,KinderCare Learning Centers,Q6410551
PITCA,marriott,Courtyard Pittsburgh Airport,,Coraopolis,PA,,US,+1 412-264-5000,https://www.marriott.com/PITCA,,Courtyard by Marriott,Q1053170
PITMC,marriott,Pittsburgh Airport Marriott,,Coraopolis,PA,,US,+1 412-788-8800,https://www.marriott.com/PITMC,,Marriott Hotels & Resorts,Q3918608
PITSA,marriott,Sheraton Pittsburgh Airport Hotel,,Coraopolis,PA,,US,+1 412-262-2400,https://www.marriott.com/PITSA,,Sheraton Hotels and Resorts,Q634831
Dw9q7,medexpress,MedExpress Urgent Care,,Moon Township,PA,,US,+1 412-299-3627,https://www.medexpress.com/location/pa/moon-township/mnp/,Mo-Su 08:00-20:00,MedExpress,Q102183820
3724,mightyflame,SG II,,CORAOPOLIS,PA,,US,+1 412-375-7358,,,Mighty Flame,
5039,mightyflame,UNI-MART,,CORAOPOLIS,PA,,US,+1 412-370-9661,,,Mighty Flame,
5054,mightyflame,UNIMART,,CORAOPOLIS,PA,,US,+1 432-250-0718,,,Mighty Flame,
4329,mightyflame,SPEEDY FOOD MART,,CORAOPOLIS,PA,,US,+1 412-680-6281,,,Mighty Flame,
961-brodhead-road,my_eye_dr,,,Moon Township,PA,,US,+1 412-262-1530,https://locations.myeyedr.com/pa/moon-township/961-brodhead-road,,MyEyeDr.,Q117864710
NNA5710,nissan_europe,#1 COCHRAN NISSAN WEST HILLS,,MOON TOWNSHIP,PA,,US,+1 412-262-9020,https://www.cochrannissanwest.com,Mo-Th 09:00-20:00; Fr 09:00-18:00; Sa 09:00-17:00,Nissan,Q20165
https://locations.oreillyauto.com/pa/coraopolis/check-engine-light-testing-6640.html,oreilly,Your Coraopolis O'Reilly Auto Parts Store,,Coraopolis,PA,,US,+1 412-424-4000,https://locations.oreillyauto.com/pa/coraopolis/check-engine-light-testing-6640.html,Mo-Sa 07:30-21:00; Su 09:00-20:00,O'Reilly Auto Parts,Q7071951
https://locations.oreillyauto.com/pa/coraopolis/battery-testing-6640.html,oreilly,Your Coraopolis O'Reilly Auto Parts Store,,Coraopolis,PA,,US,+1 412-424-4000,https://locations.oreillyauto.com/pa/coraopolis/battery-testing-6640.html,Mo-Sa 07:30-21:00; Su 09:00-20:00,O'Reilly Auto Parts,Q7071951
https://locations.oreillyauto.com/pa/coraopolis/autopartes-6640.html,oreilly,O'Reilly Auto Parts,,Coraopolis,PA,,US,+1 412-424-4000,https://locations.oreillyauto.com/pa/coraopolis/autopartes-6640.html,Mo-Sa 07:30-21:00; Su 09:00-20:00,O'Reilly Auto Parts,Q7071951
https://locations.oreillyauto.com/pa/coraopolis/wiper-installation-6640.html,oreilly,Your Coraopolis O'Reilly Auto Parts Store,,Coraopolis,PA,,US,+1 412-424-4000,https://locations.oreillyauto.com/pa/coraopolis/wiper-installation-6640.html,Mo-Sa 07:30-21:00; Su 09:00-20:00,O'Reilly Auto Parts,Q7071951
https://locations.outback.com/#15502332,outbacksteakhouse,Outback Steakhouse,,Coraopolis,PA,,US,+1 412-809-0120,https://locations.outback.com/pennsylvania/coraopolis/1400-marketplace-boulevard,Mo-Th 16:00-22:00; Fr-Sa 11:00-23:00; Su 11:00-21:00,Outback Steakhouse,Q1064893
058960,penske,Wasson&#39;s Auto Service,,CORAOPOLIS,PA,,US,+1 412-264-6044,https://www.pensketruckrental.com/locations/us/pennsylvania/coraopolis/058960/,,Penske,Q81234570
pa_coraopolis_8609-university-blvd,pizza_hut_us,8609 University Blvd,,Coraopolis,PA,,US,+1 412-264-4423,https://locations.pizzahut.com/pa/coraopolis/8609-university-blvd,,Pizza Hut,Q191615
https://www.plannedparenthood.org/health-center/pennsylvania/moon-township/15108/moon-township-health-center-2827-91470,planned_parenthood,Planned Parenthood,,Moon Township,PA,,US,,https://www.plannedparenthood.org/health-center/pennsylvania/moon-township/15108/moon-township-health-center-2827-91470,,Planned Parenthood,Q2553262
111043,ritasitalianice,Ritaâ€™s of Coraopolis PA,,Coraopolis,PA,,US,,https://www.ritasice.com/location/ritas-of-coraopolis-pa/,,Rita's Italian Ice,Q7336456
01448,rite_aid_us,Rite Aid #01448 Coraopolis,,Coraopolis,PA,,US,+1 412-264-0810,https://locations2.riteaid.com.yext-cdn.com/pa/coraopolis/412-broadway-street.html,Mo-Su 08:00-21:00,Rite Aid,Q3433273
https://restaurants.subway.com/#14913001,subway,Subway,,Moon Township Allegheny,PA,,US,+1 412-329-7019,https://restaurants.subway.com/united-states/pa/moon-township/427-5th-avenue,Mo-Su 08:00-21:00,Subway,Q244457
https://restaurants.subway.com/#14894029,subway,Subway Wal-Mart #4644,,Moon Township Allegheny,PA,,US,+1 412-808-1011,https://restaurants.subway.com/united-states/pa/moon-township/7500-university-boulevard,Mo-Fr 09:30-20:30; Sa-Su 09:30-21:00,Subway,Q244457
https://restaurants.subway.com/#14916975,subway,Subway Thorn Run Crossing Shop Ctr,,Coraopolis Allegheny,PA,,US,+1 412-264-6655,https://restaurants.subway.com/united-states/pa/coraopolis/1136-thorn-run-ext,Mo-Fr 09:00-20:00; Sa-Su 10:00-19:00,Subway,Q244457
0364188304,sunoco_us,Sunoco,,CORAOPOLIS,PA,,US,+1 412-262-8856,,Mo-Su 05:00-00:00,Sunoco,Q1423218
80284,supercuts,Moon Township,2801 Gracy Center Way Ste 101,Moon Township,PA,,US,+1 412-264-2136,https://www.supercuts.com/checkin/80284,Mo 10:00-18:00; Tu 10:00-19:00; Th-Fr 10:00-18:00; Sa 09:00-17:00; Su 09:00-15:00,Supercuts,Q7643239
4886,upsstore,Moon Plaza,5990 University Blvd,Moon Township,PA,,US,+1 412-264-9333,https://locations.theupsstore.com/pa/moon-township/5990-university-blvd,,UPS Store,Q7771029
1359233,usps,CORAOPOLIS,,CORAOPOLIS,PA,,US,+1 412-264-4629,,Mo-Fr 07:30-18:00; Sa 09:00-13:00,United States Postal Service,Q668687
1442154,usps,CORAOPOLIS FINANCE,,CORAOPOLIS,PA,,US,+1 412-262-4024,,Mo-Fr 09:00-16:30; Sa 09:00-12:00,United States Postal Service,Q668687
1510800012,usps_collection_boxes,USPS COLLECTION BOX - BLUE BOX,5990 UNIVERSITY BLVD,CORAOPOLIS,PA,,US,,,,United States Postal Service,Q668687
1510800026,usps_collection_boxes,USPS COLLECTION BOX - BLUE BOX,200 POLO CLUB DR,CORAOPOLIS,PA,,US,,,,United States Postal Service,Q668687
1510800050,usps_collection_boxes,USPS COLLECTION BOX - BLUE BOX,400 ROUSER RD,CORAOPOLIS,PA,,US,,,,United States Postal Service,Q668687
1510800019,usps_collection_boxes,USPS COLLECTION BOX - BLUE BOX,500 CHERRINGTON PKWY,CORAOPOLIS,PA,,US,,,,United States Postal Service,Q668687
1510800009,usps_collection_boxes,USPS COLLECTION BOX - BLUE BOX,600 CLUBHOUSE DR,CORAOPOLIS,PA,,US,,,,United States Postal Service,Q668687
1510800028,usps_collection_boxes,USPS COLLECTION BOX - BLUE BOX,345 ROUSER RD,CORAOPOLIS,PA,,US,,,,United States Postal Service,Q668687
1510800010,usps_collection_boxes,USPS COLLECTION BOX - BLUE BOX,300 CORPORATE CTR,CORAOPOLIS,PA,,US,,,,United States Postal Service,Q668687
1510800049,usps_collection_boxes,USPS COLLECTION BOX - BLUE BOX,1187 THORN RUN RD,CORAOPOLIS,PA,,US,,,,United States Postal Service,Q668687
1510800067,usps_collection_boxes,USPS COLLECTION BOX - BLUE BOX,1550 CORAOPOLIS HEIGHTS RD,CORAOPOLIS,PA,,US,,,,United States Postal Service,Q668687
1510800001,usps_collection_boxes,USPS COLLECTION BOX - BLUE BOX,1140 THORN RUN RD,CORAOPOLIS,PA,,US,,,,United States Postal Service,Q668687
1510800055,usps_collection_boxes,USPS COLLECTION BOX - PO LOBBY,1140 THORN RUN RD LBBY,CORAOPOLIS,PA,,US,,,,United States Postal Service,Q668687
1510800072,usps_collection_boxes,USPS COLLECTION BOX - PO LOBBY,1140 THORN RUN RD,CORAOPOLIS,PA,,US,,,,United States Postal Service,Q668687
1510800058,usps_collection_boxes,USPS COLLECTION BOX - PO LOBBY,1140 THORN RUN RD LBBY,CORAOPOLIS,PA,,US,,,,United States Postal Service,Q668687
1510800069,usps_collection_boxes,USPS COLLECTION BOX - APC,1140 THORN RUN RD,CORAOPOLIS,PA,,US,,,,United States Postal Service,Q668687
1510800053,usps_collection_boxes,USPS COLLECTION BOX - BLUE BOX,1009 BEAVER GRADE RD,CORAOPOLIS,PA,,US,,,,United States Postal Service,Q668687
1510800065,usps_collection_boxes,USPS COLLECTION BOX - BLUE BOX,1005 BEAVER GRADE RD,CORAOPOLIS,PA,,US,,,,United States Postal Service,Q668687
1510800042,usps_collection_boxes,USPS COLLECTION BOX - BLUE BOX,1000 FED EX DR,CORAOPOLIS,PA,,US,,,,United States Postal Service,Q668687
1510800011,usps_collection_boxes,USPS COLLECTION BOX - BLUE BOX,825 BEAVER GRADE RD,CORAOPOLIS,PA,,US,,,,United States Postal Service,Q668687
1510800054,usps_collection_boxes,USPS COLLECTION BOX - BLUE BOX,1350 VENTANA DR,CORAOPOLIS,PA,,US,,,,United States Postal Service,Q668687
1510800027,usps_collection_boxes,USPS COLLECTION BOX - BLUE BOX,914 5TH AVE,CORAOPOLIS,PA,,US,,,,United States Postal Service,Q668687
1510800063,usps_collection_boxes,USPS COLLECTION BOX - PO LOBBY,914 5TH AVE LBBY,CORAOPOLIS,PA,,US,,,,United States Postal Service,Q668687
1510800073,usps_collection_boxes,USPS COLLECTION BOX - PO LOBBY,914 5TH AVE,CORAOPOLIS,PA,,US,,,,United States Postal Service,Q668687
1510800018,usps_collection_boxes,USPS COLLECTION BOX - BLUE BOX,953 5TH AVE,CORAOPOLIS,PA,,US,,,,United States Postal Service,Q668687
1510800002,usps_collection_boxes,USPS COLLECTION BOX - BLUE BOX,1026 4TH AVE,CORAOPOLIS,PA,,US,,,,United States Postal Service,Q668687
coraopolis_oil-change-060075,valvoline_instant_oil_change,Valvoline,9404 University Blvd ,Coraopolis,PA,,US,+1 412-203-4252,https://store.vioc.com/pa/coraopolis/oil-change-060075.html,,Valvoline Instant Oil Change,Q7912852
,visa,,,MCKEES ROCKS,PA,,US,,,,,
,visa,,,MOON TOWNSHIP,PA,,US,,,,,
,visa,,,CORAOPOLIS,PA,,US,,,,,
,visa,,,CORAOPOLIS,PA,,US,,,,,
,visa,,,CORAOPOLIS,PA,,US,,,,,
,visa,,,CORAOPOLIS,PA,,US,,,,,
,visa,,,CORAOPOLIS,PA,,US,,,,,
,visa,,,CORAOPOLIS,PA,,US,,,,,
,visa,,,ROBINSON TWP,PA,,US,,,,,
,visa,,,CORAOPOLIS,PA,,US,,,,,
,visa,,,CORAOPOLIS,PA,,US,,,,,
,visa,,,PITTSBURGH,PA,,US,,,,,
,visa,,,CORAOPOLIS,PA,,US,,,,,
,visa,,,CORAOPOLIS,PA,,US,,,,,
,visa,,,CORAOPOLIS,PA,,US,,,,,
,visa,,,CORAPOLIS,PA,,US,,,,,
,visa,,,CORAOPOLIS,PA,,US,,,,,
,visa,,,MOON TOWNSHIP,PA,,US,,,,,
,visa,,,CORAOPOLIS,PA,,US,,,,,
,visa,,,CORAOPOLIS,PA,,US,,,,,
,visa,,,CORAOPOLIS,PA,,US,,,,,
,visa,,,CORAOPOLIS,PA,,US,,,,,
,visa,,,CORAOPOLIS,PA,,US,,,,,
,visa,,,CORAOPOLIS,PA,,US,,,,,
,visa,,,CORAOPOLIS,PA,,US,,,,,
,visa,,,CORAOPOLIS,PA,,US,,,,,
,visa,,,CORAOPOLIS,PA,,US,,,,,
,visa,,,CORAOPOLIS,PA,,US,,,,,
,visa,,,CORAOPOLIS,PA,,US,,,,,
,visa,,,CORAOPOLIS,PA,,US,,,,,
,visa,,,MOON TOWNSHIP,PA,,US,,,,,
,visa,,,CORAOPOLIS,PA,,US,,,,,
,visa,,,CORAOPOLIS,PA,,US,,,,,
,visa,,,MOON TOWNSHIP,PA,,US,,,,,
,visa,,,CORAPOLIS,PA,,US,,,,,
,visa,,,CORAOPOLIS,PA,,US,,,,,
,visa,,,CORAOPOLIS,PA,,US,,,,,
,visa,,,CORAOPOLIS,PA,,US,,,,,
,visa,,,CORAOPOLIS,PA,,US,,,,,
,visa,,,CORAOPOLIS,PA,,US,,,,,
,visa,,,CORAOPOLIS,PA,,US,,,,,
,visa,,,MOONTOWNSHIP,PA,,US,,,,,
,visa,,,CORAOPLOIS,PA,,US,,,,,
,visa,,,CORAOPOLIS,PA,,US,,,,,
,visa,,,MOON TOWNSHIP,PA,,US,,,,,
,visa,,,CORAOPOLIS,PA,,US,,,,,
,visa,,,PITTSBURGH,PA,,US,,,,,
,visa,,,CORAOPOLIS,PA,,US,,,,,
,visa,,,CORAOPOLIS,PA,,US,,,,,
,visa,,,CORAOPOLIS,PA,,US,,,,,
,visa,,,MOON TOWNSHIP,PA,,US,,,,,
,visa,,,CORAOPOLIS,PA,,US,,,,,
,visa,,,CORAOPOLIS,PA,,US,,,,,
,visa,,,CORAOPOLIS,PA,,US,,,,,
,visa,,,MOON TOWNSHIP,PA,,US,,,,,
,visa,,,CORAOPOLIS,PA,,US,,,,,
,visa,,,CORAOPOLIS,PA,,US,,,,,
,visa,,,CORAOPOLIS,PA,,US,,,,,
,visa,,,CORAOPOLIS,PA,,US,,,,,
,visa,,,MOON TWP.,PA,,US,,,,,
,visa,,,CORAOPOLIS,PA,,US,,,,,
,visa,,,CORAOPOLIS,PA,,US,,,,,
,visa,,,MOON TOWNSHIP,PA,,US,,,,,
,visa,,,MOON TOWNSHIP,PA,,US,,,,,
,visa,,,CORAOPOLIS,PA,,US,,,,,
,visa,,,CORAOPOLIS,PA,,US,,,,,
,visa,,,CARAOPOLIS,PA,,US,,,,,
,visa,,,MOON TOWNSHIP,PA,,US,,,,,
,visa,,,CORAOPOLIS,PA,,US,,,,,
,visa,,,CORAOPOLIS,PA,,US,,,,,
,visa,,,MOON TOWNSHIP,PA,,US,,,,,
,visa,,,MOON TOWNSHIP,PA,,US,,,,,
,visa,,,CORAOPOLIS,PA,,US,,,,,
,visa,,,CORAOPOLIS,PA,,US,,,,,
,visa,,,CORAOPOLIS,PA,,US,,,,,
,visa,,,MOON TOWNSHIP,PA,,US,,,,,
,visa,,,CORAOPOLIS,PA,,US,,,,,
,visa,,,CORAOPOLIS,PA,,US,,,,,
,visa,,,MOON TOWNSHIP,PA,,US,,,,,
,visa,,,MOON TOWNSHIP,PA,,US,,,,,
,visa,,,CORAOPOLIS,PA,,US,,,,,
,visa,,,CORAOPOLIS,PA,,US,,,,,
,visa,,,MOON TWP,PA,,US,,,,,
,visa,,,MOON,PA,,US,,,,,
,visa,,,CORAOPOLIS,PA,,US,,,,,
,visa,,,MOON TOWNSHIP,PA,,US,,,,,
,visa,,,MOON TOWNSHIP,PA,,US,,,,,
,visa,,,COROPOLIS,PA,,US,,,,,
,visa,,,MOON TOWNSHIP,PA,,US,,,,,
,visa,,,MOON TOWNSHIP,PA,,US,,,,,
,visa,,,CORAOPOLIS,PA,,US,,,,,
,visa,,,MOON TOWNSHIP,PA,,US,,,,,
,visa,,,MOON TWP,PA,,US,,,,,
,visa,,,MOON TOWNSHIP,PA,,US,,,,,
,visa,,,MOON TWP,PA,,US,,,,,
,visa,,,MOON TOWNSHIP,PA,,US,,,,,
,visa,,,CORAOPOLIS,PA,,US,,,,,
,visa,,,MOON TOWNSHIP,PA,,US,,,,,
,visa,,,MOON TOWNSHIP,PA,,US,,,,,
,visa,,,CORAOPOLIS,PA,,US,,,,,
,visa,,,CORAOPOLIS,PA,,US,,,,,
,visa,,,CORAOPOLIS,PA,,US,,,,,
,visa,,,CORAOPOLIS,PA,,US,,,,,
,visa,,,CORAOPOLIS,PA,,US,,,,,
https://www.vocellipizza.com/moontwp_pa,vocelli_pizza_us,Moon Twp,,Moon Twp,PA,,US,,https://www.vocellipizza.com/moontwp_pa,,Vocelli Pizza,Q7939247
https://www.walgreens.com/locator/walgreens-6906+university+blvd-moon+township-pa-15108/id=10917,walgreens,Walgreens,,Moon Township,PA,,US,+1 412-269-2501,https://www.walgreens.com/locator/walgreens-6906+university+blvd-moon+township-pa-15108/id=10917,Mo-Su 07:00-22:00,Walgreens,Q1591889
https://locations.wendys.com/#9254234,wendys,"Wendy's Beers School Rd in Moon Twp, PA",,Moon Twp,PA,,US,+1 412-264-4343,https://locations.wendys.com/united-states/pa/moon-twp/8703-university-blvd,"Mo-Su 06:30-10:30,07:00-22:00",Wendy's,Q550258
da5cc7643368d2017ec330758653630a,western_union,WALMART #004644,,Coraopolis,PA,,US,+1 412-893-0143,https://location.westernunion.com/us/pa/coraopolis/da5cc7643368d2017ec330758653630a,Mo-Sa 08:00-20:00; Su 10:00-18:00,Western Union,Q861042
d6a504568a10a722e33fbdc46ab0f2f9,western_union,PAR MAR #81,,Coraopolis,PA,,US,+1 412-264-6140,https://location.westernunion.com/us/pa/coraopolis/d6a504568a10a722e33fbdc46ab0f2f9,,Western Union,Q861042
3ad73605efc01f9bcaf09c204ec2486e,western_union,CASH MARKET,,Coraopolis,PA,,US,+1 412-264-6010,https://location.westernunion.com/us/pa/coraopolis/3ad73605efc01f9bcaf09c204ec2486e,Mo-Sa 08:00-20:00; Su 08:00-16:00,Western Union,Q861042
223397,wingstop,Wingstop Moon Township University Blvd,"5990 University Blvd, Suite 13",Coraopolis,PA,,US,+1 412-507-9181,,,Wingstop,Q8025339
