Ref,Spider,Name,Address,City,State,Zipcode,Country,Phone,Website,Hours,Brand,WikiData
https://locators.bankofamerica.com/md/phoenix/financial-centers-phoenix-9127.html,bankofamerica,Bank of America Financial Center & Drive-Thru ATM | Jacksonville,,Phoenix,MD,,US,+1 410-666-8510,https://locators.bankofamerica.com/md/phoenix/financial-centers-phoenix-9127.html,Mo-Fr 10:00-16:00,Bank of America,Q487907
113775,bluerhino,ShopRite #563,,Phoenix,MD,,US,+1 410-666-3500,,,Blue Rhino,Q65681213
188656,bluerhino,"Alma Fuerte, LLC",,Phoenix,MD,,US,+1 443-541-4038,,,Blue Rhino,Q65681213
bad47d8c-5380-e411-b4ab-0050568924e6,goodwill,Goodwill Manor Store,,Phoenix,MD,,US,+1 410-628-1562,https://www.goodwill.org/locator/location/?store=YmFkNDdkOGMtNTM4MC1lNDExLWI0YWItMDA1MDU2ODkyNGU2&lat=MzkuNTE2MzM=&lng=LTc2LjU1NzQ0,,Goodwill,Q5583655
https://locations.mtb.com/#25081437,mt_bank_us,M&T Bank,,,MD,,US,+1 410-628-7763,https://locations.mtb.com/md/phoenix/bank-branches-and-atms-phoenix-md-3675.html,Mo-Th 09:00-16:00; Fr 09:00-17:00; Sa 09:00-12:00,M&T Bank,Q3272257
https://locations.papajohns.com/#10691684,papa_johns,Papa John's,,Jacksonville,MD,,US,+1 410-666-7272,https://locations.papajohns.com/united-states/md/21131/jacksonville/3434-sweet-air-rd,Mo-Su 10:30-23:00,Papa John's Pizza,Q2759586
https://local.safeway.com/#5604015,safeway,Safeway,,Phoenix,MD,,US,+1 410-666-0787,https://local.safeway.com/safeway/md/phoenix/3499-sweet-air-rd.html,Mo-Su 06:00-22:00,Safeway,Q1508234
3829,shellrecharge,BGE - Jacksonville Sr Center,,Phoenix,MD,,US,,,,Shell Recharge,Q105883058
563,shoprite,ShopRite of Jacksonville,,Phoenix,MD,,US,+1 410-666-3500,https://www.shoprite.com/sm/planning/rsid/563,Mo-Su 06:00-22:00,ShopRite,Q7501097
0912577400,sunoco_us,Sunoco,,PHOENIX,MD,,US,+1 443-506-8591,,Mo-Sa 05:00-21:00; Su 07:00-20:00,Sunoco,Q1423218
1377404,usps,PHOENIX,,PHOENIX,MD,,US,+1 410-666-0692,,Mo-Fr 08:30-17:00; Sa 08:30-12:30,United States Postal Service,Q668687
2113100007,usps_collection_boxes,USPS COLLECTION BOX - BLUE BOX,14330 JARRETTSVILLE PIKE,PHOENIX,MD,,US,,,,United States Postal Service,Q668687
2113100002,usps_collection_boxes,USPS COLLECTION BOX - BLUE BOX,14320 JARRETTSVILLE PIKE,PHOENIX,MD,,US,,,,United States Postal Service,Q668687
2113100005,usps_collection_boxes,USPS COLLECTION BOX - PO LOBBY,14320 JARRETTSVILLE PIKE,PHOENIX,MD,,US,,,,United States Postal Service,Q668687
2113100009,usps_collection_boxes,USPS COLLECTION BOX - PO LOBBY,14320 JARRETTSVILLE PIKE,PHOENIX,MD,,US,,,,United States Postal Service,Q668687
2113100001,usps_collection_boxes,USPS COLLECTION BOX - BLUE BOX,3461 SWEET AIR RD,PHOENIX,MD,,US,,,,United States Postal Service,Q668687
,visa,,,PHOENIX,MD,,US,,,,,
,visa,,,PHOENIX,MD,,US,,,,,
,visa,,,PHOENIX,MD,,US,,,,,
,visa,,,PHOENIX,MD,,US,,,,,
,visa,,,PHOENIX,MD,,US,,,,,
,visa,,,PHOENIX,MD,,US,,,,,
,visa,,,PHOENIX,MD,,US,,,,,
,visa,,,PHOENIX,MD,,US,,,,,
,visa,,,PHOENIX,MD,,US,,,,,
,visa,,,PHOENIX,MD,,US,,,,,
,visa,,,PHOENIX,MD,,US,,,,,
,visa,,,PHOENIX,MD,,US,,,,,
,visa,,,PHOENIX,MD,,US,,,,,
,visa,,,PHOENIX,MD,,US,,,,,
,visa,,,PHOENIX,MD,,US,,,,,
https://www.walgreens.com/locator/walgreens-3463+sweet+air+rd-phoenix-md-21131/id=19043,walgreens,Walgreens,,Phoenix,MD,,US,+1 410-666-8220,https://www.walgreens.com/locator/walgreens-3463+sweet+air+rd-phoenix-md-21131/id=19043,Mo-Su 08:00-21:00,Walgreens,Q1591889
