Ref,Spider,Name,Address,City,State,Zipcode,Country,Phone,Website,Hours,Brand,WikiData
https://locations.arbys.com/ks/eldorado/1707-w-central-ave.html,arbys_us,"Arby's Fast-Food Drive Through Near You in El Dorado, KS",,El Dorado,KS,,US,+1 316-322-7379,https://locations.arbys.com/ks/eldorado/1707-w-central-ave.html,Mo-Th 10:00-23:00; Fr-Sa 10:00-23:30; Su 10:00-23:00,Arby's,Q630866
15691,asics_us,Hibbett Sports,2710 W Central Ave,El Dorado,KS,,US,+1 316-322-9822,,,asics,Q327247
3787,autozone_us,AutoZone Auto Parts El Dorado,,El Dorado,KS,,US,+1 316-251-6210,https://www.autozone.com/locations/ks/el-dorado/2600-w-central-ave.html,Mo-Sa 07:30-20:00; Su 09:00-19:00,AutoZone,Q4826087
186380,bluerhino,Sutherlands #2302,,El Dorado,KS,,US,+1 316-322-7788,,,Blue Rhino,Q65681213
1727,bluerhino,Walmart #0186,,El Dorado,KS,,US,+1 316-322-8100,,,Blue Rhino,Q65681213
203434,bluerhino,CASEY'S GENERAL STORE #3331,,EL DORADO,KS,,US,+1 316-321-1202,,,Blue Rhino,Q65681213
225801,bluerhino,Bomgaar's #133,,El Dorado,KS,,US,+1 316-321-4004,,,Blue Rhino,Q65681213
203351,bluerhino,CASEY'S GENERAL STORE #1810,,EL DORADO,KS,,US,+1 316-321-4688,,,Blue Rhino,Q65681213
35189,bluerhino,Ace - EL Dorado #8596 L,,El Dorado,KS,,US,+1 316-322-7500,,,Blue Rhino,Q65681213
190827,bluerhino,Jump Start #12,,El Dorado,KS,,US,+1 316-452-5665,,,Blue Rhino,Q65681213
9754,bluerhino,Dillons #29,,El Dorado,KS,,US,+1 316-321-0332,,,Blue Rhino,Q65681213
https://stores.catofashions.com/#26560352,cato_us,Cato,,,KS,,US,+1 316-322-8127,https://stores.catofashions.com/ks/el-dorado/2733-west-central-avenue,Mo-Sa 10:00-19:00; Su 13:00-18:00,Cato,Q16956136
80213169,cricket_wireless,Cricket Wireless Authorized Retailer,,El Dorado,KS,,US,+1 316-600-5009,https://www.cricketwireless.com/stores/ll/US/KS/El-Dorado/2422-W-Central-Ave,Mo-Sa 10:00-19:00,Cricket Wireless,Q5184987
4680b411-d631-4dd3-899a-fee5f019199c,dairy_queen_us,7581 SW Kansas Tpke MM65,,Towanda,KS,,US,+1 316-536-7890,https://www.dairyqueen.com/locations/ks/towanda/7581-sw-kansas-tpke-mm65/17637,,DQ Grill & Chill,Q1141226
9636,dominos_pizza_us,Domino's Pizza,,El Dorado,KS,,US,+1 316-320-3533,https://pizza.dominos.com/kansas/el-dorado/2422-w-central-ave-suite-100,Mo-Th 10:30-24:00; Fr-Sa 10:30-01:00; Su 10:30-24:00,Domino's,Q839466
https://www.edwardjones.com/us-en/financial-advisor/drew-wilson,edwardjones,Drew Wilson,,El Dorado,KS,,US,+1 316-321-4960,https://www.edwardjones.com/us-en/financial-advisor/drew-wilson,Mo-Th 08:00-16:00; Fr 08:00-15:00,Edward Jones,Q5343830
Motorcraft2384USAEnglish,ford,Fenton Ford Lincoln-Mercury,,Kansas,KS,,US,+1 316-321-3720,,,Ford,Q44294
285ea7b1-458a-e111-8dde-005056934050,goodwill,2336 W Central Ave Store,,El Dorado,KS,,US,+1 316-321-3125,https://www.goodwill.org/locator/location/?store=Mjg1ZWE3YjEtNDU4YS1lMTExLThkZGUtMDA1MDU2OTM0MDUw&lat=MzcuODE3NDU=&lng=LTk2Ljg4MTQ2,,Goodwill,Q5583655
https://salons.greatclips.com/us/ks/el-dorado/2733-w-central-ave,greatclips,Great Clips,,El Dorado,KS,,US,+1 316-452-2884,https://salons.greatclips.com/us/ks/el-dorado/2733-w-central-ave,Mo-Fr 09:00-19:00; Sa 09:00-18:00; Su 11:00-17:00,Great Clips,Q5598967
https://www.harborfreight.com/storelocator/2354-w-central-avenue-el-dorado-67042?number=3503,harborfreight,"Harbor Freight Tools El Dorado, KS",,El Dorado,KS,,US,+1 316-874-5050,https://www.harborfreight.com/storelocator/2354-w-central-avenue-el-dorado-67042?number=3503,Mo-Sa 08:00-20:00; Su 09:00-18:00,Harbor Freight Tools,Q5654601
16666,h_r_block,H&R Block,,El Dorado,KS,,US,+1 316-321-6960,https://www.hrblock.com/local-tax-offices/kansas/el-dorado/1430-w-central/16666/,,H&R Block,Q5627799
https://office.jacksonhewitt.com/#27576552,jackson_hewitt,Jackson Hewitt,,El Dorado,KS,,US,+1 316-369-1905,https://office.jacksonhewitt.com/tax-preparation-services-locations/en/ks/el-dorado/301-s-village-rd/50186,Mo-Th 11:00-19:00; Fr 10:00-18:00; Sa 09:00-17:00; Su 13:00-17:00,Jackson Hewitt,Q6117132
https://locations.jimmyjohns.com/ks/eldorado/sandwiches-3960.html,jimmy_johns,Jimmy John's,,El Dorado,KS,,US,+1 316-600-5053,https://locations.jimmyjohns.com/ks/eldorado/sandwiches-3960.html,,Jimmy John's,Q1689380
https://locations.kfc.com/#11248082,kfc,Chicken Nuggets Near El Dorado,,El Dorado,KS,,US,,https://locations.kfc.com/ks/el-dorado/2003-west-central/chickennugget,Mo-Su 10:30-21:00,KFC,Q524757
1220,loves,Site 177,,El Dorado,KS,,US,+1 316-536-2324,,,Love's,Q1872496
71474636,moneygram,WAL-MART - #186,,EL DORADO,KS,,US,+1 316-322-8100,,Mo-Su 07:00-21:00,MoneyGram,Q1944412
44279460,moneygram,WAL-MART - #186,,EL DORADO,KS,,US,+1 316-322-8100,,Mo-Su 07:00-21:00,MoneyGram,Q1944412
512338,penske,Wheat State Rental,,EL DORADO,KS,,US,+1 316-320-3573,https://www.pensketruckrental.com/locations/us/kansas/el_dorado/512338/,,Penske,Q81234570
ks_el-dorado_729-n-main-st,pizza_hut_us,729 N Main St,,El Dorado,KS,,US,+1 316-321-1111,https://locations.pizzahut.com/ks/el-dorado/729-n-main-st,,Pizza Hut,Q191615
sutherland-lumber-co-38117,ppgpaints,SUTHERLAND LUMBER CO,,"El Dorado, ",KS,,US,,https://www.ppgpaints.com/store-locator/us/kansas/el-dorado-paint-stores/sutherland-lumber-co-38117,,PPG Paints,Q83891559
https://locations.quiktrip.com/#16004087,quiktrip_us,QuikTrip Store #310 2314 W Central Ave,,El Dorado,KS,,US,+1 316-321-1580,https://locations.quiktrip.com/ks/el-dorado/2314-w-central-ave,24/7,QuikTrip,Q7271953
5024,rentacenter,Rent-A-Center,,El Dorado,KS,,US,+1 316-321-7870,https://locations.rentacenter.com/kansas/el-dorado/2502-w-central-ave/,Mo-Sa 10:00-18:00,Rent-A-Center,Q7313497
310,scooters_coffee_us,Central & Oil Hill Rd,,El Dorado,KS,,US,+1 816-853-4140,,Mo-Fr 06:00-20:00; Sa-Su 07:00-20:00,Scooter's Coffee,Q117280308
https://stations.sinclairoil.com/ks/el-dorado/301-e-central-ave,sinclair_us,Sinclair Gas Station,,El Dorado,KS,,US,+1 316-321-5544,https://stations.sinclairoil.com/ks/el-dorado/301-e-central-ave,Mo-Th 06:00-23:00; Fr-Sa 06:00-24:00; Su 07:00-22:00,Sinclair,Q1290900
https://stations.sinclairoil.com/ks/el-dorado/2575-west-central-ave,sinclair_us,Sinclair Gas Station,,El Dorado,KS,,US,+1 316-321-1365,https://stations.sinclairoil.com/ks/el-dorado/2575-west-central-ave,Mo-Th 06:00-23:00; Fr-Sa 06:00-24:00; Su 07:00-22:00,Sinclair,Q1290900
https://restaurants.subway.com/#14916837,subway,Subway,,El Dorado Butler,KS,,US,+1 316-320-0990,https://restaurants.subway.com/united-states/ks/el-dorado/1826-w-central,Mo-Su 08:00-22:00,Subway,Q244457
https://locations.tacobell.com/#6142348,taco_bell,Taco Bell,,El Dorado,KS,,US,+1 316-320-1600,https://locations.tacobell.com/ks/el-dorado/721-north-main-street.html,Mo-Su 07:00-24:00,Taco Bell,Q752941
498F,tmobile_us,Central & Marmaton,,El Dorado,KS,,US,+1 316-413-3687,https://www.t-mobile.com/store-locator/ks/el-dorado/central-marmaton,,T-Mobile,Q3511885
1362177,usps,EL DORADO,,EL DORADO,KS,,US,+1 316-321-5950,,Mo-Fr 09:00-16:30,United States Postal Service,Q668687
6704200006,usps_collection_boxes,USPS COLLECTION BOX - BLUE BOX,2354 W CENTRAL AVE,EL DORADO,KS,,US,,,,United States Postal Service,Q668687
6704200009,usps_collection_boxes,USPS COLLECTION BOX - BLUE BOX,226 W CENTRAL AVE,EL DORADO,KS,,US,,,,United States Postal Service,Q668687
6704200012,usps_collection_boxes,USPS COLLECTION BOX - BLUE BOX,131 E CENTRAL AVE,EL DORADO,KS,,US,,,,United States Postal Service,Q668687
6704200021,usps_collection_boxes,USPS COLLECTION BOX - PO LOBBY,131 E CENTRAL AVE,EL DORADO,KS,,US,,,,United States Postal Service,Q668687
6704200017,usps_collection_boxes,USPS COLLECTION BOX - PO LOBBY,131 E CENTRAL AVE,EL DORADO,KS,,US,,,,United States Postal Service,Q668687
6704200014,usps_collection_boxes,USPS COLLECTION BOX - BLUE BOX,700 N MAIN ST,EL DORADO,KS,,US,,,,United States Postal Service,Q668687
A00000244655,verizon_us,Victra El Dorado,,El Dorado,KS,,US,+1 316-321-3289,https://www.verizon.com/stores/details/kansas/el-dorado/victra-el-dorado-1841022/,Mo-Fr 09:00-19:00; Sa 10:00-18:00,Verizon,Q919641
,visa,,,ELDORADO,KS,,US,,,,,
,visa,,,EL DORADO,KS,,US,,,,,
,visa,,,EL DORADO,KS,,US,,,,,
,visa,,,EL DORADO,KS,,US,,,,,
,visa,,,ELDORADO,KS,,US,,,,,
,visa,,,EL DORADO,KS,,US,,,,,
,visa,,,EL DORADO,KS,,US,,,,,
,visa,,,EL DORADO,KS,,US,,,,,
,visa,,,EL DORADO,KS,,US,,,,,
,visa,,,ELDORADO,KS,,US,,,,,
,visa,,,EL DORADO,KS,,US,,,,,
,visa,,,ELDORADO,KS,,US,,,,,
,visa,,,EL DORADO,KS,,US,,,,,
,visa,,,EL DORADO,KS,,US,,,,,
,visa,,,EL DORADO,KS,,US,,,,,
,visa,,,EL DORADO,KS,,US,,,,,
,visa,,,EL DORADO,KS,,US,,,,,
,visa,,,EL DORADO,KS,,US,,,,,
,visa,,,EL DORADO,KS,,US,,,,,
,visa,,,EL DORADO,KS,,US,,,,,
,visa,,,EL DORADO,KS,,US,,,,,
,visa,,,ELDORADO,KS,,US,,,,,
,visa,,,EL DORADO,KS,,US,,,,,
https://locations.wendys.com/#1014225354,wendys,"Wendy's 1702 W Central in El Dorado, KS",,El Dorado,KS,,US,+1 316-361-0353,https://locations.wendys.com/united-states/ks/el-dorado/1702-w-central-ave,"Mo-Th 06:30-10:30,09:00-22:00; Fr-Sa 06:30-10:30,09:00-23:00; Su 06:30-10:30,09:00-22:00",Wendy's,Q550258
ce43c201d5b709795f3105984420172d,western_union,WALMART #000186,,El Dorado,KS,,US,+1 316-322-8100,https://location.westernunion.com/us/ks/el-dorado/ce43c201d5b709795f3105984420172d,Mo-Su 07:00-21:00,Western Union,Q861042
