Ref,Spider,Name,Address,City,State,Zipcode,Country,Phone,Website,Hours,Brand,WikiData
https://stores.advanceautoparts.com/ne/omaha/3025-s-24th-st,advance_auto_parts_us,Advance Auto Parts,,Omaha,NE,,US,+1 402-345-1422,https://stores.advanceautoparts.com/ne/omaha/3025-s-24th-st,Mo-Sa 07:30-21:00; Su 09:00-20:00,Advance Auto Parts,Q4686051
1645,autozone_us,AutoZone Auto Parts Omaha,,Omaha,NE,,US,+1 402-341-1948,https://www.autozone.com/locations/ne/omaha/3206-s-24th-st.html,Mo-Sa 07:30-22:00; Su 08:00-21:00,AutoZone,Q4826087
167762,bluerhino,Westlake Ace Hardware #116 - Ace 16735,,Omaha,NE,,US,+1 402-553-2686,,,Blue Rhino,Q65681213
172865,bluerhino,Family Dollar #05542,,Omaha,NE,,US,+1 402-341-0447,,,Blue Rhino,Q65681213
210597,bluerhino,CASEY'S GENERAL STORE #6124,,Omaha,NE,,US,+1 402-344-7883,,,Blue Rhino,Q65681213
153692,bluerhino,Walgreens #06962,,Omaha,NE,,US,+1 402-345-7178,,,Blue Rhino,Q65681213
173716,bluerhino,Family Dollar #05376,,Omaha,NE,,US,+1 402-345-4563,,,Blue Rhino,Q65681213
211821,bluerhino,CASEY'S GENERAL STORE #6113,,Omaha,NE,,US,+1 402-356-0979,,,Blue Rhino,Q65681213
3983,buffalo_wild_wings_us,"Buffalo Wild Wings GO - Omaha, NE - S 24th St",,Omaha,NE,,US,+1 531-999-8462,https://www.buffalowildwings.com/locations/us/ne/omaha/3116-s-24th-street/sports-bar-1782,Mo-Th 11:00-23:00; Fr-Sa 11:00-24:00; Su 11:00-23:00,Buffalo Wild Wings,Q509255
35826802,chase_us,DRIVE UP ISLAND - 846628,,OMAHA,NE,,US,+1 800-935-9935,https://locator.chase.com/ne/omaha/2420-vinton-street,,Chase,Q524629
76286,citi,ATM SOUTH 13TH STREET,,Omaha,NE,,US,,,,Citibank,Q857063
90074,citi,ATM Walgreens,,Omaha,NE,,US,,,,Citibank,Q857063
70189224,cricket_wireless,Cricket Wireless Authorized Retailer,,Omaha,NE,,US,+1 402-509-5042,https://www.cricketwireless.com/stores/ll/US/NE/Omaha/2910-S-24th-St,Mo-Fr 10:00-19:00; Sa 10:00-18:00; Su 12:00-17:00,Cricket Wireless,Q5184987
3800,family_fare_us,Family Fare - 24Th St & Vinton,,Omaha,NE,,US,+1 402-341-0279,https://www.shopfamilyfare.com/stores/family-fare-24th-st-vinton,Mo-Su 06:00-23:00,Family Fare,Q19868045
27230,h_r_block,H&R Block,,Omaha,NE,,US,+1 402-341-8901,https://www.hrblock.com/local-tax-offices/nebraska/omaha/vinton-square-shopping-center/27230/,,H&R Block,Q5627799
https://locations.jimmyjohns.com/ne/omaha/sandwiches-1261.html,jimmy_johns,Jimmy John's,,Omaha,NE,,US,+1 402-933-4280,https://locations.jimmyjohns.com/ne/omaha/sandwiches-1261.html,,Jimmy John's,Q1689380
58768,little_free_library,Suzanne Prenger-Hagen #58768 Omaha NE,,Omaha,NE,,US,,,,Little Free Library,Q6650101
172865,little_free_library,Orson J Ochoa #172865 #172865 Omaha NE,,Omaha,NE,,US,,,,Little Free Library,Q6650101
ne_omaha_2902-s-24th-st,pizza_hut_us,2902 S 24th St,,Omaha,NE,,US,+1 402-345-1000,https://locations.pizzahut.com/ne/omaha/2902-s-24th-st,,Pizza Hut,Q191615
1369,scooters_coffee_us,S 13th Street,,Omaha,NE,,US,+1 531-213-2801,,Mo-Su 05:00-21:00,Scooter's Coffee,Q117280308
1478215,usps,LEAVENWORTH,,OMAHA,NE,,US,+1 402-345-1949,,,United States Postal Service,Q668687
1432700,usps,MAIN OFFICE RETAIL,,OMAHA,NE,,US,+1 402-348-2696,,Mo-Fr 07:30-18:00; Sa 07:30-12:00,United States Postal Service,Q668687
6810800016,usps_collection_boxes,USPS COLLECTION BOX - BLUE BOX,3026 S 24TH ST,OMAHA,NE,,US,,,,United States Postal Service,Q668687
6810800000,usps_collection_boxes,USPS COLLECTION BOX - EXPRESS,1124 PACIFIC ST,OMAHA,NE,,US,,,,United States Postal Service,Q668687
6810800001,usps_collection_boxes,USPS COLLECTION BOX - BLUE BOX,1124 PACIFIC ST,OMAHA,NE,,US,,,,United States Postal Service,Q668687
6810800002,usps_collection_boxes,USPS COLLECTION BOX - BLUE BOX,1124 PACIFIC ST,OMAHA,NE,,US,,,,United States Postal Service,Q668687
6810800026,usps_collection_boxes,USPS COLLECTION BOX - PO LOBBY,1124 PACIFIC ST,OMAHA,NE,,US,,,,United States Postal Service,Q668687
6810800028,usps_collection_boxes,USPS COLLECTION BOX - PO LOBBY,1124 PACIFIC ST,OMAHA,NE,,US,,,,United States Postal Service,Q668687
6810800029,usps_collection_boxes,USPS COLLECTION BOX - PO LOBBY,1124 PACIFIC ST,OMAHA,NE,,US,,,,United States Postal Service,Q668687
6810800030,usps_collection_boxes,USPS COLLECTION BOX - PO LOBBY,1124 PACIFIC ST,OMAHA,NE,,US,,,,United States Postal Service,Q668687
6810800031,usps_collection_boxes,USPS COLLECTION BOX - PO LOBBY,1124 PACIFIC ST,OMAHA,NE,,US,,,,United States Postal Service,Q668687
6810800046,usps_collection_boxes,USPS COLLECTION BOX - PO LOBBY,1124 PACIFIC ST,OMAHA,NE,,US,,,,United States Postal Service,Q668687
,visa,,,OMAHA,NE,,US,,,,,
,visa,,,OMAHA,NE,,US,,,,,
,visa,,,OMAHA,NE,,US,,,,,
,visa,,,OMAHA,NE,,US,,,,,
,visa,,,OMAHA,NE,,US,,,,,
,visa,,,OMAHA,NE,,US,,,,,
,visa,,,OMAHA,NE,,US,,,,,
,visa,,,OMAHA,NE,,US,,,,,
,visa,,,OMAHA,NE,,US,,,,,
,visa,,,OMAHA,NE,,US,,,,,
,visa,,,OMAHA,NE,,US,,,,,
,visa,,,OMAHA,NE,,US,,,,,
,visa,,,OMAHA,NE,,US,,,,,
,visa,,,OMAHA,NE,,US,,,,,
,visa,,,OMAHA,NE,,US,,,,,
,visa,,,OMAHA,NE,,US,,,,,
,visa,,,OMAHA,NE,,US,,,,,
,visa,,,OMAHA,NE,,US,,,,,
,visa,,,OMAHA,NE,,US,,,,,
,visa,,,OMAHA,NE,,US,,,,,
,visa,,,OMAHA,NE,,US,,,,,
,visa,,,OMAHA,NE,,US,,,,,
,visa,,,OMAHA,NE,,US,,,,,
,visa,,,OMAHA,NE,,US,,,,,
,visa,,,OMAHA.,NE,,US,,,,,
,visa,,,OMAHA,NE,,US,,,,,
,visa,,,OMAHA,NE,,US,,,,,
,visa,,,OMAHA,NE,,US,,,,,
,visa,,,OMAHA,NE,,US,,,,,
,visa,,,OMAHA,NE,,US,,,,,
,visa,,,OMAHA,NE,,US,,,,,
https://www.walgreens.com/locator/walgreens-3121+s+24th+st-omaha-ne-68108/id=6962,walgreens,Walgreens,,Omaha,NE,,US,+1 402-345-7178,https://www.walgreens.com/locator/walgreens-3121+s+24th+st-omaha-ne-68108/id=6962,Mo-Su 07:00-23:00,Walgreens,Q1591889
5d61adadff9c216f8c2088b77564afa3,western_union,FRESNILLO TAX SERVICE,,Omaha,NE,,US,+1 402-932-7622,https://location.westernunion.com/us/ne/omaha/5d61adadff9c216f8c2088b77564afa3,Mo-Su 09:00-20:00,Western Union,Q861042
