Ref,Spider,Name,Address,City,State,Zipcode,Country,Phone,Website,Hours,Brand,WikiData
181244,bluerhino,Lacon IGA #610526,,Lacon,IL,,US,+1 309-246-8138,,,Blue Rhino,Q65681213
203175,bluerhino,CASEY'S GENERAL STORE #3751,,LACON,IL,,US,+1 309-246-4142,,,Blue Rhino,Q65681213
189986,bluerhino,Minit Mart #631,,Lacon,IL,,US,+1 309-807-0095,,,Blue Rhino,Q65681213
60812999204056154000100000000000,bp,BP,,Lacon,IL,,US,+1 309-807-0095,,24/7,BP,Q152057
65760,citi,ATM MORTON COMMUNITY BANK 07,,Lacon,IL,,US,,,,Citibank,Q857063
https://www.edwardjones.com/us-en/financial-advisor/benjamin-schmidt,edwardjones,Benjamin J Schmidt,,Lacon,IL,,US,+1 309-246-2008,https://www.edwardjones.com/us-en/financial-advisor/benjamin-schmidt,Mo-Th 08:00-16:00; Fr 08:00-15:00,Edward Jones,Q5343830
520898,eg_america_us,Minit Mart,,Lacon,IL,,US,+1 309-807-0095,https://www.minitmart.com/find-us/generic-store-page/?id=600631,,Minit Mart,Q18154470
https://local.fedex.com/#25231513,fedex,,,Lacon,IL,,US,+1 800-463-3339,https://local.fedex.com/en-us/il/lacon/stqae,,FedEx,Q459477
Jim's IGA #526,iga,Jim's IGA #526,"202 N. Washington, Lacon, IL, 61540",Lacon,IL,,US,+1 305-673-8509,https://jimslacon.iga.com,,IGA,Q3146662
https://restaurants.subway.com/#14897976,subway,Subway Minit Mart/Gas,,Lacon Marshall,IL,,US,+1 309-246-7827,https://restaurants.subway.com/united-states/il/lacon/1405-5th-st,Mo-Su 08:00-21:00,Subway,Q244457
1369459,usps,LACON,,LACON,IL,,US,+1 309-246-7312,,"Mo-Fr 09:00-11:00,12:00-16:30; Sa 10:00-12:00",United States Postal Service,Q668687
6154000001,usps_collection_boxes,USPS COLLECTION BOX - BLUE BOX,209 N WASHINGTON ST,LACON,IL,,US,,,,United States Postal Service,Q668687
6154000002,usps_collection_boxes,USPS COLLECTION BOX - PO LOBBY,209 N WASHINGTON ST,LACON,IL,,US,,,,United States Postal Service,Q668687
6154000016,usps_collection_boxes,USPS COLLECTION BOX - PO LOBBY,209 N WASHINGTON ST,LACON,IL,,US,,,,United States Postal Service,Q668687
6154000003,usps_collection_boxes,USPS COLLECTION BOX - BLUE BOX,515 5TH ST,LACON,IL,,US,,,,United States Postal Service,Q668687
6154000004,usps_collection_boxes,USPS COLLECTION BOX - BLUE BOX,705 S PRAIRIE ST,LACON,IL,,US,,,,United States Postal Service,Q668687
,visa,,,LACON,IL,,US,,,,,
,visa,,,LACON,IL,,US,,,,,
,visa,,,LACON,IL,,US,,,,,
,visa,,,LACON,IL,,US,,,,,
,visa,,,LACON,IL,,US,,,,,
,visa,,,LACON,IL,,US,,,,,
,visa,,,LACON,IL,,US,,,,,
,visa,,,LACON,IL,,US,,,,,
