Ref,Spider,Name,Address,City,State,Zipcode,Country,Phone,Website,Hours,Brand,WikiData
https://stores.advanceautoparts.com/ne/bellevue/1702-harlan-dr,advance_auto_parts_us,Advance Auto Parts,,Bellevue,NE,,US,+1 402-293-9999,https://stores.advanceautoparts.com/ne/bellevue/1702-harlan-dr,Mo-Sa 07:30-21:00; Su 09:00-20:00,Advance Auto Parts,Q4686051
https://locations.atipt.com/bellevue-ne,ati_physical_therapy,ATI Physical Therapy Bellevue 237573,,Bellevue,NE,,US,+1 402-408-0890,https://locations.atipt.com/bellevue-ne,,ATI Physical Therapy,Q50039703
3789,autozone_us,AutoZone Auto Parts Bellevue,,Bellevue,NE,,US,+1 402-291-4091,https://www.autozone.com/locations/ne/bellevue/1821-wilshire-dr.html,Mo-Sa 08:00-21:00; Su 08:00-20:00,AutoZone,Q4826087
207400,bluerhino,CASEY'S GENERAL STORE #2966,,Bellevue,NE,,US,+1 402-291-0200,,,Blue Rhino,Q65681213
205022,bluerhino,Bakers/Dillons #318 - Fuel Center,,Omaha,NE,,US,+1 402-292-7070,,,Blue Rhino,Q65681213
52848,bluerhino,Bakers/Dillons #318,,Bellevue,NE,,US,+1 402-292-7070,,,Blue Rhino,Q65681213
45847,bluerhino,Westlake Ace Hardware #024 - Ace #7611,,Bellevue,NE,,US,+1 402-291-5517,,,Blue Rhino,Q65681213
170229,bluerhino,Kum & Go #373,,Bellevue,NE,,US,+1 402-291-0302,,,Blue Rhino,Q65681213
153629,bluerhino,Walgreens #03694,,Bellevue,NE,,US,+1 402-291-8404,,,Blue Rhino,Q65681213
178198,bluerhino,Kwik Shop #675,,Bellevue,NE,,US,+1 402-291-2967,,,Blue Rhino,Q65681213
05374,chevrolet,"BEARDMORE CHEVROLET, INC.",,Bellevue,NE,,US,+1 402-206-2109,https://www.beardmorechevy.com,Mo-Th 09:00-20:00; Fr-Sa 09:00-18:00,Chevrolet,Q29570
95056,citi,ATM WEST GATE BANK10,,Omaha,NE,,US,,,,Citibank,Q857063
95055,citi,ATM WEST GATE BANK10,,Omaha,NE,,US,,,,Citibank,Q857063
61798,citi,ATM Kwik Shop,,Bellevue,NE,,US,,,,Citibank,Q857063
55934,citi,ATM FIRST INTERSTATE BANK,,Bellevue,NE,,US,,,,Citibank,Q857063
48372,citi,ATM CVS,,Bellevue,NE,,US,,,,Citibank,Q857063
88310,citi,ATM Walgreens,,Bellevue,NE,,US,,,,Citibank,Q857063
61785,citi,ATM Kwik Shop,,Bellevue,NE,,US,,,,Citibank,Q857063
3085,cvs_us,CVS Pharmacy,,Bellevue,NE,,US,+1 402-292-2685,https://www.cvs.com/store-locator/bellevue-ne-pharmacies/1701-galvin-road-s-bellevue-ne-68005/storeid=3085,Mo-Fr 07:00-23:00; Sa-Su 08:00-20:00,CVS Pharmacy,Q2078880
6110,dominos_pizza_us,Domino's Pizza,,Bellevue,NE,,US,+1 402-292-4700,https://pizza.dominos.com/nebraska/bellevue/2015-pratt-ave-ste-113,Mo-Th 10:00-24:00; Fr-Sa 10:00-01:30; Su 10:00-24:00,Domino's,Q839466
358523,dunkin_us,Dunkin',,Bellevue,NE,,US,+1 531-999-1645,https://locations.dunkindonuts.com/en/ne/bellevue/1720-galvin-rd-s/358523,Mo-Su 04:30-19:00,Dunkin',Q847743
https://www.edwardjones.com/us-en/financial-advisor/mark-moore,edwardjones,Mark E Moore,,Bellevue,NE,,US,+1 402-291-3425,https://www.edwardjones.com/us-en/financial-advisor/mark-moore,Mo-Fr 08:00-16:30,Edward Jones,Q5343830
520577,eg_america_us,Kwik Shop,,Bellevue,NE,,US,+1 402-291-2967,https://www.kwikshop.com/find-us/generic-store-page/?id=350675,,Kwik Shop,Q6450417
520581,eg_america_us,Kwik Shop,,Bellevue,NE,,US,+1 402-292-9629,https://www.kwikshop.com/find-us/generic-store-page/?id=350688,,Kwik Shop,Q6450417
E16214,enterprise,Bellevue,,Bellevue,NE,,US,+1 402-293-0980,,,Enterprise Rent-A-Car,Q17085454
3788,family_fare_us,Family Fare - Bellevue,,Bellevue,NE,,US,+1 402-291-7170,https://www.shopfamilyfare.com/stores/family-fare-bellevue,Mo-Su 06:00-23:00,Family Fare,Q19868045
17647,firestone_auto_care,Firestone Complete Auto Care,,Bellevue,NE,,US,+1 402-972-8115,https://local.firestonecompleteautocare.com/nebraska/bellevue/941-fort-crook-rd-n/,,Firestone,Q420837
27350,h_r_block,H&R Block,,Bellevue,NE,,US,+1 402-292-8882,https://www.hrblock.com/local-tax-offices/nebraska/bellevue/1309-harlan-dr/27350/,,H&R Block,Q5627799
https://locations.jimmyjohns.com/ne/bellevue/sandwiches-877.html,jimmy_johns,Jimmy John's,,Bellevue,NE,,US,+1 402-934-9449,https://locations.jimmyjohns.com/ne/bellevue/sandwiches-877.html,,Jimmy John's,Q1689380
https://locations.kfc.com/#11247958,kfc,Chicken Nuggets Near Bellevue,,Bellevue,NE,,US,,https://locations.kfc.com/ne/bellevue/1407-j-f-kennedy-dr/chickennugget,Mo-Su 10:30-20:00,KFC,Q524757
NNA3842,nissan_europe,WOODHOUSE NISSAN,,BELLEVUE,NE,,US,+1 402-731-2622,https://www.woodhousenissan.com,Mo-Tu 08:00-20:00; We 08:00-18:00; Th 08:00-20:00; Fr 08:00-18:00; Sa 08:00-17:00,Nissan,Q20165
565041,penske,Avery Rents,,BELLEVUE,NE,,US,+1 402-291-1186,https://www.pensketruckrental.com/locations/us/nebraska/bellevue/565041/,,Penske,Q81234570
0000911882,phillips_66_conoco_76,ABS,,BELLEVUE,NE,,US,+1 402-292-2290,,,Conoco,Q109341187
ne_bellevue_1411-galvin-rd-s,pizza_hut_us,1411 Galvin Rd S,,Bellevue,NE,,US,+1 402-291-5900,https://locations.pizzahut.com/ne/bellevue/1411-galvin-rd-s,,Pizza Hut,Q191615
https://locations.quiktrip.com/#16003822,quiktrip_us,QuikTrip Store #586 1311 Fort Crook Rd N,,Bellevue,NE,,US,+1 402-738-9237,https://locations.quiktrip.com/ne/bellevue/1311-fort-crook-rd-n,24/7,QuikTrip,Q7271953
32,scooters_coffee_us,Fort Crook Road,,Bellevue,NE,,US,+1 402-731-2441,,Mo-Sa 06:00-18:00; Su 07:00-16:00,Scooter's Coffee,Q117280308
101,scooters_coffee_us,Harlan Drive & Galvin Rd,,Bellevue,NE,,US,+1 402-932-5665,,Mo-Su 06:00-20:00,Scooter's Coffee,Q117280308
https://stations.sinclairoil.com/ne/bellevue/1009-w-mission-ave,sinclair_us,Sinclair Gas Station,,Bellevue,NE,,US,+1 402-293-1644,https://stations.sinclairoil.com/ne/bellevue/1009-w-mission-ave,Mo-We 06:00-23:00; Th-Fr 06:00-24:00; Sa 06:00-23:00; Su 07:00-22:00,Sinclair,Q1290900
https://restaurants.subway.com/#14914770,subway,Subway Wal-Mart #2847,,Bellevue Sarpy,NE,,US,+1 402-293-7986,https://restaurants.subway.com/united-states/ne/bellevue/10504-s-15th-st,Mo-Th 09:00-20:00; Fr-Sa 09:00-21:00; Su 09:00-20:00,Subway,Q244457
https://restaurants.subway.com/#14910681,subway,Subway,,Bellevue Sarpy,NE,,US,+1 402-291-8818,https://restaurants.subway.com/united-states/ne/bellevue/1502-galvin-rd-s,Mo-Su 08:00-21:00,Subway,Q244457
https://locations.tacobell.com/#6146165,taco_bell,Taco Bell,,Bellevue,NE,,US,+1 402-292-6333,https://locations.tacobell.com/ne/bellevue/1506-galvin-rd-s.html,Mo-Sa 08:00-01:00; Su 08:00-24:00,Taco Bell,Q752941
583521,taco_johns_us,Bellevue - Harlan Dr.,"1314 Harlan Dr, Bellevue NE 68005",Bellevue,NE,,US,+1 402-934-9655,https://locations.tacojohns.com/ne/bellevue/1314-harlan-dr/,Mo-Th 06:00-22:00; Fr 06:00-23:00; Sa 07:00-23:00; Su 07:00-22:00,Taco John's,Q7673962
2220,upsstore,Bellevue,505 Cornhusker Rd Ste 105,Bellevue,NE,,US,+1 402-292-9293,https://locations.theupsstore.com/ne/bellevue/505-cornhusker-rd,,UPS Store,Q7771029
1354533,usps,BELLEVUE,,BELLEVUE,NE,,US,+1 402-291-1167,,Mo-Fr 08:30-17:00; Sa 09:00-13:00,United States Postal Service,Q668687
1530814,usps,OLDE TOWNE,,BELLEVUE,NE,,US,+1 402-292-2838,,Mo-Fr 09:00-11:00,United States Postal Service,Q668687
6800500051,usps_collection_boxes,USPS COLLECTION BOX - PO LOBBY,103 E MISSION AVE,BELLEVUE,NE,,US,,,,United States Postal Service,Q668687
6800500003,usps_collection_boxes,USPS COLLECTION BOX - BLUE BOX,211 W 22ND AVE,BELLEVUE,NE,,US,,,,United States Postal Service,Q668687
6800500017,usps_collection_boxes,USPS COLLECTION BOX - BLUE BOX,1802 GALVIN RD S,BELLEVUE,NE,,US,,,,United States Postal Service,Q668687
6800500005,usps_collection_boxes,USPS COLLECTION BOX - BLUE BOX,1502 HARLAN DR,BELLEVUE,NE,,US,,,,United States Postal Service,Q668687
6800500013,usps_collection_boxes,USPS COLLECTION BOX - BLUE BOX,1003 LINCOLN RD,BELLEVUE,NE,,US,,,,United States Postal Service,Q668687
6800500043,usps_collection_boxes,USPS COLLECTION BOX - BLUE BOX,1021 GALVIN RD S,BELLEVUE,NE,,US,,,,United States Postal Service,Q668687
6800500014,usps_collection_boxes,USPS COLLECTION BOX - BLUE BOX,1000 GALVIN RD S,BELLEVUE,NE,,US,,,,United States Postal Service,Q668687
6800500022,usps_collection_boxes,USPS COLLECTION BOX - BLUE BOX,801 GALVIN RD S,BELLEVUE,NE,,US,,,,United States Postal Service,Q668687
6800500040,usps_collection_boxes,USPS COLLECTION BOX - BLUE BOX,2609 VICTORIA AVE,BELLEVUE,NE,,US,,,,United States Postal Service,Q668687
6800500039,usps_collection_boxes,USPS COLLECTION BOX - BLUE BOX,2609 VICTORIA AVE,BELLEVUE,NE,,US,,,,United States Postal Service,Q668687
6800500050,usps_collection_boxes,USPS COLLECTION BOX - PO LOBBY,2609 VICTORIA AVE,BELLEVUE,NE,,US,,,,United States Postal Service,Q668687
6800500053,usps_collection_boxes,USPS COLLECTION BOX - APC,2609 VICTORIA AVE,BELLEVUE,NE,,US,,,,United States Postal Service,Q668687
6800500056,usps_collection_boxes,USPS COLLECTION BOX - PO LOBBY,2609 VICTORIA AVE,BELLEVUE,NE,,US,,,,United States Postal Service,Q668687
6800500028,usps_collection_boxes,USPS COLLECTION BOX - BLUE BOX,206 MARTIN DR,BELLEVUE,NE,,US,,,,United States Postal Service,Q668687
6800500023,usps_collection_boxes,USPS COLLECTION BOX - BLUE BOX,909 FORT CROOK RD N,BELLEVUE,NE,,US,,,,United States Postal Service,Q668687
6800500025,usps_collection_boxes,USPS COLLECTION BOX - BLUE BOX,1001 FORT CROOK RD N,BELLEVUE,NE,,US,,,,United States Postal Service,Q668687
,visa,,,BELLEVUE,NE,,US,,,,,
,visa,,,BELLEVUE,NE,,US,,,,,
,visa,,,BELLEVUE,NE,,US,,,,,
,visa,,,BELLEVUE,NE,,US,,,,,
,visa,,,BELLEVUE,NE,,US,,,,,
,visa,,,BELLEVUE,NE,,US,,,,,
,visa,,,BELLEVUE,NE,,US,,,,,
,visa,,,BELLEVUE,NE,,US,,,,,
,visa,,,BELLEVUE,NE,,US,,,,,
,visa,,,BELLEVUE,NE,,US,,,,,
,visa,,,BELLEVUE,NE,,US,,,,,
,visa,,,BELLEVUE,NE,,US,,,,,
,visa,,,BELLEVUE,NE,,US,,,,,
,visa,,,BELLEVUE,NE,,US,,,,,
,visa,,,BELLEVUE,NE,,US,,,,,
,visa,,,BELLEVUE,NE,,US,,,,,
,visa,,,BELLEVUE,NE,,US,,,,,
,visa,,,BELLEVUE,NE,,US,,,,,
,visa,,,BELLEVUE,NE,,US,,,,,
,visa,,,BELLEVUE,NE,,US,,,,,
,visa,,,OMAHA,NE,,US,,,,,
,visa,,,BELLEVUE,NE,,US,,,,,
,visa,,,BELLEVUE,NE,,US,,,,,
,visa,,,BELLEVUE,NE,,US,,,,,
,visa,,,BELLEVUE,NE,,US,,,,,
,visa,,,BELLEVUE,NE,,US,,,,,
,visa,,,BELLEVUE,NE,,US,,,,,
,visa,,,BELLEVUE,NE,,US,,,,,
,visa,,,BELLEVUE,NE,,US,,,,,
,visa,,,BELLEVUE,NE,,US,,,,,
,visa,,,BELLEVUE,NE,,US,,,,,
,visa,,,BELLEVUE,NE,,US,,,,,
,visa,,,BELLEVUE,NE,,US,,,,,
,visa,,,BELLEVUE,NE,,US,,,,,
,visa,,,BELLEVUE,NE,,US,,,,,
,visa,,,BELLEVUE,NE,,US,,,,,
,visa,,,BELLEVUE,NE,,US,,,,,
,visa,,,BELLEVUE,NE,,US,,,,,
,visa,,,BELLEVUE,NE,,US,,,,,
,visa,,,BELLEVUE,NE,,US,,,,,
,visa,,,BELLEVUE,NE,,US,,,,,
,visa,,,BELLEVUE,NE,,US,,,,,
,visa,,,OMAHA,NE,,US,,,,,
https://www.walgreens.com/locator/walgreens-1802+galvin+rd+s-bellevue-ne-68005/id=3694,walgreens,Walgreens,,Bellevue,NE,,US,+1 402-291-8400,https://www.walgreens.com/locator/walgreens-1802+galvin+rd+s-bellevue-ne-68005/id=3694,Mo-Su 06:00-24:00,Walgreens,Q1591889
1101__GALVIN__RD__S_BELLEVUE_NE_68005,wellsfargo,Wells Fargo,1101 GALVIN RD S,BELLEVUE,NE,,US,+1 402-682-6400,https://www.wellsfargo.com/locator/bank/1101__GALVIN__RD__S_BELLEVUE_NE_68005/,Mo-Fr 09:00-17:00,Wells Fargo,Q744149
https://locations.wendys.com/#9250879,wendys,"Wendy's Galvin Rd in Bellevue, NE",,Bellevue,NE,,US,+1 402-291-7157,https://locations.wendys.com/united-states/ne/bellevue/610-galvin-road,"Mo-Fr 06:30-10:30,09:00-22:00; Sa-Su 06:30-10:30,09:00-20:00",Wendy's,Q550258
d3a315182acc733fe6719e9f7518f4ef,western_union,KWIK SHOP #675,,Bellevue,NE,,US,+1 402-291-2967,https://location.westernunion.com/us/ne/bellevue/d3a315182acc733fe6719e9f7518f4ef,Mo-We 05:00-23:00; Th-Su 07:00-23:00,Western Union,Q861042
b755dca6f70ae6c5219a52444e571768,western_union,KWIK SHOP #688,,Bellevue,NE,,US,+1 402-292-9629,https://location.westernunion.com/us/ne/bellevue/b755dca6f70ae6c5219a52444e571768,Mo-We 05:00-23:00; Th-Su 07:00-23:00,Western Union,Q861042
