Ref,Spider,Name,Address,City,State,Zipcode,Country,Phone,Website,Hours,Brand,WikiData
6c6596a145b63cbc5814c780ea72f8b6,western_union,CBI   BOROMO,,Ouagadougou,KADIOGO,,BF,+226 25 49 10 00,https://location.westernunion.com/bf/kadiogo/ouagadougou/6c6596a145b63cbc5814c780ea72f8b6,Mo-Su 07:30-21:00,Western Union,Q861042
60ff5ce03bb4b7650abf6e92e2d14111,western_union,TROPICOM IT,,Ouagadougou,KADIOGO,,BF,+226 78 03 15 45,https://location.westernunion.com/bf/kadiogo/ouagadougou/60ff5ce03bb4b7650abf6e92e2d14111,Mo-Sa 07:00-20:00; Su 08:00-20:00,Western Union,Q861042
3e1478e904f1e871831ca94aaf1eb078,western_union,OPTIQUE AURORE,,Bobo Dioulasso,KADIOGO,,BF,+226 66 33 15 29,https://location.westernunion.com/bf/kadiogo/bobo-dioulasso/3e1478e904f1e871831ca94aaf1eb078,Mo-Fr 07:30-18:00; Sa 08:00-18:00,Western Union,Q861042
51ebbe42174ea316a6b83f9ad8cb5fa7,western_union,COUL PRESTATION,,Ouagadougou,KADIOGO,,BF,+226 70 29 08 90,https://location.westernunion.com/bf/kadiogo/ouagadougou/51ebbe42174ea316a6b83f9ad8cb5fa7,Mo-Sa 07:30-18:00,Western Union,Q861042
150d0442a1150229bafceb429a5e83fc,western_union,BCB AGENCE BONNHEUR VILLE,,Ouagadougou,KADIOGO,,BF,+226 25 32 59 80,https://location.westernunion.com/bf/kadiogo/ouagadougou/150d0442a1150229bafceb429a5e83fc,Mo-Fr 07:30-17:00; Sa 08:00-12:00,Western Union,Q861042
848e23a463552408eba048379f8604cd,western_union,BCB AGENCE PISSY,,Ouagadougou,KADIOGO,,BF,+226 25 43 03 74,https://location.westernunion.com/bf/kadiogo/ouagadougou/848e23a463552408eba048379f8604cd,Mo-Fr 07:30-17:00; Sa 08:00-12:00,Western Union,Q861042
ad5221a969453cf609a8c4d4f622ac30,western_union,BCB AGENCE NATION,,Ouagadougou,KADIOGO,,BF,+226 25 30 23 35,https://location.westernunion.com/bf/kadiogo/ouagadougou/ad5221a969453cf609a8c4d4f622ac30,Mo-Fr 07:30-17:00; Sa 08:00-12:00,Western Union,Q861042
4e5bed97329bfbf67d05ded534fa83f4,western_union,BCB AGENCE KWAME N KRUMAH,,Ouagadougou,KADIOGO,,BF,+226 25 31 77 25,https://location.westernunion.com/bf/kadiogo/ouagadougou/4e5bed97329bfbf67d05ded534fa83f4,Mo-Fr 07:30-17:00; Sa 08:00-12:00,Western Union,Q861042
0ea5163d413c51776075901ad4af9302,western_union,BCB AGENCE PATTE D OIE,,Ouagadougou,KADIOGO,,BF,+226 25 38 77 60,https://location.westernunion.com/bf/kadiogo/ouagadougou/0ea5163d413c51776075901ad4af9302,Mo-Fr 07:30-17:00; Sa 08:00-12:00,Western Union,Q861042
3510f2d90c47f9fae598eed5431286bc,western_union,BCB AGENCE SIEGE 653 DR K N K,,Ouagadougou,KADIOGO,,BF,+226 25 30 12 66,https://location.westernunion.com/bf/kadiogo/ouagadougou/3510f2d90c47f9fae598eed5431286bc,Mo-Fr 07:30-17:00; Sa 08:00-12:00,Western Union,Q861042
07cddea0670ea79301bf01d597336c42,western_union,BCB AGENCE WEMTENGA,,Ouagadougou,KADIOGO,,BF,+226 25 36 29 33,https://location.westernunion.com/bf/kadiogo/ouagadougou/07cddea0670ea79301bf01d597336c42,Mo-Fr 07:30-17:00; Sa 08:00-12:00,Western Union,Q861042
a0a806acb889de2e0caff496d238246f,western_union,SOMDIA,,Ouagadougou,KADIOGO,,BF,+226 73 52 72 43,https://location.westernunion.com/bf/kadiogo/ouagadougou/a0a806acb889de2e0caff496d238246f,Mo-Fr 07:00-20:30; Sa 07:00-18:00; Su 07:00-17:00,Western Union,Q861042
fe8c9081a646b5fee8069a31c74d2689,western_union,K T NEGOCE,,Ouagadougou,KADIOGO,,BF,+226 70 11 26 84,https://location.westernunion.com/bf/kadiogo/ouagadougou/fe8c9081a646b5fee8069a31c74d2689,Mo-Fr 07:00-18:00; Sa 08:00-16:00; Su 07:00-18:00,Western Union,Q861042
f1831e67c6a31b55bddce9a37349845b,western_union,CBI SOMDIRI,,Saaba,KADIOGO,,BF,+226 76 59 34 38,https://location.westernunion.com/bf/kadiogo/saaba/f1831e67c6a31b55bddce9a37349845b,Mo-Fr 07:00-18:00; Sa 08:00-16:00,Western Union,Q861042
7521018bf2fa1db594788b03f08e3733,western_union,OUEDRAOGO KAYOUBLO,,Ouagadougou,KADIOGO,,BF,+226 76 64 50 36,https://location.westernunion.com/bf/kadiogo/ouagadougou/7521018bf2fa1db594788b03f08e3733,Mo-Fr 07:00-18:00; Sa 07:00-17:00; Su 08:00-15:00,Western Union,Q861042
30b2c13a45f2b4101362f07fe8ab71cf,western_union,BARKWENDE TRADING,,Ouagadougou,KADIOGO,,BF,+226 70 20 31 18,https://location.westernunion.com/bf/kadiogo/ouagadougou/30b2c13a45f2b4101362f07fe8ab71cf,Mo-Sa 07:00-21:00; Su 08:00-21:00,Western Union,Q861042
e1baacc042f8b1bab0b0d61b20145f54,western_union,BANYALA CONSORTIUM,,Kadiogo,KADIOGO,,BF,+226 70 21 60 50,https://location.westernunion.com/bf/kadiogo/kadiogo/e1baacc042f8b1bab0b0d61b20145f54,Mo-Su 07:30-18:30,Western Union,Q861042
8a5923c32602ec1dc76f36e822c0f1f1,western_union,ASKYA FINANCES PISSY,,Ouagadougou,KADIOGO,,BF,+226 70 54 94 17,https://location.westernunion.com/bf/kadiogo/ouagadougou/8a5923c32602ec1dc76f36e822c0f1f1,Mo-Sa 07:00-19:30; Su 07:00-17:00,Western Union,Q861042
cf670d3f9a1abab9ee0c530f5ef24f62,western_union,COOPEC AFA BOASSA,,Ouagadougou,KADIOGO,,BF,+226 05 69 04 06,https://location.westernunion.com/bf/kadiogo/ouagadougou/cf670d3f9a1abab9ee0c530f5ef24f62,Mo-Sa 07:30-19:00; Su 07:30-18:30,Western Union,Q861042
655c2f3cf994359b6852b01d0a466dcb,western_union,TRADER AFRIQ,,Ouagadougou,KADIOGO,,BF,+226 70 87 87 19,https://location.westernunion.com/bf/kadiogo/ouagadougou/655c2f3cf994359b6852b01d0a466dcb,Mo-Fr 07:30-19:00; Sa-Su 08:00-15:00,Western Union,Q861042
82558594fbbe0b4d4f8eca4ef69981e8,western_union,AGENCE NABONSWEND 2,,Ouagadougou,KADIOGO,,BF,+226 52 16 46 64,https://location.westernunion.com/bf/kadiogo/ouagadougou/82558594fbbe0b4d4f8eca4ef69981e8,Mo-Fr 07:00-19:30; Sa 07:00-19:00; Su 07:00-18:00,Western Union,Q861042
9260050b4c829617da07ba8258a936f7,western_union,KEBA TRADING,,Ouagadougou,KADIOGO,,BF,+226 65 53 93 92,https://location.westernunion.com/bf/kadiogo/ouagadougou/9260050b4c829617da07ba8258a936f7,Mo-Fr 07:30-19:00; Sa 08:00-17:00,Western Union,Q861042
20e1908495a583c3543826a596221b60,western_union,AGENCE TANGHIN DASSOURI,,Tanghin Dassouri,KADIOGO,,BF,+226 51 51 16 30,https://location.westernunion.com/bf/kadiogo/tanghin-dassouri/20e1908495a583c3543826a596221b60,Mo-Fr 07:00-17:00; Sa 07:30-14:00,Western Union,Q861042
3abe455e73d878622383a1c79b94ae2c,western_union,MULTI CHANGE BURKINA SARL,,Ouagadougou,KADIOGO,,BF,+226 25 36 27 29,https://location.westernunion.com/bf/kadiogo/ouagadougou/3abe455e73d878622383a1c79b94ae2c,Mo-Su 07:30-18:30,Western Union,Q861042
a140b199ecb77f353953ad8d6db36ef4,western_union,YAMBA BUSINESS CENTER,,Ouagadougou,KADIOGO,,BF,+226 76 02 38 10,https://location.westernunion.com/bf/kadiogo/ouagadougou/a140b199ecb77f353953ad8d6db36ef4,Mo-Fr 07:00-18:30; Sa-Su 08:00-18:00,Western Union,Q861042
7f5c677f68a1191c17a8bda0da3b1f45,western_union,COFINA NONSIN,,Ouagadougou,KADIOGO,,BF,+226 25 33 19 19,https://location.westernunion.com/bf/kadiogo/ouagadougou/7f5c677f68a1191c17a8bda0da3b1f45,Mo-Fr 07:30-19:00; Sa 08:30-14:00,Western Union,Q861042
1569e59a13436b0e38bfbce231871687,western_union,MUTUELLE BAILTOUL MAAL 10 YAAR,,Ouagadougou,KADIOGO,,BF,+226 70 12 04 33,https://location.westernunion.com/bf/kadiogo/ouagadougou/1569e59a13436b0e38bfbce231871687,Mo-Fr 07:00-18:00; Sa 07:00-17:30,Western Union,Q861042
e093c7f4d3e125f567eb0163b0afb4b3,western_union,D G TELECOM,,Ouagadougou,KADIOGO,,BF,+226 76 12 24 99,https://location.westernunion.com/bf/kadiogo/ouagadougou/e093c7f4d3e125f567eb0163b0afb4b3,Mo-Sa 07:00-21:00; Su 07:00-18:00,Western Union,Q861042
95dfb32952e2809ddc19f5b8ead90022,western_union,SITFE ZAGTOULI,,Ouagadougou,KADIOGO,,BF,+226 75 62 36 10,https://location.westernunion.com/bf/kadiogo/ouagadougou/95dfb32952e2809ddc19f5b8ead90022,Mo-Su 08:00-19:00,Western Union,Q861042
7795a154b86904a4c933dd153e1ec71c,western_union,ROAMBA LASSANE ET FRERES,,Ouagadougou,KADIOGO,,BF,+226 76 52 06 59,https://location.westernunion.com/bf/kadiogo/ouagadougou/7795a154b86904a4c933dd153e1ec71c,Mo-Su 07:30-20:00,Western Union,Q861042
7e3c24e91373340fa780c43435b50b05,western_union,ORABANK,,Ouagadougou,KADIOGO,,BF,+226 25 49 60 82,https://location.westernunion.com/bf/kadiogo/ouagadougou/7e3c24e91373340fa780c43435b50b05,Mo-Fr 07:30-18:00; Sa 08:00-13:00,Western Union,Q861042
3ff258ecd644f7f42d54e6816c42f82f,western_union,SULTAN TELECOMS,,Ouagadougou,KADIOGO,,BF,+226 76 41 60 21,https://location.westernunion.com/bf/kadiogo/ouagadougou/3ff258ecd644f7f42d54e6816c42f82f,Mo-Su 07:30-19:00,Western Union,Q861042
5f6df53754f759e6a475c772dfc1a118,western_union,BSICBF  KAMBOINSIN,,Ouagadougou,KADIOGO,,BF,+226 25 30 21 22,https://location.westernunion.com/bf/kadiogo/ouagadougou/5f6df53754f759e6a475c772dfc1a118,Mo-Fr 08:00-17:00; Sa 08:00-12:00,Western Union,Q861042
a387c8cf87e37b68f55f905f265611d0,western_union,LA POSTE KILWIN,,Ouagadougou,KADIOGO,,BF,+226 63 91 06 12,https://location.westernunion.com/bf/kadiogo/ouagadougou/a387c8cf87e37b68f55f905f265611d0,Mo-Fr 07:00-17:30; Sa 07:30-14:00,Western Union,Q861042
d19bf1b74fa5b237439ecb9a193240f7,western_union,AGENCE BENOGO VYA PLANIUM  BIS,,Ouagadougou,KADIOGO,,BF,+226 70 02 64 79,https://location.westernunion.com/bf/kadiogo/ouagadougou/d19bf1b74fa5b237439ecb9a193240f7,Mo-Fr 07:00-20:00; Sa 07:00-19:00; Su 07:00-17:00,Western Union,Q861042
5406c9ecee8f0b8a934736409af2565d,western_union,MEC ST KILWIN,,Ouagadougou,KADIOGO,,BF,+226 78 50 79 57,https://location.westernunion.com/bf/kadiogo/ouagadougou/5406c9ecee8f0b8a934736409af2565d,Mo-Fr 07:30-19:00; Sa 08:00-17:00,Western Union,Q861042
7ac01ae63dc35d37553238dee556c141,western_union,ETS BARKHANA,,Ouagadougou,KADIOGO,,BF,+226 78 00 49 49,https://location.westernunion.com/bf/kadiogo/ouagadougou/7ac01ae63dc35d37553238dee556c141,Mo-Fr 07:00-18:00; Sa-Su 08:00-17:00,Western Union,Q861042
ea02b2a9a9aa7bf429e157c739f737a3,western_union,EGFI,,Ouagadougou,KADIOGO,,BF,+226 71 93 27 20,https://location.westernunion.com/bf/kadiogo/ouagadougou/ea02b2a9a9aa7bf429e157c739f737a3,Mo-Fr 07:30-19:00; Sa 08:00-17:00,Western Union,Q861042
fb5ba7c1ab885c8f43b87d4eac9d889c,western_union,ETSZIDAMATHIEU,,Ouagadougou,KADIOGO,,BF,+226 78 00 94 25,https://location.westernunion.com/bf/kadiogo/ouagadougou/fb5ba7c1ab885c8f43b87d4eac9d889c,Mo-Su 07:30-19:00,Western Union,Q861042
92be9031aaea1999f8316f0bddd56cc0,western_union,EZAMA,,Ouagadougou,KADIOGO,,BF,+226 73 46 59 90,https://location.westernunion.com/bf/kadiogo/ouagadougou/92be9031aaea1999f8316f0bddd56cc0,Mo-Fr 08:00-18:00; Sa 08:00-14:00,Western Union,Q861042
1ccfd85d8694bbdea1190d9855ffa457,western_union,EZAMA,,Ouagadougou,KADIOGO,,BF,+226 73 46 59 90,https://location.westernunion.com/bf/kadiogo/ouagadougou/1ccfd85d8694bbdea1190d9855ffa457,Mo-Fr 08:00-18:00; Sa 08:00-14:00,Western Union,Q861042
e39346dbc2aa2d7dac6012b0d303513b,western_union,ETS WENDE YA WENDE,,Ouagadougou,KADIOGO,,BF,+226 70 63 48 93,https://location.westernunion.com/bf/kadiogo/ouagadougou/e39346dbc2aa2d7dac6012b0d303513b,Mo-Sa 07:00-20:00; Su 08:00-20:00,Western Union,Q861042
a23b2e0021393cf13e970e9fc03776e3,western_union,CBI PAUL VI,,Ouagadougou,KADIOGO,,BF,(+226) 25-78098912,https://location.westernunion.com/bf/kadiogo/ouagadougou/a23b2e0021393cf13e970e9fc03776e3,Mo-Fr 07:30-19:00; Sa-Su 08:00-15:00,Western Union,Q861042
a30a2501f3d6f6b3ea6b69c6e737421f,western_union,BCB AGENCE KOSSOGHIN,,Ouagadougou,KADIOGO,,BF,+226 25 32 59 88,https://location.westernunion.com/bf/kadiogo/ouagadougou/a30a2501f3d6f6b3ea6b69c6e737421f,Mo-Fr 07:30-17:00; Sa 07:30-12:00,Western Union,Q861042
5ae8c1fa67683d71ceea2da64591e35e,western_union,JACKIS TRAVELS AND TOURS SARL,,Ouagadougou,KADIOGO,,BF,+226 79 65 77 04,https://location.westernunion.com/bf/kadiogo/ouagadougou/5ae8c1fa67683d71ceea2da64591e35e,Mo-Fr 07:00-19:00; Sa 08:00-17:00,Western Union,Q861042
d33c36081713d3467f110199b5636a61,western_union,CBI KIRAMAS,,Ouagadougou,KADIOGO,,BF,+226 78 21 90 01,https://location.westernunion.com/bf/kadiogo/ouagadougou/d33c36081713d3467f110199b5636a61,Mo-Fr 07:00-21:00; Sa-Su 08:00-18:00,Western Union,Q861042
e52a12ca5447de4e8632019745a2fdca,western_union,BENIE TRANSFERT TAMPOUY,,Ouagadougou,KADIOGO,,BF,+226 72 39 00 72,https://location.westernunion.com/bf/kadiogo/ouagadougou/e52a12ca5447de4e8632019745a2fdca,Mo-Sa 07:00-19:00; Su 07:00-16:00,Western Union,Q861042
d9530ea642e9f4b97db513da166fcc6e,western_union,TRANSFERT CENTER TAMPOUY,,Ouagadougou,KADIOGO,,BF,+226 70 13 03 00,https://location.westernunion.com/bf/kadiogo/ouagadougou/d9530ea642e9f4b97db513da166fcc6e,Mo-Fr 07:30-19:00; Sa 07:30-17:00,Western Union,Q861042
170f7d13d46cae2d8c6528254de3a9f8,western_union,BENIE TRANSFERT TAMPOUY,,Ouagadougou,KADIOGO,,BF,+226 78 38 29 88,https://location.westernunion.com/bf/kadiogo/ouagadougou/170f7d13d46cae2d8c6528254de3a9f8,Mo-Fr 07:00-19:30; Sa 07:00-18:00; Su 07:00-16:00,Western Union,Q861042
1c6b1ac038e90eeeb638e9fd12d5a991,western_union,TOURE HAOUA MULTI-SERVICES,,Ouagadougou,KADIOGO,,BF,+226 07 20 39 78,https://location.westernunion.com/bf/kadiogo/ouagadougou/1c6b1ac038e90eeeb638e9fd12d5a991,Mo-Su 07:00-18:00,Western Union,Q861042
78f6bf6226db17e90063ef8741f94179,western_union,ONE CLIC,,Ouagadougou,KADIOGO,,BF,+226 71 34 03 41,https://location.westernunion.com/bf/kadiogo/ouagadougou/78f6bf6226db17e90063ef8741f94179,Mo-Su 07:00-18:00,Western Union,Q861042
a0f6a8a69fc07fcb513677cf8f7a99a8,western_union,NABONSWENDE CITEE AN3,,Ouagadougou,KADIOGO,,BF,(+226) 25-78009425,https://location.westernunion.com/bf/kadiogo/ouagadougou/a0f6a8a69fc07fcb513677cf8f7a99a8,Mo-Fr 07:00-18:00; Sa 08:00-17:00,Western Union,Q861042
ed221419d5fc0fce04df65d050e7232e,western_union,ETS ZIDA MATHIEU,,Ouagadougou,KADIOGO,,BF,(+226) 25-78009425,https://location.westernunion.com/bf/kadiogo/ouagadougou/ed221419d5fc0fce04df65d050e7232e,Mo-Fr 07:30-18:00; Sa 07:30-16:00,Western Union,Q861042
1e8a2a09c8b1e671828dd687c558c931,western_union,ZIDA CLARISSE,,Ouagadougou,KADIOGO,,BF,+226 50 30 83 73,https://location.westernunion.com/bf/kadiogo/ouagadougou/1e8a2a09c8b1e671828dd687c558c931,Mo-Sa 07:00-18:00,Western Union,Q861042
031eb565055c9dc59e9b92cc3839e424,western_union,SHALOM ENTREPRISE,,Ouagadougou,KADIOGO,,BF,+226 78 17 57 77,https://location.westernunion.com/bf/kadiogo/ouagadougou/031eb565055c9dc59e9b92cc3839e424,Mo-Su 07:30-18:30,Western Union,Q861042
3b391111729f72cd6b05005d47983d9b,western_union,BARK BIIGA SERVICES,,Ouagadougou,KADIOGO,,BF,+226 71 94 46 29,https://location.westernunion.com/bf/kadiogo/ouagadougou/3b391111729f72cd6b05005d47983d9b,Mo-Su 07:30-18:30,Western Union,Q861042
91cb9c8cc2419ca28bedd46d42894f37,western_union,ECOBANK BURKINA,,Ouagadougou,KADIOGO,,BF,+226 50 31 11 11,https://location.westernunion.com/bf/kadiogo/ouagadougou/91cb9c8cc2419ca28bedd46d42894f37,Mo-Fr 07:30-18:30; Sa 08:00-17:30,Western Union,Q861042
6554115ac1dd3a4bfb486d3f9840dbed,western_union,MOHAMED NOURIA NASSIM YACINE,,Ouagadougou,KADIOGO,,BF,+226 65 73 37 94,https://location.westernunion.com/bf/kadiogo/ouagadougou/6554115ac1dd3a4bfb486d3f9840dbed,Mo-Sa 07:30-18:30,Western Union,Q861042
369d7a2d6d4c7c7343d152f6298326e3,western_union,OUBRI BUSINESS CENTER II,,Ouagadougou,KADIOGO,,BF,+226 51 65 89 37,https://location.westernunion.com/bf/kadiogo/ouagadougou/369d7a2d6d4c7c7343d152f6298326e3,Mo-Sa 08:00-18:00,Western Union,Q861042
8fc2491acd133636e16513501d3804b6,western_union,ZEDANWO,,Ouagadougou,KADIOGO,,BF,+226 70 44 99 44,https://location.westernunion.com/bf/kadiogo/ouagadougou/8fc2491acd133636e16513501d3804b6,Mo-Fr 07:30-19:00; Sa 07:30-17:00,Western Union,Q861042
0e9b352d27d4ba9a1552e5a4af92d75c,western_union,ETS KOANDA SAYOUBA ET FRERES,,Ouagadougou,KADIOGO,,BF,+226 76 14 22 95,https://location.westernunion.com/bf/kadiogo/ouagadougou/0e9b352d27d4ba9a1552e5a4af92d75c,Mo-Su 07:30-19:00,Western Union,Q861042
0fbf948687d38c23603222642006170d,western_union,ETS ZOUMA AND FILS,,Ouagadougou,KADIOGO,,BF,+226 79 29 84 87,https://location.westernunion.com/bf/kadiogo/ouagadougou/0fbf948687d38c23603222642006170d,Mo-Su 07:30-19:00,Western Union,Q861042
e33d82da4becdf116544d54449aa8a16,western_union,LA BOUSOLE,,Ouagadougou,KADIOGO,,BF,+226 70 06 17 76,https://location.westernunion.com/bf/kadiogo/ouagadougou/e33d82da4becdf116544d54449aa8a16,Mo-Su 07:30-19:00,Western Union,Q861042
2f5c33003c232f9687f6bd5514737c9d,western_union,CORIS MESO FINANCE LARLE,,Ouagadougou,KADIOGO,,BF,+226 25 32 00 00,https://location.westernunion.com/bf/kadiogo/ouagadougou/2f5c33003c232f9687f6bd5514737c9d,Mo-Sa 07:30-17:00; Su 00:00-10:00,Western Union,Q861042
0acca15f041d69451a8579c5033ef530,western_union,NANI SERVICES,,Ouagadougou,KADIOGO,,BF,+226 73 73 72 72,https://location.westernunion.com/bf/kadiogo/ouagadougou/0acca15f041d69451a8579c5033ef530,Mo-Su 07:00-21:30,Western Union,Q861042
6561f32f39242da5eb20cee7f7a763b3,western_union,IMAANE VOYAGE ET TOURISME,,Ouagadougou,KADIOGO,,BF,+226 76 66 01 35,https://location.westernunion.com/bf/kadiogo/ouagadougou/6561f32f39242da5eb20cee7f7a763b3,Mo-Fr 07:00-19:00; Sa-Su 08:00-18:00,Western Union,Q861042
ee1749b4c664b61041b368b1bf36f5fe,western_union,INTELLO MATERIELS DISTRIBUTION,,Ziniare,KADIOGO,,BF,+226 70 34 35 02,https://location.westernunion.com/bf/kadiogo/ziniare/ee1749b4c664b61041b368b1bf36f5fe,Mo-Sa 07:00-20:00; Su 08:00-20:00,Western Union,Q861042
d19b7ccf4891d93c71936d2fa58c285a,western_union,SORE AB BASSIR MULTI SERVICES,,Ouagadougou,KADIOGO,,BF,+226 77 40 28 15,https://location.westernunion.com/bf/kadiogo/ouagadougou/d19b7ccf4891d93c71936d2fa58c285a,Mo-Su 07:00-18:00,Western Union,Q861042
83fdcd81430dd0dd70e22c4a4f668707,western_union,AGENCE OVER SERVICE SARL,,Ouagadougou,KADIOGO,,BF,+226 70 20 26 12,https://location.westernunion.com/bf/kadiogo/ouagadougou/83fdcd81430dd0dd70e22c4a4f668707,Mo-Fr 07:00-18:30; Sa 07:00-17:30,Western Union,Q861042
eeee40b6bb406a7ce0a15f3d57f901dd,western_union,BDU BF SANKARIARE,,Ouagadougou,KADIOGO,,BF,+226 25 49 36 02,https://location.westernunion.com/bf/kadiogo/ouagadougou/eeee40b6bb406a7ce0a15f3d57f901dd,Mo-Fr 08:00-16:15; Sa 08:00-11:00,Western Union,Q861042
a8b68ce80c39a9b456296a0268329c66,western_union,MARYSE TRANSFERT,,Ouagadougou,KADIOGO,,BF,+226 70 25 58 27,https://location.westernunion.com/bf/kadiogo/ouagadougou/a8b68ce80c39a9b456296a0268329c66,Mo-Su 07:00-21:30,Western Union,Q861042
4dff1eff23529949d8b7eac0e3679856,western_union,ECOBANK BURKINA,,Ouagadougou,KADIOGO,,BF,+226 66 45 12 25,https://location.westernunion.com/bf/kadiogo/ouagadougou/4dff1eff23529949d8b7eac0e3679856,Mo-Fr 07:30-18:30; Sa 08:00-17:30,Western Union,Q861042
22a9861ba981738ed33c2067b9232c27,western_union,CORIS BANK TANGHIN,,Ouagadougou,KADIOGO,,BF,+226 79 36 78 16,https://location.westernunion.com/bf/kadiogo/ouagadougou/22a9861ba981738ed33c2067b9232c27,Mo-Th 07:30-19:00; Fr-Su 08:00-13:00,Western Union,Q861042
63e1c0a9988b63bf21699d9022559763,western_union,SABOU TRANSFERT,,Ouagadougou,KADIOGO,,BF,+226 78 60 28 41,https://location.westernunion.com/bf/kadiogo/ouagadougou/63e1c0a9988b63bf21699d9022559763,Mo-Fr 07:00-18:30; Sa 07:00-18:00,Western Union,Q861042
216f4bb06da0730a28c5a012b4c10c19,western_union,KARFAHAN,,Ouagadougou,KADIOGO,,BF,+226 71 89 02 95,https://location.westernunion.com/bf/kadiogo/ouagadougou/216f4bb06da0730a28c5a012b4c10c19,Mo-Fr 07:00-18:00; Sa 08:00-16:00,Western Union,Q861042
bf4dc13a3c6704a4e61f2e1c34ad1cbe,western_union,EZAMA,,Ouagadougou,KADIOGO,,BF,(+226) 465990-73465990,https://location.westernunion.com/bf/kadiogo/ouagadougou/bf4dc13a3c6704a4e61f2e1c34ad1cbe,Mo-Fr 08:00-18:00; Sa 08:00-14:00,Western Union,Q861042
e20657e8ba4a9dbc576a652a0ea40d22,western_union,EZAMA,,Ouagadougou,KADIOGO,,BF,+226 73 46 59 90,https://location.westernunion.com/bf/kadiogo/ouagadougou/e20657e8ba4a9dbc576a652a0ea40d22,Mo-Fr 08:00-18:00; Sa 08:00-14:00,Western Union,Q861042
f4c16e2b0824d477ca6fbb524908c28d,western_union,AUDREY MONEY,,Ouagadougou,KADIOGO,,BF,+226 72 25 93 90,https://location.westernunion.com/bf/kadiogo/ouagadougou/f4c16e2b0824d477ca6fbb524908c28d,Mo-Fr 07:00-18:00; Sa-Su 08:00-18:00,Western Union,Q861042
562fa1e67d66a315930264c395e08b60,western_union,BIB,,Ouagadougou,KADIOGO,,BF,+226 50 30 87 20,https://location.westernunion.com/bf/kadiogo/ouagadougou/562fa1e67d66a315930264c395e08b60,Mo-Fr 07:00-18:00; Sa 08:00-13:00,Western Union,Q861042
7ffd9f42fcbbde1acff862560b0a457c,western_union,BANQUE INTERNATIONALE DU BURKI,,Ouagadougou,KADIOGO,,BF,(+226) 505-500000,https://location.westernunion.com/bf/kadiogo/ouagadougou/7ffd9f42fcbbde1acff862560b0a457c,Mo-Fr 07:00-18:00; Sa 08:00-13:00,Western Union,Q861042
5dad34607f8223b71e25818864b846c7,western_union,KORGO ET FRERES,,Ouagadougou,KADIOGO,,BF,+226 70 80 03 09,https://location.westernunion.com/bf/kadiogo/ouagadougou/5dad34607f8223b71e25818864b846c7,Mo-Su 07:30-19:00,Western Union,Q861042
e89b2c3a7cdce08edd6d44c7e3301ec4,western_union,KENZA SERVICES,,Ouagadougou,KADIOGO,,BF,+226 75 94 40 40,https://location.westernunion.com/bf/kadiogo/ouagadougou/e89b2c3a7cdce08edd6d44c7e3301ec4,Mo-Su 07:30-21:00,Western Union,Q861042
9ae32c9bcf4326a19d40613d4777c884,western_union,BG BUSINESS AND MULTISERVICES PISSY,,Ouagadougou,KADIOGO,,BF,+226 78 77 47 70,https://location.westernunion.com/bf/kadiogo/ouagadougou/9ae32c9bcf4326a19d40613d4777c884,Mo-Fr 07:00-18:30; Sa 07:00-17:30,Western Union,Q861042
cebc84c5bc362e3986f5bafde5238fc0,western_union,RAM S DISTRIBUTION,,Ouagadougou,KADIOGO,,BF,+226 70 30 30 99,https://location.westernunion.com/bf/kadiogo/ouagadougou/cebc84c5bc362e3986f5bafde5238fc0,Mo-Su 07:30-19:00,Western Union,Q861042
e7aa87e2616049f6082648abc627986c,western_union,GRACEDI SERVICE,,Ouagadougou,KADIOGO,,BF,+226 65 30 42 95,https://location.westernunion.com/bf/kadiogo/ouagadougou/e7aa87e2616049f6082648abc627986c,Mo-Sa 07:00-19:30,Western Union,Q861042
3bd52ae3e89d60995751d50116e71554,western_union,SONG NABA TRADING,,Ouagadougou,KADIOGO,,BF,+226 70 20 77 86,https://location.westernunion.com/bf/kadiogo/ouagadougou/3bd52ae3e89d60995751d50116e71554,Mo-Sa 07:00-18:30,Western Union,Q861042
b4e407f320f42ce7a21e1c454f8865ed,western_union,IB FLASH TRANSFERT INTERPOLES,,Ouagadougou,KADIOGO,,BF,+226 65 55 06 55,https://location.westernunion.com/bf/kadiogo/ouagadougou/b4e407f320f42ce7a21e1c454f8865ed,Mo-Sa 07:00-20:00; Su 08:00-20:00,Western Union,Q861042
bf4b6c0df60ffc5d767165cff029e432,western_union,ASKYA FINANCES PONT KADIOGO,,Ouagadougou,KADIOGO,,BF,+226 70 17 84 47,https://location.westernunion.com/bf/kadiogo/ouagadougou/bf4b6c0df60ffc5d767165cff029e432,Mo-Sa 07:00-21:00; Su 07:00-18:00,Western Union,Q861042
2e7731f79405f58d1192a0d2bf301f81,western_union,ORABANK DAPOYA,,Ouagadougou,KADIOGO,,BF,(+226) 2549600,https://location.westernunion.com/bf/kadiogo/ouagadougou/2e7731f79405f58d1192a0d2bf301f81,Mo-Fr 07:00-17:00; Sa 07:15-13:00,Western Union,Q861042
e1fef3b027fc3b2a8c54649e3760ed47,western_union,AGENCE ZAD,,Ouagadougou,KADIOGO,,BF,+226 25 49 36 25,https://location.westernunion.com/bf/kadiogo/ouagadougou/e1fef3b027fc3b2a8c54649e3760ed47,Mo-Sa 07:30-20:00,Western Union,Q861042
24545fab5deafbd746cfe166485ce986,western_union,AGENCE DE PISSY,,Ouagadougou,KADIOGO,,BF,+226 25 49 36 03,https://location.westernunion.com/bf/kadiogo/ouagadougou/24545fab5deafbd746cfe166485ce986,Mo-Sa 07:30-20:00,Western Union,Q861042
5d0fd162cbb486f156ded9a1cfcd8282,western_union,BOA AGENCE CENTRALE,,Ouagadougou,KADIOGO,,BF,(+226) 25-30887073,https://location.westernunion.com/bf/kadiogo/ouagadougou/5d0fd162cbb486f156ded9a1cfcd8282,Mo-Fr 07:30-19:00; Sa 08:00-17:00,Western Union,Q861042
53c5466c0c0ae53e4a0297feb229e4ce,western_union,EZAMA,,Ouagadougou,KADIOGO,,BF,+226 70 65 73 82,https://location.westernunion.com/bf/kadiogo/ouagadougou/53c5466c0c0ae53e4a0297feb229e4ce,Mo-Sa 08:00-18:00,Western Union,Q861042
cf3b57adec2ecd201404700d99058475,western_union,ROUKI PRESTA,,Ouagadougou,KADIOGO,,BF,(+226) 25-78434095,https://location.westernunion.com/bf/kadiogo/ouagadougou/cf3b57adec2ecd201404700d99058475,Mo-Su 07:00-20:00,Western Union,Q861042
5100bb66c9236abcc7c6131b654b8d04,western_union,ECOBANK AGENCE BACB PLACE DES,,Ouagadougou,KADIOGO,,BF,+226 50 33 33 33,https://location.westernunion.com/bf/kadiogo/ouagadougou/5100bb66c9236abcc7c6131b654b8d04,Mo-Fr 07:30-19:30; Sa 08:00-17:00; Su 09:00-15:00,Western Union,Q861042
8641928d66fb6a7c1ff9f8a31d4c8a0c,western_union,SOFIPE PISSY,,Ouagadougou,KADIOGO,,BF,+226 25 34 32 89,https://location.westernunion.com/bf/kadiogo/ouagadougou/8641928d66fb6a7c1ff9f8a31d4c8a0c,Mo-Su 07:00-20:00,Western Union,Q861042
cca8563fee3ae71d5980b17fce4b007e,western_union,WITTI FINANCES CISSIN,,Ouagadougou,KADIOGO,,BF,+226 25 34 63 31,https://location.westernunion.com/bf/kadiogo/ouagadougou/cca8563fee3ae71d5980b17fce4b007e,Mo-Fr 08:00-17:00; Sa 09:00-12:00,Western Union,Q861042
da4e42e241a0383e4359ef874b0e47f2,western_union,NEEMA TRANSFERT INTERNATIONAL,,Ouagadougou,KADIOGO,,BF,+226 79 20 30 30,https://location.westernunion.com/bf/kadiogo/ouagadougou/da4e42e241a0383e4359ef874b0e47f2,Mo-Su 07:00-18:30,Western Union,Q861042
83e7a9a5d530b5ab3c63c148128bfb1b,western_union,ADS TRANSACTION HOUSE,,Ouagadougou,KADIOGO,,BF,+226 70 52 20 75,https://location.westernunion.com/bf/kadiogo/ouagadougou/83e7a9a5d530b5ab3c63c148128bfb1b,Mo-Fr 07:00-18:30; Sa 07:00-18:00; Su 07:00-17:00,Western Union,Q861042
66a152cb3c525e91d6fc15dded17b583,western_union,MONDIAL EQUIPMENT AND TRADING,,Ouagadougou,KADIOGO,,BF,+226 70 74 88 60,https://location.westernunion.com/bf/kadiogo/ouagadougou/66a152cb3c525e91d6fc15dded17b583,Mo-Fr 07:30-17:30; Sa 08:00-14:00; Su 06:00-07:00,Western Union,Q861042
effc9f2fb7984396745f78f8dce44a02,western_union,HOREB,,Ouagadougou,KADIOGO,,BF,+226 70 16 41 10,https://location.westernunion.com/bf/kadiogo/ouagadougou/effc9f2fb7984396745f78f8dce44a02,Mo-Su 06:00-21:00,Western Union,Q861042
191242537920f4d9876d05c373875344,western_union,BIB,,Ouagadougou,KADIOGO,,BF,+226 50 31 42 38,https://location.westernunion.com/bf/kadiogo/ouagadougou/191242537920f4d9876d05c373875344,Mo-Fr 07:00-18:00; Sa 08:00-13:00,Western Union,Q861042
15be1772c582e4b5dfd57d564aa91488,western_union,DINA  SERVICE,,Ouagadougou,KADIOGO,,BF,+226 78 69 92 84,https://location.westernunion.com/bf/kadiogo/ouagadougou/15be1772c582e4b5dfd57d564aa91488,Mo-Sa 07:00-18:00,Western Union,Q861042
096c8048a61af5a4c228552050868e81,western_union,BANK OF AFRICA,,Ouagadougou,KADIOGO,,BF,+226 50 47 00 03,https://location.westernunion.com/bf/kadiogo/ouagadougou/096c8048a61af5a4c228552050868e81,Mo-Sa 07:30-18:30,Western Union,Q861042
e1b3ab4b3769ee63757130583b1757aa,western_union,GLOBAL PRESTATION SERV,,Ouagadougou,KADIOGO,,BF,(+226) 25-78083973,https://location.westernunion.com/bf/kadiogo/ouagadougou/e1b3ab4b3769ee63757130583b1757aa,Mo-Fr 07:00-18:00; Sa 08:00-18:00,Western Union,Q861042
789759678be18bfad956d7ab56bedba0,western_union,AGENCE DE VOYAGE TARWENDPANGA,,Ouagadougou,KADIOGO,,BF,+226 78 15 75 77,https://location.westernunion.com/bf/kadiogo/ouagadougou/789759678be18bfad956d7ab56bedba0,Mo-Su 07:00-18:00,Western Union,Q861042
f2c2df80b373566ed5fb07e3f22fbdc2,western_union,WEND YAMB 2B MULTI SERVICE,,Ouagadougou,KADIOGO,,BF,+226 70 47 12 14,https://location.westernunion.com/bf/kadiogo/ouagadougou/f2c2df80b373566ed5fb07e3f22fbdc2,Mo-Su 07:00-18:00,Western Union,Q861042
d5bc8678629a09acc7625fee3c7aa42d,western_union,CBI THEATRE POPULAIRE,,Ouagadougou,KADIOGO,,BF,(+226) 25-68560261,https://location.westernunion.com/bf/kadiogo/ouagadougou/d5bc8678629a09acc7625fee3c7aa42d,Mo-Fr 07:30-18:00; Sa-Su 08:00-15:00,Western Union,Q861042
22f99f5f9493b97bfd27c096ee83845b,western_union,AGENCE OUAGA MARCOUSSIS,,Ouagadougou,KADIOGO,,BF,+226 70 32 47 77,https://location.westernunion.com/bf/kadiogo/ouagadougou/22f99f5f9493b97bfd27c096ee83845b,Mo-Fr 07:00-17:30; Sa 07:30-15:00,Western Union,Q861042
d87b8a72eec0bcc969237a4fe49c446f,western_union,DIVINE BTP,,Ouagadougou,KADIOGO,,BF,+226 70 23 12 78,https://location.westernunion.com/bf/kadiogo/ouagadougou/d87b8a72eec0bcc969237a4fe49c446f,Mo-Fr 07:00-20:00; Sa 07:00-18:00; Su 09:00-15:00,Western Union,Q861042
e7114a1b35de16ed10bd1616dad99b4e,western_union,CORIS BANK SOMGANDE,,Ouagadougou,KADIOGO,,BF,+226 78 27 02 65,https://location.westernunion.com/bf/kadiogo/ouagadougou/e7114a1b35de16ed10bd1616dad99b4e,Mo-Fr 07:30-19:00; Sa-Su 08:00-13:00,Western Union,Q861042
5724e82afd831520a4f8607df2920bf3,western_union,K T  NEGOCE,,Ouagadougou,KADIOGO,,BF,+226 70 13 19 90,https://location.westernunion.com/bf/kadiogo/ouagadougou/5724e82afd831520a4f8607df2920bf3,Mo-Su 07:30-21:00,Western Union,Q861042
f7b49bd66fb5428c3f777eab7d8ab5f7,western_union,DANAYA MULTI SERVICES,,Ouagadougou,KADIOGO,,BF,+226 78 69 84 99,https://location.westernunion.com/bf/kadiogo/ouagadougou/f7b49bd66fb5428c3f777eab7d8ab5f7,Mo-Su 07:30-19:00,Western Union,Q861042
9526e8fae6e93613f26b5db4cb438a55,western_union,BUREAUMATIQUE P.2000,,Ouagadougou,KADIOGO,,BF,+226 70 25 89 65,https://location.westernunion.com/bf/kadiogo/ouagadougou/9526e8fae6e93613f26b5db4cb438a55,Mo-Su 07:00-18:00,Western Union,Q861042
d157ddbdee4ca3187f20e61ada2aea48,western_union,EBEN TRANSFERT,,Ouagadougou,KADIOGO,,BF,+226 79 37 12 65,https://location.westernunion.com/bf/kadiogo/ouagadougou/d157ddbdee4ca3187f20e61ada2aea48,Mo-Sa 07:30-18:30,Western Union,Q861042
db8ea22e9053a47f1b34838ae785e7f0,western_union,AGENCE FINANCIERE ET COMMERCIALE MALGRE,,Ouagadougou,KADIOGO,,BF,+226 25 39 16 07,https://location.westernunion.com/bf/kadiogo/ouagadougou/db8ea22e9053a47f1b34838ae785e7f0,Mo-Sa 07:00-21:00; Su 08:00-21:00,Western Union,Q861042
b96c28087fd987b63b720b5af9f8f357,western_union,SHEDINE MULTI SERVICE,,Ouagadougou,KADIOGO,,BF,+226 70 72 06 69,https://location.westernunion.com/bf/kadiogo/ouagadougou/b96c28087fd987b63b720b5af9f8f357,Mo-Sa 07:30-18:00,Western Union,Q861042
63397a29f7d82ed28dd6733b2a5f8be7,western_union,LE VATICAN,,Ouagadougou,KADIOGO,,BF,+226 73 12 34 32,https://location.westernunion.com/bf/kadiogo/ouagadougou/63397a29f7d82ed28dd6733b2a5f8be7,Mo-Sa 06:30-20:00; Su 08:00-12:30,Western Union,Q861042
10bf7c2868d6dab7b600565bee07fb4f,western_union,SAHAB IMPORT EXPORT 2,,Ouagadougou,KADIOGO,,BF,+226 71 01 40 33,https://location.westernunion.com/bf/kadiogo/ouagadougou/10bf7c2868d6dab7b600565bee07fb4f,Mo-Sa 07:30-20:00; Su 08:00-20:00,Western Union,Q861042
86a8ebfac1f369da777fc9d425931c85,western_union,WEND SONGDA INFORMATIQUE,,Ouagadougou,KADIOGO,,BF,+226 70 26 06 68,https://location.westernunion.com/bf/kadiogo/ouagadougou/86a8ebfac1f369da777fc9d425931c85,Mo-Sa 08:00-20:00,Western Union,Q861042
803f0eccd4a8be4a0072583e19bc0efb,western_union,CAISSE BAITOUL MAAL ZONE COMMERCIALE,,Ouagadougou,KADIOGO,,BF,+226 50 36 94 99,https://location.westernunion.com/bf/kadiogo/ouagadougou/803f0eccd4a8be4a0072583e19bc0efb,Mo-Tu 07:30-18:00; We 08:00-18:00; Th-Fr 07:30-18:00; Sa 07:30-17:30,Western Union,Q861042
555897389f566a1cda35870041c21a9a,western_union,ORABANK SIAO,,Ouagadougou,KADIOGO,,BF,+226 25 49 60 83,https://location.westernunion.com/bf/kadiogo/ouagadougou/555897389f566a1cda35870041c21a9a,Mo-Fr 07:30-18:00; Sa 08:00-13:00,Western Union,Q861042
96c6db6f493fe3baaabfe73af0eca13c,western_union,LIMAMBA SERVICES,,Ouagadougou,KADIOGO,,BF,+226 70 32 55 61,https://location.westernunion.com/bf/kadiogo/ouagadougou/96c6db6f493fe3baaabfe73af0eca13c,Mo-Su 07:00-21:00,Western Union,Q861042
960685eb0dfa6b8c1d1d7043e29db110,western_union,SONAPOST OUAGA KOSYAM,,Ouagadougou,KADIOGO,,BF,+226 50 30 18 34,https://location.westernunion.com/bf/kadiogo/ouagadougou/960685eb0dfa6b8c1d1d7043e29db110,Mo-Fr 07:00-17:00; Sa 07:00-16:00,Western Union,Q861042
a099ab3e687817427de9db04b22a49a1,western_union,ETABLISSEMENT DENE,,Ouagadougou,KADIOGO,,BF,+226 70 39 70 29,https://location.westernunion.com/bf/kadiogo/ouagadougou/a099ab3e687817427de9db04b22a49a1,Mo-Sa 08:00-21:00,Western Union,Q861042
b026c56c6434ec48e792747e47919df2,western_union,WASSA PRESTATIONS,,Ouagadougou,KADIOGO,,BF,(+226) 25-70236752,https://location.westernunion.com/bf/kadiogo/ouagadougou/b026c56c6434ec48e792747e47919df2,Mo-Fr 07:30-18:30; Sa 07:30-18:00,Western Union,Q861042
caa4c43a83ca3920b70caa294e72d38d,western_union,ASKYA FINANCES,,Ouagadougou,KADIOGO,,BF,+226 50 38 82 83,https://location.westernunion.com/bf/kadiogo/ouagadougou/caa4c43a83ca3920b70caa294e72d38d,Mo-Su 08:00-21:00,Western Union,Q861042
63bd6a932f85b7077362af61d23019a0,western_union,YRWET PRODUCTIONS,,Ouagadougou,KADIOGO,,BF,+226 68 55 22 33,https://location.westernunion.com/bf/kadiogo/ouagadougou/63bd6a932f85b7077362af61d23019a0,Mo-Su 08:00-21:00,Western Union,Q861042
0562fc68da858759a643fcb1b6527134,western_union,LOFLITO DISTRIBUTIONS,,Ouagadougou,KADIOGO,,BF,+226 70 30 98 18,https://location.westernunion.com/bf/kadiogo/ouagadougou/0562fc68da858759a643fcb1b6527134,Mo-Sa 07:30-17:30,Western Union,Q861042
b171c27b98eb698513a022a63e2e243b,western_union,AFRICA CHANGE,,Ouagadougou,KADIOGO,,BF,+226 78 81 61 27,https://location.westernunion.com/bf/kadiogo/ouagadougou/b171c27b98eb698513a022a63e2e243b,Mo-Sa 07:00-20:00,Western Union,Q861042
9c106e2b3aaf24bafbd05d5756de7636,western_union,BENIE TRANSFERT SAMANDIN,,Ouagadougou,KADIOGO,,BF,+226 72 39 00 72,https://location.westernunion.com/bf/kadiogo/ouagadougou/9c106e2b3aaf24bafbd05d5756de7636,Mo-Sa 07:00-19:00,Western Union,Q861042
49198db814601b22af4e498da6b9bf88,western_union,ASKYA FINANCES,,Ouagadougou,KADIOGO,,BF,+226 50 38 82 83,https://location.westernunion.com/bf/kadiogo/ouagadougou/49198db814601b22af4e498da6b9bf88,Mo-Su 08:00-21:00,Western Union,Q861042
f54d0835b47b6c09ee6a789d48f10230,western_union,BOA UEMOA OUAGA 2000,,Ouagadougou,KADIOGO,,BF,+226 25 30 88 70,https://location.westernunion.com/bf/kadiogo/ouagadougou/f54d0835b47b6c09ee6a789d48f10230,Mo-Fr 07:30-19:00; Sa 08:00-16:00,Western Union,Q861042
4c92993708c53b2cd243012328ca7d63,western_union,ROYAL BUSINESS,,Ouagadougou,KADIOGO,,BF,+226 70 45 45 34,https://location.westernunion.com/bf/kadiogo/ouagadougou/4c92993708c53b2cd243012328ca7d63,Mo-Su 07:30-21:00,Western Union,Q861042
f51982677398c1c36ff1fdd20fa7ba65,western_union,CORIS MESO FINANCE  AGENCE KWAME N KRMAH,,Ouagadougou,KADIOGO,,BF,+226 78 36 54 42,https://location.westernunion.com/bf/kadiogo/ouagadougou/f51982677398c1c36ff1fdd20fa7ba65,Mo-Fr 07:00-18:00; Sa-Su 07:00-14:30,Western Union,Q861042
5c9f9a958ee41e87fbf35e7ea745b06c,western_union,BELEM ESTELLE SERVICES,,Ouagadougou,KADIOGO,,BF,+226 78 17 17 68,https://location.westernunion.com/bf/kadiogo/ouagadougou/5c9f9a958ee41e87fbf35e7ea745b06c,Mo-Su 07:30-21:00,Western Union,Q861042
6c0c8dd31f7312f24181aeaa46a40cf7,western_union,HADASS COMMUNICATION 5,,Ouagadougou,KADIOGO,,BF,+226 71 39 16 39,https://location.westernunion.com/bf/kadiogo/ouagadougou/6c0c8dd31f7312f24181aeaa46a40cf7,Mo-Fr 07:00-19:30; Sa 07:00-18:00,Western Union,Q861042
f00bac9f0001edc8f8ade856dcba7ea0,western_union,FORTUNAT SERVICE,,Ouagadougou,KADIOGO,,BF,+226 78 78 21 93,https://location.westernunion.com/bf/kadiogo/ouagadougou/f00bac9f0001edc8f8ade856dcba7ea0,Mo-Fr 07:00-18:00; Sa 08:00-16:00,Western Union,Q861042
a1309850d16b55669b9803612c977daf,western_union,CENRE D AFFAIRES ET DE SERVICE,,Ouagadougou,KADIOGO,,BF,+226 64 13 09 69,https://location.westernunion.com/bf/kadiogo/ouagadougou/a1309850d16b55669b9803612c977daf,Mo-Su 07:30-21:00,Western Union,Q861042
91ffa674ab9925c473f155826eb1d23c,western_union,AGENCE DE V Y A P KOSSODO,,Ouagadougou,KADIOGO,,BF,+226 70 32 00 53,https://location.westernunion.com/bf/kadiogo/ouagadougou/91ffa674ab9925c473f155826eb1d23c,Mo-Fr 07:00-20:00; Sa 07:00-19:30; Su 07:00-18:00,Western Union,Q861042
2b625be54875f813165f84ba0a2dece9,western_union,ETABLISSEMENT KA AB,,Ouagadougou,KADIOGO,,BF,+226 78 55 40 55,https://location.westernunion.com/bf/kadiogo/ouagadougou/2b625be54875f813165f84ba0a2dece9,Mo-Su 07:30-18:30,Western Union,Q861042
91819fb5d55be592d96cf0efc294bd33,western_union,FAMILY SERVICES EXPRESS,,Ouagadougou,KADIOGO,,BF,+226 70 75 26 59,https://location.westernunion.com/bf/kadiogo/ouagadougou/91819fb5d55be592d96cf0efc294bd33,Mo-Fr 07:30-18:30; Sa 07:30-17:00; Su 08:00-17:00,Western Union,Q861042
d601e072fe9e692740a9b2c6855fe66c,western_union,RAMA TRANSFERT SERVICES,,Ouagadougou,KADIOGO,,BF,+226 70 16 34 54,https://location.westernunion.com/bf/kadiogo/ouagadougou/d601e072fe9e692740a9b2c6855fe66c,Mo-Fr 07:30-18:30; Sa 08:00-16:00; Su 08:00-12:00,Western Union,Q861042
7f928f73da7e7412dd0d0449d38d9975,western_union,5 ETOILES SERVICES,,Ouagadougou,KADIOGO,,BF,+226 76 67 89 93,https://location.westernunion.com/bf/kadiogo/ouagadougou/7f928f73da7e7412dd0d0449d38d9975,Mo-Sa 07:00-19:00,Western Union,Q861042
a35fa7e68129f8629002338ba5a9748e,western_union,UNIVERSAL CHANGE SARL,,Ouagadougou,KADIOGO,,BF,(+226) 25-78218876,https://location.westernunion.com/bf/kadiogo/ouagadougou/a35fa7e68129f8629002338ba5a9748e,Mo-Sa 07:30-19:00,Western Union,Q861042
c6fc8dd8609f7f5419d1a91808317069,western_union,BSIC GRAND MARCHE,,Ouagdougou,KADIOGO,,BF,+226 25 32 84 01,https://location.westernunion.com/bf/kadiogo/ouagdougou/c6fc8dd8609f7f5419d1a91808317069,Mo-Fr 08:00-17:00; Sa 08:00-12:00,Western Union,Q861042
b0ed8779b2637c43f642fb6d47f63e5f,western_union,ETS ALHAJA RISIKAT ET FRERES,,Ouagadougou,KADIOGO,,BF,+226 69 92 70 11,https://location.westernunion.com/bf/kadiogo/ouagadougou/b0ed8779b2637c43f642fb6d47f63e5f,Mo-Su 07:00-18:00,Western Union,Q861042
a19e6c7a8e94fe2591487a2b80ac5fc3,western_union,CORIS BANK INT AGENCE YENNENGA,,Ouagadougou,KADIOGO,,BF,+226 50 31 24 24,https://location.westernunion.com/bf/kadiogo/ouagadougou/a19e6c7a8e94fe2591487a2b80ac5fc3,Mo-Fr 07:30-17:30; Sa-Su 08:00-13:00,Western Union,Q861042
9dda1fee1ba205882eb7e2de485cf94a,western_union,ORABANK SANKARYAARE,,Ouagadougou,KADIOGO,,BF,+226 50 49 60 81,https://location.westernunion.com/bf/kadiogo/ouagadougou/9dda1fee1ba205882eb7e2de485cf94a,Mo-Fr 07:30-18:00; Sa 08:00-13:00,Western Union,Q861042
4b184bbd8cb4cf01c9c78104c6a40642,western_union,BAITOUL MAAL SIEGE,,Ouagadougou,KADIOGO,,BF,+226 50 36 94 99,https://location.westernunion.com/bf/kadiogo/ouagadougou/4b184bbd8cb4cf01c9c78104c6a40642,Mo-Fr 08:00-18:00; Sa 08:00-12:00,Western Union,Q861042
9f1e70326dbb04a581db2661f6cdb8aa,western_union,ORABANK PATTE D OIE,,Ouagadougou,KADIOGO,,BF,+226 50 49 60 00,https://location.westernunion.com/bf/kadiogo/ouagadougou/9f1e70326dbb04a581db2661f6cdb8aa,Mo-Fr 07:30-18:00; Sa 08:00-13:00,Western Union,Q861042
f9f1ba9261f0349d693522b1dde36d75,western_union,BITS,,Ouagadougou,KADIOGO,,BF,+226 70 33 40 86,https://location.westernunion.com/bf/kadiogo/ouagadougou/f9f1ba9261f0349d693522b1dde36d75,Mo-Fr 07:30-17:30; Sa 08:00-14:00,Western Union,Q861042
94e8e3c0d00ab129f3ff09a0f74f0018,western_union,AMIR SERVICE,,Ouagadougou,KADIOGO,,BF,+226 78 51 30 72,https://location.westernunion.com/bf/kadiogo/ouagadougou/94e8e3c0d00ab129f3ff09a0f74f0018,Mo-Fr 08:00-20:00; Sa 08:00-19:00; Su 08:00-14:00,Western Union,Q861042
4d38371cca74a240621d263c65518276,western_union,ASKYA FINANCES,,Ouagadougou,KADIOGO,,BF,+226 25 41 29 08,https://location.westernunion.com/bf/kadiogo/ouagadougou/4d38371cca74a240621d263c65518276,Mo-Fr 08:00-18:00; Sa 08:00-14:00,Western Union,Q861042
2f8913faaf17260046306da974ac8466,western_union,BAITOUL MAAL,,Ouagadougou,KADIOGO,,BF,+226 50 36 03 01,https://location.westernunion.com/bf/kadiogo/ouagadougou/2f8913faaf17260046306da974ac8466,Mo-Fr 07:00-18:00; Sa 07:00-12:00,Western Union,Q861042
f2f99bd60120cc6d3140ec293c736336,western_union,ECLATS SERVICES GOUNGHIN,,Ouagadougou,KADIOGO,,BF,(+226) 25-68000428,https://location.westernunion.com/bf/kadiogo/ouagadougou/f2f99bd60120cc6d3140ec293c736336,Mo-Su 07:30-20:00,Western Union,Q861042
470999340abf2049914d1d9d8b0eb4e4,western_union,HADASS 3,,Ouagadougou,KADIOGO,,BF,+226 71 39 16 39,https://location.westernunion.com/bf/kadiogo/ouagadougou/470999340abf2049914d1d9d8b0eb4e4,Mo-Su 07:00-20:00,Western Union,Q861042
a5ad0a58551bcc928aee06aa98cf0193,western_union,BANK OF AFRICA GOUNGHIN,,Ouagadougou,KADIOGO,,BF,+226 50 34 50 00,https://location.westernunion.com/bf/kadiogo/ouagadougou/a5ad0a58551bcc928aee06aa98cf0193,Mo-Fr 07:15-17:15; Sa 08:00-14:00,Western Union,Q861042
03c3f2f7ff4b6b878338bfccdbe41488,western_union,ASKYA FINANCES,,Ouagadougou,KADIOGO,,BF,+226 50 38 82 83,https://location.westernunion.com/bf/kadiogo/ouagadougou/03c3f2f7ff4b6b878338bfccdbe41488,Mo-Su 07:00-21:00,Western Union,Q861042
22ea873b8d8bf59884c15702d50e73b9,western_union,BOA AGENCE PISSY,,Ouagadougou,KADIOGO,,BF,+226 50 30 88 70,https://location.westernunion.com/bf/kadiogo/ouagadougou/22ea873b8d8bf59884c15702d50e73b9,Mo-Fr 07:30-20:00; Sa 08:00-14:00,Western Union,Q861042
40b59a67ff065cff49c66b57bb522344,western_union,ASKYA FINANCES,,Ouagadougou,KADIOGO,,BF,+226 25 41 29 08,https://location.westernunion.com/bf/kadiogo/ouagadougou/40b59a67ff065cff49c66b57bb522344,Mo-Sa 07:00-21:00; Su 07:00-18:00,Western Union,Q861042
13b6a48fb0d889dafe81684926653a6c,western_union,ORABANK TANGHIN,,Ouagadougou,KADIOGO,,BF,+226 25 49 60 96,https://location.westernunion.com/bf/kadiogo/ouagadougou/13b6a48fb0d889dafe81684926653a6c,Mo-Fr 07:45-17:00; Sa 08:00-11:45,Western Union,Q861042
9c2502999f81e22f76b42dec91e09f8b,western_union,NOUR SERVICES,,Ouagadougou,KADIOGO,,BF,+226 78 25 44 00,https://location.westernunion.com/bf/kadiogo/ouagadougou/9c2502999f81e22f76b42dec91e09f8b,Mo-Sa 08:00-21:00; Su 08:00-18:00,Western Union,Q861042
bb3438a1826b2aafe12b2589916a7896,western_union,TRAORE TRADING,,Ouagadougou,KADIOGO,,BF,+226 76 62 48 64,https://location.westernunion.com/bf/kadiogo/ouagadougou/bb3438a1826b2aafe12b2589916a7896,Mo-Su 07:30-19:00,Western Union,Q861042
574a0dee48e2083d753850a578242eb8,western_union,HARMONIE FLEURS DECO,,Ouagadougou,KADIOGO,,BF,+226 70 13 74 96,https://location.westernunion.com/bf/kadiogo/ouagadougou/574a0dee48e2083d753850a578242eb8,Mo-Su 07:00-18:00,Western Union,Q861042
1c106c914f0f28ef334bca19bb0c2067,western_union,HARMONIE FLEURS DECO,,Ouagadougou,KADIOGO,,BF,+226 70 13 74 96,https://location.westernunion.com/bf/kadiogo/ouagadougou/1c106c914f0f28ef334bca19bb0c2067,Mo-Su 07:00-18:00,Western Union,Q861042
978517b9dea45c671888204e414cbf83,western_union,ACTIF MULTI SERVICES SARL,,Ouagadougou,KADIOGO,,BF,+226 76 37 26 26,https://location.westernunion.com/bf/kadiogo/ouagadougou/978517b9dea45c671888204e414cbf83,Mo-Su 07:30-18:30,Western Union,Q861042
3c4df49f82c0790686d2f684910c200c,western_union,CBI AGENCE BANQUE DIGITALE,,Ouagadougou,KADIOGO,,BF,+226 78 84 61 61,https://location.westernunion.com/bf/kadiogo/ouagadougou/3c4df49f82c0790686d2f684910c200c,Mo-Su 07:00-21:30,Western Union,Q861042
9bd625c5138511b9ec7353656214074b,western_union,ROMAINE W  OUEDRAOGO,,Ouagadougou,KADIOGO,,BF,(+226) 25-78835154,https://location.westernunion.com/bf/kadiogo/ouagadougou/9bd625c5138511b9ec7353656214074b,Mo-Fr 07:30-18:00; Sa 08:00-16:00,Western Union,Q861042
ff74557558563a5c6538e6fcd2357487,western_union,BURKINA MOTOCYCLES,,Ouagadougou,KADIOGO,,BF,+226 25 33 95 12,https://location.westernunion.com/bf/kadiogo/ouagadougou/ff74557558563a5c6538e6fcd2357487,Mo-Su 07:00-21:30,Western Union,Q861042
34c9d71d638362187b9a9d6b36871499,western_union,BARK BIIGA SERVICES KOULOUBA,,Ouagadougou,KADIOGO,,BF,+226 71 94 46 29,https://location.westernunion.com/bf/kadiogo/ouagadougou/34c9d71d638362187b9a9d6b36871499,Mo-Sa 07:30-20:00; Su 08:00-18:00,Western Union,Q861042
91e8efb5279a260f797e25dc39f66d7b,western_union,CBCS AV  KWAME NKRUMAH,,Ouagadougou,KADIOGO,,BF,+226 77 08 80 84,https://location.westernunion.com/bf/kadiogo/ouagadougou/91e8efb5279a260f797e25dc39f66d7b,Mo-Su 07:00-21:30,Western Union,Q861042
4c2557d60d07f5b18e80b9ef3d0a3869,western_union,BANK OF AFRICA KWAME NKRUMAH,,Ouagadougou,KADIOGO,,BF,+226 50 30 19 88,https://location.westernunion.com/bf/kadiogo/ouagadougou/4c2557d60d07f5b18e80b9ef3d0a3869,Mo-Fr 07:30-18:30; Sa 08:00-15:00,Western Union,Q861042
cfa4e11eb84ecab4229ffda7bc850f55,western_union,CORIS BANK INT AGENCE PRINCIPA,,Ouagadougou,KADIOGO,,BF,+226 50 31 23 23,https://location.westernunion.com/bf/kadiogo/ouagadougou/cfa4e11eb84ecab4229ffda7bc850f55,Mo-Fr 07:30-17:30; Sa 08:00-19:00; Su 08:00-13:00,Western Union,Q861042
e0022f9d70e538ff6be7727d4e867525,western_union,AGENCE PRINCIPALE,,Ouagadougou,KADIOGO,,BF,+226 25 49 36 00,https://location.westernunion.com/bf/kadiogo/ouagadougou/e0022f9d70e538ff6be7727d4e867525,Mo-Fr 07:30-16:15; Sa 08:00-11:00,Western Union,Q861042
7d7291539b9cf852c871c98b6180b1c4,western_union,ECOBANK BURKINA,,Ouagadougou,KADIOGO,,BF,+226 50 31 11 11,https://location.westernunion.com/bf/kadiogo/ouagadougou/7d7291539b9cf852c871c98b6180b1c4,Mo-Fr 07:30-19:00; Sa 08:00-17:30; Su 08:00-15:30,Western Union,Q861042
d02dca52522a73d44e731d5f0de6ea1a,western_union,AGENCE R CORPORATIONS,,Ouagadougou,KADIOGO,,BF,+226 76 55 55 15,https://location.westernunion.com/bf/kadiogo/ouagadougou/d02dca52522a73d44e731d5f0de6ea1a,Mo-Sa 07:00-19:30,Western Union,Q861042
b0202daa15e3fade5a7796e21ed0b635,western_union,CBI ETIF,,Ouagadougou,KADIOGO,,BF,(+226) 25-70295752,https://location.westernunion.com/bf/kadiogo/ouagadougou/b0202daa15e3fade5a7796e21ed0b635,Mo-Su 07:00-20:00,Western Union,Q861042
057d356e87e8902269ba0ab2141a8905,western_union,COMPAGNIE INTERNATIONAL DU COMMERCE,,Ouagadougou,KADIOGO,,BF,+226 56 56 87 80,https://location.westernunion.com/bf/kadiogo/ouagadougou/057d356e87e8902269ba0ab2141a8905,Mo-Fr 07:00-18:30; Sa 07:00-17:30,Western Union,Q861042
c576c77ef811dee8772df6cf2de0ccd4,western_union,AGENCE CHARLE DE GAULLES TOUDOU G  S,,Ouagadougou,KADIOGO,,BF,+226 64 64 25 87,https://location.westernunion.com/bf/kadiogo/ouagadougou/c576c77ef811dee8772df6cf2de0ccd4,Mo-Fr 07:00-19:30; Sa 07:00-18:00,Western Union,Q861042
aba9932771e57c8730dcac280f2d4fdc,western_union,ETS AGENCE KOSSI SERV BONHEUR,,Ouagadougou,KADIOGO,,BF,+226 75 36 02 27,https://location.westernunion.com/bf/kadiogo/ouagadougou/aba9932771e57c8730dcac280f2d4fdc,Mo-Sa 07:00-21:00; Su 07:00-20:00,Western Union,Q861042
0b29b6aa1d647c22c9270aa39d1a9a0a,western_union,AGENCE H K TELCOM GOUGHIN,,Ouagadougou,KADIOGO,,BF,+226 76 45 63 12,https://location.westernunion.com/bf/kadiogo/ouagadougou/0b29b6aa1d647c22c9270aa39d1a9a0a,Mo-Sa 07:00-19:30; Su 07:00-18:00,Western Union,Q861042
7068c8838b64a58a2959b57fd8a09e05,western_union,HADASS COMMUNICATION BIS,,Ouagadougou,KADIOGO,,BF,+226 71 39 16 39,https://location.westernunion.com/bf/kadiogo/ouagadougou/7068c8838b64a58a2959b57fd8a09e05,Mo-Su 07:00-19:30,Western Union,Q861042
befb621c41ebb2add0c4366ec9bed331,western_union,ETS CONSI 1,,Ouagadougou,KADIOGO,,BF,+226 70 64 11 23,https://location.westernunion.com/bf/kadiogo/ouagadougou/befb621c41ebb2add0c4366ec9bed331,Mo-Fr 07:00-19:30; Sa 07:00-18:00; Su 07:00-14:00,Western Union,Q861042
4f9f8d42484c0738ff98728aaba677da,western_union,ECOBANK BKS,,Ouagadougou,KADIOGO,,BF,+226 78 86 60 49,https://location.westernunion.com/bf/kadiogo/ouagadougou/4f9f8d42484c0738ff98728aaba677da,Mo-Su 07:30-18:30,Western Union,Q861042
6df4f901e24d2a56d2ef664f6b4e7392,western_union,KANY FANNY II BIS,,Ouagadougou,KADIOGO,,BF,+226 62 32 62 32,https://location.westernunion.com/bf/kadiogo/ouagadougou/6df4f901e24d2a56d2ef664f6b4e7392,Mo-Su 07:00-19:00,Western Union,Q861042
fd640bac0ab7258df874a7e2fc8108bf,western_union,ETS SAMO BOULMIOUGOU,,Ouagadougou,KADIOGO,,BF,+226 65 94 74 77,https://location.westernunion.com/bf/kadiogo/ouagadougou/fd640bac0ab7258df874a7e2fc8108bf,Mo-Sa 07:00-21:00; Su 07:00-20:00,Western Union,Q861042
263f633c63cbb90babbee7c5164985e5,western_union,WAHABO COMMERCE ET SERVICES,,Ouagadougou,KADIOGO,,BF,+226 61 78 78 18,https://location.westernunion.com/bf/kadiogo/ouagadougou/263f633c63cbb90babbee7c5164985e5,Mo-Fr 07:00-19:30; Sa 07:00-18:00,Western Union,Q861042
6f9c611f3ba3548bf8230f9cabb33d5f,western_union,AGENCE ICYF SERVICE,,Ouagadougou,KADIOGO,,BF,+226 75 41 96 42,https://location.westernunion.com/bf/kadiogo/ouagadougou/6f9c611f3ba3548bf8230f9cabb33d5f,Mo-Sa 07:00-19:30; Su 07:00-18:00,Western Union,Q861042
cbde597babe98e52ac2bdc72701287f8,western_union,ORABANK PREMUIM DIGITAL,,Ouagadougou,KADIOGO,,BF,+226 25 49 60 78,https://location.westernunion.com/bf/kadiogo/ouagadougou/cbde597babe98e52ac2bdc72701287f8,Mo-Fr 07:45-16:30; Sa 08:00-12:00,Western Union,Q861042
be1838df7fcf9dfac9183378428b13a8,western_union,L AUTRE COMMERCE,,Ouagadougou,KADIOGO,,BF,+226 70 25 64 44,https://location.westernunion.com/bf/kadiogo/ouagadougou/be1838df7fcf9dfac9183378428b13a8,Mo-Fr 08:00-18:00; Sa 08:00-14:00,Western Union,Q861042
9dd1f03267c826fb8cfa3cac5980f6c4,western_union,CISSIN,,Ouagadougou,KADIOGO,,BF,+226 25 30 14 96,https://location.westernunion.com/bf/kadiogo/ouagadougou/9dd1f03267c826fb8cfa3cac5980f6c4,Mo-Fr 08:00-17:00; Sa 09:00-13:00,Western Union,Q861042
e1408dea921656df704f4d7bfd35a437,western_union,BANK OF AFRICA ELITE,,Ouagadougou,KADIOGO,,BF,+226 50 30 88 70,https://location.westernunion.com/bf/kadiogo/ouagadougou/e1408dea921656df704f4d7bfd35a437,Mo-Fr 07:30-18:30; Sa 08:00-14:00,Western Union,Q861042
84fefd748803119da66ef635f9fb9092,western_union,BDU BF CISSIN,,Ouagadougou,KADIOGO,,BF,+226 25 49 36 00,https://location.westernunion.com/bf/kadiogo/ouagadougou/84fefd748803119da66ef635f9fb9092,Mo-Fr 08:00-16:15; Sa 08:00-11:00,Western Union,Q861042
7afd67e748eec6b495d1f64ed40af414,western_union,BDU BF TANGHIN,,Ouagadougou,KADIOGO,,BF,+226 25 49 36 00,https://location.westernunion.com/bf/kadiogo/ouagadougou/7afd67e748eec6b495d1f64ed40af414,Mo-Fr 08:00-16:15; Sa 08:00-11:00,Western Union,Q861042
91e3f8f2bf06b2294da0dba15ee30fd0,western_union,LA PURETE,,Ouagadougou,KADIOGO,,BF,+226 70 28 71 09,https://location.westernunion.com/bf/kadiogo/ouagadougou/91e3f8f2bf06b2294da0dba15ee30fd0,Mo-Su 07:30-19:00,Western Union,Q861042
483c6ab8d1fb6ce9a39ea3393d05680d,western_union,CO GE IF,,Ouagadougou,KADIOGO,,BF,+226 78 99 26 99,https://location.westernunion.com/bf/kadiogo/ouagadougou/483c6ab8d1fb6ce9a39ea3393d05680d,Mo-Su 07:30-18:30,Western Union,Q861042
8c34f62f5cde24352704420c458c2a51,western_union,KAORI TRAVELS E-BUSINESS,,Ouagadougou,KADIOGO,,BF,+226 70 30 32 11,https://location.westernunion.com/bf/kadiogo/ouagadougou/8c34f62f5cde24352704420c458c2a51,Mo-Sa 07:30-19:30; Su 07:30-19:00,Western Union,Q861042
02d887d8162af05f0d54e48815dcdd4b,western_union,EMF,,Ouagadougou,KADIOGO,,BF,+226 71 71 71 50,https://location.westernunion.com/bf/kadiogo/ouagadougou/02d887d8162af05f0d54e48815dcdd4b,Mo-Sa 08:00-18:00; Su 08:00-14:00,Western Union,Q861042
617aab8a25984d3ea1a21c8260f6b655,western_union,ECOBANK BURKINA,,Ouagadougou,KADIOGO,,BF,+226 50 31 11 11,https://location.westernunion.com/bf/kadiogo/ouagadougou/617aab8a25984d3ea1a21c8260f6b655,Mo-Fr 07:00-20:00; Sa 07:00-18:00; Su 08:00-15:00,Western Union,Q861042
488d4df543f7895d9ddb496f885671eb,western_union,SONG TAABA TRADING,,Ouagadougou,KADIOGO,,BF,+226 70 20 03 02,https://location.westernunion.com/bf/kadiogo/ouagadougou/488d4df543f7895d9ddb496f885671eb,Mo-Su 07:00-18:30,Western Union,Q861042
7b8b67bb344365ce591e28730868d95f,western_union,BANK OF AFRICA AGENCE DE ZOGON,,Ouagadougou,KADIOGO,,BF,+226 50 36 85 27,https://location.westernunion.com/bf/kadiogo/ouagadougou/7b8b67bb344365ce591e28730868d95f,Mo-Fr 07:30-18:30; Sa 08:00-15:00,Western Union,Q861042
cae6427d065239e8df09fa86762a40ba,western_union,ETS ZIDA MATHIEU ZOGONA,,Ouagadougou,KADIOGO,,BF,+226 78 00 94 26,https://location.westernunion.com/bf/kadiogo/ouagadougou/cae6427d065239e8df09fa86762a40ba,Mo-Su 07:00-21:30,Western Union,Q861042
fefa39b307ff0be31c40fbe39a1e9cad,western_union,MINERYA SERVICE MULTI SERVICES,,Ouagadougou,KADIOGO,,BF,+226 71 37 66 96,https://location.westernunion.com/bf/kadiogo/ouagadougou/fefa39b307ff0be31c40fbe39a1e9cad,Mo-Fr 07:00-19:30; Sa 07:00-18:30,Western Union,Q861042
f09bd6ac1c1c9ff4279af8834447eb47,western_union,LA COLOMBE OUAGA,,Ouagadougou,KADIOGO,,BF,+226 70 73 61 21,https://location.westernunion.com/bf/kadiogo/ouagadougou/f09bd6ac1c1c9ff4279af8834447eb47,Mo-Fr 07:30-18:00; Sa 07:00-18:00,Western Union,Q861042
41c73c9f76abdc9df1b409a48eca9221,western_union,FORTUNATUS,,Ouagadougou,KADIOGO,,BF,+226 78 53 18 42,https://location.westernunion.com/bf/kadiogo/ouagadougou/41c73c9f76abdc9df1b409a48eca9221,Mo-Sa 07:00-19:30,Western Union,Q861042
6a474134c995289b0b3e93d7fc7af673,western_union,CBCS AEROPORT,,Ouagadougou,KADIOGO,,BF,+226 74 74 71 53,https://location.westernunion.com/bf/kadiogo/ouagadougou/6a474134c995289b0b3e93d7fc7af673,Mo-Su 07:00-21:30,Western Union,Q861042
83722a5aa1d479f8178eb000e4f10fd5,western_union,HGB BUSINESS,,Ouagadougou,KADIOGO,,BF,+226 66 81 74 60,https://location.westernunion.com/bf/kadiogo/ouagadougou/83722a5aa1d479f8178eb000e4f10fd5,Mo-Su 07:30-19:00,Western Union,Q861042
abf7eaef38505adc8f1b435e1bdfebc9,western_union,AKD COMMERCIAL CENTER,,Ouagadougou,KADIOGO,,BF,+226 68 49 91 28,https://location.westernunion.com/bf/kadiogo/ouagadougou/abf7eaef38505adc8f1b435e1bdfebc9,Mo-Fr 07:30-19:00; Sa 08:00-17:00,Western Union,Q861042
f06b7ec73a11efdbde9c8a2aa46e2867,western_union,COFINA,,Ouagadougou,KADIOGO,,BF,+226 70 41 35 53,https://location.westernunion.com/bf/kadiogo/ouagadougou/f06b7ec73a11efdbde9c8a2aa46e2867,Mo-Fr 07:30-19:00; Sa 08:00-17:00,Western Union,Q861042
2df1649c67da5f7cdba30f7e416a7462,western_union,ASMA TRAVEL AND SERVICES,,Ouagadougou,KADIOGO,,BF,+226 71 97 71 54,https://location.westernunion.com/bf/kadiogo/ouagadougou/2df1649c67da5f7cdba30f7e416a7462,Mo-Su 07:00-18:00,Western Union,Q861042
db0d706e38da2fd4d3268e4064ceba6e,western_union,VISION MODERNE,,Ouagadougou,KADIOGO,,BF,+226 78 84 36 76,https://location.westernunion.com/bf/kadiogo/ouagadougou/db0d706e38da2fd4d3268e4064ceba6e,Mo-Fr 07:00-21:00; Sa-Su 08:00-18:00,Western Union,Q861042
f25ac38edfc19e1e0fc8a6fda20545fe,western_union,ECOBANK ETIA,,Ouagadougou,KADIOGO,,BF,+226 70 15 70 80,https://location.westernunion.com/bf/kadiogo/ouagadougou/f25ac38edfc19e1e0fc8a6fda20545fe,Mo-Su 07:30-18:30,Western Union,Q861042
cea63da163c3d9c49cd8c275bde6fddd,western_union,CENTRE MONDIAL DES AFFAIRES,,Ouagadougou,KADIOGO,,BF,+226 76 59 40 76,https://location.westernunion.com/bf/kadiogo/ouagadougou/cea63da163c3d9c49cd8c275bde6fddd,Mo-Fr 07:00-19:30; Sa 08:00-18:00; Su 08:00-16:00,Western Union,Q861042
025c3e50c61d8969995d5fc5d89bdf75,western_union,CBCS,,Ouagadougou,KADIOGO,,BF,+226 76 15 25 85,https://location.westernunion.com/bf/kadiogo/ouagadougou/025c3e50c61d8969995d5fc5d89bdf75,Mo-Su 07:30-21:00,Western Union,Q861042
58b731e45772c47ab401ace013a6bbc0,western_union,EZIF,,Ouagadougou,KADIOGO,,BF,+226 78 42 44 44,https://location.westernunion.com/bf/kadiogo/ouagadougou/58b731e45772c47ab401ace013a6bbc0,Mo-Fr 08:00-18:00; Sa 08:00-14:00,Western Union,Q861042
cfe2a239748dbd79a86a118425c9ff9c,western_union,GARE TRANSFERT,,Ouagadougou,KADIOGO,,BF,(+226) 25-75770707,https://location.westernunion.com/bf/kadiogo/ouagadougou/cfe2a239748dbd79a86a118425c9ff9c,Mo-Fr 07:00-19:00; Sa 07:00-18:00; Su 08:00-15:00,Western Union,Q861042
b78653fc91564e11a3f156523b118658,western_union,MICRO AID,,Ouagadougou,KADIOGO,,BF,+226 25 34 00 90,https://location.westernunion.com/bf/kadiogo/ouagadougou/b78653fc91564e11a3f156523b118658,Mo-Sa 07:00-20:00; Su 08:00-15:00,Western Union,Q861042
b465b2aa2d8be0be9d70d7679608c8c8,western_union,ETS NIKIEMA MAIMOUNA ET FRERES,,Ouagadougou,KADIOGO,,BF,+226 55 24 99 53,https://location.westernunion.com/bf/kadiogo/ouagadougou/b465b2aa2d8be0be9d70d7679608c8c8,Mo-Sa 07:00-19:30; Su 08:00-16:00,Western Union,Q861042
1841cdcdcfd7c6a2e99edee3771f59b9,western_union,CBI BARAKA,,Ouagadougou,KADIOGO,,BF,+226 25 31 23 23,https://location.westernunion.com/bf/kadiogo/ouagadougou/1841cdcdcfd7c6a2e99edee3771f59b9,Mo-Fr 07:30-18:00; Sa-Su 08:00-15:00,Western Union,Q861042
976ae221f9a3e50b32255aea8171cb6b,western_union,MULTIPRESTFATOUMATA,,Ouagadougou,KADIOGO,,BF,+226 70 70 47 12,https://location.westernunion.com/bf/kadiogo/ouagadougou/976ae221f9a3e50b32255aea8171cb6b,Mo-Fr 07:00-21:00; Sa-Su 08:00-18:00,Western Union,Q861042
d4e59312cfc91b14fdbad72e91c5e674,western_union,ROMA ESPOIR,,Ouagadougou,KADIOGO,,BF,(+226) 67-78093787,https://location.westernunion.com/bf/kadiogo/ouagadougou/d4e59312cfc91b14fdbad72e91c5e674,Mo-Su 07:00-19:00,Western Union,Q861042
f337a9a566d907ef291deb524464ea49,western_union,AUTRE COMMERCE KAMSONGHIN,,Ouagadougou,KADIOGO,,BF,+226 76 60 42 83,https://location.westernunion.com/bf/kadiogo/ouagadougou/f337a9a566d907ef291deb524464ea49,Mo-Fr 08:00-18:00; Sa 08:00-13:00,Western Union,Q861042
ae6e968f759dd8cad997df7f21876a56,western_union,OUED MAI SERVICE,,Ouagadougou,KADIOGO,,BF,+226 75 85 95 41,https://location.westernunion.com/bf/kadiogo/ouagadougou/ae6e968f759dd8cad997df7f21876a56,Mo-Sa 07:00-19:30,Western Union,Q861042
c703dcd3cc2522da788b466d90d02925,western_union,AGENCE OUEDRAOGO MAMOUNTA SERVICE BIS,,Ouagadougou,KADIOGO,,BF,+226 68 16 13 72,https://location.westernunion.com/bf/kadiogo/ouagadougou/c703dcd3cc2522da788b466d90d02925,Mo-Sa 07:00-19:30; Su 07:00-16:00,Western Union,Q861042
d5280c12ca862d884ebbfa7836b11b27,western_union,KOURITA SERVICE,,Ouagadougou,KADIOGO,,BF,+226 78 39 87 76,https://location.westernunion.com/bf/kadiogo/ouagadougou/d5280c12ca862d884ebbfa7836b11b27,Mo-Su 07:00-19:00,Western Union,Q861042
55a9a561990b08ebfe69db3064e00840,western_union,ORABANK SIEGE,,Ouagadougou,KADIOGO,,BF,+226 25 49 60 00,https://location.westernunion.com/bf/kadiogo/ouagadougou/55a9a561990b08ebfe69db3064e00840,Mo-Fr 07:30-18:00; Sa 08:00-13:00,Western Union,Q861042
f703e289bd95843c9a7c0fe08c24b52a,western_union,AGENCE ORABANK GOUGHIN,,Ouagadougou,KADIOGO,,BF,+226 70 84 31 90,https://location.westernunion.com/bf/kadiogo/ouagadougou/f703e289bd95843c9a7c0fe08c24b52a,Mo-Fr 07:00-17:00; Sa 07:00-13:00,Western Union,Q861042
eabec08771f9d31357ab254deba06f77,western_union,GR A IN E SARL,,Ouagadougou,KADIOGO,,BF,+226 71 38 28 32,https://location.westernunion.com/bf/kadiogo/ouagadougou/eabec08771f9d31357ab254deba06f77,Mo-Su 07:30-19:00,Western Union,Q861042
838982910b60c87f1f9c3c063b712bad,western_union,TIENDREBEOGO NEGOCE,,Ouagadougou,KADIOGO,,BF,+226 70 37 60 53,https://location.westernunion.com/bf/kadiogo/ouagadougou/838982910b60c87f1f9c3c063b712bad,Mo-Su 07:30-19:00,Western Union,Q861042
f99de07aa063bf489d715f8d2628288c,western_union,BOULSIN SERVICE RACHID,,Ouagadougou,KADIOGO,,BF,+226 67 65 79 49,https://location.westernunion.com/bf/kadiogo/ouagadougou/f99de07aa063bf489d715f8d2628288c,Mo-Sa 07:00-19:30,Western Union,Q861042
ab9832a06d96c5b7ff0540c970d87e1b,western_union,GOLD LINE 11,,Ouagadougou,KADIOGO,,BF,+226 70 65 83 00,https://location.westernunion.com/bf/kadiogo/ouagadougou/ab9832a06d96c5b7ff0540c970d87e1b,Mo-Fr 07:30-19:00; Sa 08:00-17:00,Western Union,Q861042
ba4ff80645a637e93fd0c6a8545b3301,western_union,FLY S BUSINESS,,Ouagadougou,KADIOGO,,BF,+226 64 12 61 31,https://location.westernunion.com/bf/kadiogo/ouagadougou/ba4ff80645a637e93fd0c6a8545b3301,Mo-Su 07:30-19:00,Western Union,Q861042
fe58e131b61d9443297c2a33128af434,western_union,KIRA TRADING SARL,,Ouagadougou,KADIOGO,,BF,+226 76 34 77 77,https://location.westernunion.com/bf/kadiogo/ouagadougou/fe58e131b61d9443297c2a33128af434,Mo-Sa 07:00-19:30,Western Union,Q861042
7687e6cc9e686a52a652abddf65f4ece,western_union,WEND WAOGA DISTRIBUTION COMMERCE GENERAL,,Ouagadougou,KADIOGO,,BF,+226 70 73 44 40,https://location.westernunion.com/bf/kadiogo/ouagadougou/7687e6cc9e686a52a652abddf65f4ece,Mo-Su 07:00-18:30,Western Union,Q861042
4a952e63ec291e47a8947d5067a4f497,western_union,ETS SORE BURKINA,,Ouagadougou,KADIOGO,,BF,+226 73 66 89 90,https://location.westernunion.com/bf/kadiogo/ouagadougou/4a952e63ec291e47a8947d5067a4f497,Mo-Sa 07:00-19:30,Western Union,Q861042
b9388e32e70c140e0bac41e156441bdc,western_union,SOULSERVICES,,Ouagadougou,KADIOGO,,BF,+226 78 91 13 84,https://location.westernunion.com/bf/kadiogo/ouagadougou/b9388e32e70c140e0bac41e156441bdc,Mo-Fr 07:00-21:00; Sa-Su 08:00-18:00,Western Union,Q861042
58d321fdb448eadd22c39e5b45ed3bc5,western_union,BARAKA SAWADOGO AGENCE,,Ouagadougou,KADIOGO,,BF,+226 71 52 30 66,https://location.westernunion.com/bf/kadiogo/ouagadougou/58d321fdb448eadd22c39e5b45ed3bc5,Mo-Sa 07:00-19:30,Western Union,Q861042
d982089ae5017dcbed5ae3ed6e3f1b00,western_union,ASKYA FINANCES BONHEUR VILLE,,Ouagadougou,KADIOGO,,BF,(+226) 7020205257,https://location.westernunion.com/bf/kadiogo/ouagadougou/d982089ae5017dcbed5ae3ed6e3f1b00,Mo-Su 07:00-21:00,Western Union,Q861042
20e9eaa6a9d31b1f418d387cfaad12c7,western_union,AGENCE VYA PLANI,,Ouagadougou,KADIOGO,,BF,+226 58 09 02 22,https://location.westernunion.com/bf/kadiogo/ouagadougou/20e9eaa6a9d31b1f418d387cfaad12c7,Mo-Su 07:00-20:00,Western Union,Q861042
512a840e99b1f6716c0d2f4b585585f9,western_union,BANK OF AFRICA INS,,Ouagadougou,KADIOGO,,BF,+226 50 34 62 22,https://location.westernunion.com/bf/kadiogo/ouagadougou/512a840e99b1f6716c0d2f4b585585f9,Mo-Sa 08:00-18:00; Su 00:01-24:00,Western Union,Q861042
820f8d4afd3706558437957ac16c8ef4,western_union,TRANSFERT CENTER,,Ouagadougou,KADIOGO,,BF,+226 76 35 35 64,https://location.westernunion.com/bf/kadiogo/ouagadougou/820f8d4afd3706558437957ac16c8ef4,Mo-Fr 07:30-18:30; Sa 08:00-18:30,Western Union,Q861042
62396b8f46e3b084896f2d94a5f6b233,western_union,GRACE HAVILA,,Ouagadougou,KADIOGO,,BF,+226 76 69 01 20,https://location.westernunion.com/bf/kadiogo/ouagadougou/62396b8f46e3b084896f2d94a5f6b233,Mo-Fr 07:00-19:30; Sa 07:00-18:00; Su 08:00-16:00,Western Union,Q861042
855ea4cccec92fb0b34bbb9a523b67d8,western_union,AGENCE Y J F B IMP EXP,,Ouagadougou,KADIOGO,,BF,+226 60 00 07 97,https://location.westernunion.com/bf/kadiogo/ouagadougou/855ea4cccec92fb0b34bbb9a523b67d8,Mo-Sa 07:00-20:00,Western Union,Q861042
f9a446848029f09be4ee516e756920d0,western_union,UNIVERS DES AFFAIRES,,Ouagadougou,KADIOGO,,BF,+226 67 28 05 07,https://location.westernunion.com/bf/kadiogo/ouagadougou/f9a446848029f09be4ee516e756920d0,Mo-Su 07:00-21:30,Western Union,Q861042
70630a2e3eb09fdb7baa8026f75029d3,western_union,CBI AZATH,,Ouagadougou,KADIOGO,,BF,+226 70 19 41 00,https://location.westernunion.com/bf/kadiogo/ouagadougou/70630a2e3eb09fdb7baa8026f75029d3,Mo-Sa 07:00-19:00; Su 08:00-19:00,Western Union,Q861042
1a418e170a4caf18a305780fc174ad14,western_union,OUMA SERVICES,,00788698gou,KADIOGO,,BF,+226 68 16 13 72,https://location.westernunion.com/bf/kadiogo/00788698gou/1a418e170a4caf18a305780fc174ad14,Mo-Su 07:00-18:00,Western Union,Q861042
61edcd7b20c090979d35d667d00b5260,western_union,AMCHE SERVICES,,Ouagadougou,KADIOGO,,BF,+226 78 69 72 54,https://location.westernunion.com/bf/kadiogo/ouagadougou/61edcd7b20c090979d35d667d00b5260,Mo-Fr 07:30-21:00; Sa-Su 07:30-19:00,Western Union,Q861042
7b02a810a5a287ded5469cc4cc14a0a1,western_union,LADJO SERVICES,,Ouagadougou,KADIOGO,,BF,+226 70 57 01 12,https://location.westernunion.com/bf/kadiogo/ouagadougou/7b02a810a5a287ded5469cc4cc14a0a1,Mo-Su 07:30-19:00,Western Union,Q861042
1d7525929be95c5f2bb9f9ab976c25e2,western_union,MELLI MULTI SERVICES,,Ouagadougou,KADIOGO,,BF,+226 78 85 04 43,https://location.westernunion.com/bf/kadiogo/ouagadougou/1d7525929be95c5f2bb9f9ab976c25e2,Mo-Su 07:00-21:00,Western Union,Q861042
cd1d82ad6e0d576d4aeb90a557d3de37,western_union,BARK NAEL,,Ouagadougou,KADIOGO,,BF,+226 70 27 96 54,https://location.westernunion.com/bf/kadiogo/ouagadougou/cd1d82ad6e0d576d4aeb90a557d3de37,Mo-Su 07:00-20:00,Western Union,Q861042
df5911c91cf18df0c515c4920c014e04,western_union,GLOBAL ENERGIE AND BUSINESS,,Ouagadougou,KADIOGO,,BF,+226 70 20 13 61,https://location.westernunion.com/bf/kadiogo/ouagadougou/df5911c91cf18df0c515c4920c014e04,Mo-Sa 07:00-20:00; Su 08:00-20:00,Western Union,Q861042
f8f5aba623a28d92e0eecb91e0041c60,western_union,TAIBA VOYAGES SARL,,Ouagadougou,KADIOGO,,BF,+226 07 49 35 85,https://location.westernunion.com/bf/kadiogo/ouagadougou/f8f5aba623a28d92e0eecb91e0041c60,Mo-Fr 07:30-19:00; Sa 08:00-17:00,Western Union,Q861042
8d8b9c7f285f01f418f1054d9b48a70a,western_union,AGENCE GLORIA SERVICES R,,Ouagadougou,KADIOGO,,BF,+226 67 00 48 80,https://location.westernunion.com/bf/kadiogo/ouagadougou/8d8b9c7f285f01f418f1054d9b48a70a,Mo-Sa 07:00-19:30; Su 07:00-18:00,Western Union,Q861042
35dc91263388bb9720ed6069aa5eb994,western_union,HADASS COMMUNICATION 6,,Ouagadougou,KADIOGO,,BF,+226 71 39 16 39,https://location.westernunion.com/bf/kadiogo/ouagadougou/35dc91263388bb9720ed6069aa5eb994,Mo-Sa 07:00-19:30,Western Union,Q861042
a1dc0b37283097ce53072a6347d43d24,western_union,AGENCE MADJE SERVICES,,Ouagadougou,KADIOGO,,BF,+226 64 49 06 54,https://location.westernunion.com/bf/kadiogo/ouagadougou/a1dc0b37283097ce53072a6347d43d24,Mo-Fr 07:00-19:30; Sa 07:00-19:00,Western Union,Q861042
35c352acec078007a97dcac5e21514f8,western_union,PACIFIC FINANCE,,Ouagadougou,KADIOGO,,BF,+226 71 51 66 55,https://location.westernunion.com/bf/kadiogo/ouagadougou/35c352acec078007a97dcac5e21514f8,Mo-Sa 08:00-18:00,Western Union,Q861042
c4bad581a54640cb4cb9942670dcef85,western_union,PACIFIC FINANCE,,Ouagadougou,KADIOGO,,BF,+226 71 51 66 55,https://location.westernunion.com/bf/kadiogo/ouagadougou/c4bad581a54640cb4cb9942670dcef85,Mo-Fr 08:00-18:00; Sa 08:00-14:00,Western Union,Q861042
176a9a50b6b7f17a12987f6efcd869be,western_union,ETABLISSEMENT NANA MARKET ET F,,Ouagadougou,KADIOGO,,BF,(+226) 25-76821980,https://location.westernunion.com/bf/kadiogo/ouagadougou/176a9a50b6b7f17a12987f6efcd869be,Mo-Fr 07:00-18:00; Sa 07:30-17:30; Su 08:00-15:00,Western Union,Q861042
c3e49f08c5c3f4c0498a0b4802433672,western_union,DYLANN TRADING,,Ouagadougou,KADIOGO,,BF,+226 71 40 76 54,https://location.westernunion.com/bf/kadiogo/ouagadougou/c3e49f08c5c3f4c0498a0b4802433672,Mo-Fr 08:00-18:00; Sa 08:00-14:00,Western Union,Q861042
193a794ac4d3e663fd33b57bc1a4a00e,western_union,EFFICIENCE MULTI SERVICES,,Ouagadougou,KADIOGO,,BF,(+226) 25-70417545,https://location.westernunion.com/bf/kadiogo/ouagadougou/193a794ac4d3e663fd33b57bc1a4a00e,Mo-Sa 07:00-18:00; Su 08:00-15:00,Western Union,Q861042
9e89e442195472137eef728f00e3f2a3,western_union,ECONOMIE AND BUSIINESS COMPAGNIE SARL,,Ouagadougou,KADIOGO,,BF,+226 70 20 14 06,https://location.westernunion.com/bf/kadiogo/ouagadougou/9e89e442195472137eef728f00e3f2a3,Mo-Su 07:00-18:00,Western Union,Q861042
86e5a471cfc6ae41a15f25474ca49a8c,western_union,BAOWIND SOM,,Ouagadougou,KADIOGO,,BF,+226 70 27 18 58,https://location.westernunion.com/bf/kadiogo/ouagadougou/86e5a471cfc6ae41a15f25474ca49a8c,Mo-Su 07:30-19:00,Western Union,Q861042
c1aa453727cc4cc85536a7e8160b1a29,western_union,MUTUELLE BAILTOUL MAAL SIEGE,,Ouagadougou,KADIOGO,,BF,+226 61 00 04 35,https://location.westernunion.com/bf/kadiogo/ouagadougou/c1aa453727cc4cc85536a7e8160b1a29,Mo-Sa 07:00-18:00,Western Union,Q861042
6dbc528e332bb99dc3057c0bb3a23d49,western_union,CBI BONHEUR VILLE,,Ouagadougou,KADIOGO,,BF,+226 25 31 23 23,https://location.westernunion.com/bf/kadiogo/ouagadougou/6dbc528e332bb99dc3057c0bb3a23d49,Mo-Fr 07:30-17:00; Sa 08:00-14:00,Western Union,Q861042
93552e13fe7515580b95f5dac3784d9e,western_union,ECOBANK 1200 LOGEMENTS,,Ouagadougou,KADIOGO,,BF,(+226) 50-78273517,https://location.westernunion.com/bf/kadiogo/ouagadougou/93552e13fe7515580b95f5dac3784d9e,Mo-Fr 07:30-18:30; Sa 08:00-17:30,Western Union,Q861042
c0e419e99a547fed92ab66eb5bf7fb4f,western_union,CBI NIOKO,,Ouagadougou,KADIOGO,,BF,+226 25 49 10 00,https://location.westernunion.com/bf/kadiogo/ouagadougou/c0e419e99a547fed92ab66eb5bf7fb4f,Mo-Fr 07:00-18:30; Sa-Su 07:00-15:00,Western Union,Q861042
bfce1e4bb02fe0593680740335ec5c68,western_union,SOCIETE BURKINABE DE TRANSPORT,,Ouagadougou,KADIOGO,,BF,+226 67 95 03 70,https://location.westernunion.com/bf/kadiogo/ouagadougou/bfce1e4bb02fe0593680740335ec5c68,Mo-Fr 07:00-19:30; Sa 07:00-18:00; Su 08:00-14:00,Western Union,Q861042
73cc1a9fd7c008b990a893c8425fadb1,western_union,BDU BF WAYALGHIN,,Ouagadougou,KADIOGO,,BF,+226 25 49 36 15,https://location.westernunion.com/bf/kadiogo/ouagadougou/73cc1a9fd7c008b990a893c8425fadb1,Mo-Su 08:00-17:00,Western Union,Q861042
2b21617f2fcaf38370d3ee618a7c9235,western_union,FATIMAT SERVICES,,Ouagadougou,KADIOGO,,BF,+226 78 68 35 28,https://location.westernunion.com/bf/kadiogo/ouagadougou/2b21617f2fcaf38370d3ee618a7c9235,Mo-Fr 07:00-18:30; Sa-Su 08:00-18:30,Western Union,Q861042
281bae1ee7e5d071f314aba5b294c3a9,western_union,INETPLUS,,Ouagadougou,KADIOGO,,BF,+226 76 17 74 02,https://location.westernunion.com/bf/kadiogo/ouagadougou/281bae1ee7e5d071f314aba5b294c3a9,Mo-Su 07:00-21:00,Western Union,Q861042
8e819f2b90970efe482b57a44251a7f4,western_union,ETABLISSEMENT SANFO TELECOM ET FRERES,,Ouagadougou,KADIOGO,,BF,+226 78 65 76 15,https://location.westernunion.com/bf/kadiogo/ouagadougou/8e819f2b90970efe482b57a44251a7f4,Mo-Fr 07:00-20:00; Sa 07:00-18:30; Su 07:00-18:00,Western Union,Q861042
1f0b40076185f3a87ba2010e687e00ff,western_union,GENEDIS BURKINA,,Ouagadougou,KADIOGO,,BF,+226 25 36 08 64,https://location.westernunion.com/bf/kadiogo/ouagadougou/1f0b40076185f3a87ba2010e687e00ff,Mo-Fr 07:00-21:00; Sa-Su 08:00-18:00,Western Union,Q861042
d4ae21d1c95c229939f428f4a19cea8b,western_union,INAYA TRAVEL AND SERVICES,,Ouagadougou,KADIOGO,,BF,+226 78 88 86 60,https://location.westernunion.com/bf/kadiogo/ouagadougou/d4ae21d1c95c229939f428f4a19cea8b,Mo-Sa 07:30-19:30; Su 07:30-18:00,Western Union,Q861042
3aa42832dbbb09eb24140e1ab28f353d,western_union,ABASSE SERVICE,,Ouagadougou,KADIOGO,,BF,+226 78 84 25 69,https://location.westernunion.com/bf/kadiogo/ouagadougou/3aa42832dbbb09eb24140e1ab28f353d,Mo-Fr 07:00-19:30; Sa 07:00-16:00; Su 08:00-14:00,Western Union,Q861042
0d239813139fdb82254d802f2fb94a5f,western_union,SHEDINE MULTI SERVICE II,,Ouagadougou,KADIOGO,,BF,+226 01 31 44 92,https://location.westernunion.com/bf/kadiogo/ouagadougou/0d239813139fdb82254d802f2fb94a5f,Mo-Fr 07:30-18:00; Sa 07:00-18:00,Western Union,Q861042
148e0b738c6040769c846357f7ec7ebc,western_union,PAT & CO TRANSFERT,,Ouagadougou,KADIOGO,,BF,+226 70 06 06 42,https://location.westernunion.com/bf/kadiogo/ouagadougou/148e0b738c6040769c846357f7ec7ebc,Mo-Su 07:30-19:00,Western Union,Q861042
1cefcb2ee8313c18aa320437f850f6ed,western_union,GENEDIS BURKINA SARL,,Ouagadougou,KADIOGO,,BF,+226 78 27 67 25,https://location.westernunion.com/bf/kadiogo/ouagadougou/1cefcb2ee8313c18aa320437f850f6ed,Mo-Fr 07:00-21:00; Sa-Su 08:00-18:00,Western Union,Q861042
e042cd13430b2bde67497e9bd4156dff,western_union,ETS TIDIANI AHMED SINI ET FRERES,,Ouagadougou,KADIOGO,,BF,+226 76 97 96 01,https://location.westernunion.com/bf/kadiogo/ouagadougou/e042cd13430b2bde67497e9bd4156dff,Mo-Su 07:30-19:00,Western Union,Q861042
9fc31d16001c084da8ada38e013937a3,western_union,TRADI SERVICES,,Ouagadougou,KADIOGO,,BF,(+0226) 67455771,https://location.westernunion.com/bf/kadiogo/ouagadougou/9fc31d16001c084da8ada38e013937a3,Mo-Fr 07:00-18:30; Sa 07:00-18:00; Su 07:00-00:17,Western Union,Q861042
f076e3d63258d49c815a4ebaa1631750,western_union,DEFINDOUBE MULTI SERVICES,,Ouagadougou,KADIOGO,,BF,(+226) 25-78608840,https://location.westernunion.com/bf/kadiogo/ouagadougou/f076e3d63258d49c815a4ebaa1631750,Mo-Fr 07:00-19:00; Sa 08:00-18:00; Su 08:00-15:00,Western Union,Q861042
14180fa4c0c1600f0ad4012f19139c29,western_union,SOREDYP,,Ouagadougou,KADIOGO,,BF,+226 72 39 61 66,https://location.westernunion.com/bf/kadiogo/ouagadougou/14180fa4c0c1600f0ad4012f19139c29,Mo-Fr 07:30-19:00; Sa 08:00-17:00,Western Union,Q861042
9d6bbd9d3ce9c279f16652bff7d8e188,western_union,ETS KAGAMBEGA ET FRERES,,Ouagadougou,KADIOGO,,BF,(+226) 25-78939352,https://location.westernunion.com/bf/kadiogo/ouagadougou/9d6bbd9d3ce9c279f16652bff7d8e188,Mo-Su 07:00-22:00,Western Union,Q861042
2ddefcf62f87c6b89dabf6cc2fa6ed70,western_union,NOCES BUSINESS OFFICE,,Ouagadougou,KADIOGO,,BF,+226 72 99 43 27,https://location.westernunion.com/bf/kadiogo/ouagadougou/2ddefcf62f87c6b89dabf6cc2fa6ed70,Mo-Su 07:30-18:30,Western Union,Q861042
ddb0dc38f39e85f7fc35cb61ed25f146,western_union,WHITE EAGLE SOCIETY,,Ouagadougou,KADIOGO,,BF,+226 56 02 90 58,https://location.westernunion.com/bf/kadiogo/ouagadougou/ddb0dc38f39e85f7fc35cb61ed25f146,Mo-Fr 07:00-19:30; Sa 07:00-18:00; Su 08:00-14:00,Western Union,Q861042
1a497575ad8a1e9e7b409d95acf132e3,western_union,CORIS BANK INT AGENCE DAGNOEN,,Ouagadougou,KADIOGO,,BF,+226 50 50 02 02,https://location.westernunion.com/bf/kadiogo/ouagadougou/1a497575ad8a1e9e7b409d95acf132e3,Mo-Fr 07:30-17:30; Sa 08:00-13:00,Western Union,Q861042
df434520f8a5d8f3fc30779957e0d953,western_union,WEND LASIDA BUSINESS INTERNATIONAL,,Ouagadougou,KADIOGO,,BF,+226 78 03 22 78,https://location.westernunion.com/bf/kadiogo/ouagadougou/df434520f8a5d8f3fc30779957e0d953,Mo-Su 07:00-21:30,Western Union,Q861042
841c74a215e3f0b67ab94357f95cee9b,western_union,ETABLISSEMENT DAYAMBA ESTELLE RAWIDWENDE,,Ouagadougou,KADIOGO,,BF,+226 70 56 77 72,https://location.westernunion.com/bf/kadiogo/ouagadougou/841c74a215e3f0b67ab94357f95cee9b,Mo-Fr 07:00-18:00; Sa 07:00-17:00; Su 08:00-15:00,Western Union,Q861042
11dd5aeee5d00c9420f30a69a5a8d638,western_union,AGENCE HER CISSIN,,Ouagadougou,KADIOGO,,BF,+226 70 30 84 00,https://location.westernunion.com/bf/kadiogo/ouagadougou/11dd5aeee5d00c9420f30a69a5a8d638,Mo-Fr 07:00-19:30; Sa 07:00-17:30,Western Union,Q861042
774057ffbfd476f7769625029e152330,western_union,OLA TRADING TRANSFERT D ARGENT,,Ouagadougou,KADIOGO,,BF,+226 78 09 20 79,https://location.westernunion.com/bf/kadiogo/ouagadougou/774057ffbfd476f7769625029e152330,Mo-Fr 07:00-19:30; Sa 07:00-18:00; Su 08:00-16:00,Western Union,Q861042
68b8b2de903cbe18a8ef217e0e0b9e96,western_union,AGENCE AFTED,,Ouagadougou,KADIOGO,,BF,+226 78 09 53 09,https://location.westernunion.com/bf/kadiogo/ouagadougou/68b8b2de903cbe18a8ef217e0e0b9e96,Mo-Sa 07:00-18:30,Western Union,Q861042
5150512ac7cc22b2ec6ba6d6ec05e938,western_union,COFINA DASSASGO,,Ouagadougou,KADIOGO,,BF,+226 25 33 19 19,https://location.westernunion.com/bf/kadiogo/ouagadougou/5150512ac7cc22b2ec6ba6d6ec05e938,Mo-Fr 07:30-19:00; Sa 08:00-17:00,Western Union,Q861042
d6b83d7da76093895691f660f50e1bed,western_union,WENDY VOYAGE ET SERVICES,,Ouagadougou,KADIOGO,,BF,+226 70 82 89 09,https://location.westernunion.com/bf/kadiogo/ouagadougou/d6b83d7da76093895691f660f50e1bed,Mo-Su 07:30-21:00,Western Union,Q861042
b057b2ef7e0f56b26909cff9104ff9e3,western_union,WENDY VOYAGE ET SERVICES,,Ouagadougou,KADIOGO,,BF,+226 70 82 89 09,https://location.westernunion.com/bf/kadiogo/ouagadougou/b057b2ef7e0f56b26909cff9104ff9e3,Mo-Su 07:30-21:00,Western Union,Q861042
89357e87b061df4e8a1445b2681e3ee0,western_union,CORIS BANK INT AGENCE DASSASGO,,Ouagadougou,KADIOGO,,BF,+226 50 50 02 00,https://location.westernunion.com/bf/kadiogo/ouagadougou/89357e87b061df4e8a1445b2681e3ee0,Mo-Fr 07:30-17:30; Sa 08:00-13:00,Western Union,Q861042
388bc56a2adadbd7cf5b3fb6a802e70d,western_union,ARACH NIDE SECURITE,,Ouagadougou,KADIOGO,,BF,+226 78 04 74 61,https://location.westernunion.com/bf/kadiogo/ouagadougou/388bc56a2adadbd7cf5b3fb6a802e70d,Mo-Su 07:30-19:00,Western Union,Q861042
9753dee35d886182ec84df6f385ff9a5,western_union,SD SERVICES,,Ouagadougou,KADIOGO,,BF,+226 75 64 53 10,https://location.westernunion.com/bf/kadiogo/ouagadougou/9753dee35d886182ec84df6f385ff9a5,Mo-Su 07:30-19:00,Western Union,Q861042
2026b1cc1fca13b42cdb119a8303f5ae,western_union,CHALLENGE TRADING,,Ouagadougou,KADIOGO,,BF,+226 78 80 24 43,https://location.westernunion.com/bf/kadiogo/ouagadougou/2026b1cc1fca13b42cdb119a8303f5ae,Mo-Sa 07:00-20:00; Su 08:00-20:00,Western Union,Q861042
be12e8e2b9d7447320a6a0c308bed2fe,western_union,BARKA CHANGE,,Ouagadougou,KADIOGO,,BF,+226 67 17 10 06,https://location.westernunion.com/bf/kadiogo/ouagadougou/be12e8e2b9d7447320a6a0c308bed2fe,Mo-Su 07:00-18:00,Western Union,Q861042
a39292e5ef30b800986e70755107726d,western_union,CANAL POINT G,,Ouagadougou,KADIOGO,,BF,+226 70 02 47 88,https://location.westernunion.com/bf/kadiogo/ouagadougou/a39292e5ef30b800986e70755107726d,Mo-Sa 07:00-20:00,Western Union,Q861042
9a2c9c40a12570ac9719e1efc3793ce0,western_union,AGENCE BIG HOUSE,,Ouagadougou,KADIOGO,,BF,+226 55 38 58 89,https://location.westernunion.com/bf/kadiogo/ouagadougou/9a2c9c40a12570ac9719e1efc3793ce0,Mo-Fr 07:00-19:30; Sa 07:00-19:00; Su 07:00-18:00,Western Union,Q861042
b5509900a4fe84458d650a20683c03f1,western_union,BENI VENTE ET SERVICES,,Ouagadougou,KADIOGO,,BF,+226 76 74 06 39,https://location.westernunion.com/bf/kadiogo/ouagadougou/b5509900a4fe84458d650a20683c03f1,Mo-Fr 07:30-18:30; Sa 08:00-17:00; Su 08:00-12:00,Western Union,Q861042
e605206eec9a084e7f45a6722349f0d3,western_union,AGENCE ALIMENTATION BON S,,Ouagadougou,KADIOGO,,BF,+226 70 45 30 20,https://location.westernunion.com/bf/kadiogo/ouagadougou/e605206eec9a084e7f45a6722349f0d3,Mo-Fr 07:00-19:30; Sa 07:00-17:30,Western Union,Q861042
cd50f63ad84388d8963c6de51f9deba2,western_union,AGENCE  SGB,,Ouagadougou,KADIOGO,,BF,(+226) 62-58040108,https://location.westernunion.com/bf/kadiogo/ouagadougou/cd50f63ad84388d8963c6de51f9deba2,Mo-Sa 07:00-20:00,Western Union,Q861042
d08293151a4c4bbc22312179d483cb9b,western_union,AGENCE MVOYAGES TOURISME ET SERVICES,,Ouagadougou,KADIOGO,,BF,+226 66 83 38 08,https://location.westernunion.com/bf/kadiogo/ouagadougou/d08293151a4c4bbc22312179d483cb9b,Mo-Sa 07:00-19:30,Western Union,Q861042
2239ec4c5d0b1e5be83d6c9c1a3b64e0,western_union,DERKESS SERVICE BIS,,Ouagadougou,KADIOGO,,BF,(+226) 78-1588282,https://location.westernunion.com/bf/kadiogo/ouagadougou/2239ec4c5d0b1e5be83d6c9c1a3b64e0,Mo-Fr 07:00-19:30; Sa 07:00-18:00,Western Union,Q861042
393659b3af586e35aaab09565538ef13,western_union,GNAA BANVIN,,Ouagadougou,KADIOGO,,BF,+226 55 49 59 20,https://location.westernunion.com/bf/kadiogo/ouagadougou/393659b3af586e35aaab09565538ef13,Mo-Fr 07:00-19:00; Sa-Su 08:00-18:00,Western Union,Q861042
bb914deddc8d7b80016f78781c5fef9e,western_union,ECOBANK PATTE D OIE,,Ouagadougou,KADIOGO,,BF,+226 50 32 83 28,https://location.westernunion.com/bf/kadiogo/ouagadougou/bb914deddc8d7b80016f78781c5fef9e,Mo-Fr 07:30-18:30; Sa 08:00-15:30,Western Union,Q861042
0cfcbf453226603d6fe067ff6798f811,western_union,ECOBANK AGENCE DE L UNIVERSITE,,Ouagadougou,KADIOGO,,BF,+226 50 49 64 00,https://location.westernunion.com/bf/kadiogo/ouagadougou/0cfcbf453226603d6fe067ff6798f811,Mo-Su 07:30-18:30,Western Union,Q861042
107acfc3ef83cd879a3cd9afed618f5d,western_union,INGENUX BUSINESS,,Ouagadougou,KADIOGO,,BF,+226 70 06 42 40,https://location.westernunion.com/bf/kadiogo/ouagadougou/107acfc3ef83cd879a3cd9afed618f5d,Mo-Sa 07:00-19:30,Western Union,Q861042
5fa1364b1b162d2cab1de743d8accfe1,western_union,WORLD PACIFIQUE,,Ouagadougou,KADIOGO,,BF,+226 70 50 13 24,https://location.westernunion.com/bf/kadiogo/ouagadougou/5fa1364b1b162d2cab1de743d8accfe1,Mo-Su 07:30-19:00,Western Union,Q861042
4cc6afae64d430e02571eed687372055,western_union,CBI OUAGARINTER,,Ouagadougou,KADIOGO,,BF,+226 25 49 10 00,https://location.westernunion.com/bf/kadiogo/ouagadougou/4cc6afae64d430e02571eed687372055,Mo-Fr 07:30-18:00; Sa-Su 08:00-13:00,Western Union,Q861042
7b5d91d0977e0ed84a382d63de328bb6,western_union,ETABLISSEMENT OUEDRAOGO ET NANA,,Ouagadougou,KADIOGO,,BF,+226 76 30 74 74,https://location.westernunion.com/bf/kadiogo/ouagadougou/7b5d91d0977e0ed84a382d63de328bb6,Mo-Sa 07:30-19:30; Su 07:30-18:00,Western Union,Q861042
69187a1c02e0827f3e33eda8710d1653,western_union,ENTREPRISE NAWA,,Ouagadougou,KADIOGO,,BF,+226 70 28 70 63,https://location.westernunion.com/bf/kadiogo/ouagadougou/69187a1c02e0827f3e33eda8710d1653,Mo-Su 07:00-21:30,Western Union,Q861042
dba2eb669d7ed74ee38305f7d564ec17,western_union,PLATINIUM AGENCY,,Ouagadougou,KADIOGO,,BF,+226 70 76 16 22,https://location.westernunion.com/bf/kadiogo/ouagadougou/dba2eb669d7ed74ee38305f7d564ec17,Mo-Su 07:00-18:00,Western Union,Q861042
f48e2363db37047b742ec98e9ac7c115,western_union,BANQUE ATLANTIQUE  VIP,,Ouagadougou,KADIOGO,,BF,+226 25 49 24 46,https://location.westernunion.com/bf/kadiogo/ouagadougou/f48e2363db37047b742ec98e9ac7c115,Mo-Fr 07:00-19:00; Sa 08:00-15:00,Western Union,Q861042
e57a00b3b126ffb29c233cb271d4ac6a,western_union,BURKINA ATLAS TRANSFERT,,Ouagadougou,KADIOGO,,BF,+226 70 49 47 15,https://location.westernunion.com/bf/kadiogo/ouagadougou/e57a00b3b126ffb29c233cb271d4ac6a,Mo-Sa 07:00-20:00; Su 08:00-20:00,Western Union,Q861042
1b2af8ff6fe679f2816615ec7a873ca4,western_union,AGENCE AL MANAR MULTI SERVICE KATR YAAR,,Ouagadougou,KADIOGO,,BF,+226 76 24 32 11,https://location.westernunion.com/bf/kadiogo/ouagadougou/1b2af8ff6fe679f2816615ec7a873ca4,Mo-Sa 07:00-20:00; Su 07:00-18:00,Western Union,Q861042
b62a823cf970f9767bf765f3c3add58e,western_union,O.N. MULTI-SERVICES,,Ouagadougou,KADIOGO,,BF,+226 72 07 82 41,https://location.westernunion.com/bf/kadiogo/ouagadougou/b62a823cf970f9767bf765f3c3add58e,Mo-Su 07:30-19:00,Western Union,Q861042
21e0a49c43aa63b8978630b86f808ea0,western_union,SIDAKA,,Ouagadougou,KADIOGO,,BF,+226 70 06 34 68,https://location.westernunion.com/bf/kadiogo/ouagadougou/21e0a49c43aa63b8978630b86f808ea0,Mo 07:00-19:00; Tu-Fr 08:00-19:00; Sa-Su 08:00-18:00,Western Union,Q861042
b672b163e21a67cfa8e157f53e08e0ee,western_union,PASCAL TELECOM ET SERVICE,,Ouagadougou,KADIOGO,,BF,+226 70 13 93 80,https://location.westernunion.com/bf/kadiogo/ouagadougou/b672b163e21a67cfa8e157f53e08e0ee,Mo-Fr 07:00-20:00; Sa 08:00-20:00; Su 08:00-18:00,Western Union,Q861042
4d04213f831be905b97cf97f8266983d,western_union,MAZUDU MULTI SERVICES,,Ouagadougou,KADIOGO,,BF,+226 72 97 97 37,https://location.westernunion.com/bf/kadiogo/ouagadougou/4d04213f831be905b97cf97f8266983d,Mo-Sa 07:00-18:00; Su 07:00-17:00,Western Union,Q861042
583b3ad24d941fec5cd64b41b9bd7c56,western_union,THE BEST OF GROUPS   B  O G,,Ouagadougou,KADIOGO,,BF,+226 63 38 93 98,https://location.westernunion.com/bf/kadiogo/ouagadougou/583b3ad24d941fec5cd64b41b9bd7c56,Mo-Su 07:30-19:00,Western Union,Q861042
d277f904213aa672210bb1199b794c66,western_union,BCB AGENCE SAABA,,Saaba,KADIOGO,,BF,+226 25 32 59 90,https://location.westernunion.com/bf/kadiogo/saaba/d277f904213aa672210bb1199b794c66,Mo-Fr 07:30-17:00; Sa 07:30-12:00,Western Union,Q861042
e551dcc319e60e35b99be4be154f4331,western_union,AGENCE TOUT EST GRACE SHALOM,,Ouagadougou,KADIOGO,,BF,+226 67 42 86 14,https://location.westernunion.com/bf/kadiogo/ouagadougou/e551dcc319e60e35b99be4be154f4331,Mo-Su 07:00-21:00,Western Union,Q861042
89d67d35771b649ea7e106a531123517,western_union,KARIFANE,,Ouagadougou,KADIOGO,,BF,+226 70 28 35 82,https://location.westernunion.com/bf/kadiogo/ouagadougou/89d67d35771b649ea7e106a531123517,Mo-Sa 07:00-20:00; Su 07:00-18:00,Western Union,Q861042
3cbf20a852a0d724d5750d9a61a92705,western_union,AGENCE SCHEBA OUAGA 2000,,Ouagadougou,KADIOGO,,BF,+226 60 49 57 73,https://location.westernunion.com/bf/kadiogo/ouagadougou/3cbf20a852a0d724d5750d9a61a92705,Mo-Sa 07:00-19:30,Western Union,Q861042
a75f986a0d497c5df1be567f64b5055f,western_union,ASKYA FINANCES 2,,Ouagadougou,KADIOGO,,BF,+226 71 98 47 07,https://location.westernunion.com/bf/kadiogo/ouagadougou/a75f986a0d497c5df1be567f64b5055f,Mo-Sa 07:00-21:00; Su 07:00-18:00,Western Union,Q861042
16988e1ebec1042a824f491851d7eb75,western_union,AGENCE FARMAK SARL,,Ouagadougou,KADIOGO,,BF,+226 78 62 11 62,https://location.westernunion.com/bf/kadiogo/ouagadougou/16988e1ebec1042a824f491851d7eb75,Mo-Su 07:00-21:00,Western Union,Q861042
ec3dce02d38bc9552d14d1c3cc966114,western_union,MERY TRAVEL AND SERVICE,,Ouagadougou,KADIOGO,,BF,+226 70 41 33 84,https://location.westernunion.com/bf/kadiogo/ouagadougou/ec3dce02d38bc9552d14d1c3cc966114,Mo-Sa 07:00-19:00; Su 07:00-17:30,Western Union,Q861042
a1258c0f41397ee63c6fbc7a5c5b931a,western_union,EURO MULTI SERVICES ET DIVERS,,Ouagadougou,KADIOGO,,BF,+226 64 64 58 44,https://location.westernunion.com/bf/kadiogo/ouagadougou/a1258c0f41397ee63c6fbc7a5c5b931a,Mo-Sa 07:00-20:00; Su 08:00-20:00,Western Union,Q861042
11a463d13a4e45d57b08a97ee48e7888,western_union,AGENCE MULTI SERVICES AFRIQUE,,Ouagadougou,KADIOGO,,BF,+226 70 21 20 26,https://location.westernunion.com/bf/kadiogo/ouagadougou/11a463d13a4e45d57b08a97ee48e7888,Mo-Fr 07:00-18:00; Sa 07:00-17:00; Su 08:00-15:00,Western Union,Q861042
b0b48ef21bba56210180a4af99de36b4,western_union,MOALIM TELECOM BAROGO,,Saaba,KADIOGO,,BF,+226 78 05 09 13,https://location.westernunion.com/bf/kadiogo/saaba/b0b48ef21bba56210180a4af99de36b4,Mo-Su 07:00-21:30,Western Union,Q861042
e25699d2e233fc7d14073125ac6ce95c,western_union,AGENCE HORINFO BURKINA,,Ouagadougou,KADIOGO,,BF,+226 70 26 95 43,https://location.westernunion.com/bf/kadiogo/ouagadougou/e25699d2e233fc7d14073125ac6ce95c,Mo-Sa 07:00-19:30,Western Union,Q861042
d539b15eae275e259aaeb3353dc604f5,western_union,LIMAMBA SERVICE SIAO,,Ouagadougou,KADIOGO,,BF,+226 70 32 55 61,https://location.westernunion.com/bf/kadiogo/ouagadougou/d539b15eae275e259aaeb3353dc604f5,Mo-Sa 07:00-19:30; Su 07:00-18:30,Western Union,Q861042
aa8af0a9059b17609443fab957c73675,western_union,TINDWENDE PRESTATION,,Ouagadougou,KADIOGO,,BF,+226 71 71 93 03,https://location.westernunion.com/bf/kadiogo/ouagadougou/aa8af0a9059b17609443fab957c73675,Mo-Fr 07:30-19:00; Sa 08:00-17:00,Western Union,Q861042
77588135896ba47215cc94c745e8724a,western_union,TMAI,,Ouagadougou,KADIOGO,,BF,+226 62 65 31 88,https://location.westernunion.com/bf/kadiogo/ouagadougou/77588135896ba47215cc94c745e8724a,Mo-Fr 07:30-19:00; Sa 08:00-17:00,Western Union,Q861042
4207b4b059892aad8ef76645de753e6b,western_union,NAKAMBE SERVICE,,Ouagadougou,KADIOGO,,BF,+226 65 36 15 66,https://location.westernunion.com/bf/kadiogo/ouagadougou/4207b4b059892aad8ef76645de753e6b,Mo-Fr 07:00-20:00; Sa 07:00-18:00; Su 09:00-17:00,Western Union,Q861042
4a412f006482ea429353d512e6df6266,western_union,POLY SERVICE TECHNIQUE,,Ouagadougou,KADIOGO,,BF,+226 25 37 59 01,https://location.westernunion.com/bf/kadiogo/ouagadougou/4a412f006482ea429353d512e6df6266,Mo-Fr 07:00-20:00; Sa 07:00-18:00; Su 08:00-17:00,Western Union,Q861042
5144502ee9051bb188a40cf2f329ac82,western_union,ECOBANK OUAGA 2000,,Ouagadougou,KADIOGO,,BF,+226 50 37 69 69,https://location.westernunion.com/bf/kadiogo/ouagadougou/5144502ee9051bb188a40cf2f329ac82,Mo-Su 07:00-20:30,Western Union,Q861042
81f5a2d13b442b41a0e8eb56b73d1dcc,western_union,ESPACE VISION PLUS TED,,Ouagadougou,KADIOGO,,BF,+226 70 92 18 25,https://location.westernunion.com/bf/kadiogo/ouagadougou/81f5a2d13b442b41a0e8eb56b73d1dcc,Mo-Su 07:30-19:00,Western Union,Q861042
3871a7e68465e03ca74fc676420270a4,western_union,ETS KABORE ROSALIE BELWENDE E K A R B,,Ouagadougou,KADIOGO,,BF,+226 70 31 16 16,https://location.westernunion.com/bf/kadiogo/ouagadougou/3871a7e68465e03ca74fc676420270a4,Mo-Sa 07:30-18:30,Western Union,Q861042
73a04ece0125ee57f0d36ea1b809da37,western_union,TRADING CENTER LLC,,Ouagadougou,KADIOGO,,BF,+226 07 33 25 22,https://location.westernunion.com/bf/kadiogo/ouagadougou/73a04ece0125ee57f0d36ea1b809da37,Mo-Su 07:30-18:30,Western Union,Q861042
9c43777d2099b7b852964dcba05f34ec,western_union,MOALIM TELECOM,,Ouagadougou,KADIOGO,,BF,(+226) 25-78050913,https://location.westernunion.com/bf/kadiogo/ouagadougou/9c43777d2099b7b852964dcba05f34ec,Mo-Fr 07:00-21:00; Sa 07:00-20:00; Su 08:00-20:00,Western Union,Q861042
9544b2ade2e1bcd67fb2c794bad6eed2,western_union,ROUWAYDA NEGOCE,,Ouagadougou,KADIOGO,,BF,+226 70 34 68 62,https://location.westernunion.com/bf/kadiogo/ouagadougou/9544b2ade2e1bcd67fb2c794bad6eed2,Mo-Fr 07:30-19:00; Sa 08:00-17:00,Western Union,Q861042
117c12c0d80a82b1e04958352958818d,western_union,O N MULTI SERVICES,,Ouagadougou,KADIOGO,,BF,+226 65 22 82 96,https://location.westernunion.com/bf/kadiogo/ouagadougou/117c12c0d80a82b1e04958352958818d,Mo-Sa 07:00-18:30,Western Union,Q861042
58a1dae9aa7491bbd17718d292a9f482,western_union,BACF DES PME,,Ouagadougou,KADIOGO,,BF,+226 72 83 02 39,https://location.westernunion.com/bf/kadiogo/ouagadougou/58a1dae9aa7491bbd17718d292a9f482,Mo-Sa 07:00-20:00; Su 08:00-20:00,Western Union,Q861042
c388fe2a698972959f2a447f01e03a3c,western_union,SECU TECH,,Ouagadougou,KADIOGO,,BF,+226 70 28 79 26,https://location.westernunion.com/bf/kadiogo/ouagadougou/c388fe2a698972959f2a447f01e03a3c,Mo-Sa 08:00-18:00,Western Union,Q861042
7d44b97953842297cef9f7ed53d90e4f,western_union,ETABLISSEMENT KAFANDO WENDPOUIRE ISMAIL,,Ouagadougou,KADIOGO,,BF,+226 76 33 29 64,https://location.westernunion.com/bf/kadiogo/ouagadougou/7d44b97953842297cef9f7ed53d90e4f,Mo-Sa 07:00-20:00; Su 08:00-20:00,Western Union,Q861042
ebe13be6d69bb9823632095abc677a4d,western_union,TRANSLUX FINANCES,,Ouagadougou,KADIOGO,,BF,+226 76 95 22 36,https://location.westernunion.com/bf/kadiogo/ouagadougou/ebe13be6d69bb9823632095abc677a4d,Mo-Su 07:30-19:00,Western Union,Q861042
d107d6a7390f6eff514f1ffb3160c222,western_union,CORIS BANK INTERNATIONAL AGENCE,,Ouagadougou,KADIOGO,,BF,+226 25 49 10 00,https://location.westernunion.com/bf/kadiogo/ouagadougou/d107d6a7390f6eff514f1ffb3160c222,Mo-Fr 07:30-17:00; Sa-Su 07:30-14:00,Western Union,Q861042
e2442db707e06fa08b18b56a840bd114,western_union,FUTURE PLAN WATAMATO,,Ouagadougou,KADIOGO,,BF,+226 70 26 76 93,https://location.westernunion.com/bf/kadiogo/ouagadougou/e2442db707e06fa08b18b56a840bd114,Mo-Fr 07:00-18:00; Sa 07:00-17:00; Su 08:00-15:00,Western Union,Q861042
de503065c4f95fa80052a4739d9906dd,western_union,PACIFIC FINANCE,,Ouagadougou,KADIOGO,,BF,+226 71 51 66 55,https://location.westernunion.com/bf/kadiogo/ouagadougou/de503065c4f95fa80052a4739d9906dd,Mo-Fr 08:00-18:00; Sa 08:00-14:00,Western Union,Q861042
68002e609e73d10e09fe9865aa66994a,western_union,PACIFIC FINANCE,,Ouagadougou,KADIOGO,,BF,+226 71 51 66 55,https://location.westernunion.com/bf/kadiogo/ouagadougou/68002e609e73d10e09fe9865aa66994a,Mo-Sa 08:00-18:00,Western Union,Q861042
45efcf25f2dd1946b7858bae41352530,western_union,SOFA WENDKOUNI,,Ouagadougou,KADIOGO,,BF,+226 72 61 73 54,https://location.westernunion.com/bf/kadiogo/ouagadougou/45efcf25f2dd1946b7858bae41352530,Mo-Fr 07:30-19:00; Sa 08:00-17:00,Western Union,Q861042
f14fdb17ded8fb4d196f9319dc14171d,western_union,DIASPO MONEY,,Ouagadougou,KADIOGO,,BF,+226 77 24 63 47,https://location.westernunion.com/bf/kadiogo/ouagadougou/f14fdb17ded8fb4d196f9319dc14171d,Mo-Su 07:30-19:00,Western Union,Q861042
599f7e4b746b22068dae0c1347de8613,western_union,GARE TRANSFERT KARPALA,,Ouagadougou,KADIOGO,,BF,(+226) 25-75770707,https://location.westernunion.com/bf/kadiogo/ouagadougou/599f7e4b746b22068dae0c1347de8613,Mo-Fr 07:00-19:00; Sa 07:00-18:00; Su 08:00-15:00,Western Union,Q861042
efcc55d7e381d560577c11e32dd6f1f0,western_union,AZIMUT AFFAIRES BRIELLE COMMER,,Ouagadougou,KADIOGO,,BF,(+226) 25-79197586,https://location.westernunion.com/bf/kadiogo/ouagadougou/efcc55d7e381d560577c11e32dd6f1f0,Mo-Su 07:00-19:00,Western Union,Q861042
17a9f700984c0e0614c212e40b2e2281,western_union,ETABLISSEMENT OUEDRAOGO SADA ET FRERES,,Ouagadougou,KADIOGO,,BF,+226 70 17 35 29,https://location.westernunion.com/bf/kadiogo/ouagadougou/17a9f700984c0e0614c212e40b2e2281,Mo-Su 07:30-19:00,Western Union,Q861042
91259068234abf7724f13d29ff07c778,western_union,CBI KARPALA,,Ouagadougou,KADIOGO,,BF,+226 25 49 10 00,https://location.westernunion.com/bf/kadiogo/ouagadougou/91259068234abf7724f13d29ff07c778,Mo-Fr 07:30-18:00; Sa-Su 08:00-13:00,Western Union,Q861042
d473417fd73bf11620781408f2d56a19,western_union,SOCIETE TIEMTORE SALFO ET SOEURS,,Ouagadougou,KADIOGO,,BF,+226 75 81 04 99,https://location.westernunion.com/bf/kadiogo/ouagadougou/d473417fd73bf11620781408f2d56a19,Mo-Fr 07:00-19:00; Sa-Su 08:00-18:00,Western Union,Q861042
ccf4eebea7d973074f45edd47ff19c30,western_union,HADASS COMMUNICATION 4,,Ouagadougou,KADIOGO,,BF,+226 58 38 99 15,https://location.westernunion.com/bf/kadiogo/ouagadougou/ccf4eebea7d973074f45edd47ff19c30,Mo-Sa 07:00-19:30; Su 07:00-16:00,Western Union,Q861042
9d86fde4d3bc7a1fb38184e15a8058ce,western_union,BMS TRANSFERT ET SERVICE,,Ouagadougou,KADIOGO,,BF,+226 76 20 85 10,https://location.westernunion.com/bf/kadiogo/ouagadougou/9d86fde4d3bc7a1fb38184e15a8058ce,Mo-Su 07:00-18:00,Western Union,Q861042
a971d9e813acb0e7cf234d87dccef2a3,western_union,SOCIETE TIEMTORE SALFO ET SOEURS(SOTIS),,Ouagadougou,KADIOGO,,BF,+226 75 81 04 99,https://location.westernunion.com/bf/kadiogo/ouagadougou/a971d9e813acb0e7cf234d87dccef2a3,Mo-Su 07:30-19:00,Western Union,Q861042
74480acc60f1d192070b86c151983f11,western_union,CELESATECH,,Ouagadougou,KADIOGO,,BF,+226 70 77 54 02,https://location.westernunion.com/bf/kadiogo/ouagadougou/74480acc60f1d192070b86c151983f11,Mo-Su 07:30-19:00,Western Union,Q861042
737ada3b54e6a03d220244c565ff0988,western_union,AGENCE OUAGA 2000,,Ouagdougou,KADIOGO,,BF,+226 25 49 36 25,https://location.westernunion.com/bf/kadiogo/ouagdougou/737ada3b54e6a03d220244c565ff0988,Mo-Sa 07:30-20:00,Western Union,Q861042
d1c0ce93edb702d570e52784de2d667d,western_union,BANK OF AFRICA SHADMIR,,Ouagadougou,KADIOGO,,BF,+226 78 78 76 10,https://location.westernunion.com/bf/kadiogo/ouagadougou/d1c0ce93edb702d570e52784de2d667d,Mo-Sa 07:00-20:00; Su 07:00-15:00,Western Union,Q861042
f0398384310e5086b6fd9707e5f68df5,western_union,ECONOMIC AND BUSINESS COMPAGNI,,Saaba,KADIOGO,,BF,+226 70 20 14 06,https://location.westernunion.com/bf/kadiogo/saaba/f0398384310e5086b6fd9707e5f68df5,Mo-Sa 07:00-19:00; Su 08:00-17:00,Western Union,Q861042
3a3c6cc27bd0ab08939dcf950f718a49,western_union,EBC SIEGE 1,,Ouagadougou,KADIOGO,,BF,+226 70 20 14 06,https://location.westernunion.com/bf/kadiogo/ouagadougou/3a3c6cc27bd0ab08939dcf950f718a49,Mo-Sa 07:00-20:00; Su 08:00-18:00,Western Union,Q861042
789528503c7f9d0f373af67cfe089653,western_union,EBC SIEGE 2,,Ouagadougou,KADIOGO,,BF,+226 70 20 14 06,https://location.westernunion.com/bf/kadiogo/ouagadougou/789528503c7f9d0f373af67cfe089653,Mo-Sa 07:00-20:00; Su 08:00-18:00,Western Union,Q861042
13bad7054ae1b5f9887d7a0f319f0bc5,western_union,EBC SIEGE 3,,Ouagadougou,KADIOGO,,BF,+226 70 20 14 06,https://location.westernunion.com/bf/kadiogo/ouagadougou/13bad7054ae1b5f9887d7a0f319f0bc5,Mo-Sa 07:00-20:00; Su 08:00-18:00,Western Union,Q861042
5e70577535bf746f52909b6d49282299,western_union,ARTHUR ET FRERES SERVICES,,Ouagadougou,KADIOGO,,BF,+226 76 34 32 66,https://location.westernunion.com/bf/kadiogo/ouagadougou/5e70577535bf746f52909b6d49282299,Mo-Fr 07:00-19:30; Sa 07:00-18:00,Western Union,Q861042
b69843c3e05608563b6a27a8ea85c213,western_union,UNIVERSAL SOLUTION,,Ouagadougou,KADIOGO,,BF,+226 51 43 27 27,https://location.westernunion.com/bf/kadiogo/ouagadougou/b69843c3e05608563b6a27a8ea85c213,Mo-Su 07:30-19:00,Western Union,Q861042
7bf34234277671a123363b1bd33e5479,western_union,ETS CONSI,,Ouagadougou,KADIOGO,,BF,+226 78 83 93 68,https://location.westernunion.com/bf/kadiogo/ouagadougou/7bf34234277671a123363b1bd33e5479,Mo-Fr 07:30-19:00; Sa 08:00-17:00,Western Union,Q861042
3f7d642d41692084d8640acbad5c97a4,western_union,GODWIN ENTREPRISE,,Ouagadougou,KADIOGO,,BF,+226 71 44 00 61,https://location.westernunion.com/bf/kadiogo/ouagadougou/3f7d642d41692084d8640acbad5c97a4,Mo-Fr 07:30-18:30; Sa 08:00-16:00; Su 08:00-12:00,Western Union,Q861042
12d7228ca650ebd5b5919e221b41e77a,western_union,SERGE ET FRERE SERVICES II,,Ouagadougou,KADIOGO,,BF,+226 76 62 87 31,https://location.westernunion.com/bf/kadiogo/ouagadougou/12d7228ca650ebd5b5919e221b41e77a,Mo-Fr 07:00-19:30; Sa 07:00-18:30,Western Union,Q861042
7796a50fa6c53d77b10d8421a1117dab,western_union,BCB AGENCE BALKUY,,Ouagadougou,KADIOGO,,BF,+226 25 32 59 87,https://location.westernunion.com/bf/kadiogo/ouagadougou/7796a50fa6c53d77b10d8421a1117dab,Mo-Fr 07:30-17:00; Sa 07:30-12:00,Western Union,Q861042
9a34c07266d1bbe1ac4e6528a96cee5c,western_union,ETABLISSEMENT NAWENEGSIDA ET FRERES,,Saaba,KADIOGO,,BF,+226 70 76 89 12,https://location.westernunion.com/bf/kadiogo/saaba/9a34c07266d1bbe1ac4e6528a96cee5c,Mo-Sa 07:30-18:30,Western Union,Q861042
3f6947f0f6136c598a3eec8af8df6d01,western_union,KAZI NEGOCE INTERNATIONAL,,Ouagadougou,KADIOGO,,BF,+226 70 23 85 00,https://location.westernunion.com/bf/kadiogo/ouagadougou/3f6947f0f6136c598a3eec8af8df6d01,Mo-Sa 07:30-18:30,Western Union,Q861042
8d863a62ef33fdff3c647bf0e024e937,western_union,GENEVICE MIABALA,,Ouagadougou,KADIOGO,,BF,+226 75 95 95 14,https://location.westernunion.com/bf/kadiogo/ouagadougou/8d863a62ef33fdff3c647bf0e024e937,Mo-Su 07:00-18:00,Western Union,Q861042
2603021a7ca085b1b2d1365434f24043,western_union,ZEINAB SHOP,,Ouagadougou,KADIOGO,,BF,+226 79 90 27 80,https://location.westernunion.com/bf/kadiogo/ouagadougou/2603021a7ca085b1b2d1365434f24043,Mo-Fr 07:00-21:00; Sa-Su 08:00-18:00,Western Union,Q861042
ed6cf955f8e9a26f94fc8f8148889e18,western_union,2 Z SERVICES,,Ouagadougou,KADIOGO,,BF,+226 70 16 79 15,https://location.westernunion.com/bf/kadiogo/ouagadougou/ed6cf955f8e9a26f94fc8f8148889e18,Mo-Su 07:30-18:30,Western Union,Q861042
976fcad126075f419ee1a8f52581a6f5,western_union,KANY FANNY 1,,Ouagadougou,KADIOGO,,BF,+226 73 66 13 04,https://location.westernunion.com/bf/kadiogo/ouagadougou/976fcad126075f419ee1a8f52581a6f5,Mo-Sa 07:00-19:00,Western Union,Q861042
643781621603d6cabb136f46e8d30848,western_union,BA MULTISERVICES,,Ouagadougou,KADIOGO,,BF,+226 70 32 15 25,https://location.westernunion.com/bf/kadiogo/ouagadougou/643781621603d6cabb136f46e8d30848,Mo-Fr 07:30-19:00; Sa 08:00-17:00,Western Union,Q861042
77e2cc4674e42229b3faebb81863fd87,western_union,RE J NA SERVICES,,Ouagadougou,KADIOGO,,BF,+226 78 00 02 00,https://location.westernunion.com/bf/kadiogo/ouagadougou/77e2cc4674e42229b3faebb81863fd87,Mo-Su 07:30-21:00,Western Union,Q861042
1833ff81fef19d1c4922fd063aa4b49c,western_union,GRAJOLA INTERNATIONAL,,Ouagadougou,KADIOGO,,BF,+226 76 54 02 54,https://location.westernunion.com/bf/kadiogo/ouagadougou/1833ff81fef19d1c4922fd063aa4b49c,Mo-Fr 07:30-18:00; Sa 08:00-18:00,Western Union,Q861042
25aec71b78cbcb2cdf0928dac27516c8,western_union,ESINIF,,Ouagadougou,KADIOGO,,BF,+226 78 22 06 14,https://location.westernunion.com/bf/kadiogo/ouagadougou/25aec71b78cbcb2cdf0928dac27516c8,Mo-Su 07:30-19:00,Western Union,Q861042
915fde350781f59694a7ffc78b69e84e,western_union,MEC ST DASSASGHO,,Ouagadougou,KADIOGO,,BF,(+226) 76389182-0000,https://location.westernunion.com/bf/kadiogo/ouagadougou/915fde350781f59694a7ffc78b69e84e,Mo-Sa 07:30-19:00,Western Union,Q861042
5d4423102f28633eb5b37004f68a2b22,western_union,ETS CONSI 2,,Ouagadougou,KADIOGO,,BF,+226 78 73 16 18,https://location.westernunion.com/bf/kadiogo/ouagadougou/5d4423102f28633eb5b37004f68a2b22,Mo-Sa 07:00-19:30,Western Union,Q861042
2133d6084a44db00101da504f851cbc3,western_union,RE J NA SERVICES,,Ouagadougou,KADIOGO,,BF,(+226) 25-78000200,https://location.westernunion.com/bf/kadiogo/ouagadougou/2133d6084a44db00101da504f851cbc3,Mo-Sa 07:30-18:30,Western Union,Q861042
13293b11f3c3e2743d4d6748a72bda91,western_union,ETS ZARRA BEONEE MA,,Ouagadougou,KADIOGO,,BF,+226 70 25 88 00,https://location.westernunion.com/bf/kadiogo/ouagadougou/13293b11f3c3e2743d4d6748a72bda91,Mo-Sa 08:00-18:00,Western Union,Q861042
afab528ccec905a6633b841bf42c250b,western_union,CBI OUAGA 2000 BFA,,Ouagadougou,KADIOGO,,BF,+226 25 31 23 23,https://location.westernunion.com/bf/kadiogo/ouagadougou/afab528ccec905a6633b841bf42c250b,Mo-Sa 07:30-17:00,Western Union,Q861042
a2522759510712b8449530fdb5b960ba,western_union,CBI ZAD,,Ouagadougou,KADIOGO,,BF,(+226) 25-79010425,https://location.westernunion.com/bf/kadiogo/ouagadougou/a2522759510712b8449530fdb5b960ba,Mo-Fr 07:30-18:00; Sa 08:00-15:00,Western Union,Q861042
fbf347551919e2e6814f8b3a35f81129,western_union,FASO WALLET I  DIGITAL,,Ouagadougou,KADIOGO,,BF,+226 65 15 22 63,https://location.westernunion.com/bf/kadiogo/ouagadougou/fbf347551919e2e6814f8b3a35f81129,Mo-Su 07:00-21:30,Western Union,Q861042
2e7ec15ef67a1c35f26af1d66d60e3c1,western_union,AWA BONKOUNGOU,,Ouagadougou,KADIOGO,,BF,+226 78 44 77 08,https://location.westernunion.com/bf/kadiogo/ouagadougou/2e7ec15ef67a1c35f26af1d66d60e3c1,Mo-Fr 07:00-21:00; Sa-Su 08:00-18:00,Western Union,Q861042
ae8d25c7c6c1c9db70f4de2bfb85646c,western_union,LIGBU SERVICES,,Ouagadougou,KADIOGO,,BF,+226 70 11 83 50,https://location.westernunion.com/bf/kadiogo/ouagadougou/ae8d25c7c6c1c9db70f4de2bfb85646c,Mo-Sa 07:30-19:30; Su 07:30-18:00,Western Union,Q861042
1f8425b639dc4c2d459fb46ae263f55f,western_union,DIANA MULTI-SERVICE,,Ouagadougou,KADIOGO,,BF,+226 78 53 28 48,https://location.westernunion.com/bf/kadiogo/ouagadougou/1f8425b639dc4c2d459fb46ae263f55f,Mo-Su 07:30-19:00,Western Union,Q861042
34c7701415bf2bca0fbfb7c375b41560,western_union,AGENCE PENGDWENDE MULTI SERVICES  SHOP,,Ouagadougou,KADIOGO,,BF,(+226) 79-79854743,https://location.westernunion.com/bf/kadiogo/ouagadougou/34c7701415bf2bca0fbfb7c375b41560,Mo-Fr 07:00-18:30; Sa 07:00-17:30,Western Union,Q861042
bef5acd34ee5a0564b3ed46099f54b6a,western_union,HADASS COMMUNICATION 7,,Ouagadougou,KADIOGO,,BF,+226 71 39 16 39,https://location.westernunion.com/bf/kadiogo/ouagadougou/bef5acd34ee5a0564b3ed46099f54b6a,Mo-Sa 07:00-19:30,Western Union,Q861042
fac3a40b6a7a2a82f80003de1749eb33,western_union,ZOUNG TRANSFERT,,Ouagadougou,KADIOGO,,BF,+226 70 03 02 46,https://location.westernunion.com/bf/kadiogo/ouagadougou/fac3a40b6a7a2a82f80003de1749eb33,Mo-Sa 07:00-19:30; Su 07:00-16:00,Western Union,Q861042
3391723a33192341b70fde2a6083acae,western_union,COOPEC   AFA,,Ouagadougou,KADIOGO,,BF,+226 25 40 95 23,https://location.westernunion.com/bf/kadiogo/ouagadougou/3391723a33192341b70fde2a6083acae,Mo-Su 07:30-19:00,Western Union,Q861042
b0128034c5797c79ae5b4df0a5b57651,western_union,DETTA POLY SERVICES AFRIQUE 3,,Bobo Dioulasso,KADIOGO,,BF,+226 70 70 07 24,https://location.westernunion.com/bf/kadiogo/bobo-dioulasso/b0128034c5797c79ae5b4df0a5b57651,Mo-Sa 06:00-19:30,Western Union,Q861042
33fbed407da530a23f753faaba2b38df,western_union,ETS ZIDA MATHIEU RIMKETA,,Ouagadougou,KADIOGO,,BF,+226 78 00 94 25,https://location.westernunion.com/bf/kadiogo/ouagadougou/33fbed407da530a23f753faaba2b38df,Mo-Su 07:00-21:30,Western Union,Q861042
06289b3d1c5acdf877fa40db5ec972b8,western_union,SILOAM MULTI SERVICES,,Ouagadougou,KADIOGO,,BF,+226 78 26 08 85,https://location.westernunion.com/bf/kadiogo/ouagadougou/06289b3d1c5acdf877fa40db5ec972b8,Mo-Su 07:00-18:30,Western Union,Q861042
484db9b0877958f0d3e9dc279fa9c392,western_union,Z.A.S SERVICES,,Ouagadougou,KADIOGO,,BF,+226 73 68 84 80,https://location.westernunion.com/bf/kadiogo/ouagadougou/484db9b0877958f0d3e9dc279fa9c392,Mo-Su 07:00-20:00,Western Union,Q861042
ea5c578b2097a3f4b69fe0bc1e595064,western_union,GRACE SERVICE ET DELICE,,Ouagadougou,KADIOGO,,BF,+226 70 58 71 88,https://location.westernunion.com/bf/kadiogo/ouagadougou/ea5c578b2097a3f4b69fe0bc1e595064,Mo-Sa 07:30-18:30,Western Union,Q861042
f0bdb50775e0b25c6a522b873f8989c7,western_union,NEW VISION BUSINESS,,Ouagadougou,KADIOGO,,BF,+226 66 28 75 88,https://location.westernunion.com/bf/kadiogo/ouagadougou/f0bdb50775e0b25c6a522b873f8989c7,Mo-Fr 07:00-18:00; Sa 07:00-17:00; Su 08:00-15:00,Western Union,Q861042
149cc59efce2db1d5d785f17385b8920,western_union,ETS KAGAMBEGA ET FRERES,,Ouagadougou,KADIOGO,,BF,+226 78 48 48 65,https://location.westernunion.com/bf/kadiogo/ouagadougou/149cc59efce2db1d5d785f17385b8920,Mo-Sa 07:30-21:00; Su 07:30-19:00,Western Union,Q861042
63d9378d46428b76c3f1a774af43944f,western_union,TIMI SERVICES,,Ouagadougou,KADIOGO,,BF,+226 77 45 68 68,https://location.westernunion.com/bf/kadiogo/ouagadougou/63d9378d46428b76c3f1a774af43944f,Mo-Su 07:30-18:30,Western Union,Q861042
c294e852c25496212353dac834368060,western_union,ALI SERVICE AND EXCHANGE,,Ouagadougou,KADIOGO,,BF,+226 78 78 43 55,https://location.westernunion.com/bf/kadiogo/ouagadougou/c294e852c25496212353dac834368060,Mo-Fr 07:30-20:00; Sa-Su 08:00-18:00,Western Union,Q861042
1e7489f6ea418d2384ea5fb1fca2ecdf,western_union,ENTREPRISE GENERALE SAWADOGO ET FRERE,,Ouagadougou,KADIOGO,,BF,+226 78 43 81 83,https://location.westernunion.com/bf/kadiogo/ouagadougou/1e7489f6ea418d2384ea5fb1fca2ecdf,Mo-Su 07:30-18:30,Western Union,Q861042
9dca2d5468b0b7baf3f969af112504ff,western_union,ZANZE ET FRERE TRADING,,Kombissiri,KADIOGO,,BF,+226 64 10 77 01,https://location.westernunion.com/bf/kadiogo/kombissiri/9dca2d5468b0b7baf3f969af112504ff,Mo-Su 07:00-21:30,Western Union,Q861042
b5d37e037f91a655744f4adf725059ba,western_union,AMCHE SERVICES,,Ouagadougou,KADIOGO,,BF,+226 78 69 72 54,https://location.westernunion.com/bf/kadiogo/ouagadougou/b5d37e037f91a655744f4adf725059ba,Mo-Fr 07:00-18:00; Sa 07:00-17:00; Su 08:00-15:00,Western Union,Q861042
f1c34a4e5188fa060549466b41f4acda,western_union,ETABLISSEMENT ZONGO NIKIEMA ET,,Ouagadougou,KADIOGO,,BF,(+226) 25-78685555,https://location.westernunion.com/bf/kadiogo/ouagadougou/f1c34a4e5188fa060549466b41f4acda,Mo-Fr 07:00-18:00; Sa 07:30-17:30,Western Union,Q861042
008adeda518a0caf27ce7a3441993c76,western_union,HADASS COMMUNICATION,,Ouagadougou,KADIOGO,,BF,+226 71 39 16 39,https://location.westernunion.com/bf/kadiogo/ouagadougou/008adeda518a0caf27ce7a3441993c76,Mo-Sa 08:00-22:00; Su 08:00-20:00,Western Union,Q861042
23113f1a87d244193964c5043fcb60bc,western_union,ELITES FINANCES,,Ouagadougou,KADIOGO,,BF,+226 70 24 27 48,https://location.westernunion.com/bf/kadiogo/ouagadougou/23113f1a87d244193964c5043fcb60bc,Mo-Fr 07:30-19:00; Sa 08:00-17:00,Western Union,Q861042
11ed1df6ce26fe0eb82d1d5cd5731c8c,western_union,ALPHA TELECOM ET SERVICES,,Ouagadougou,KADIOGO,,BF,+226 70 22 62 24,https://location.westernunion.com/bf/kadiogo/ouagadougou/11ed1df6ce26fe0eb82d1d5cd5731c8c,Mo-Sa 07:00-20:00; Su 08:00-20:00,Western Union,Q861042
75e3c401c9e09eace0ec079a0712b389,western_union,OUBRI BUSINESS CENTER,,Ouagadougou,KADIOGO,,BF,+226 70 36 04 75,https://location.westernunion.com/bf/kadiogo/ouagadougou/75e3c401c9e09eace0ec079a0712b389,Mo-Sa 07:30-20:00; Su 08:00-17:00,Western Union,Q861042
ebc95a1aa67443ea82c6cd4381bfc351,western_union,ETS ZIDA MATHIEU ROOD WOOKO,,Ouagadougou,KADIOGO,,BF,+226 78 00 94 25,https://location.westernunion.com/bf/kadiogo/ouagadougou/ebc95a1aa67443ea82c6cd4381bfc351,Mo-Su 07:00-21:30,Western Union,Q861042
ed227a4f9e125d6d89f00726d772e8b5,western_union,BACF DES PME,,Ouagadougou,KADIOGO,,BF,+226 72 83 02 39,https://location.westernunion.com/bf/kadiogo/ouagadougou/ed227a4f9e125d6d89f00726d772e8b5,Mo-Sa 07:00-20:00; Su 08:00-20:00,Western Union,Q861042
6395ca2fb082476bddc731eb6d596e1a,western_union,ETABLISSEMENT SANA HASSANE MONEY,,Ouagadougou,KADIOGO,,BF,+226 70 25 51 55,https://location.westernunion.com/bf/kadiogo/ouagadougou/6395ca2fb082476bddc731eb6d596e1a,Mo-Sa 07:00-20:00; Su 08:00-20:00,Western Union,Q861042
833cafd64652bc60981e42bc63957d55,western_union,GRACE AND EXCELLENCE ENTREPRISE,,Ouagadougou,KADIOGO,,BF,+226 76 58 37 60,https://location.westernunion.com/bf/kadiogo/ouagadougou/833cafd64652bc60981e42bc63957d55,Mo-Fr 07:30-19:00; Sa 08:00-17:00,Western Union,Q861042
8965292508d758c725886d5cac3b5703,western_union,SAMB SERVICES,,Beguedo,KADIOGO,,BF,+226 61 45 68 45,https://location.westernunion.com/bf/kadiogo/beguedo/8965292508d758c725886d5cac3b5703,Mo-Su 07:30-21:00,Western Union,Q861042
cf9096910f0df11556b9cf8e03ec8bb6,western_union,5K SMARTH SERVICES,,Niaogho,KADIOGO,,BF,+226 64 81 61 62,https://location.westernunion.com/bf/kadiogo/niaogho/cf9096910f0df11556b9cf8e03ec8bb6,Mo-Su 07:30-21:00,Western Union,Q861042
e4bb1c088b93d877d853844bda21e5ae,western_union,SABARIKAGNI SERVICE,,Ouagadougou,KADIOGO,,BF,(+226) 25-78900590,https://location.westernunion.com/bf/kadiogo/ouagadougou/e4bb1c088b93d877d853844bda21e5ae,Mo-Fr 07:00-21:00; Sa-Su 08:00-18:00,Western Union,Q861042
62bb60a826e40bd5a67abe9e40df0aad,western_union,ENTREPRISE FATAO SALBRE SENI,,Ouagadougou,KADIOGO,,BF,+226 70 51 60 26,https://location.westernunion.com/bf/kadiogo/ouagadougou/62bb60a826e40bd5a67abe9e40df0aad,Mo-Fr 07:30-19:00; Sa 08:00-17:00,Western Union,Q861042
508a75d8f827b4c103187199407e1346,western_union,ENTREPRISE WEND KON FASA,,Ouagadougou,KADIOGO,,BF,+226 65 40 67 00,https://location.westernunion.com/bf/kadiogo/ouagadougou/508a75d8f827b4c103187199407e1346,Mo-Su 07:00-19:30,Western Union,Q861042
