Ref,Spider,Name,Address,City,State,Zipcode,Country,Phone,Website,Hours,Brand,WikiData
16932,ace_hardware,Cornelia Ace Hardware,,Cornelia,GA,,US,+1 706-778-1223,,Mo-Fr 07:30-18:00; Sa 08:00-17:00,Ace Hardware,Q4672981
https://stores.advanceautoparts.com/ga/cornelia/109-habersham-hills-cir,advance_auto_parts_us,Advance Auto Parts,,Cornelia,GA,,US,+1 706-776-6790,https://stores.advanceautoparts.com/ga/cornelia/109-habersham-hills-cir,Mo-Sa 07:30-21:00; Su 08:30-20:30,Advance Auto Parts,Q4686051
14231,asics_us,Hibbett Sports,343 Habersham Village Circle,Cornelia,GA,,US,+1 706-776-3499,,,asics,Q327247
987,autozone_us,AutoZone Auto Parts Cornelia,,Cornelia,GA,,US,+1 706-778-3561,https://www.autozone.com/locations/ga/cornelia/230-carpenters-cove.html,Mo-Sa 07:30-21:00; Su 09:00-20:00,AutoZone,Q4826087
BBW01689,bathandbodyworks_us,HABERSHAM HILLS CROSSING,,CORNELIA,GA,,US,+1 706-894-2240,,Mo-Sa 10:00-21:00; Su 12:00-18:00,Bath & Body Works,Q810773
616,bealls_us,Bealls,,Cornelia,GA,,US,+1 706-915-7006,https://stores.bealls.com/ga/cornelia/clothing-store-616.html,Mo-Th 09:00-21:00; Fr-Sa 09:00-21:30; Su 10:00-20:00,Bealls,Q4876153
https://local.biglots.com/#13190368,biglots,Big Lots - Cornelia,,Cornelia,GA,,US,+1 706-894-9051,https://local.biglots.com/ga/cornelia/323-habersham-village-cir,Mo-Sa 09:00-21:00; Su 10:00-19:00,Big Lots,Q4905973
197308,bluerhino,Dollar General #21424,,Cornelia,GA,,US,+1 762-499-0187,,,Blue Rhino,Q65681213
198543,bluerhino,Tri County Quality Foods-Cornelia #4720,,Cornelia,GA,,US,+1 706-778-9512,,,Blue Rhino,Q65681213
78893,bluerhino,Lowe's #1925,,Cornelia,GA,,US,+1 706-894-3960,,,Blue Rhino,Q65681213
192655,bluerhino,Murphy's #8695,,Cornelia,GA,,US,+1 706-776-1238,,,Blue Rhino,Q65681213
220960,bluerhino,Dollar General #3256,,CORNELIA,GA,,US,+1 470-354-3255,,,Blue Rhino,Q65681213
1064,bluerhino,Walmart #1403,,Cornelia,GA,,US,+1 706-778-0353,,,Blue Rhino,Q65681213
ga/cornelia/491-historic-hwy-441,bojangles,"Bojangles Cornelia, GA",,Cornelia,GA,,US,+1 706-776-9222,https://locations.bojangles.com/ga/cornelia/491-historic-hwy-441.html,,Bojangles',Q891163
56828722272213053100100000000000,bp,BP,,Cornelia,GA,,US,+1 706-429-3906,,,BP,Q152057
358201,captaind,Captain D's,,Cornelia,GA,,US,+1 706-778-9700,https://locations.captainds.com/ll/US/GA/Cornelia/120-Furniture-Plaza-Dr,Mo-Su 11:00-22:00,Captain D's,Q5036616
https://stores.catofashions.com/#26560468,cato_us,Cato,,,GA,,US,+1 706-776-0074,https://stores.catofashions.com/ga/cornelia/282-furniture-plaza,Mo-Sa 10:00-19:00; Su 13:00-18:00,Cato,Q16956136
380185,chevron,Chevron Station #380185,155 US-441 BUSINESS,CORNELIA,GA,,US,+1 678-858-7377,,,Chevron,Q319642
88431,citi,ATM Walgreens,,Cornelia,GA,,US,,,,Citibank,Q857063
51751,citi,ATM CVS,,Cornelia,GA,,US,,,,Citibank,Q857063
67384,citi,ATM PEACH STATE FEDERAL CREDIT UNION,,Cornelia,GA,,US,,,,Citibank,Q857063
cornelia/3371,claires,Shop Ear Piercings & Jewelry at Claires Walmart Cornelia,,CORNELIA,GA,,US,+1 706-776-8162,https://stores.claires.com/us/ga/cornelia/3371.html,Mo-Th 12:00-20:00; Fr-Sa 11:00-20:00; Su 12:00-20:00,Claire's,Q2974996
80338468,cricket_wireless,Cricket Wireless Authorized Retailer,,Cornelia,GA,,US,+1 706-776-8667,https://www.cricketwireless.com/stores/ll/US/GA/Cornelia/216-Carpenters-Cove-Ln,Mo-Sa 10:00-19:00; Su 12:00-18:00,Cricket Wireless,Q5184987
3798,cvs_us,CVS Pharmacy,,Cornelia,GA,,US,+1 706-778-5097,https://www.cvs.com/store-locator/cornelia-ga-pharmacies/549-n-main-st-cornelia-ga-30531/storeid=3798,Mo-Th 08:30-21:00; Fr 08:30-22:00; Sa 09:00-22:00; Su 11:30-19:00,CVS Pharmacy,Q2078880
6889,dollartree,DollarTree,,Cornelia,GA,,US,+1 706-239-4062,,Mo-Sa 09:00-21:00; Su 09:00-20:00,Dollar Tree,Q5289230
4162,dominos_pizza_us,Domino's Pizza,,Cornelia,GA,,US,+1 706-776-3333,https://pizza.dominos.com/georgia/cornelia/230-merchants-way,Mo-Th 10:30-24:00; Fr-Sa 10:30-01:00; Su 10:30-24:00,Domino's,Q839466
363553,dunkin_us,Dunkin',,Cornelia,GA,,US,+1 706-776-6410,https://locations.dunkindonuts.com/en/ga/cornelia/1145-hwy-441/363553,Mo-Su 05:00-21:00,Dunkin',Q847743
https://www.edwardjones.com/us-en/financial-advisor/chuck-vazquez,edwardjones,Chuck Vazquez,,Cornelia,GA,,US,+1 706-776-7039,https://www.edwardjones.com/us-en/financial-advisor/chuck-vazquez,Mo-Fr 08:30-17:00,Edward Jones,Q5343830
https://local.fedex.com/#25198051,fedex,,,Cornelia,GA,,US,+1 800-463-3339,https://local.fedex.com/en-us/ga/cornelia/tocle,,FedEx,Q459477
https://local.fedex.com/#25235728,fedex,,,Cornelia,GA,,US,+1 800-463-3339,https://local.fedex.com/en-us/ga/cornelia/tocbi,,FedEx,Q459477
Motorcraft1641USAEnglish,ford,"Billy Cain Ford-Lincoln of Cornelia, Inc.",,Georgia,GA,,US,+1 706-778-2121,,,Ford,Q44294
https://www.ford.com/dealerships/dealer-details/ga/cornelia/billy-cain-ford_lincoln-of-cornelia-inc/,ford_dealers_us,"Billy Cain Ford-Lincoln of Cornelia, Inc.",,Cornelia,GA,,US,+1 706-903-2251,https://www.ford.com/dealerships/dealer-details/ga/cornelia/billy-cain-ford_lincoln-of-cornelia-inc/,Mo-Fr 08:30-18:30; Sa 09:00-17:00,Ford Motor Company,Q44294
https://stores.gnc.com/#24057812,gnc,GNC Habersham Village,,,GA,,US,+1 706-776-6746,https://stores.gnc.com/all-stores-georgia/cornelia/241-habersham-village-cir,Mo-Sa 10:00-19:00; Su 11:00-18:00,GNC,Q4808595
85e2a55c-75ff-ea11-80eb-00505689ac90,goodwill,Cornelia Career Center,,Cornelia,GA,,US,+1 706-894-4905,https://www.goodwill.org/locator/location/?store=ODVlMmE1NWMtNzVmZi1lYTExLTgwZWItMDA1MDU2ODlhYzkw&lat=MzQuNTQ1NDM=&lng=LTgzLjU0Mzc=,,Goodwill,Q5583655
d2178360-55e2-e511-a94f-005056890337,goodwill,"Cornelia Store, Donation Center and Career Center",,Cornelia,GA,,US,+1 706-894-4900,https://www.goodwill.org/locator/location/?store=ZDIxNzgzNjAtNTVlMi1lNTExLWE5NGYtMDA1MDU2ODkwMzM3&lat=MzQuNTQ0OTQ=&lng=LTgzLjU0MzYy,,Goodwill,Q5583655
https://salons.greatclips.com/us/ga/cornelia/282-furniture-plaza-dr,greatclips,Great Clips,,Cornelia,GA,,US,+1 706-778-0282,https://salons.greatclips.com/us/ga/cornelia/282-furniture-plaza-dr,Mo-Fr 08:00-19:00; Sa 09:00-18:00; Su 10:00-17:00,Great Clips,Q5598967
crngahx-hampton-cornelia,hilton,Hampton Inn Cornelia,,,GA,,US,+1 706-778-0040,https://www.hilton.com/ar/hotels/crngahx-hampton-cornelia/,,Hampton by Hilton,Q5646230
11124,h_r_block,H&R Block,,Cornelia,GA,,US,+1 706-778-4628,https://www.hrblock.com/local-tax-offices/georgia/cornelia/habersham-village-shopping-ctr/11124/,,H&R Block,Q5627799
61,ingles,Cornelia,,Cornelia,GA,,US,+1 706-778-5434,https://www.ingles-markets.com/storelocate/storeinfo.php?storenum=61,Mo-Su 07:00-23:00,Ingles,Q6032595
https://office.jacksonhewitt.com/#27580325,jackson_hewitt,Jackson Hewitt,,Cornelia,GA,,US,+1 706-894-1057,https://office.jacksonhewitt.com/tax-preparation-services-locations/en/ga/cornelia/250-furniture-drive/51403,Mo-Fr 10:00-18:00; Sa 10:00-17:00,Jackson Hewitt,Q6117132
https://locations.kfc.com/#11246547,kfc,Chicken Nuggets Near Cornelia,,Cornelia,GA,,US,,https://locations.kfc.com/ga/cornelia/1467-highway-441-bypass/chickennugget,Mo-Th 10:00-22:00; Fr-Sa 10:00-23:00; Su 10:00-22:00,KFC,Q524757
159569,marathon_petroleum_us,One Stop Cornelia LLC,,CORNELIA,GA,,US,+1 678-438-9408,,,Marathon,Q458363
156294,marathon_petroleum_us,CORNELIA MARATHON,,CORNELIA,GA,,US,+1 706-776-1057,,,Marathon,Q458363
71468972,moneygram,WAL-MART - #1403,,CORNELIA,GA,,US,+1 706-778-0353,,Mo-Su 07:00-21:00,MoneyGram,Q1944412
44298975,moneygram,WAL-MART - #1403,,CORNELIA,GA,,US,+1 706-778-0353,,Mo-Su 07:00-21:00,MoneyGram,Q1944412
8695,murphy_usa_us,,,Cornelia,GA,,US,+1 706-776-1238,,Mo-Sa 05:00-00:00; Su 05:30-00:00,Murphy USA,Q19604459
https://locations.oreillyauto.com/ga/cornelia/check-engine-light-testing-5168.html,oreilly,Your Cornelia O'Reilly Auto Parts Store,,Cornelia,GA,,US,+1 706-776-1080,https://locations.oreillyauto.com/ga/cornelia/check-engine-light-testing-5168.html,Mo-Sa 07:30-21:00; Su 09:00-20:00,O'Reilly Auto Parts,Q7071951
https://locations.oreillyauto.com/ga/cornelia/wiper-installation-5168.html,oreilly,Your Cornelia O'Reilly Auto Parts Store,,Cornelia,GA,,US,+1 706-776-1080,https://locations.oreillyauto.com/ga/cornelia/wiper-installation-5168.html,Mo-Sa 07:30-21:00; Su 09:00-20:00,O'Reilly Auto Parts,Q7071951
https://locations.oreillyauto.com/ga/cornelia/battery-testing-5168.html,oreilly,Your Cornelia O'Reilly Auto Parts Store,,Cornelia,GA,,US,+1 706-776-1080,https://locations.oreillyauto.com/ga/cornelia/battery-testing-5168.html,Mo-Sa 07:30-21:00; Su 09:00-20:00,O'Reilly Auto Parts,Q7071951
https://locations.oreillyauto.com/ga/cornelia/autopartes-5168.html,oreilly,Tu tienda O'Reilly Auto Parts en Cornelia,,Cornelia,GA,,US,+1 706-776-1080,https://locations.oreillyauto.com/ga/cornelia/autopartes-5168.html,Mo-Sa 07:30-21:00; Su 09:00-20:00,O'Reilly Auto Parts,Q7071951
https://locations.papajohns.com/#10692558,papa_johns,Papa John's,,Cornelia,GA,,US,+1 706-776-7600,https://locations.papajohns.com/united-states/ga/30531/cornelia/215-habersham-village-circle,Mo-Th 10:00-23:00; Fr-Sa 10:00-24:00; Su 10:00-23:00,Papa John's Pizza,Q2759586
ga_cornelia_1604-441-bypass,pizza_hut_us,1604 441 Bypass,,Cornelia,GA,,US,+1 706-778-3730,https://locations.pizzahut.com/ga/cornelia/1604-441-bypass,,Pizza Hut,Q191615
restaurant_86704,popeyes_us_fr,Popeyes,"525 Old Historic US-441 Cornelia, Georgia 30531 - USA",Cornelia,GA,,US,+1 706-778-0118,https://www.popeyes.com/store-locator/store/restaurant_86704,Mo-Su 10:00-22:00,Popeyes,Q1330910
the-paint-store-39600,ppgpaints,THE PAINT STORE,,"Cornelia, ",GA,,US,+1 706-499-4395,https://www.ppgpaints.com/store-locator/us/georgia/cornelia-paint-stores/the-paint-store-39600,,PPG Paints,Q83891559
https://www.racetrac.com/locations/georgia/cornelia/cornelia,racetrac_us,RaceTrac,,Cornelia,GA,,US,+1 706-776-6438,https://www.racetrac.com/locations/georgia/cornelia/cornelia,,RaceTrac,Q735942
https://restaurants.subway.com/#14917088,subway,Subway,,Cornelia Habersham,GA,,US,+1 706-776-6131,https://restaurants.subway.com/united-states/ga/cornelia/116-habersham-hills-circle,Mo-Su 09:00-22:00,Subway,Q244457
https://locations.tacobell.com/#6146765,taco_bell,Taco Bell,,Cornelia,GA,,US,+1 706-778-0569,https://locations.tacobell.com/ga/cornelia/121-furniture-plaza.html,Mo-Su 08:00-02:00,Taco Bell,Q752941
081603,tjx,Cornelia,351 Habersham Village Cir,Cornelia,GA,,US,+1 706-778-6227,,Mo-Sa 09:30-21:30; Su 10:00-20:00,TJ Maxx,Q10860683
495G,tmobile_us,Veterans Memorial Hwy & Chase,,Cornelia,GA,,US,+1 706-903-7853,https://www.t-mobile.com/store-locator/ga/cornelia/veterans-memorial-hwy-chase,,T-Mobile,Q3511885
1359269,usps,CORNELIA,,CORNELIA,GA,,US,+1 706-778-4714,,Mo-Fr 08:30-16:30; Sa 08:30-15:00,United States Postal Service,Q668687
3053100007,usps_collection_boxes,USPS COLLECTION BOX - BLUE BOX,1275 LEVEL GROVE RD,CORNELIA,GA,,US,,,,United States Postal Service,Q668687
3053100005,usps_collection_boxes,USPS COLLECTION BOX - BLUE BOX,343 HABERSHAM VILLAGE CIR,CORNELIA,GA,,US,,,,United States Postal Service,Q668687
3053100001,usps_collection_boxes,USPS COLLECTION BOX - BLUE BOX,448 N MAIN ST,CORNELIA,GA,,US,,,,United States Postal Service,Q668687
3053100011,usps_collection_boxes,USPS COLLECTION BOX - BLUE BOX,407 CORNELIA PLAZA DR,CORNELIA,GA,,US,,,,United States Postal Service,Q668687
3053100015,usps_collection_boxes,USPS COLLECTION BOX - PO LOBBY,407 CORNELIA PLAZA DR,CORNELIA,GA,,US,,,,United States Postal Service,Q668687
3053100016,usps_collection_boxes,USPS COLLECTION BOX - PO LOBBY,407 CORNELIA PLAZA DR,CORNELIA,GA,,US,,,,United States Postal Service,Q668687
3053100021,usps_collection_boxes,USPS COLLECTION BOX - PO LOBBY,407 CORNELIA PLAZA DR,CORNELIA,GA,,US,,,,United States Postal Service,Q668687
0000030727,valero,Win N Go,,Cornelia,GA,,US,+1 706-776-2828,https://locations.valero.com/en-us/LocationDetails/Index/643-HISTORIC-HIGHWAY-441/0000030727,,Valero,Q1283291
cornelia_oil-change-040222,valvoline_instant_oil_change,Valvoline,650 Historic 441 Hwy ,Cornelia,GA,,US,+1 706-778-1902,https://store.vioc.com/ga/cornelia/oil-change-040222.html,,Valvoline Instant Oil Change,Q7912852
A00000252301,verizon_us,Victra Cornelia,,Cornelia,GA,,US,+1 678-804-8652,https://www.verizon.com/stores/details/georgia/cornelia/victra-cornelia-1431622/,Mo-Sa 10:00-20:00; Su 11:00-19:00,Verizon,Q919641
,visa,,,CORNELIA,GA,,US,,,,,
,visa,,,CORNELIA,GA,,US,,,,,
,visa,,,CORNELIA,GA,,US,,,,,
,visa,,,CORNELIA,GA,,US,,,,,
,visa,,,CORNELIA,GA,,US,,,,,
,visa,,,CORNELIA,GA,,US,,,,,
,visa,,,CORNELIA,GA,,US,,,,,
,visa,,,CORNELIA,GA,,US,,,,,
,visa,,,CORNELIA,GA,,US,,,,,
,visa,,,CORNELIA,GA,,US,,,,,
,visa,,,CORNELIA,GA,,US,,,,,
,visa,,,CORNELIA,GA,,US,,,,,
,visa,,,CORNELIA,GA,,US,,,,,
,visa,,,CORNELIA,GA,,US,,,,,
,visa,,,CORNELIA,GA,,US,,,,,
,visa,,,CORNELIA,GA,,US,,,,,
,visa,,,CORNELIA,GA,,US,,,,,
,visa,,,CORNELIA,GA,,US,,,,,
,visa,,,CORNELIA,GA,,US,,,,,
,visa,,,CORNELIA,GA,,US,,,,,
,visa,,,CORNELIA,GA,,US,,,,,
,visa,,,CORNELIA,GA,,US,,,,,
,visa,,,CORNELIA,GA,,US,,,,,
,visa,,,CORNELIA,GA,,US,,,,,
,visa,,,CORNELIA,GA,,US,,,,,
,visa,,,CORNELIA,GA,,US,,,,,
,visa,,,CORNELIA,GA,,US,,,,,
,visa,,,CORNELIA,GA,,US,,,,,
,visa,,,CORNELIA,GA,,US,,,,,
1267,waffle_house_us,Waffle House #1267,,CORNELIA,GA,,US,+1 706-776-9679,https://locations.wafflehouse.com/cornelia-ga-1267,24/7,Waffle House,Q1701206
https://www.walgreens.com/locator/walgreens-189+quality+foods+shopping+ctr-cornelia-ga-30531/id=19973,walgreens,Walgreens,,Cornelia,GA,,US,+1 706-778-9523,https://www.walgreens.com/locator/walgreens-189+quality+foods+shopping+ctr-cornelia-ga-30531/id=19973,Mo-Sa 09:00-21:00; Su 09:00-19:00,Walgreens,Q1591889
https://locations.wendys.com/#9251765,wendys,"Wendy's Cornelia in Cornelia, GA",,Cornelia,GA,,US,+1 706-778-8685,https://locations.wendys.com/united-states/ga/cornelia/1082-level-grove-rd,"Mo-Th 06:00-10:30,06:00-22:00; Fr-Sa 06:00-10:30,06:00-23:00; Su 06:00-10:30,06:00-22:00",Wendy's,Q550258
2e8597985a6d07b45cfe9b0755868e59,western_union,DOLLAR GENERAL #21424,,Cornelia,GA,,US,+1 706-776-7049,https://location.westernunion.com/us/ga/cornelia/2e8597985a6d07b45cfe9b0755868e59,Mo-Su 08:00-22:00,Western Union,Q861042
964f990fa7c6509660287bc946aae841,western_union,WALMART #001403,,Cornelia,GA,,US,+1 706-778-0353,https://location.westernunion.com/us/ga/cornelia/964f990fa7c6509660287bc946aae841,Mo-Su 07:00-21:00,Western Union,Q861042
124,world_finance_us,,"700 441 Business Hwy Ste C, Cornelia, GA, 30531",Cornelia,GA,,US,+1 706-776-3803,https://www.loansbyworld.com/branches/branch-124,Mo-Fr 09:00-17:30; Sa 09:00-12:00,World Finance,Q3569971
