Ref,Spider,Name,Address,City,State,Zipcode,Country,Phone,Website,Hours,Brand,WikiData
4567,action,Auterive,,Auterive,,,FR,,https://www.action.com/fr-fr/points-de-vente/auterive/,,Action,Q2634111
1780700077,banque_populaire_fr,AUTERIVE,,AUTERIVE,,,FR,+33 5 61 50 94 30,https://agences.banquepopulaire.fr/banque-assurance/agence-auterive-id1780700077,Tu-Fr 08:30-12:15; Sa 08:30-12:30,Banque Populaire,Q846647
4852,carrefour_fr,Carrefour Express,,Auterive,,,FR,,https://www.carrefour.fr/magasin/carrefour-express-auterive-buisson,Mo-Sa 08:00-20:30; Su 09:00-18:00,Carrefour Express,Q2940190
8938,carrefour_fr,Carrefour Market Auterive Midi,,Auterive,,,FR,+33 5 61 50 26 70,https://www.carrefour.fr/magasin/market-auterive-midi,Mo-Sa 08:30-20:00; Su 09:00-12:45,Carrefour Market,Q2689639
https://www.credit-agricole.fr/particulier/agence/toulouse-31/chez-coco-6633.html,credit_agricole,Crédit Agricole,,Grépiac,,,FR,+33 5 34 48 99 62,https://www.credit-agricole.fr/particulier/agence/toulouse-31/chez-coco-6633.html,"Tu-Sa 07:30-13:00,16:00-19:30; Su 07:30-13:00",Credit Agricole,Q590952
https://www.credit-agricole.fr/particulier/agence/toulouse-31/auterive-4508.html,credit_agricole,Crédit Agricole,,Auterive,,,FR,+33 5 34 26 10 65,https://www.credit-agricole.fr/particulier/agence/toulouse-31/auterive-4508.html,"Tu 09:00-12:00,14:00-18:00; We 09:00-13:00,14:00-18:00; Th 09:00-13:00,15:00-18:00; Fr 09:00-13:00,14:00-18:00; Sa 09:00-13:00",Credit Agricole,Q590952
https://www.credit-agricole.fr/particulier/agence/toulouse-31/antenne-des-professionnels-est-auterive-5355.html,credit_agricole,Crédit Agricole,,Auterive,,,FR,+33 5 34 26 32 01,https://www.credit-agricole.fr/particulier/agence/toulouse-31/antenne-des-professionnels-est-auterive-5355.html,"Mo 09:00-12:00,14:30-18:00; Tu-Fr 09:00-12:30,14:00-18:00",Credit Agricole,Q590952
02294,credit_mutuel_fr,CAISSE DE CREDIT MUTUEL AUTERIVE,,AUTERIVE,,,FR,+33 5 61 50 30 05,https://www.creditmutuel.fr/fr/caisses/10278/02294/00/000,,Crédit Mutuel,Q642627
2778,lidl_fr,AUTERIVE Quilla,,AUTERIVE,,,FR,,,Mo-Sa 08:30-20:00,Lidl,Q151954
1388,mcdonalds_fr,AUTERIVE,,AUTERIVE,,,FR,+33 5 61 86 82 72,https://www.mcdonalds.fr/restaurants/mcdonalds-auterive/1388,Mo-Su 10:00-24:00,McDonald's,Q38076
https://magasin.netto.fr/107-netto-auterive,netto_les_mousquetaires,Netto Auterive,,Auterive,,,FR,+33 5 61 50 61 19,https://magasin.netto.fr/107-netto-auterive,Mo-Sa 08:30-19:30; Su 08:30-12:30,Netto,Q2720988
591-opticien-auterive-optical-center,optical_center,Opticien AUTERIVE Optical Center,,AUTERIVE,,,FR,+33 5 82 95 09 09,https://opticien.optical-center.fr/591-opticien-auterive-optical-center,Mo-Sa 09:00-19:00,Optical Center,Q3354448
25003429_001-renault,renault,AUTERIVE AUTOMOBILES,,AUTERIVE,,,FR,+33 5 61 50 76 76,,,Renault,Q6686
25003429_001-dacia,renault,AUTERIVE AUTOMOBILES,,AUTERIVE,,,FR,+33 5 61 50 76 76,,,Dacia,Q27460
NF059702,totalenergies,RELAIS TREBONS,,AUTERIVE,,,FR,+33 5 61 50 64 01,https://store.totalenergies.fr/en_EN/NF059702,Mo-Su 06:00-22:00,Total Access,Q154037
,visa,,,AUTERIVE,,,FR,,,,,
,visa,,,AUTERIVE,,,FR,,,,,
,visa,,,AUTERIVE,,,FR,,,,,
,visa,,,AUTERIVE,,,FR,,,,,
,visa,,,AUTERIVE,,,FR,,,,,
,visa,,,AUTERIVE,,,FR,,,,,
,visa,,,AUTERIVE,,,FR,,,,,
