Ref,Spider,Name,Address,City,State,Zipcode,Country,Phone,Website,Hours,Brand,WikiData
https://stores.advanceautoparts.com/nc/winston-salem/10455-n-nc-highway-109,advance_auto_parts_us,Advance Auto Parts,,Winston Salem,NC,,US,+1 336-397-4284,https://stores.advanceautoparts.com/nc/winston-salem/10455-n-nc-highway-109,Mo-Sa 07:30-21:00; Su 09:00-20:00,Advance Auto Parts,Q4686051
https://stores.advanceautoparts.com/nc/winston-salem/759-waughtown-st,advance_auto_parts_us,Advance Auto Parts,,Winston Salem,NC,,US,+1 336-784-8770,https://stores.advanceautoparts.com/nc/winston-salem/759-waughtown-st,Mo-Sa 07:30-21:00; Su 08:00-20:00,Advance Auto Parts,Q4686051
6484,autozone_us,AutoZone Auto Parts Winston Salem,,Winston Salem,NC,,US,+1 336-293-0029,https://www.autozone.com/locations/nc/winston-salem/3005-waughtown-st.html,Mo-Sa 07:30-21:00; Su 08:00-21:00,AutoZone,Q4826087
https://locators.bankofamerica.com/nc/winstonsalem/atm-winston-salem-109523.html,bankofamerica,Bank of America Drive-Thru ATM | Waughtown,,Winston Salem,NC,,US,+1 844-401-8500,https://locators.bankofamerica.com/nc/winstonsalem/atm-winston-salem-109523.html,,Bank of America,Q487907
40970,bluerhino,Food Lion #348,,Winston-Salem,NC,,US,+1 336-788-8098,,,Blue Rhino,Q65681213
148555,bluerhino,Speedway #6925,,Winston-Salem,NC,,US,+1 336-722-5641,,,Blue Rhino,Q65681213
241510,bluerhino,OM Minimart,,Winston Salem,NC,,US,+1 336-650-1773,,,Blue Rhino,Q65681213
148557,bluerhino,Speedway #6932,,Winston-Salem,NC,,US,+1 336-784-8248,,,Blue Rhino,Q65681213
235806,bluerhino,Circle K #2723205,,Winston Salem,NC,,US,+1 336-764-0999,,,Blue Rhino,Q65681213
148628,bluerhino,Speedway #6926,,Winston-Salem,NC,,US,+1 336-784-5175,,,Blue Rhino,Q65681213
40892,bluerhino,Food Lion #1577,,Winston-Salem,NC,,US,+1 336-771-1061,,,Blue Rhino,Q65681213
148631,bluerhino,Speedway #6931,,Winston-Salem,NC,,US,+1 336-788-7380,,,Blue Rhino,Q65681213
165176,bluerhino,Family Dollar #00142,,WINSTON SALEM,NC,,US,+1 336-293-9216,,,Blue Rhino,Q65681213
148757,bluerhino,Speedway #8201,,Winston Salem,NC,,US,+1 336-784-7147,,,Blue Rhino,Q65681213
243026,bluerhino,Jay's Mart,,Winston-Salem,NC,,US,+1 336-788-3085,,,Blue Rhino,Q65681213
nc/winston-salem/623-waughtown-st,bojangles,"Bojangles Winston Salem, NC",,Winston Salem,NC,,US,+1 336-788-2050,https://locations.bojangles.com/nc/winston-salem/623-waughtown-st.html,,Bojangles',Q891163
02558226499002710700100000000000,bp,BP,,Winston-Salem,NC,,US,+1 910-788-2873,,24/7,BP,Q152057
108,burgerking,Burger King,,WINSTON SALEM,NC,,US,+1 336-723-6065,https://www.bk.com/store-locator/store/restaurant_77,Mo-Su 06:00-22:00,Burger King,Q177054
907-waughtown-street,churchs_chicken,Waughtown Street,,Winston-Salem,NC,,US,+1 336-784-5157,https://locations.churchs.com/nc/winston-salem/907-waughtown-street,,Church's Chicken,Q1089932
48610,citi,ATM CVS,,Winston-Salem,NC,,US,,,,Citibank,Q857063
40210,citi,ATM Circle K,,Winston-Salem,NC,,US,,,,Citibank,Q857063
41511,citi,ATM Circle K,,Winston-Salem,NC,,US,,,,Citibank,Q857063
68580,citi,ATM PNC AT SHEETZ,,Winston Salem,NC,,US,,,,Citibank,Q857063
77983,citi,ATM Speedway,,Winston-Salem,NC,,US,,,,Citibank,Q857063
78607,citi,ATM Speedway,,Winston-Salem,NC,,US,,,,Citibank,Q857063
77772,citi,ATM Speedway,,Winston-Salem,NC,,US,,,,Citibank,Q857063
70144941,cricket_wireless,Cricket Wireless Authorized Retailer,,Winston-Salem,NC,,US,+1 336-771-3951,https://www.cricketwireless.com/stores/ll/US/NC/Winston~Salem/3027-Waughtown-St,Mo-Sa 10:00-20:00; Su 12:00-18:00,Cricket Wireless,Q5184987
4472,dominos_pizza_us,Domino's Pizza,,Winston Salem,NC,,US,+1 336-769-4800,https://pizza.dominos.com/north-carolina/winston-salem/5389-gumtree-road,Mo-Th 10:30-24:00; Fr-Sa 10:30-01:00; Su 10:30-24:00,Domino's,Q839466
https://www.edwardjones.com/us-en/financial-advisor/stephen-dockham,edwardjones,Stephen K Dockham,,Winston Salem,NC,,US,+1 336-769-0130,https://www.edwardjones.com/us-en/financial-advisor/stephen-dockham,,Edward Jones,Q5343830
1000000662,extra_space_storage,Winston-Salem Self Storage at 2080 Old Lexington Rd,,Winston-Salem,NC,,US,+1 336-770-2255,https://www.extraspace.com/storage/facilities/us/north_carolina/winston_salem/1000000662/,Mo-Fr 09:30-18:00; Sa 09:00-17:30,Extra Space Storage,Q5422162
3694,gulf_pr_us,PIT STOP,,Winston Salem,NC,,US,+1 336-784-7921,https://www.gulfoil.com/pit-stop,,Gulf Oil,Q5617505
https://office.jacksonhewitt.com/#27580094,jackson_hewitt,Jackson Hewitt,,Winston-Salem,NC,,US,+1 336-824-0021,https://office.jacksonhewitt.com/tax-preparation-services-locations/en/nc/winston-salem/3037-waughtown-street/11960,Mo-Sa 10:00-18:00; Su 13:00-17:00,Jackson Hewitt,Q6117132
https://locations.oreillyauto.com/nc/winstonsalem/check-engine-light-testing-5247.html,oreilly,Your Winston Salem O'Reilly Auto Parts Store,,Winston Salem,NC,,US,+1 336-564-1957,https://locations.oreillyauto.com/nc/winstonsalem/check-engine-light-testing-5247.html,Mo-Sa 07:30-21:00; Su 09:00-20:00,O'Reilly Auto Parts,Q7071951
https://locations.oreillyauto.com/nc/winstonsalem/wiper-installation-5247.html,oreilly,Your Winston Salem O'Reilly Auto Parts Store,,Winston Salem,NC,,US,+1 336-564-1957,https://locations.oreillyauto.com/nc/winstonsalem/wiper-installation-5247.html,Mo-Sa 07:30-21:00; Su 09:00-20:00,O'Reilly Auto Parts,Q7071951
https://locations.oreillyauto.com/nc/winstonsalem/battery-testing-5247.html,oreilly,Your Winston Salem O'Reilly Auto Parts Store,,Winston Salem,NC,,US,+1 336-564-1957,https://locations.oreillyauto.com/nc/winstonsalem/battery-testing-5247.html,Mo-Sa 07:30-21:00; Su 09:00-20:00,O'Reilly Auto Parts,Q7071951
https://locations.oreillyauto.com/nc/winstonsalem/autopartes-5247.html,oreilly,Tu tienda O'Reilly Auto Parts en Winston Salem,,Winston Salem,NC,,US,+1 336-564-1957,https://locations.oreillyauto.com/nc/winstonsalem/autopartes-5247.html,Mo-Sa 07:30-21:00; Su 09:00-20:00,O'Reilly Auto Parts,Q7071951
https://locations.oreillyauto.com/nc/winston-salem/check-engine-light-testing-1352.html,oreilly,Your Winston-salem O'Reilly Auto Parts Store,,Winston-salem,NC,,US,+1 336-784-6770,https://locations.oreillyauto.com/nc/winston-salem/check-engine-light-testing-1352.html,Mo-Sa 07:30-21:00; Su 08:00-20:00,O'Reilly Auto Parts,Q7071951
https://locations.oreillyauto.com/nc/winston-salem/wiper-installation-1352.html,oreilly,Your Winston-salem O'Reilly Auto Parts Store,,Winston-salem,NC,,US,+1 336-784-6770,https://locations.oreillyauto.com/nc/winston-salem/wiper-installation-1352.html,Mo-Sa 07:30-21:00; Su 08:00-20:00,O'Reilly Auto Parts,Q7071951
https://locations.oreillyauto.com/nc/winston-salem/battery-testing-1352.html,oreilly,Your Winston-salem O'Reilly Auto Parts Store,,Winston-salem,NC,,US,+1 336-784-6770,https://locations.oreillyauto.com/nc/winston-salem/battery-testing-1352.html,Mo-Sa 07:30-21:00; Su 08:00-20:00,O'Reilly Auto Parts,Q7071951
https://locations.oreillyauto.com/nc/winston-salem/autopartes-1352.html,oreilly,Tu tienda O'Reilly Auto Parts en Winston-salem,,Winston-salem,NC,,US,+1 336-784-6770,https://locations.oreillyauto.com/nc/winston-salem/autopartes-1352.html,Mo-Sa 07:30-21:00; Su 08:00-20:00,O'Reilly Auto Parts,Q7071951
nc_winston-salem_3025-waughtown-st,pizza_hut_us,3025 Waughtown St,,Winston-salem,NC,,US,+1 336-788-9052,https://locations.pizzahut.com/nc/winston-salem/3025-waughtown-st,,Pizza Hut,Q191615
nc_winston-salem_189-hickory-tree-road,pizza_hut_us,189 Hickory Tree Road,,Winston Salem,NC,,US,+1 336-764-5558,https://locations.pizzahut.com/nc/winston-salem/189-hickory-tree-road,,Pizza Hut,Q191615
1818,rentacenter,Rent-A-Center,,Winston Salem,NC,,US,+1 336-784-0890,https://locations.rentacenter.com/north-carolina/winston-salem/3021-waughtown-st/,Mo-Sa 10:00-18:00,Rent-A-Center,Q7313497
453,sheetz,Sheetz,,WINSTON SALEM,NC,,US,+1 336-771-4099,https://orders.sheetz.com/findASheetz/store/453,24/7,Sheetz,Q7492551
https://restaurants.subway.com/#14915984,subway,Subway Wallburg Towne Ctr,,Winston Salem Forsyth,NC,,US,+1 336-769-4000,https://restaurants.subway.com/united-states/nc/winston-salem/10479-nc-hwy-109-n,Mo-Sa 08:00-19:00; Su 10:00-19:00,Subway,Q244457
1386666,usps,WAUGHTOWN,,WINSTON SALEM,NC,,US,+1 336-784-3047,,Mo-Fr 09:00-15:00,United States Postal Service,Q668687
2710700021,usps_collection_boxes,USPS COLLECTION BOX - BLUE BOX,1101 SILAS CREEK PKWY,WINSTON SALEM,NC,,US,,,,United States Postal Service,Q668687
2710700022,usps_collection_boxes,USPS COLLECTION BOX - BLUE BOX,1101 SILAS CREEK PKWY,WINSTON SALEM,NC,,US,,,,United States Postal Service,Q668687
2710700017,usps_collection_boxes,USPS COLLECTION BOX - BLUE BOX,3039 WAUGHTOWN ST,WINSTON SALEM,NC,,US,,,,United States Postal Service,Q668687
2710700011,usps_collection_boxes,USPS COLLECTION BOX - BLUE BOX,1995 PLEASANT ST,WINSTON SALEM,NC,,US,,,,United States Postal Service,Q668687
2710700038,usps_collection_boxes,USPS COLLECTION BOX - PO LOBBY,1995 PLEASANT ST,WINSTON SALEM,NC,,US,,,,United States Postal Service,Q668687
2710700042,usps_collection_boxes,USPS COLLECTION BOX - PO LOBBY,1995 PLEASANT ST,WINSTON SALEM,NC,,US,,,,United States Postal Service,Q668687
2710700037,usps_collection_boxes,USPS COLLECTION BOX - BLUE BOX,3300 OLD LEXINGTON RD,WINSTON SALEM,NC,,US,,,,United States Postal Service,Q668687
0000031916,valero,Jays Mart,,Winston-Salem,NC,,US,,https://locations.valero.com/en-us/LocationDetails/Index/3011-WAUGHTOWN-STREET/0000031916,24/7,Valero,Q1283291
,visa,,,ARCHDALE,NC,,US,,,,,
,visa,,,WINSTON SALEM,NC,,US,,,,,
,visa,,,WINSTON SALEM,NC,,US,,,,,
,visa,,,WINSTON SALEM,NC,,US,,,,,
,visa,,,WINSTON SALEM,NC,,US,,,,,
,visa,,,WINSTON SALEM,NC,,US,,,,,
,visa,,,WALLBURG,NC,,US,,,,,
,visa,,,WINSTONASLEM,NC,,US,,,,,
,visa,,,WINSTON-SALEM,NC,,US,,,,,
,visa,,,WINSTON-SALEM,NC,,US,,,,,
,visa,,,THOMASVILLE,NC,,US,,,,,
,visa,,,WINSTON SALEM,NC,,US,,,,,
,visa,,,WINSTON SALEM,NC,,US,,,,,
,visa,,,WNSTON SALEM,NC,,US,,,,,
,visa,,,WINSTON SALEM,NC,,US,,,,,
,visa,,,WINSTON SALEM,NC,,US,,,,,
,visa,,,WINSTON SALEM,NC,,US,,,,,
,visa,,,WINSTON SALEM,NC,,US,,,,,
,visa,,,WINSTON SALEM,NC,,US,,,,,
,visa,,,WINSTON SALEM,NC,,US,,,,,
,visa,,,WINSTON SALEM,NC,,US,,,,,
,visa,,,WINSTON SALEM,NC,,US,,,,,
,visa,,,WINSTON SALEM,NC,,US,,,,,
,visa,,,WINSTON SALEM,NC,,US,,,,,
,visa,,,WINSTONSALEM,NC,,US,,,,,
,visa,,,WINSTON SALEM,NC,,US,,,,,
,visa,,,WINSTON,NC,,US,,,,,
,visa,,,WINSTON SALEM,NC,,US,,,,,
,visa,,,WAUGHTOWN,NC,,US,,,,,
,visa,,,WINSTONSALEM,NC,,US,,,,,
,visa,,,WINSTON-SALEM,NC,,US,,,,,
,visa,,,WINSTON-SALEM,NC,,US,,,,,
,visa,,,WINSTON-SALEM,NC,,US,,,,,
,visa,,,WINSTON SALEM,NC,,US,,,,,
,visa,,,WINSTON-SALEM,NC,,US,,,,,
,visa,,,WINSTON SALEM,NC,,US,,,,,
,visa,,,WINSTON SALEM,NC,,US,,,,,
,visa,,,WINSTON-SALEM,NC,,US,,,,,
,visa,,,WINSTON SALEM,NC,,US,,,,,
,visa,,,WINSTON SALEM,NC,,US,,,,,
,visa,,,WINSTON-SALEM,NC,,US,,,,,
,visa,,,WINSTON SALEM,NC,,US,,,,,
,visa,,,WINSTON SALEM,NC,,US,,,,,
,visa,,,WINSTON SALEM,NC,,US,,,,,
,visa,,,WINSTON-SALEM,NC,,US,,,,,
,visa,,,WINSTON,NC,,US,,,,,
,visa,,,WINSTON-SALEM,NC,,US,,,,,
,visa,,,WINSTONSALEM,NC,,US,,,,,
,visa,,,WINSTON SALEM,NC,,US,,,,,
,visa,,,WINSTON SALEM,NC,,US,,,,,
,visa,,,WINSTON SALEM,NC,,US,,,,,
,visa,,,WINSTON SALEM,NC,,US,,,,,
,visa,,,WINSTON SALEM,NC,,US,,,,,
,visa,,,WINSTON SALEM,NC,,US,,,,,
,visa,,,WINSTON-SALEM,NC,,US,,,,,
,visa,,,WINSTON-SALEM,NC,,US,,,,,
,visa,,,WINSTON-SALEM,NC,,US,,,,,
,visa,,,WINSTON SALEM,NC,,US,,,,,
,visa,,,WINSTON SALEM,NC,,US,,,,,
,visa,,,WINSTON SALEM,NC,,US,,,,,
,visa,,,WINSTON SALEM,NC,,US,,,,,
,visa,,,WALLBURG,NC,,US,,,,,
,visa,,,WINSTON-SALEM,NC,,US,,,,,
,visa,,,WINSTONSALEM,NC,,US,,,,,
,visa,,,WINSTON-SALEM,NC,,US,,,,,
,visa,,,WINSTON SALEM,NC,,US,,,,,
,visa,,,KING,NC,,US,,,,,
,visa,,,WINSTON SALEM,NC,,US,,,,,
https://www.walgreens.com/locator/walgreens-3095+waughtown+st-winston+salem-nc-27107/id=17235,walgreens,Walgreens,,Winston Salem,NC,,US,+1 336-666-9063,https://www.walgreens.com/locator/walgreens-3095+waughtown+st-winston+salem-nc-27107/id=17235,Mo-Sa 09:00-18:00; Su 00:00-24:00,Walgreens,Q1591889
751__WAUGHTOWN__ST_WINSTON__SALEM_NC_27107,wellsfargo,,751 WAUGHTOWN ST,WINSTON SALEM,NC,,US,+1 800-869-3557,https://www.wellsfargo.com/locator/bank/751__WAUGHTOWN__ST_WINSTON__SALEM_NC_27107/,,Wells Fargo,Q744149
https://locations.wendys.com/#9256528,wendys,"Wendy's Wallburg in Winston-Salem, NC",,Winston-Salem,NC,,US,+1 336-769-0899,https://locations.wendys.com/united-states/nc/winston-salem/5457-gumtree-rd,"Mo-Su 06:30-10:30,06:30-22:00",Wendy's,Q550258
https://locations.wendys.com/#9256525,wendys,"Wendy's Waughtown in Winston-Salem, NC",,Winston-Salem,NC,,US,+1 336-788-8408,https://locations.wendys.com/united-states/nc/winston-salem/3007-waughtown-st,"Mo-Su 06:30-10:30,06:30-22:00",Wendy's,Q550258
4eac94a58678ab36f127cac0bfa64ea6,western_union,ALVARADO JEWELRY,,Winston Salem,NC,,US,+1 336-785-0807,https://location.westernunion.com/us/nc/winston-salem/4eac94a58678ab36f127cac0bfa64ea6,Mo-Su 09:00-18:00,Western Union,Q861042
7fb03c23af13dbdcdbf6ec25779547e4,western_union,CHECK CASHING STORE #3,,Winston Salem,NC,,US,+1 336-252-1009,https://location.westernunion.com/us/nc/winston-salem/7fb03c23af13dbdcdbf6ec25779547e4,Mo-Su 00:01-24:00,Western Union,Q861042
