Ref,Spider,Name,Address,City,State,Zipcode,Country,Phone,Website,Hours,Brand,WikiData
150636,bluerhino,Walgreens #0396,,San Juan,PR,,US,+1 787-294-0506,,,Blue Rhino,Q65681213
143229,bluerhino,JF Montalvo Santurce,,San Juan,PR,,US,+1 787-781-2962,,,Blue Rhino,Q65681213
54581,citi,ATM Estacion Universidad (Upr),,Rio Piedras,PR,,US,,,,Citibank,Q857063
88987,citi,ATM Walgreens,,Rio Piedras,PR,,US,,,,Citibank,Q857063
92341,citi,ATM Walgreens,,San Juan,PR,,US,,,,Citibank,Q857063
E1P110,enterprise,Rio Piedras,,Rio Piedras,PR,,US,+1 844-794-8597,,,Enterprise Rent-A-Car,Q17085454
1379391,usps,RIO PIEDRAS,,SAN JUAN,PR,,US,+1 787-767-6394,,Mo-Fr 07:45-16:00; Sa 08:00-12:00,United States Postal Service,Q668687
0092500004,usps_collection_boxes,USPS COLLECTION BOX - BLUE BOX,1103 AVE MUNOZ RIVERA,SAN JUAN,PR,,US,,,,United States Postal Service,Q668687
0092500020,usps_collection_boxes,USPS COLLECTION BOX - BLUE BOX,108 CALLE ARZUAGA,SAN JUAN,PR,,US,,,,United States Postal Service,Q668687
0092500022,usps_collection_boxes,USPS COLLECTION BOX - PO LOBBY,112 CALLE ARZUAGA STE 3,SAN JUAN,PR,,US,,,,United States Postal Service,Q668687
,visa,,,SAN JUAN,PR,,US,,,,,
,visa,,,SAN JUAN,PR,,US,,,,,
https://www.walgreens.com/locator/walgreens-65+infanteria+shopping+ctr-san+juan-pr-00925/id=891,walgreens,Walgreens,,San Juan,PR,,US,+1 787-767-1636,https://www.walgreens.com/locator/walgreens-65+infanteria+shopping+ctr-san+juan-pr-00925/id=891,Mo-Su 07:00-23:00,Walgreens,Q1591889
afe954cd63ca9e640cdece8b27c91b5c,western_union,MUNDO CELULAR,,San Juan,PR,,US,+1 787-759-7584,https://location.westernunion.com/us/pr/san-juan/afe954cd63ca9e640cdece8b27c91b5c,Mo-Sa 07:00-21:00; Su 07:00-18:00,Western Union,Q861042
1ffa2d68cb7b6d26b9ba678673ec2a5c,western_union,WALGREENS #12649,,Rio Piedras,PR,,US,+1 787-751-7219,https://location.westernunion.com/us/pr/rio-piedras/1ffa2d68cb7b6d26b9ba678673ec2a5c,Mo-Su 08:00-21:00,Western Union,Q861042
83bc76be2b9bc745328af17df78a7c48,western_union,BR COMPUTER & CELLULAR SERVICE,,San Juan,PR,,US,+1 787-610-2123,https://location.westernunion.com/us/pr/san-juan/83bc76be2b9bc745328af17df78a7c48,Mo-Sa 08:00-17:00,Western Union,Q861042
6c854e1338b901e31876edf1a263bf48,western_union,L MOBILE,,San Juan,PR,,US,+1 787-292-9704,https://location.westernunion.com/us/pr/san-juan/6c854e1338b901e31876edf1a263bf48,Mo-Sa 07:00-17:00,Western Union,Q861042
2c177d16e6b29b639a511ec2db466002,western_union,JAC WIRELESS,,San Juan,PR,,US,+1 787-224-6564,https://location.westernunion.com/us/pr/san-juan/2c177d16e6b29b639a511ec2db466002,Mo-Su 07:00-19:00,Western Union,Q861042
629152c3594cad199aeb159dca491d6b,western_union,JAC WIRELESS,,San Juan,PR,,US,+1 787-224-6564,https://location.westernunion.com/us/pr/san-juan/629152c3594cad199aeb159dca491d6b,Mo-Su 07:00-19:00,Western Union,Q861042
