Ref,Spider,Name,Address,City,State,Zipcode,Country,Phone,Website,Hours,Brand,WikiData
100,econsave_my,Econsave Lahad Datu,,Lahad Datu,Sabah,,MY,089-868720 089-868721,,Mo-Su 09:00-21:30,Econsave,Q61776608
162,econsave_my,Econsave Lahad Datu 2,,Lahad Datu,Sabah,,MY,089-862867 089-863432,,Mo-Su 08:30-21:30,Econsave,Q61776608
10209600,shell,SHELL TABANAK LAHAD DATU,,LAHAD DATU,Sabah,,MY,+60 89-882 524,https://find.shell.com/my/fuel/10209600-shell-tabanak-lahad-datu,24/7,Shell,Q110716465
10208162,shell,SH TAMAN AMAN/JALAN SILAM.,,LAHAD DATU,Sabah,,MY,+60 89-880 891,https://find.shell.com/my/fuel/10208162-sh-taman-aman-jalan-silam,24/7,Shell,Q110716465
10209606,shell,SH JLN SEGAMA LAHAD DATU KM 2,,LAHAD DATU,Sabah,,MY,+60 89-883 900,https://find.shell.com/my/fuel/10209606-sh-jln-segama-lahad-datu-km-2,24/7,Shell,Q110716465
10209598,shell,SHELL AIRPORT LAHAD DATU,,LAHAD DATU,Sabah,,MY,+60 89-881 789,https://find.shell.com/my/fuel/10209598-shell-airport-lahad-datu,24/7,Shell,Q110716465
,visa,,,LAHAT DATU,SABAH,,MY,,,,,
,visa,,,LAHAD DATU,SABAH,,MY,,,,,
,visa,,,LAHAD DATU,SABAH,,MY,,,,,
,visa,,,LAHAT DATU,SABAH,,MY,,,,,
,visa,,,LAHAD DATU,SABAH,,MY,,,,,
,visa,,,LAHAD DATU,SABAH,,MY,,,,,
,visa,,,LAHAD DATU,SABAH,,MY,,,,,
,visa,,,LAHAD DATU,SABAH,,MY,,,,,
bf90925d1bd82cd83b08414a35348542,western_union,AMBANK LAHAD DATU,,Lahad Datu,SABAH,,MY,+60 89-881 561,https://location.westernunion.com/my/sabah/lahad-datu/bf90925d1bd82cd83b08414a35348542,Mo 08:45-19:30; Tu-Fr 09:00-19:30,Western Union,Q861042
dacac0742d90aeb82958482489239d05,western_union,TML LAHAD DATU,,Lahad Datu,SABAH,,MY,+60 19-779 4771,https://location.westernunion.com/my/sabah/lahad-datu/dacac0742d90aeb82958482489239d05,Mo-Su 09:00-18:00,Western Union,Q861042
6af2267259de11e779253044f475f1c4,western_union,HONG LEONG BANK LAHAD DATU,,Lahad Datu,SABAH,,MY,+60 89-884 488,https://location.westernunion.com/my/sabah/lahad-datu/6af2267259de11e779253044f475f1c4,Mo-Fr 08:30-20:00,Western Union,Q861042
34303d2963946f69fd79cb8e1fabb948,western_union,PBB LAHAD DATU,,Lahad Datu,SABAH,,MY,+60 89-884 020,https://location.westernunion.com/my/sabah/lahad-datu/34303d2963946f69fd79cb8e1fabb948,Mo-Fr 09:30-16:00,Western Union,Q861042
9b0b88c75757e7fc33e11945fa2351bb,western_union,POS LAHAD DATU 13017,,Lahad Datu,SABAH,,MY,+60 89-881 359,https://location.westernunion.com/my/sabah/lahad-datu/9b0b88c75757e7fc33e11945fa2351bb,Mo-Fr 08:00-16:30; Sa 08:00-12:30,Western Union,Q861042
4503db2ce7b37b836d630d17d7b90222,western_union,N127 BSN LAHAD DATU,,Lahad Datu,SABAH,,MY,+60 89-862 512,https://location.westernunion.com/my/sabah/lahad-datu/4503db2ce7b37b836d630d17d7b90222,Mo-Fr 08:30-20:00,Western Union,Q861042
