Ref,Spider,Name,Address,City,State,Zipcode,Country,Phone,Website,Hours,Brand,WikiData
72134645,moneygram,COPPEL TRANSMISORES - HIDALGO DEL PARRAL,,HIDALGO DEL PARRAL,CI,,MX,+52 627 525 4975,,Mo-Sa 10:00-20:00; Su 09:30-16:30,MoneyGram,Q1944412
72134742,moneygram,COPPEL TRANSMISORES - HIDALGO DEL PARRAL,,HIDALGO DEL PARRAL,CI,,MX,+52 627 522 0285,,Mo-Sa 09:00-20:00; Su 09:30-13:30,MoneyGram,Q1944412
72134771,moneygram,COPPEL TRANSMISORES - HIDALGO DEL PARRAL,,HIDALGO DEL PARRAL,CI,,MX,+52 627 525 7606,,Mo-Sa 09:00-20:00; Su 09:30-13:30,MoneyGram,Q1944412
67766691,moneygram,OK ENVIOS Y SERVICIOS - HIDALGO DEL PARR,,HIDALGO DEL PARRAL,CI,,MX,+52 800 733 3300,,Mo-Fr 09:00-18:00; Sa 09:00-14:00; Su 00:00-24:00,MoneyGram,Q1944412
67766769,moneygram,OK ENVIOS Y SERVICIOS - HIDALGO DEL PARR,,HIDALGO DEL PARRAL,CI,,MX,+52 800 733 3300,,Mo-Fr 09:00-18:00; Sa 09:00-14:00; Su 00:00-24:00,MoneyGram,Q1944412
67766743,moneygram,OK ENVIOS Y SERVICIOS - HIDALGO DEL PARR,,HIDALGO DEL PARRAL,CI,,MX,+52 800 733 3300,,Mo-Fr 09:00-18:00; Sa 09:00-14:00; Su 00:00-24:00,MoneyGram,Q1944412
72134564,moneygram,COPPEL TRANSMISORES - HIDALGO DEL PARRAL,,HIDALGO DEL PARRAL,CI,,MX,+52 627 522 4414,,Mo-Sa 09:00-20:00; Su 09:30-13:30,MoneyGram,Q1944412
72364981,moneygram,BANCO AZTECA MEXICO - HIDALGO DEL PARRAL,,HIDALGO DEL PARRAL,CI,,MX,+52 55 1720 8177,,Mo-Su 09:00-21:00,MoneyGram,Q1944412
72365032,moneygram,DINERO EXPRESS - HIDALGO DEL PARRAL - DA,,HIDALGO DEL PARRAL,CI,,MX,+52 55 1720 8177,,Mo-Su 09:00-21:00,MoneyGram,Q1944412
72420540,moneygram,CADENA COMERCIAL OXXO SA DE CV - #10CHI5,,HIDALGO DEL PARRAL,CI,,MX,+52 81 8389 2121,,Mo-Su 03:00-24:00,MoneyGram,Q1944412
72804580,moneygram,CADENA COMERCIAL OXXO SA DE CV - #10CHI5,,HIDALGO DEL PARRAL,CI,,MX,+52 81 8389 2121,,Mo-Su 03:00-24:00,MoneyGram,Q1944412
69511048,moneygram,MODATELAS - #1155 - 59 MODATELAS PARRAL,,HIDALGO DEL PARRAL,CI,,MX,+52 627 522 8444,,Mo-Su 08:00-20:00,MoneyGram,Q1944412
68824529,moneygram,DINERO EXPRESS - #990 - HIDALGO DEL PARR,,HIDALGO DEL PARRAL,CI,,MX,+52 55 1720 8141,,Mo-Su 09:00-21:00,MoneyGram,Q1944412
70393420,moneygram,FARMACIAS GUADALAJARA - HIDALGO DEL PARR,,HIDALGO DEL PARRAL,CI,,MX,+52 713 278 5436,,Mo-Su 08:00-22:00,MoneyGram,Q1944412
70402832,moneygram,FARMACIAS GUADALAJARA - HIDALGO DEL PARR,,HIDALGO DEL PARRAL,CI,,MX,+52 713 278 5436,,Mo-Su 08:00-22:00,MoneyGram,Q1944412
70802160,moneygram,ELECZION - HIDALGO DEL PARRAL,,HIDALGO DEL PARRAL,CI,,MX,555563180635,,Mo-Su 07:00-23:00,MoneyGram,Q1944412
70802791,moneygram,ELECZION - HIDALGO DEL PARRAL,,HIDALGO DEL PARRAL,CI,,MX,555563180635,,Mo-Su 07:00-23:00,MoneyGram,Q1944412
71115335,moneygram,TELECOMM - #TELECOMM 08030 - HIDALGO DEL,,HIDALGO DEL PARRAL,CI,,MX,55118008334700,,Mo-Fr 09:00-15:30; Sa-Su 00:00-24:00,MoneyGram,Q1944412
71134785,moneygram,ELEKTRA - #990 - HIDALGO DEL PARRAL - BA,,HIDALGO DEL PARRAL,CI,,MX,+52 55 1720 7000,,Mo-Su 09:00-21:00,MoneyGram,Q1944412
41314771,moneygram,BANORTE - #3801 - PARRAL  CHIH,,HIDALGO DEL PARRAL,CI,,MX,+52 627 522 6200,,Mo-Fr 09:00-20:00; Sa-Su 00:00-24:00,MoneyGram,Q1944412
43526266,moneygram,CAJA POPULAR MEX - #117 - PARRAL,,HIDALGO DEL PARRAL,CI,,MX,+52 627 522 0930,,Mo-Fr 09:00-16:00; Sa 09:00-14:00; Su 00:00-24:00,MoneyGram,Q1944412
43526305,moneygram,CAJA POPULAR MEX - #119 - CATEDRAL,,HIDALGO DEL PARRAL,CI,,MX,+52 627 522 8020,,Mo-Fr 09:00-16:00; Sa 09:00-14:00; Su 00:00-24:00,MoneyGram,Q1944412
43526318,moneygram,CAJA POPULAR MEX - #120 - SAN JOSE,,HIDALGO DEL PARRAL,CI,,MX,+52 627 525 5051,,Mo-Fr 09:00-16:00; Sa 09:00-14:00; Su 00:00-24:00,MoneyGram,Q1944412
67766808,moneygram,OK ENVIOS Y SERVICIOS - HIDALGO DEL PARR,,HIDALGO DEL PARRAL,CI,,MX,+52 800 733 3300,,Mo-Fr 09:00-18:00; Sa 09:00-14:00; Su 00:00-24:00,MoneyGram,Q1944412
71247546,moneygram,OXXO - GUILLERMO BACA CUF,,HIDALGO DEL PARRAL,CI,,MX,+52 81 8389 2121,,Mo-Su 03:00-24:00,MoneyGram,Q1944412
71248011,moneygram,OXXO - HAITI CUF,,HIDALGO DEL PARRAL,CI,,MX,+52 81 8389 2121,,Mo-Su 03:00-24:00,MoneyGram,Q1944412
71248309,moneygram,OXXO - INGENIERIAS CUF,,HIDALGO DEL PARRAL,CI,,MX,+52 81 8389 2121,,Mo-Su 03:00-24:00,MoneyGram,Q1944412
71248163,moneygram,OXXO - LINDEROS CUF,,HIDALGO DEL PARRAL,CI,,MX,+52 81 8389 2121,,Mo-Su 03:00-24:00,MoneyGram,Q1944412
71248956,moneygram,OXXO - RICOBA CUF,,HIDALGO DEL PARRAL,CI,,MX,+52 81 8389 2121,,Mo-Su 03:00-24:00,MoneyGram,Q1944412
71249285,moneygram,OXXO - SANTA ROSA CUF,,HIDALGO DEL PARRAL,CI,,MX,+52 81 8389 2121,,Mo-Su 03:00-24:00,MoneyGram,Q1944412
71247627,moneygram,OXXO - TURISTA CUF,,HIDALGO DEL PARRAL,CI,,MX,+52 81 8389 2121,,Mo-Su 03:00-24:00,MoneyGram,Q1944412
