Ref,Spider,Name,Address,City,State,Zipcode,Country,Phone,Website,Hours,Brand,WikiData
498244,afcurgentcare,American Family Care Airmont,,Airmont,NY,,US,+1 845-547-0300,https://www.afcurgentcare.com/airmont/,Mo-Fr 08:00-20:00; Sa-Su 08:00-17:00,AFC Urgent Care,Q110552174
6161,autozone_us,AutoZone Auto Parts Suffern,,Suffern,NY,,US,+1 845-364-4151,https://www.autozone.com/locations/ny/suffern/218-route-59.html,Mo-Fr 07:30-21:00; Sa-Su 08:00-21:00,AutoZone,Q4826087
https://locations.baskinrobbins.com/ny/suffern/262-route-59-339302-br,baskin_robbins_us,Baskin-Robbinsâ„¢,,Suffern,NY,,US,+1 845-504-5303,https://locations.baskinrobbins.com/ny/suffern/262-route-59-339302-br,Mo-Sa 05:00-22:00; Su 06:00-22:00,Baskin-Robbins,Q584601
141799,bluerhino,Ace #15796 - Rainbow Ace Hardware,,Suffern,NY,,US,+1 845-547-2301,,,Blue Rhino,Q65681213
25989,burgerking,Burger King,,Airmont,NY,,US,+1 845-547-2888,https://www.bk.com/store-locator/store/restaurant_87719,Mo-Su 07:00-22:00,Burger King,Q177054
2042684,chase_us,Suffern - New branch,,Suffern,NY,,US,+1 845-357-4300,https://locator.chase.com/ny/suffern/67-lafayette-ave,Mo-Fr 09:00-17:00; Sa 09:00-14:00,Chase,Q524629
88824,citi,ATM Walgreens,,Suffern,NY,,US,,,,Citibank,Q857063
94492,citi,ATM Webster Bank,,Airmont,NY,,US,,,,Citibank,Q857063
51433,citi,ATM CVS,,Suffern,NY,,US,,,,Citibank,Q857063
251,citi,Tallman,,Suffern,NY,,US,+1 800-627-3999,,,Citibank,Q857063
28437,citi,ATM 7ELEVEN-FCTI,,Suffern,NY,,US,,,,Citibank,Q857063
346,cvs_us,CVS Pharmacy,,Suffern,NY,,US,+1 845-357-1500,https://www.cvs.com/store-locator/suffern-ny-pharmacies/5-indian-rock-plaza-suffern-ny-10901/storeid=346,Mo-Su 07:00-00:00,CVS Pharmacy,Q2078880
3445,dominos_pizza_us,Domino's Pizza,,Suffern,NY,,US,+1 845-368-2255,https://pizza.dominos.com/new-york/suffern/38-lafayette-ave,Mo-Th 10:30-01:00; Fr-Sa 10:30-02:00; Su 10:30-01:00,Domino's,Q839466
341836,dunkin_us,Dunkin',,Suffern,NY,,US,+1 845-357-3902,https://locations.dunkindonuts.com/en/ny/suffern/14-north-airmont-rd/341836,Mo-Su 04:00-21:00,Dunkin',Q847743
338798,dunkin_us,Dunkin',,Suffern,NY,,US,+1 845-357-2693,https://locations.dunkindonuts.com/en/ny/suffern/66-lafayette-ave/338798,Mo 05:00-20:00; Tu-Fr 05:00-19:00; Sa-Su 06:00-19:00,Dunkin',Q847743
339302,dunkin_us,Dunkin',,Suffern,NY,,US,+1 845-504-5303,https://locations.dunkindonuts.com/en/ny/suffern/262-route-59/339302,Mo-Sa 05:00-22:00; Su 06:00-22:00,Dunkin',Q847743
100930,fresenius_kidney_care_us,Fresenius Kidney Care Rcr - Montebello,,Montebello,NY,,US,+1 800-881-5101,https://www.freseniuskidneycare.com/dialysis-centers/new-york/100930,Mo-Sa 05:00-18:00,,
1393,gulf_pr_us,AIRMONT GULF,,Suffern,NY,,US,+1 845-368-1869,https://www.gulfoil.com/airmont-gulf,,Gulf Oil,Q5617505
29974,h_r_block,H&R Block,,Suffern,NY,,US,+1 845-368-2785,https://www.hrblock.com/local-tax-offices/new-york/suffern/airmont-village/29974/,,H&R Block,Q5627799
301746,kindercare,KinderCare Suffern,,Suffern,NY,,US,,https://www.kindercare.com/our-centers/suffern/ny/301746,,KinderCare Learning Centers,Q6410551
71467122,moneygram,WAL-MART - #2905,,SUFFERN,NY,,US,+1 845-368-4705,,Mo-Su 07:00-21:00,MoneyGram,Q1944412
73915384,moneygram,MATEO COMMUNICATIONS - SUFFERN - MATEO C,,SUFFERN,NY,,US,+1 845-368-4747,,Mo-Fr 10:00-20:00; Sa 10:00-19:00; Su 10:00-16:00,MoneyGram,Q1944412
1383831,usps,SUFFERN,,SUFFERN,NY,,US,+1 845-357-0601,,Mo-Fr 08:30-19:00; Sa 09:30-16:00,United States Postal Service,Q668687
1090100002,usps_collection_boxes,USPS COLLECTION BOX - BLUE BOX,15 CHESTNUT ST,SUFFERN,NY,,US,,,,United States Postal Service,Q668687
1090100052,usps_collection_boxes,USPS COLLECTION BOX - PO LOBBY,15 CHESTNUT ST LBBY DROP,SUFFERN,NY,,US,,,,United States Postal Service,Q668687
1090100054,usps_collection_boxes,USPS COLLECTION BOX - PO LOBBY,15 CHESTNUT ST,SUFFERN,NY,,US,,,,United States Postal Service,Q668687
1090100051,usps_collection_boxes,USPS COLLECTION BOX - BLUE BOX,2 EXECUTIVE BLVD,SUFFERN,NY,,US,,,,United States Postal Service,Q668687
1090100031,usps_collection_boxes,USPS COLLECTION BOX - BLUE BOX,3 EXECUTIVE BLVD,SUFFERN,NY,,US,,,,United States Postal Service,Q668687
1090100046,usps_collection_boxes,USPS COLLECTION BOX - BLUE BOX,1 BON AIRE CIR,SUFFERN,NY,,US,,,,United States Postal Service,Q668687
1090100024,usps_collection_boxes,USPS COLLECTION BOX - BLUE BOX,222 ROUTE 59,SUFFERN,NY,,US,,,,United States Postal Service,Q668687
1090100049,usps_collection_boxes,USPS COLLECTION BOX - BLUE BOX,250 ROUTE 59,SUFFERN,NY,,US,,,,United States Postal Service,Q668687
suffern_oil-change-ge6610,valvoline_instant_oil_change,Valvoline,57 Route 59 ,Suffern,NY,,US,+1 845-357-8843,https://store.vioc.com/ny/suffern/oil-change-ge6610.html,,Valvoline Instant Oil Change,Q7912852
,visa,,,NEW ROCHELLE,NY,,US,,,,,
,visa,,,SUFFERN,NY,,US,,,,,
,visa,,,SUFFERN,NY,,US,,,,,
,visa,,,SUFFERN,NY,,US,,,,,
,visa,,,SUFFERN,NY,,US,,,,,
,visa,,,SUFFERN,NY,,US,,,,,
,visa,,,SUFFERN,NY,,US,,,,,
,visa,,,SUFFERN,NY,,US,,,,,
,visa,,,SUFFERN,NY,,US,,,,,
,visa,,,SUFFERN,NY,,US,,,,,
,visa,,,SUFFRIN,NY,,US,,,,,
,visa,,,SUFFERN,NY,,US,,,,,
,visa,,,SUFFERN,NY,,US,,,,,
,visa,,,AIRMONT,NY,,US,,,,,
,visa,,,SUFFERN,NY,,US,,,,,
,visa,,,SUFFERN,NY,,US,,,,,
,visa,,,SUFFERN,NY,,US,,,,,
,visa,,,SUFFERN,NY,,US,,,,,
,visa,,,SUFFERN,NY,,US,,,,,
,visa,,,SUFFERN,NY,,US,,,,,
,visa,,,SUFFERN,NY,,US,,,,,
,visa,,,SUFFERN,NY,,US,,,,,
,visa,,,SUFFERN,NY,,US,,,,,
,visa,,,SUFFERN,NY,,US,,,,,
,visa,,,SUFFERN,NY,,US,,,,,
,visa,,,SUFFERN,NY,,US,,,,,
,visa,,,SUFFERN,NY,,US,,,,,
,visa,,,SUFFERN,NY,,US,,,,,
,visa,,,SUFFERN,NY,,US,,,,,
,visa,,,SUFFERN,NY,,US,,,,,
,visa,,,SUFFERN,NY,,US,,,,,
,visa,,,SUFFERN,NY,,US,,,,,
,visa,,,SUFFERN,NY,,US,,,,,
,visa,,,SUFFERN,NY,,US,,,,,
,visa,,,SUFFERN,NY,,US,,,,,
,visa,,,SUFFERN,NY,,US,,,,,
,visa,,,SUFFERN,NY,,US,,,,,
,visa,,,SUFFERN,NY,,US,,,,,
,visa,,,SUFFERN,NY,,US,,,,,
,visa,,,SUFFERN,NY,,US,,,,,
,visa,,,SUFFERN,NY,,US,,,,,
,visa,,,SUFFERN,NY,,US,,,,,
https://www.walgreens.com/locator/walgreens-209+route+59-suffern-ny-10901/id=4029,walgreens,Walgreens,,Suffern,NY,,US,+1 845-369-1179,https://www.walgreens.com/locator/walgreens-209+route+59-suffern-ny-10901/id=4029,Mo-Su 07:00-22:00,Walgreens,Q1591889
https://locations.wendys.com/#9250493,wendys,"Wendy's Airmont in Airmont, NY",,Airmont,NY,,US,+1 845-369-8500,https://locations.wendys.com/united-states/ny/airmont/320-route-59,"Mo-Sa 06:30-10:30,09:00-24:00; Su 07:30-10:30,09:00-24:00",Wendy's,Q550258
fadfab940a2645e32d211bf378eadefb,western_union,WALMART #002905,,Suffern,NY,,US,+1 845-368-4705,https://location.westernunion.com/us/ny/suffern/fadfab940a2645e32d211bf378eadefb,Mo-Su 07:00-21:00,Western Union,Q861042
