Ref,Spider,Name,Address,City,State,Zipcode,Country,Phone,Website,Hours,Brand,WikiData
https://stores.advanceautoparts.com/nj/vineland/300-w-landis-ave,advance_auto_parts_us,Advance Auto Parts,,Vineland,NJ,,US,+1 856-696-8070,https://stores.advanceautoparts.com/nj/vineland/300-w-landis-ave,Mo-Sa 07:30-21:00; Su 08:00-20:00,Advance Auto Parts,Q4686051
https://local.acmemarkets.com/#5603123,albertsons,ACME Markets,,Vineland,NJ,,US,+1 856-507-1101,https://local.acmemarkets.com/nj/vineland/301-s-main-rd.html,"Mo-Fr 07:00-22:00,09:00-20:00; Sa 07:00-22:00,09:00-17:00; Su 07:00-22:00,09:00-16:00",ACME Markets,Q341975
https://local.pharmacy.acmemarkets.com/#5672444,albertsons,ACME Markets Pharmacy,,Vineland,NJ,,US,+1 856-507-1109,https://local.pharmacy.acmemarkets.com/nj/vineland/301-s-main-rd.html,Mo-Fr 09:00-20:00; Sa 09:00-17:00; Su 09:00-16:00,ACME Markets,Q341975
https://stores.aldi.us/#14504383,aldi_sud_us,ALDI  3880 S. Delsea Dr,,Vineland,NJ,,US,+1 844-460-7055,https://stores.aldi.us/nj/vineland/3880-s-delsea-dr,"Mo-Su 08:00-20:00,09:00-20:00",ALDI,Q41171672
https://storelocations.ae.com/#1726441,american_eagle_outfitters,American Eagle Store Cumberland Mall,,Vineland,NJ,,US,+1 856-765-9101,https://storelocations.ae.com/us/nj/vineland/3849-s-delsea-drive.html,Mo-Th 11:00-20:00; Fr-Sa 10:00-21:00; Su 11:00-18:00,American Eagle Store,Q2842931
2982,anytime_fitness,Anytime Fitness,,Vineland,NJ,,US,+1 856-839-0065,https://www.anytimefitness.com/gyms/2982/vineland-nj-08360/,,Anytime Fitness,Q4778364
https://restaurants.applebees.com/en-us/nj/vineland/3849-south-delsea-drive-93095,applebees,Connect with this Applebee's,,Vineland,NJ,,US,+1 856-825-3435,https://restaurants.applebees.com/en-us/nj/vineland/3849-south-delsea-drive-93095,Mo-Th 11:00-24:00; Fr-Sa 11:00-01:00; Su 11:00-24:00,Applebees,Q621532
85931,asics_us,DICK'S Sporting Goods  - Vineland ,"3849 S Delsea Dr, Spc G0000",Vineland,NJ,,US,+1 856-776-7630,,Mo-Sa 09:00-21:00; Su 10:00-19:00,asics,Q327247
131,att_us,CUMBERLAND MALL STORE,,Vineland,NJ,,US,+1 856-765-1730,https://www.att.com/stores/new-jersey/vineland/131,Mo-Th 11:00-20:00; Fr-Sa 10:00-21:00; Su 11:00-18:00,AT&T,Q298594
https://locations.auntieannes.com/#6117,auntie_annes,Auntie Anne's Cumberland Mall,,Vineland,NJ,,US,+1 856-327-1767,https://locations.auntieannes.com/nj/vineland/routes-47-55,Mo-Sa 11:00-19:00; Su 12:00-18:00,Auntie Anne's,Q4822010
https://locations.auntieannes.com/#6249,auntie_annes,Auntie Anne's Vineland Wal-Mart #3339/Subway #34761,,Vineland,NJ,,US,+1 856-692-1930,https://locations.auntieannes.com/nj/vineland/1070-w-landis-ave,,Auntie Anne's,Q4822010
1889,autozone_us,AutoZone Auto Parts Vineland,,Vineland,NJ,,US,+1 856-794-2277,https://www.autozone.com/locations/nj/vineland/340-w-landis-ave.html,Mo-Su 07:30-21:00,AutoZone,Q4826087
https://locators.bankofamerica.com/nj/vineland/financial-centers-vineland-14827.html,bankofamerica,Bank of America Financial Center & Drive-Thru ATM | Vineland - N. Delsea Drive,,Vineland,NJ,,US,+1 856-696-0986,https://locators.bankofamerica.com/nj/vineland/financial-centers-vineland-14827.html,Mo-Fr 09:00-17:00; Sa 09:00-14:00,Bank of America,Q487907
BBW00679,bathandbodyworks_us,CUMBERLAND MALL,,VINELAND,NJ,,US,+1 856-765-1300,,Mo-Th 11:00-20:00; Fr-Sa 10:00-21:00; Su 11:00-18:00,Bath & Body Works,Q810773
https://stores.bestbuy.com/nj/vineland/3849-s-delsea-dr-692.html,bestbuy,Best Buy Vineland,,Vineland,NJ,,US,+1 856-765-1880,https://stores.bestbuy.com/nj/vineland/3849-s-delsea-dr-692.html,,Best Buy,Q533415
0156,bjswholesale,Vineland,,Vineland,NJ,,US,+1 856-293-8900,https://www.bjs.com/mapDetail;city=0156,Mo-Sa 08:00-21:00,BJ's Wholesale,Q4835754
138987,bluerhino,ShopRite #512,,Vineland,NJ,,US,+1 856-691-9395,,,Blue Rhino,Q65681213
206110,bluerhino,Rite Aid #10487,,Vineland,NJ,,US,+1 856-691-5151,,,Blue Rhino,Q65681213
109296,bluerhino,Walmart #3339,,Vineland,NJ,,US,+1 856-205-9940,,,Blue Rhino,Q65681213
141543,bluerhino,Nacho Mini Market,,Vineland,NJ,,US,+1 856-563-0002,,,Blue Rhino,Q65681213
206111,bluerhino,Rite Aid #10488,,Vineland,NJ,,US,+1 856-563-1599,,,Blue Rhino,Q65681213
153908,bluerhino,Walgreens #10910,,Vineland,NJ,,US,+1 856-691-1465,,,Blue Rhino,Q65681213
112808,bluerhino,ShopRite #550,,Vineland,NJ,,US,+1 856-691-0106,,,Blue Rhino,Q65681213
77529546234220836000100000000000,bp,BP,,Vineland,NJ,,US,+1 856-691-4308,,24/7,BP,Q152057
73482641594220836000100000000000,bp,BP,,Vineland,NJ,,US,+1 856-825-5287,,Mo-Su 06:00-20:00,BP,Q152057
28550,burgerking,Burger King,,Phillipsburg,NJ,,US,+1 908-827-2308,https://www.bk.com/store-locator/store/restaurant_237953,Mo-Sa 06:00-22:00; Su 07:00-22:00,Burger King,Q177054
28536,burgerking,Burger King,,Vineland,NJ,,US,+1 856-300-7391,https://www.bk.com/store-locator/store/restaurant_239112,Mo-Su 07:00-22:00,Burger King,Q177054
15560,chevrolet,R.K. CHEVROLET,,Vineland,NJ,,US,+1 856-457-4040,https://www.myrkchevy.com,Mo-Fr 09:00-19:00; Sa 09:00-18:00,Chevrolet,Q29570
39426,citi,ATM CENTURY SAVINGS BANK,,Vineland,NJ,,US,,,,Citibank,Q857063
69617,citi,ATM PNC AT WAWA,,Vineland,NJ,,US,,,,Citibank,Q857063
69616,citi,ATM PNC AT WAWA,,Vineland,NJ,,US,,,,Citibank,Q857063
36414,citi,ATM BAY ATLANTIC FCU,,Vineland,NJ,,US,,,,Citibank,Q857063
69353,citi,ATM PNC AT WAWA,,Vineland,NJ,,US,,,,Citibank,Q857063
69354,citi,ATM PNC AT WAWA,,Vineland,NJ,,US,,,,Citibank,Q857063
94250,citi,ATM Wawa 1,,Vineland,NJ,,US,,,,Citibank,Q857063
94295,citi,ATM Wawa 2,,Vineland,NJ,,US,,,,Citibank,Q857063
53795,citi,ATM Delsea Shoprite,,Vineland,NJ,,US,,,,Citibank,Q857063
73589,citi,ATM Rite Aid,,Vineland,NJ,,US,,,,Citibank,Q857063
69973,citi,ATM PNC AT WAWA,,Vineland,NJ,,US,,,,Citibank,Q857063
69974,citi,ATM PNC AT WAWA,,Vineland,NJ,,US,,,,Citibank,Q857063
39424,citi,ATM CENTURY SAVINGS BANK,,Vineland,NJ,,US,,,,Citibank,Q857063
47287,citi,ATM CVS,,Vineland,NJ,,US,,,,Citibank,Q857063
71021,citi,ATM PNC BANK,,Vineland,NJ,,US,,,,Citibank,Q857063
73735,citi,ATM Rite Aid,,Vineland,NJ,,US,,,,Citibank,Q857063
86387,citi,ATM Walgreens,,Vineland,NJ,,US,,,,Citibank,Q857063
95998,citi,ATM XPRESS MART #2 VINELAND NJ,,Vineland,NJ,,US,,,,Citibank,Q857063
ATM-2141,citizens_us,,,Vineland,NJ,,US,,,,Citizens,Q5122694
ATM-2619,citizens_us,,,Vineland,NJ,,US,,,,Citizens,Q5122694
vineland/6309,claires,Shop Ear Piercings & Jewelry at Cumberland Mall,,VINELAND,NJ,,US,+1 856-327-8889,https://stores.claires.com/us/nj/vineland/6309.html,Mo-Th 11:00-20:00; Fr-Sa 10:00-21:00; Su 11:00-18:00,Claire's,Q2974996
vineland/3361,claires,Shop Ear Piercings & Jewelry at Claires Walmart Vineland,,VINELAND,NJ,,US,+1 856-205-2623,https://stores.claires.com/us/nj/vineland/3361.html,Mo-Th 11:00-18:00; Fr-Sa 12:00-19:00; Su 11:00-18:00,Claire's,Q2974996
,credit_union_us,Bay Atlantic FCU,,Vineland,NJ,,US,+1 856-696-2525,,Mo-We 09:00-05:00; Th-Fr 09:00-06:00; Sa 09:00-12:00,,
,credit_union_us,Members 1st of NJ FCU,,Vineland,NJ,,US,+1 856-696-0767,,Mo-We 09:00-05:00; Th-Fr 09:00-06:00; Sa 09:00-01:00,,
70271242,cricket_wireless,Cricket Wireless Authorized Retailer,,Vineland,NJ,,US,+1 856-457-7412,https://www.cricketwireless.com/stores/ll/US/NJ/Vineland/707-E-Landis-Ave,Mo-Sa 10:00-19:00; Su 11:00-16:00,Cricket Wireless,Q5184987
5855,cvs_us,CVS Pharmacy,,Vineland,NJ,,US,+1 856-205-7371,https://www.cvs.com/store-locator/vineland-nj-pharmacies/1163-e-chestnut-ave-vineland-nj-08360/storeid=5855,Mo-Su 08:00-23:00,CVS Pharmacy,Q2078880
246455,dennys,Denny's,,VINELAND,NJ,,US,+1 856-696-1900,https://locations.dennys.com/NJ/VINELAND/246455,24/7,Denny's,Q1189695
nca_s1095,department_veterans_affairs,New Jersey Memorial Home Cemetery (Closed),,Vineland,NJ,,US,+1 609-696-6350,https://www.nj.gov/military/veterans/memorial-homes/vineland/,,Department Veterans Affairs,Q592576
1302,dickssportinggoods,"DICK'S Sporting Goods Store in Vineland, NJ | 1302",,Vineland,NJ,,US,+1 856-776-7630,https://stores.dickssportinggoods.com/nj/vineland/1302/,Mo-Sa 09:00-21:00; Su 10:00-19:00,Dick's Sporting Goods,Q5272601
4516,dominos_pizza_us,Domino's Pizza,,Vineland,NJ,,US,+1 856-794-3030,https://pizza.dominos.com/new-jersey/vineland/510-east-landis,Mo-Th 10:00-24:00; Fr-Sa 10:00-01:00; Su 10:00-24:00,Domino's,Q839466
350062,dunkin_us,Dunkin',,Vineland,NJ,,US,+1 856-696-0750,https://locations.dunkindonuts.com/en/nj/vineland/2881-s-delsea-dr/350062,24/7,Dunkin',Q847743
301620,dunkin_us,Dunkin',,Vineland,NJ,,US,+1 856-696-9766,https://locations.dunkindonuts.com/en/nj/vineland/360-n-delsea-dr/301620,Mo-Su 05:00-21:00,Dunkin',Q847743
351234,dunkin_us,Dunkin',,Vineland,NJ,,US,+1 856-696-1491,https://locations.dunkindonuts.com/en/nj/vineland/975-n-main-rd/351234,24/7,Dunkin',Q847743
E11734,enterprise,Vineland,,Vineland,NJ,,US,+1 856-794-1414,,,Enterprise Rent-A-Car,Q17085454
200312557,exxonmobil,Exxon,,VINELAND,NJ,,US,,https://www.exxon.com/en/find-station/exxon-vineland-nj-exxon-200312557,Mo-Fr 07:00-21:00; Sa 08:00-18:00; Su 09:00-18:00,Exxon,Q109675651
32323,family_dollar_us,FAMILY DOLLAR #12323,,Vineland,NJ,,US,+1 856-285-2885,https://www.familydollar.com/locations/nj/vineland/32323/,Mo-Su 08:00-21:00,Family Dollar,Q5433101
20948,family_dollar_us,FAMILY DOLLAR #948,,Vineland,NJ,,US,+1 856-200-3779,https://www.familydollar.com/locations/nj/vineland/20948/,Mo-Su 09:00-21:00,Family Dollar,Q5433101
https://locations.fivebelow.com/nj/vineland/301-s-main-rd,five_below,Five Below Maintree Shopping Center,,Vineland,NJ,,US,,https://locations.fivebelow.com/nj/vineland/301-s-main-rd,Mo-Sa 10:00-20:00; Su 11:00-18:00,Five Below,Q5455836
https://branches.fleetpride.com/nj/vineland/truckparts-vin.html,fleet_pride_us,FleetPride,,Vineland,NJ,,US,+1 856-691-4034,https://branches.fleetpride.com/nj/vineland/truckparts-vin.html,Mo-Fr 07:00-17:00; Sa 08:00-12:00,FleetPride,Q121436710
https://stores.footlocker.com/nj/vineland/3849-south-delsea-drive-8116.html,footlocker,"Foot Locker in Vineland: Vineland, New Jersey | Approved | Own It",,Vineland,NJ,,US,+1 856-825-4072,https://stores.footlocker.com/nj/vineland/3849-south-delsea-drive-8116.html,Mo-Th 11:00-20:00; Fr-Sa 10:00-21:00; Su 11:00-18:00,Foot Locker,Q63335
https://stores.footlocker.com/nj/vineland/3849-delsea-dr-ste-f16-25553.html,footlocker,"Foot Locker in Vineland: Vineland, New Jersey | Approved | Own It",,Vineland,NJ,,US,,https://stores.footlocker.com/nj/vineland/3849-delsea-dr-ste-f16-25553.html,,Foot Locker,Q63335
Motorcraft2842USAEnglish,ford,Lilliston Ford Inc,,New Jersey,NJ,,US,+1 856-691-2020,,,Ford,Q44294
https://www.ford.com/dealerships/dealer-details/nj/vineland/lilliston-ford-inc/,ford_dealers_us,Lilliston Ford Inc,,Vineland,NJ,,US,+1 856-405-3831,https://www.ford.com/dealerships/dealer-details/nj/vineland/lilliston-ford-inc/,Mo-Fr 09:00-19:00; Sa 09:00-17:00,Ford Motor Company,Q44294
100052,fresenius_kidney_care_us,Fresenius Kidney Care Vineland,,Vineland,NJ,,US,+1 800-881-5101,https://www.freseniuskidneycare.com/dialysis-centers/new-jersey/100052,Mo-Sa 07:00-17:00,,
1338,gamestop_us,Cumberland Mall ,,Vineland,NJ,,US,+1 856-327-8035,https://www.gamestop.com/search/?store=1338,Mo-Th 11:00-20:00; Fr-Sa 10:00-21:00; Su 11:00-18:00,GameStop,Q202210
https://stores.gnc.com/#24059699,gnc,GNC Maintree Shopping Center,,,NJ,,US,+1 856-690-5634,https://stores.gnc.com/all-stores-new-jersey/vineland/301-south-main-road,Mo-Sa 10:00-19:00; Su 11:00-18:00,GNC,Q4808595
https://www.goodyearautoservice.com/en_US/location/Vineland-NJ-08360-US-000900938,goodyear_us,"Goodyear Auto Service - Vineland, Vineland, NJ | Oil, Brakes & Repairs | #000900938",,Vineland,NJ,,US,+1 856-692-1100,https://www.goodyearautoservice.com/en_US/location/Vineland-NJ-08360-US-000900938,Mo-Sa 07:00-18:00,Goodyear,Q620875
https://salons.greatclips.com/us/nj/vineland/1255-w-landis-ave,greatclips,Great Clips,,Vineland,NJ,,US,+1 856-839-0796,https://salons.greatclips.com/us/nj/vineland/1255-w-landis-ave,Mo-Fr 09:00-19:00; Sa-Su 09:00-17:00,Great Clips,Q5598967
503,gulf_pr_us,DELSEA GULF,,Vineland,NJ,,US,+1 856-691-5588,https://www.gulfoil.com/delsea-gulf,,Gulf Oil,Q5617505
4862,gulf_pr_us,GARDEN TRUCK STOP,,Vineland,NJ,,US,+1 856-302-4442,https://www.gulfoil.com/garden-truck-stop,,Gulf Oil,Q5617505
https://www.harborfreight.com/storelocator/20-west-park-ave-vineland-08360?number=201,harborfreight,"Harbor Freight Tools Vineland, NJ",,Vineland,NJ,,US,+1 856-691-4200,https://www.harborfreight.com/storelocator/20-west-park-ave-vineland-08360?number=201,Mo-Sa 08:00-20:00; Su 09:00-18:00,Harbor Freight Tools,Q5654601
28244,h_r_block,H&R Block,,Vineland,NJ,,US,+1 856-794-8998,https://www.hrblock.com/local-tax-offices/new-jersey/vineland/maintree-shopping-center/28244/,,H&R Block,Q5627799
28239,h_r_block,H&R Block,,Vineland,NJ,,US,+1 856-825-0410,https://www.hrblock.com/local-tax-offices/new-jersey/vineland/cumberland-mall-store-f30/28239/,,H&R Block,Q5627799
28512,h_r_block,H&R Block,,Vineland,NJ,,US,+1 856-696-1284,https://www.hrblock.com/local-tax-offices/new-jersey/vineland/712-e-landis-ave/28512/,,H&R Block,Q5627799
nj_vineland_breakfast-2216-w.-landis-ave-2138,ihop,IHOP Breakfast Restaurants Near You at 2216 W. Landis Ave,,Vineland,NJ,,US,+1 856-696-3800,https://restaurants.ihop.com/en-us/nj/vineland/breakfast-2216-w.-landis-ave-2138,,IHOP,Q1185675
https://office.jacksonhewitt.com/#27577071,jackson_hewitt,Jackson Hewitt,,Vineland,NJ,,US,+1 856-350-6203,https://office.jacksonhewitt.com/tax-preparation-services-locations/en/nj/vineland/3849-south-delsea-drive/10959,Mo 10:00-20:00; Tu-Th 11:00-19:00; Fr-Sa 10:00-20:00; Su 10:00-18:00,Jackson Hewitt,Q6117132
https://office.jacksonhewitt.com/#1025082121,jackson_hewitt,Jackson Hewitt,,Vineland,NJ,,US,+1 800-234-1040,https://office.jacksonhewitt.com/tax-preparation-services-locations/en/nj/vineland/319-w-landis-avenue/14599,Mo-Sa 11:00-19:00; Su 12:00-16:00,Jackson Hewitt,Q6117132
https://office.jacksonhewitt.com/#27577022,jackson_hewitt,Jackson Hewitt,,Vineland,NJ,,US,+1 856-350-6092,https://office.jacksonhewitt.com/tax-preparation-services-locations/en/nj/vineland/1070-w-landis-ave/53339,Mo 10:00-20:00; Tu-Th 11:00-19:00; Fr-Sa 10:00-20:00; Su 10:00-16:00,Jackson Hewitt,Q6117132
https://locations.kfc.com/#11249281,kfc,Chicken Nuggets Near Vineland,,Vineland,NJ,,US,,https://locations.kfc.com/nj/vineland/94-n-delsea-dr/chickennugget,Mo-Su 10:30-22:00,KFC,Q524757
1094,lidl_us,Vineland NJ - West Landis Ave,,Vineland,NJ,,US,+1 844-747-5435,,,Lidl,Q151954
17367,mattress_firm_us,Mattress Firm Cumberland Mall,,Vineland,NJ,,US,+1 856-825-6004,https://www.mattressfirm.com/en-us/stores/nj/vineland/162037/,,Mattress Firm,Q6791878
41155943,moneygram,LA INTERNACIONAL - VINELAND,,VINELAND,NJ,,US,+1 856-690-5660,,Mo-Fr 10:00-20:00; Sa-Su 10:00-18:30,MoneyGram,Q1944412
NNA2790,nissan_europe,TEAM NISSAN,,VINELAND,NJ,,US,+1 856-696-2277,https://www.teamnissan.com,Mo-Fr 09:00-21:00; Sa 09:00-17:00,Nissan,Q20165
113044,pandaexpress,W Landis Ave & Moyer St,,Vineland,NJ,,US,+1 856-528-9219,https://www.pandaexpress.com/locations/nj/vineland/1169-w-landis-ave,Mo-Th 10:30-21:00; Fr 10:30-21:30; Sa-Su 10:30-21:00,Panda Express,Q1358690
https://locations.papajohns.com/#10693237,papa_johns,Papa John's,,Vineland,NJ,,US,+1 856-205-1222,https://locations.papajohns.com/united-states/nj/08360/vineland/106-west-landis-ave,Mo-Su 11:00-03:00,Papa John's Pizza,Q2759586
846321,penske,Penn Jersey Auto,,VINELAND,NJ,,US,+1 856-794-8188,https://www.pensketruckrental.com/locations/us/new_jersey/vineland/846321/,,Penske,Q81234570
0000887394,phillips_66_conoco_76,VINELAND FUEL KING CONOCO,,VINELAND,NJ,,US,+1 856-696-1444,,,Conoco,Q109341187
nj_vineland_301-s-main-rd,pizza_hut_us,301 S Main Rd,,Vineland,NJ,,US,+1 856-691-0399,https://locations.pizzahut.com/nj/vineland/301-s-main-rd,,Pizza Hut,Q191615
restaurant_84317,popeyes_us_fr,Popeyes,"275 N Delsea Dr Vineland, New Jersey 08360 - USA",Vineland,NJ,,US,+1 856-692-0301,https://www.popeyes.com/store-locator/store/restaurant_84317,Mo 10:00-22:00; Tu-Su 10:00-21:00,Popeyes,Q1330910
home-depot-0946-13164,ppgpaints,HOME DEPOT 0946,,"Vineland, ",NJ,,US,+1 856-293-1155,https://www.ppgpaints.com/store-locator/us/new-jersey/vineland-paint-stores/home-depot-0946-13164,,PPG Paints,Q83891559
1860,rentacenter,Rent-A-Center,,Vineland,NJ,,US,+1 856-691-9274,https://locations.rentacenter.com/new-jersey/vineland/2321-s-delsea-dr/,Mo-Sa 10:00-18:00,Rent-A-Center,Q7313497
343,rentacenter,Rent-A-Center,,Vineland,NJ,,US,+1 856-691-3366,https://locations.rentacenter.com/new-jersey/vineland/139-n-delsea-dr/,Mo-Sa 10:00-18:00,Rent-A-Center,Q7313497
81208,ritasitalianice,Rita’s of Millville NJ,,Vineland,NJ,,US,+1 856-293-8775,https://www.ritasice.com/location/ritas-of-millville-nj/,,Rita's Italian Ice,Q7336456
81075,ritasitalianice,Rita’s of Vineland NJ,,Vineland,NJ,,US,+1 856-212-3020,https://www.ritasice.com/location/ritas-of-vineland-nj/,,Rita's Italian Ice,Q7336456
10488,rite_aid_us,Rite Aid #10488 Vineland,,Vineland,NJ,,US,+1 856-563-1599,https://locations2.riteaid.com.yext-cdn.com/nj/vineland/970-north-main-road.html,Mo-Sa 08:00-22:00; Su 08:00-20:00,Rite Aid,Q3433273
10487,rite_aid_us,Rite Aid #10487 Vineland,,Vineland,NJ,,US,+1 856-691-5151,https://locations2.riteaid.com.yext-cdn.com/nj/vineland/7-west-landis-avenue.html,Mo-Su 06:00-24:00,Rite Aid,Q3433273
3849-s-delsea-drive-f-20,rue21,Cumberland Mall,,Vineland,NJ,,US,,https://stores.rue21.com/nj/vineland/3849-s-delsea-drive-f-20.html,Mo-Th 11:00-20:00; Fr-Sa 10:00-21:00; Su 11:00-18:00,rue21,Q7377762
550,shoprite,ShopRite of Landis,,Vineland,NJ,,US,+1 856-691-0106,https://www.shoprite.com/sm/planning/rsid/550,Mo-Su 07:00-23:00,ShopRite,Q7501097
512,shoprite,ShopRite of Delsea,,Vineland,NJ,,US,+1 856-691-9395,https://www.shoprite.com/sm/planning/rsid/512,Mo-Sa 07:00-22:00,ShopRite,Q7501097
https://restaurants.subway.com/#14899175,subway,Subway Wal-Mart #3339,,Vineland Burlington,NJ,,US,+1 856-692-1930,https://restaurants.subway.com/united-states/nj/vineland/1070-w-landis-ave,Mo-Su 08:00-21:00,Subway,Q244457
0415251800,sunoco_us,Sunoco,,VINELAND,NJ,,US,,,,Sunoco,Q1423218
https://locations.tacobell.com/#6143823,taco_bell,Taco Bell,,Vineland,NJ,,US,+1 856-825-8899,https://locations.tacobell.com/nj/vineland/3920-s-delsea-dr.html,Mo-Th 08:00-01:00; Fr-Sa 08:00-02:00; Su 08:00-01:00,Taco Bell,Q752941
https://locations.tacobell.com/#6146602,taco_bell,Taco Bell,,Vineland,NJ,,US,+1 856-839-0542,https://locations.tacobell.com/nj/vineland/1294-west-landis-ave.html,Mo-Su 08:00-01:30,Taco Bell,Q752941
10865,tjx,Vineland,3489 S. Delsea Drive,Vineland,NJ,,US,+1 856-765-1690,,Mo-Sa 09:30-21:30; Su 10:00-20:00,Marshalls,Q15903261
281098,tjx,Vineland,3849 South Delsea Drive,Vineland,NJ,,US,+1 856-293-6402,,Mo-Sa 09:30-21:30; Su 10:00-20:00,HomeGoods,Q5887941
1433,tmobile_us,Cumberland Mall,,Vineland,NJ,,US,+1 856-825-8619,https://www.t-mobile.com/store-locator/nj/vineland/cumberland-mall,,T-Mobile,Q3511885
1314,upsstore,Vineland,237 S Delsea Dr,Vineland,NJ,,US,+1 856-692-4900,https://locations.theupsstore.com/nj/vineland/237-s-delsea-dr,,UPS Store,Q7771029
1382311,usps,SOUTH VINELAND,,VINELAND,NJ,,US,+1 856-692-3731,,Mo-Fr 08:30-17:00; Sa 09:00-13:00,United States Postal Service,Q668687
1386013,usps,VINELAND CARRIER ANNEX,,VINELAND,NJ,,US,+1 856-507-0032,,,United States Postal Service,Q668687
1386014,usps,VINELAND,,VINELAND,NJ,,US,+1 856-691-1206,,Mo-Fr 09:00-18:00; Sa 09:00-14:00,United States Postal Service,Q668687
0836000075,usps_collection_boxes,USPS COLLECTION BOX - EXPRESS,3329 N MILL RD,VINELAND,NJ,,US,,,,United States Postal Service,Q668687
0836000042,usps_collection_boxes,USPS COLLECTION BOX - BLUE BOX,3329 N MILL RD,VINELAND,NJ,,US,,,,United States Postal Service,Q668687
0836000095,usps_collection_boxes,USPS COLLECTION BOX - BLUE BOX,2141 DEMARCO DR,VINELAND,NJ,,US,,,,United States Postal Service,Q668687
0836000034,usps_collection_boxes,USPS COLLECTION BOX - BLUE BOX,561 N EAST BLVD,VINELAND,NJ,,US,,,,United States Postal Service,Q668687
0836000072,usps_collection_boxes,USPS COLLECTION BOX - BLUE BOX,868 N MAIN RD,VINELAND,NJ,,US,,,,United States Postal Service,Q668687
0836000048,usps_collection_boxes,USPS COLLECTION BOX - BLUE BOX,774 N MAIN RD,VINELAND,NJ,,US,,,,United States Postal Service,Q668687
0836000060,usps_collection_boxes,USPS COLLECTION BOX - BLUE BOX,524 N WEST BLVD,VINELAND,NJ,,US,,,,United States Postal Service,Q668687
0836000031,usps_collection_boxes,USPS COLLECTION BOX - BLUE BOX,14 W PARK AVE,VINELAND,NJ,,US,,,,United States Postal Service,Q668687
0836000093,usps_collection_boxes,USPS COLLECTION BOX - BLUE BOX,722 E LANDIS AVE,VINELAND,NJ,,US,,,,United States Postal Service,Q668687
0836000115,usps_collection_boxes,USPS COLLECTION BOX - BLUE BOX,722 E LANDIS AVE,VINELAND,NJ,,US,,,,United States Postal Service,Q668687
0836000057,usps_collection_boxes,USPS COLLECTION BOX - BLUE BOX,722 E LANDIS AVE,VINELAND,NJ,,US,,,,United States Postal Service,Q668687
0836000056,usps_collection_boxes,USPS COLLECTION BOX - BLUE BOX,722 E LANDIS AVE,VINELAND,NJ,,US,,,,United States Postal Service,Q668687
0836000008,usps_collection_boxes,USPS COLLECTION BOX - BLUE BOX,552 E LANDIS AVE,VINELAND,NJ,,US,,,,United States Postal Service,Q668687
0836000017,usps_collection_boxes,USPS COLLECTION BOX - BLUE BOX,400 W LANDIS AVE,VINELAND,NJ,,US,,,,United States Postal Service,Q668687
0836000053,usps_collection_boxes,USPS COLLECTION BOX - PO LOBBY,722 E LANDIS AVE,VINELAND,NJ,,US,,,,United States Postal Service,Q668687
0836000094,usps_collection_boxes,USPS COLLECTION BOX - PO LOBBY,722 E LANDIS AVE,VINELAND,NJ,,US,,,,United States Postal Service,Q668687
0836000123,usps_collection_boxes,USPS COLLECTION BOX - PO LOBBY,722 E LANDIS AVE,VINELAND,NJ,,US,,,,United States Postal Service,Q668687
0836000108,usps_collection_boxes,USPS COLLECTION BOX - BLUE BOX,226 W LANDIS AVE,VINELAND,NJ,,US,,,,United States Postal Service,Q668687
0836000011,usps_collection_boxes,USPS COLLECTION BOX - BLUE BOX,84 W LANDIS AVE,VINELAND,NJ,,US,,,,United States Postal Service,Q668687
0836000013,usps_collection_boxes,USPS COLLECTION BOX - BLUE BOX,26 W LANDIS AVE,VINELAND,NJ,,US,,,,United States Postal Service,Q668687
0836000015,usps_collection_boxes,USPS COLLECTION BOX - BLUE BOX,632 E ELMER RD,VINELAND,NJ,,US,,,,United States Postal Service,Q668687
0836000024,usps_collection_boxes,USPS COLLECTION BOX - BLUE BOX,1083 E LANDIS AVE,VINELAND,NJ,,US,,,,United States Postal Service,Q668687
0836000038,usps_collection_boxes,USPS COLLECTION BOX - BLUE BOX,1181 KARIN ST,VINELAND,NJ,,US,,,,United States Postal Service,Q668687
0836000033,usps_collection_boxes,USPS COLLECTION BOX - BLUE BOX,47 HOWARD ST,VINELAND,NJ,,US,,,,United States Postal Service,Q668687
0836000045,usps_collection_boxes,USPS COLLECTION BOX - BLUE BOX,1138 E CHESTNUT AVE,VINELAND,NJ,,US,,,,United States Postal Service,Q668687
0836000089,usps_collection_boxes,USPS COLLECTION BOX - BLUE BOX,301 S MAIN RD,VINELAND,NJ,,US,,,,United States Postal Service,Q668687
0836000088,usps_collection_boxes,USPS COLLECTION BOX - BLUE BOX,1318 S MAIN RD,VINELAND,NJ,,US,,,,United States Postal Service,Q668687
0836000070,usps_collection_boxes,USPS COLLECTION BOX - BLUE BOX,1317 S MAIN RD,VINELAND,NJ,,US,,,,United States Postal Service,Q668687
0836000107,usps_collection_boxes,USPS COLLECTION BOX - BLUE BOX,2809 S EAST BLVD,VINELAND,NJ,,US,,,,United States Postal Service,Q668687
0836000122,usps_collection_boxes,USPS COLLECTION BOX - PO LOBBY,2809 S EAST BLVD,VINELAND,NJ,,US,,,,United States Postal Service,Q668687
0836000085,usps_collection_boxes,USPS COLLECTION BOX - PO LOBBY,2809 S EAST BLVD,VINELAND,NJ,,US,,,,United States Postal Service,Q668687
0836000061,usps_collection_boxes,USPS COLLECTION BOX - BLUE BOX,2848 S DELSEA DR,VINELAND,NJ,,US,,,,United States Postal Service,Q668687
0836000032,usps_collection_boxes,USPS COLLECTION BOX - BLUE BOX,1505 W SHERMAN AVE,VINELAND,NJ,,US,,,,United States Postal Service,Q668687
0836000041,usps_collection_boxes,USPS COLLECTION BOX - BLUE BOX,3849 S DELSEA DR,VINELAND,NJ,,US,,,,United States Postal Service,Q668687
R00000251866,verizon_us,Vineland,,Vineland,NJ,,US,+1 856-293-8701,https://www.verizon.com/stores/details/new-jersey/vineland/vineland-1181226/,Mo-Fr 10:00-19:00; Sa 10:00-18:00; Su 11:00-18:00,Verizon,Q919641
,visa,,,ATLANTIC CITY,NJ,,US,,,,,
,visa,,,VINELAND,NJ,,US,,,,,
,visa,,,VINELAND,NJ,,US,,,,,
,visa,,,VINELAND,NJ,,US,,,,,
,visa,,,VINELAND,NJ,,US,,,,,
,visa,,,VINELAND,NJ,,US,,,,,
,visa,,,VINELAND,NJ,,US,,,,,
,visa,,,VINELAND,NJ,,US,,,,,
,visa,,,VINELAND,NJ,,US,,,,,
,visa,,,VINELAND,NJ,,US,,,,,
,visa,,,VINELAND,NJ,,US,,,,,
,visa,,,VINELAND,NJ,,US,,,,,
,visa,,,VINELAND,NJ,,US,,,,,
,visa,,,VINELAND,NJ,,US,,,,,
,visa,,,VINELAND,NJ,,US,,,,,
,visa,,,VINELAND,NJ,,US,,,,,
,visa,,,VINELAND,NJ,,US,,,,,
,visa,,,VINELAND,NJ,,US,,,,,
,visa,,,VINELAND,NJ,,US,,,,,
,visa,,,VINELAND,NJ,,US,,,,,
,visa,,,VINELAND,NJ,,US,,,,,
,visa,,,VINELAND,NJ,,US,,,,,
,visa,,,VINELAND,NJ,,US,,,,,
,visa,,,VINELAND,NJ,,US,,,,,
,visa,,,VINELAND,NJ,,US,,,,,
,visa,,,VINELAND,NJ,,US,,,,,
,visa,,,VINELAND,NJ,,US,,,,,
,visa,,,VINELAND,NJ,,US,,,,,
,visa,,,VINELAND,NJ,,US,,,,,
,visa,,,VINELAND,NJ,,US,,,,,
,visa,,,VINELAND,NJ,,US,,,,,
,visa,,,VINELAND,NJ,,US,,,,,
https://www.walgreens.com/locator/walgreens-1015+n+main+rd-vineland-nj-08360/id=10910,walgreens,Walgreens,,Vineland,NJ,,US,+1 856-691-1465,https://www.walgreens.com/locator/walgreens-1015+n+main+rd-vineland-nj-08360/id=10910,Mo-Su 08:00-22:00,Walgreens,Q1591889
https://locations.wendys.com/#9256228,wendys,"Wendy's 190 S. Main Road in Vineland, NJ",,Vineland,NJ,,US,+1 856-839-4300,https://locations.wendys.com/united-states/nj/vineland/190-s-main-road,"Mo-Su 06:30-10:30,08:00-22:00",Wendy's,Q550258
https://locations.wendys.com/#9256227,wendys,"Wendy's Vineland in Vineland, NJ",,Vineland,NJ,,US,+1 856-696-3233,https://locations.wendys.com/united-states/nj/vineland/122-s-delsea,"Mo-Su 06:30-10:30,08:00-22:00",Wendy's,Q550258
