Ref,Spider,Name,Address,City,State,Zipcode,Country,Phone,Website,Hours,Brand,WikiData
https://locators.bankofamerica.com/ks/prairievillage/financial-centers-prairie-village-7516.html,bankofamerica,Bank of America Financial Center & Drive-Thru ATM | 76th & State Line,,Prairie Village,KS,,US,+1 816-979-8482,https://locators.bankofamerica.com/ks/prairievillage/financial-centers-prairie-village-7516.html,Mo-Fr 09:00-17:00; Sa 09:00-14:00,Bank of America,Q487907
204455,bluerhino,Cafe Provence,,Prairie Village,KS,,US,+1 913-384-5998,,,Blue Rhino,Q65681213
77159,bluerhino,Westlake Ace Hardware #044 - Ace #4793,,Prairie Village,KS,,US,+1 913-381-7750,,,Blue Rhino,Q65681213
25386,bluerhino,HyVee #1532,,Prairie Village,KS,,US,+1 913-383-8303,,,Blue Rhino,Q65681213
200738,bluerhino,Prairie Village HyVee #1532 C-Store,,Prairie Village,KS,,US,+1 913-642-4423,,,Blue Rhino,Q65681213
ks_prairie-village_6920-mission-rd,chipotle, ,,Prairie Village,KS,,US,+1 913-262-1305,https://locations.chipotle.com/ks/prairie-village/6920-mission-rd,,Chipotle,Q465751
36900,citi,ATM BOKF - KC,,Prairie Village,KS,,US,,,,Citibank,Q857063
36131,citi,ATM BANK OF PRAIRIE VILLAGE,,Prairie Village,KS,,US,,,,Citibank,Q857063
63632,citi,ATM LANDMARK NATIONAL BANK,,Prairie Village,KS,,US,,,,Citibank,Q857063
53003,citi,ATM CVS,,Prairie Village,KS,,US,,,,Citibank,Q857063
5261,cvs_us,CVS Pharmacy,,Prairie Village,KS,,US,+1 913-381-3300,https://www.cvs.com/store-locator/prairie-village-ks-pharmacies/8200-mission-rd-prairie-village-ks-66208/storeid=5261,Mo-Su 07:00-22:00,CVS Pharmacy,Q2078880
https://www.edwardjones.com/us-en/financial-advisor/mike-steffen,edwardjones,Mike Steffen,,Prairie Village,KS,,US,+1 913-362-0263,https://www.edwardjones.com/us-en/financial-advisor/mike-steffen,Mo-We 08:00-16:00; Th-Fr 08:00-17:00,Edward Jones,Q5343830
6970-mission-rd,einsteinbros,71st & Mission Einstein Bros. Bagels,,Prairie Village,KS,,US,+1 913-906-8728,https://locations.einsteinbros.com/us/ks/prairie-village/6970-mission-rd,Mo-Su 06:00-14:00,Einstein Bros. Bagels,Q5349788
0612,european_wax_center_us,European Wax Center,,Prairie Village,KS,,US,+1 913-322-0000,https://locations.waxcenter.com/ks/prairievillage/prairie-village-0612.html,Mo-Fr 09:00-20:00; Sa-Su 09:00-18:00,European Wax Center,Q5413426
https://salons.greatclips.com/us/ks/prairie-village/7644-state-line-rd,greatclips,Great Clips,,Prairie Village,KS,,US,+1 913-383-8900,https://salons.greatclips.com/us/ks/prairie-village/7644-state-line-rd,Mo-Fr 09:00-19:00; Sa 09:00-17:00; Su 10:00-17:00,Great Clips,Q5598967
https://healthy.kaiserpermanente.org/northern-california/facilities/lifewise-renovations-community-supports-cs-174104,kaiser_permanente_us,Lifewise Renovations - Community Supports (CS),,Praire Village,KS,,US,+1 913-653-0766,https://healthy.kaiserpermanente.org/northern-california/facilities/lifewise-renovations-community-supports-cs-174104,,Kaiser Permanente,Q1721601
https://healthy.kaiserpermanente.org/southern-california/facilities/lifewise-renovations-community-supports-cs-172840,kaiser_permanente_us,Lifewise Renovations - Community Supports (CS),,Prairie Village,KS,,US,+1 913-653-0766,https://healthy.kaiserpermanente.org/southern-california/facilities/lifewise-renovations-community-supports-cs-172840,,Kaiser Permanente,Q1721601
226676,modern_market_us,Corinth Square,,Prairie Village,KS,,US,+1 913-430-1800,,Mo-Th 10:00-21:00; Sa-Su 10:00-21:00,Modern Market,Q123370165
112158,pandaexpress,79th & Stateline,,Prairie Village,KS,,US,+1 913-648-8799,https://www.pandaexpress.com/locations/ks/prairie-village/7920-stateline-road,Mo-Fr 10:00-21:30; Sa-Su 10:30-21:30,Panda Express,Q1358690
0000893841,phillips_66_conoco_76,MINIT MART EG 754,,PRAIRIE VILLAGE,KS,,US,+1 913-648-0066,,,Phillips 66,Q1656230
105,sola_salon_studios,Sola Stateline,,Prairie Village,KS,,US,+1 913-933-3416,https://www.solasalonstudios.com/locations/sola-stateline,,Sola Salon Studios,Q64337426
https://restaurants.subway.com/#14910124,subway,Subway Corinth Square North S/C,,Prairie Village Johnson,KS,,US,+1 913-341-5522,https://restaurants.subway.com/united-states/ks/prairie-village/8276-mission-rd,Mo-Su 11:00-19:00,Subway,Q244457
1159,upsstore,Corinth Square,3965 W 83rd St,Prairie Village,KS,,US,+1 913-381-9430,https://locations.theupsstore.com/ks/prairie-village/3965-w-83rd-st,,UPS Store,Q7771029
1467639,usps,PRAIRIE VILLAGE,,PRAIRIE VILLAGE,KS,,US,+1 913-831-5374,,"Mo-Fr 08:30-13:00,14:00-17:00; Sa 08:30-13:00",United States Postal Service,Q668687
6620800026,usps_collection_boxes,USPS COLLECTION BOX - BLUE BOX,4121 W 83RD ST,SHAWNEE MISSION,KS,,US,,,,United States Postal Service,Q668687
6620800027,usps_collection_boxes,USPS COLLECTION BOX - BLUE BOX,4121 W 83RD ST,SHAWNEE MISSION,KS,,US,,,,United States Postal Service,Q668687
6620800039,usps_collection_boxes,USPS COLLECTION BOX - BLUE BOX,4050 W 83RD ST,SHAWNEE MISSION,KS,,US,,,,United States Postal Service,Q668687
6620800038,usps_collection_boxes,USPS COLLECTION BOX - BLUE BOX,4050 W 83RD ST,SHAWNEE MISSION,KS,,US,,,,United States Postal Service,Q668687
6620800041,usps_collection_boxes,USPS COLLECTION BOX - BLUE BOX,3904 W 80TH ST,SHAWNEE MISSION,KS,,US,,,,United States Postal Service,Q668687
6620800006,usps_collection_boxes,USPS COLLECTION BOX - BLUE BOX,7600 STATE LINE RD,SHAWNEE MISSION,KS,,US,,,,United States Postal Service,Q668687
6620800007,usps_collection_boxes,USPS COLLECTION BOX - BLUE BOX,7600 STATE LINE RD,SHAWNEE MISSION,KS,,US,,,,United States Postal Service,Q668687
6620800016,usps_collection_boxes,USPS COLLECTION BOX - BLUE BOX,7301 MISSION RD,SHAWNEE MISSION,KS,,US,,,,United States Postal Service,Q668687
6620800054,usps_collection_boxes,USPS COLLECTION BOX - BLUE BOX,6949 MISSION RD,SHAWNEE MISSION,KS,,US,,,,United States Postal Service,Q668687
6620800034,usps_collection_boxes,USPS COLLECTION BOX - BLUE BOX,6917 TOMAHAWK RD,SHAWNEE MISSION,KS,,US,,,,United States Postal Service,Q668687
6620800037,usps_collection_boxes,USPS COLLECTION BOX - PO LOBBY,6917 TOMAHAWK RD,SHAWNEE MISSION,KS,,US,,,,United States Postal Service,Q668687
6620800051,usps_collection_boxes,USPS COLLECTION BOX - APC,6917 TOMAHAWK RD,SHAWNEE MISSION,KS,,US,,,,United States Postal Service,Q668687
6620800055,usps_collection_boxes,USPS COLLECTION BOX - PO LOBBY,6917 TOMAHAWK RD,SHAWNEE MISSION,KS,,US,,,,United States Postal Service,Q668687
,visa,,,PRAIRIE VILLAGE,KS,,US,,,,,
,visa,,,PRAIRIE VILLA,KS,,US,,,,,
,visa,,,PRAIRIE VILLAGE,KS,,US,,,,,
,visa,,,PRAIRIE VILLAGE,KS,,US,,,,,
,visa,,,PRAIRIE VILLAGE,KS,,US,,,,,
,visa,,,PRAIRIE VILLAGE,KS,,US,,,,,
,visa,,,PRAIRIE VILLA,KS,,US,,,,,
,visa,,,PRAIRIE VILLAGE,KS,,US,,,,,
,visa,,,PRAIRIE VILLAGE,KS,,US,,,,,
,visa,,,PRAIRIE VILLAGE,KS,,US,,,,,
,visa,,,PRAIRIE VIL,KS,,US,,,,,
,visa,,,PRAIRIE VILLAGE,KS,,US,,,,,
,visa,,,PRAIRIE VILLA,KS,,US,,,,,
,visa,,,PRAIRIE VILLAGE,KS,,US,,,,,
,visa,,,PRAIRIE VILLAGE,KS,,US,,,,,
