Ref,Spider,Name,Address,City,State,Zipcode,Country,Phone,Website,Hours,Brand,WikiData
72020173,moneygram,PRIME COMMERCIAL BANK LTD - SANKHUWASABH,,SANKHUWASABHA,,,NP,+977 21-413010,,Mo-Su 07:00-19:00,MoneyGram,Q1944412
72136546,moneygram,SULAB MONEY TRANSFER - KHADBARI,,KHADBARI,,,NP,+977 29-575205,,Mo-Su 09:00-19:00,MoneyGram,Q1944412
72249365,moneygram,CENTURY COMMERCIAL BANK LIMITED - #SRCCB,,SANKHUWASABHA,,,NP,296227483,,Mo-Su 07:00-19:00,MoneyGram,Q1944412
72371181,moneygram,GLOBAL IME BANK LIMITED - SANKHUWASABHA,,SANKHUWASABHA,,,NP,+977 974-2127186,,Mo-Su 07:00-19:00,MoneyGram,Q1944412
72402542,moneygram,ASHISH AND BROTHERS PVT.LTD - SANKHUWASA,,SANKHUWASAVA,,,NP,+977 29-570128,,Mo-Su 07:00-19:00,MoneyGram,Q1944412
72472815,moneygram,NIRDHAN UTTHAN LAGHUBITTA BITTIYA SANSTH,,SANKHUWASABHA,,,NP,+977 29-570370,,Mo-Su 07:00-19:00,MoneyGram,Q1944412
72473555,moneygram,NIRDHAN UTTHAN LAGHUBITTA BITTIYA SANSTH,,SANKHUWASAVA,,,NP,+977 29-560954,,Mo-Su 07:00-19:00,MoneyGram,Q1944412
72491582,moneygram,AGRICULTURAL DEVELOPMENT BANK LTD. - SAN,,SANKHUWASAWA,,,NP,+977 29-560166,,Mo-Su 07:00-19:00,MoneyGram,Q1944412
72809310,moneygram,BIBEK AND BADAL BARSHA KIRANA PASAL - SA,,SANKHUWASABHA,,,NP,+977 984-2095627,,Mo-Su 09:00-19:00,MoneyGram,Q1944412
72803837,moneygram,PRADHAN STORES AND SUPPLIERS - SANKHUWAS,,SANKHUWASABHA,,,NP,+977 29-560770,,Mo-Su 09:00-19:00,MoneyGram,Q1944412
73343626,moneygram,PRATIK PRATIMA MONEY TRANSFER - DHARMADE,,SANKHUWASABHA,,,NP,+977 981-2377297,,Mo-Su 07:00-19:00,MoneyGram,Q1944412
74439801,moneygram,D.S. BYAPAR KENDRA - SANKHUWASABHA,,SANKHUWASABHA,,,NP,+977 29-414040,,Mo-Su 07:00-19:00,MoneyGram,Q1944412
74462263,moneygram,SATKAR COLOR LAB - SANKHUWASABHA,,SANKHUWASABHA,,,NP,+977 29-560403,,Mo-Su 07:00-19:00,MoneyGram,Q1944412
74564116,moneygram,NEPAL INVESTMENT MEGA BANK LIMITED - KHA,,SANKHUWASABHA,,,NP,+977 29-560972,,Mo-Su 07:00-19:00,MoneyGram,Q1944412
74669309,moneygram,ANGEL HOTEL - SANKHUWASABHA - SANKHUWASA,,SANKHUWASABHA,,,NP,+977 980-4030013,,Mo-Su 07:00-19:00,MoneyGram,Q1944412
70546989,moneygram,CENTURY BANK,,SANKHUWASABHA,,,NP,977561086,,Mo-Fr 07:00-19:00; Su 07:00-19:00,MoneyGram,Q1944412
70658534,moneygram,GLOBAL IME BANK LIMITED,,SANKHUWASABHA,,,NP,977570250,,Mo-Su 07:00-19:00,MoneyGram,Q1944412
70564851,moneygram,SIDDHARTHA BANK LTD,,SANKHUWASABHA,,,NP,977561172,,Mo-Fr 07:00-19:00; Su 07:00-19:00,MoneyGram,Q1944412
71042958,moneygram,INVESTMENT BANK - #SRNIBL060 - SANKHUWAS,,SANKHUWASABHA,,,NP,2929560972,,Mo-Su 07:00-19:00,MoneyGram,Q1944412
71103509,moneygram,PRIME COMMERCIAL BANK LIMITED - SANKHUWA,,SANKHUWASABHA,,,NP,+977 29-560870,,Mo-Su 07:00-19:00,MoneyGram,Q1944412
71195973,moneygram,BANK OF KATHMANDU LTD. - SANKHUWASABHA,,SANKHUWASABHA,,,NP,560982,,Mo-Su 07:00-19:00,MoneyGram,Q1944412
71219723,moneygram,EVEREST BANK LIMITED - #URNP2160 - SANKH,,SANKHUWASABHA,,,NP,+977 29-561121,,Mo-Su 07:00-19:00,MoneyGram,Q1944412
71703161,moneygram,SIDDHARTHA BANK LIMITED,,SANKHUWASAWA,,,NP,+977 984-1891795,,Mo-Su 07:00-19:00,MoneyGram,Q1944412
