Ref,Spider,Name,Address,City,State,Zipcode,Country,Phone,Website,Hours,Brand,WikiData
1248,aaa,Weirton Office,,Weirton,WV,,US,+1 304-748-1616,,,American Automobile Association,Q463436
https://stores.advanceautoparts.com/wv/weirton/113-three-springs-dr,advance_auto_parts_us,Advance Auto Parts,,Weirton,WV,,US,+1 304-723-0040,https://stores.advanceautoparts.com/wv/weirton/113-three-springs-dr,Mo-Sa 07:30-21:00; Su 08:00-20:00,Advance Auto Parts,Q4686051
https://stores.aldi.us/#27787631,aldi_sud_us,ALDI  248 Three Springs Drive,,Weirton,WV,,US,+1 855-955-2534,https://stores.aldi.us/wv/weirton/248-three-springs-drive,Mo-Su 09:00-20:00,ALDI,Q41171672
23039,asics_us,Hibbett Sports,268 Three Springs Drive,Weirton,WV,,US,+1 304-723-0028,,,asics,Q327247
648,att_us,WEIRTON STORE,,Weirton,WV,,US,+1 304-723-2843,https://www.att.com/stores/west-virginia/weirton/648,Mo-Sa 10:00-20:00; Su 11:00-18:00,AT&T,Q298594
1113,autozone_us,AutoZone Auto Parts Weirton,,Weirton,WV,,US,+1 304-723-5420,https://www.autozone.com/locations/wv/weirton/3031-pennsylvania-ave.html,Mo-Sa 07:30-21:00; Su 09:00-20:00,AutoZone,Q4826087
https://local.biglots.com/#28365249,biglots,Big Lots - Weirton,,Weirton,WV,,US,+1 681-522-3297,https://local.biglots.com/wv/weirton/250-three-springs-dr,Mo-Sa 09:00-21:00; Su 10:00-19:00,Big Lots,Q4905973
198418,bluerhino,Convenient Food Mart #100,,Weirton,WV,,US,+1 304-797-0049,,,Blue Rhino,Q65681213
169019,bluerhino,BFS Foods #84,,Weirton,WV,,US,+1 304-914-3392,,,Blue Rhino,Q65681213
212009,bluerhino,Marathon,,Weirton,WV,,US,+1 209-808-3852,,,Blue Rhino,Q65681213
127802,bluerhino,Quik Mart & More #601,,Weirton,WV,,US,+1 304-748-5616,,,Blue Rhino,Q65681213
5772,bluerhino,Walmart #1948,,Weirton,WV,,US,+1 304-723-3445,,,Blue Rhino,Q65681213
170681,bluerhino,Kroger #803 - Columbus - Fuel Site,,Weirton,WV,,US,+1 304-723-5165,,,Blue Rhino,Q65681213
12219,bluerhino,Kroger #803 - Columbus,,Weirton,WV,,US,+1 304-723-5165,,,Blue Rhino,Q65681213
74185,bluerhino,Busy Beaver #52,,Weirton,WV,,US,+1 304-723-7222,,,Blue Rhino,Q65681213
104113,bluerhino,BFS Foods #27,,Weirton,WV,,US,+1 304-723-3380,,,Blue Rhino,Q65681213
198419,bluerhino,Convenient Food Mart #200,,Weirton,WV,,US,+1 304-723-2944,,,Blue Rhino,Q65681213
198414,bluerhino,Convenient Food Mart #43,,Weirton,WV,,US,+1 304-723-4620,,,Blue Rhino,Q65681213
212008,bluerhino,Marathon,,Weirton,WV,,US,+1 209-808-3852,,,Blue Rhino,Q65681213
47268,bobevans_us,Weirton,,Weirton,WV,,US,+1 304-723-2594,https://www.bobevans.com/locations/weirton,Mo-Su 07:00-21:00,Bob Evans,Q4932386
36521056713412606200100000000000,bp,BP,,Weirton,WV,,US,+1 304-914-4570,,Mo-Su 06:00-21:00,BP,Q152057
30716046431282606200100000000000,bp,Amoco,,Weirton,WV,,US,+1 304-224-1903,,Mo-Su 05:00-23:00,BP,Q152057
24593,burgerking,Burger King,,Weirton,WV,,US,+1 681-328-3955,https://www.bk.com/store-locator/store/restaurant_80705,Mo-Su 06:00-22:00,Burger King,Q177054
41,busy_beaver,Busy Beaver of Weirton,290 Three Springs Dr,Weirton,WV,,US,+1 304-723-7222,https://busybeaver.com/stores/weirton/,,Busy Beaver,Q108394482
wv_weirton_261-saint-thomas-dr,chipotle, ,,Weirton,WV,,US,+1 681-348-4261,https://locations.chipotle.com/wv/weirton/261-saint-thomas-dr,,Chipotle,Q465751
55461,citi,ATM FIRST CHOICE AMERICA COMMUNITY FCU,,Weirton,WV,,US,,,,Citibank,Q857063
55463,citi,ATM FIRST CHOICE AMERICA COMMUNITY FCU,,Weirton,WV,,US,,,,Citibank,Q857063
60894,citi,ATM Kroger,,Weirton,WV,,US,,,,Citibank,Q857063
36681,citi,ATM Bfs Foods,,Weirton,WV,,US,,,,Citibank,Q857063
68331,citi,ATM PNC AT SHEETZ,,Weirton,WV,,US,,,,Citibank,Q857063
87460,citi,ATM Walgreens,,Weirton,WV,,US,,,,Citibank,Q857063
55460,citi,ATM FIRST CHOICE AMERICA COMMUNITY FCU,,Weirton,WV,,US,,,,Citibank,Q857063
95974,citi,ATM Wvncc,,Weirton,WV,,US,,,,Citibank,Q857063
28774,citi,ATM 7ELEVEN-FCTI,,Weirton,WV,,US,,,,Citibank,Q857063
9346,dollartree,DollarTree,,Weirton,WV,,US,+1 304-919-2927,,Mo-Sa 09:00-21:00; Su 10:00-20:00,Dollar Tree,Q5289230
25185,dollar_general,Dollar General,,Weirton,WV,,US,+1 304-919-2407,https://www.dollargeneral.com/store-directory/wv/weirton/25185,Mo-Su 08:00-22:00,Dollar General,Q145168
1315,dominos_pizza_us,Domino's Pizza,,Weirton,WV,,US,+1 304-797-7222,https://pizza.dominos.com/west-virginia/weirton/1331-pennsylvania-ave,Mo-Th 10:30-24:00; Fr-Sa 10:30-01:00; Su 10:30-24:00,Domino's,Q839466
353553,dunkin_us,Dunkin',,Weirton,WV,,US,+1 304-914-3490,https://locations.dunkindonuts.com/en/wv/weirton/250-three-springs-dr/353553,Mo-Su 05:00-21:00,Dunkin',Q847743
59,eatnpark,Weirton,,Weirton,WV,,US,+1 304-723-5179,https://locations.eatnpark.com/wv/weirton/restaurants-59.html,Mo-Su 07:00-23:00,Eat'n Park,Q5331211
https://local.fedex.com/#25199713,fedex,,,Weirton,WV,,US,+1 800-463-3339,https://local.fedex.com/en-us/wv/weirton/pitld,,FedEx,Q459477
https://local.fedex.com/#25235493,fedex,,,Weirton,WV,,US,+1 800-463-3339,https://local.fedex.com/en-us/wv/weirton/pitai,,FedEx,Q459477
https://local.fedex.com/#27750391,fedex,FedEx Authorized ShipCenter,,Weirton,WV,,US,+1 304-748-0057,https://local.fedex.com/en-us/wv/weirton/00pb1,,FedEx,Q459477
101233,fresenius_kidney_care_us,Fresenius Kidney Care Weirton,,Weirton,WV,,US,+1 800-881-5101,https://www.freseniuskidneycare.com/dialysis-centers/west-virginia/101233,Mo 05:00-14:30; Tu 06:00-14:00; We 05:00-14:30; Th 06:00-14:00; Fr 05:00-14:30; Sa 06:00-14:00,,
https://stores.gnc.com/#24058479,gnc,GNC Kmart Plaza,,,WV,,US,+1 304-723-3429,https://stores.gnc.com/all-stores-west-virginia/weirton/258-three-springs-drive,Mo-Sa 10:00-20:00; Su 11:00-18:00,GNC,Q4808595
574ea1bd-458a-e111-8dde-005056934050,goodwill,Weirton Store,,Weirton,WV,,US,+1 304-723-5595,https://www.goodwill.org/locator/location/?store=NTc0ZWExYmQtNDU4YS1lMTExLThkZGUtMDA1MDU2OTM0MDUw&lat=NDAuNDA5Mzg=&lng=LTgwLjU0Njg=,,Goodwill,Q5583655
https://salons.greatclips.com/us/wv/weirton/243-three-springs-dr,greatclips,Great Clips,,Weirton,WV,,US,+1 304-721-2235,https://salons.greatclips.com/us/wv/weirton/243-three-springs-dr,Mo-Fr 09:00-19:00; Sa 09:00-18:00; Su 10:00-17:00,Great Clips,Q5598967
1069,huddle_house_us,WV - Weirton,,Weirton,WV,,US,+1 304-914-3282,https://www.huddlehouse.com/locations/wv/weirton/4150-freedom-way,Mo-Th 06:00-22:00; Fr-Sa 06:00-00:00; Su 06:00-22:00,Huddle House,Q5928324
10256,huntingtonbank,Weirton ,,Weirton,WV,,US,+1 304-723-3099,https://www.huntington.com/Community/branch-info?locationId=10256,Mo-Fr 09:00-17:00; Sa 09:00-12:00; Su 00:00-00:00,Huntington Bank,Q798819
46128,h_r_block,H&R Block,,Weirton,WV,,US,+1 304-723-2710,https://www.hrblock.com/local-tax-offices/west-virginia/weirton/k-mart-plaza/46128/,,H&R Block,Q5627799
https://office.jacksonhewitt.com/#27574902,jackson_hewitt,Jackson Hewitt,,Weirton,WV,,US,+1 304-716-4248,https://office.jacksonhewitt.com/tax-preparation-services-locations/en/wv/weirton/400-three-springs-dr/51948,Mo-Sa 11:00-19:00; Su 12:00-16:00,Jackson Hewitt,Q6117132
https://office.jacksonhewitt.com/#27577755,jackson_hewitt,Jackson Hewitt,,Weirton,WV,,US,+1 304-740-6000,https://office.jacksonhewitt.com/tax-preparation-services-locations/en/wv/weirton/3317-main-street/12358,Mo-Fr 09:00-19:00; Sa 09:00-17:00; Su 12:01-17:00,Jackson Hewitt,Q6117132
https://locations.kfc.com/#11248314,kfc,Chicken Nuggets Near Weirton,,Weirton,WV,,US,,https://locations.kfc.com/wv/weirton/4015-west-main-street/chickennugget,Mo-Su 10:30-22:30,KFC,Q524757
158527,marathon_petroleum_us,Savjotllc,,WEIRTON,WV,,US,+1 304-723-1378,,,Marathon,Q458363
160832,marathon_petroleum_us,Marathon,,WEIRTON,WV,,US,+1 304-797-1560,,,Marathon,Q458363
160510,marathon_petroleum_us,QUIK MART AND MORE,,WEIRTON,WV,,US,+1 304-748-5616,,,Marathon,Q458363
PITFW,marriott,Fairfield Inn & Suites Weirton,,Weirton,WV,,US,+1 304-723-0088,https://www.marriott.com/PITFW,,Fairfield by Marriott,Q5430314
0JlLa,medexpress,MedExpress Urgent Care,,Weirton,WV,,US,+1 304-723-3627,https://www.medexpress.com/location/wv/weirton/wew/,Mo-Su 08:00-20:00,MedExpress,Q102183820
469,mightyflame,A&M QUICK MART,,WEIRTON,WV,,US,+1 304-748-1205,,,Mighty Flame,
https://locations.oreillyauto.com/wv/weirton/check-engine-light-testing-6218.html,oreilly,Your Weirton O'Reilly Auto Parts Store,,Weirton,WV,,US,+1 681-348-1120,https://locations.oreillyauto.com/wv/weirton/check-engine-light-testing-6218.html,Mo-Sa 07:30-21:00; Su 09:00-20:00,O'Reilly Auto Parts,Q7071951
https://locations.oreillyauto.com/wv/weirton/wiper-installation-6218.html,oreilly,Your Weirton O'Reilly Auto Parts Store,,Weirton,WV,,US,+1 681-348-1120,https://locations.oreillyauto.com/wv/weirton/wiper-installation-6218.html,Mo-Sa 07:30-21:00; Su 09:00-20:00,O'Reilly Auto Parts,Q7071951
https://locations.oreillyauto.com/wv/weirton/battery-testing-6218.html,oreilly,Your Weirton O'Reilly Auto Parts Store,,Weirton,WV,,US,+1 681-348-1120,https://locations.oreillyauto.com/wv/weirton/battery-testing-6218.html,Mo-Sa 07:30-21:00; Su 09:00-20:00,O'Reilly Auto Parts,Q7071951
https://locations.oreillyauto.com/wv/weirton/autopartes-6218.html,oreilly,O'Reilly Auto Parts,,Weirton,WV,,US,+1 681-348-1120,https://locations.oreillyauto.com/wv/weirton/autopartes-6218.html,Mo-Sa 07:30-21:00; Su 09:00-20:00,O'Reilly Auto Parts,Q7071951
https://locations.papajohns.com/#10691246,papa_johns,Papa John's,,Weirton,WV,,US,+1 304-797-7272,https://locations.papajohns.com/united-states/wv/26062/weirton/4052-washington-street,Mo-Th 11:00-23:00; Fr-Sa 10:00-24:00; Su 11:00-23:00,Papa John's Pizza,Q2759586
wv_weirton_218-park-drive,pizza_hut_us,218 Park Drive,,Weirton,WV,,US,+1 304-723-4240,https://locations.pizzahut.com/wv/weirton/218-park-drive,,Pizza Hut,Q191615
814,rentacenter,Rent-A-Center,,Weirton,WV,,US,+1 304-723-3444,https://locations.rentacenter.com/west-virginia/weirton/410-penco-rd/,Mo-Sa 10:00-18:00,Rent-A-Center,Q7313497
234,sheetz,Sheetz,,Weirton,WV,,US,+1 304-723-0020,https://orders.sheetz.com/findASheetz/store/234,24/7,Sheetz,Q7492551
https://restaurants.subway.com/#14912790,subway,Subway Wal-Mart #1948,,Weirton Hancock,WV,,US,+1 304-723-5252,https://restaurants.subway.com/united-states/wv/weirton/400-three-springs-drive,Mo-Su 08:00-21:00,Subway,Q244457
https://restaurants.subway.com/#14910286,subway,Subway,,Weirton Hancock,WV,,US,+1 304-723-0133,https://restaurants.subway.com/united-states/wv/weirton/253-&-259-penco-rd,Mo-Fr 08:00-21:30; Sa-Su 09:00-21:30,Subway,Q244457
https://restaurants.subway.com/#14893782,subway,Subway,,Weirton Hancock,WV,,US,+1 304-748-3400,https://restaurants.subway.com/united-states/wv/weirton/3601-main-st,Mo-Sa 10:00-21:00; Su 11:00-21:00,Subway,Q244457
0807983200,sunoco_us,Sunoco,,WEIRTON,WV,,US,+1 304-723-3380,,Mo-Su 06:00-00:00,Sunoco,Q1423218
0457835700,sunoco_us,Sunoco,,WEIRTON,WV,,US,+1 304-723-4487,,24/7,Sunoco,Q1423218
0080777600,sunoco_us,Sunoco,,WEIRTON,WV,,US,+1 304-748-0849,,Mo-Su 06:00-00:00,Sunoco,Q1423218
https://locations.tacobell.com/#6145088,taco_bell,Taco Bell,,Weirton,WV,,US,+1 304-723-5822,https://locations.tacobell.com/wv/weirton/224-three-springs-drive.html,Mo-Su 08:00-03:00,Taco Bell,Q752941
https://locations.tccrocks.com/wv/weirton/241-three-springs-dr.html,tcc_us,TCC Weirton,,Weirton,WV,,US,+1 740-346-2624,https://locations.tccrocks.com/wv/weirton/241-three-springs-dr.html,Mo-Sa 09:00-19:00; Su 11:00-17:00,Verizon,Q919641
5ASW,tmobile_us,Three Springs Dr & Hindman Ln,,Weirton,WV,,US,+1 304-914-3180,https://www.t-mobile.com/store-locator/wv/weirton/three-springs-dr-hindman-ln,,T-Mobile,Q3511885
047038,uhaul,Weirton Tire & Auto Center,2408 Penna Ave,Weirton,WV,,US,+1 304-723-3514,,Mo-Fr 30:00-16:00,U-Haul,Q7862902
1359447,usps,COVE,,WEIRTON,WV,,US,+1 304-743-7360,,Mo-Fr 09:00-17:00,United States Postal Service,Q668687
1386825,usps,WEIRTON,,WEIRTON,WV,,US,+1 304-723-6795,,Mo-Fr 08:30-17:00; Sa 08:30-13:00,United States Postal Service,Q668687
2606200012,usps_collection_boxes,USPS COLLECTION BOX - BLUE BOX,601 COLLIERS WAY,WEIRTON,WV,,US,,,,United States Postal Service,Q668687
2606200013,usps_collection_boxes,USPS COLLECTION BOX - BLUE BOX,485 COLLIERS WAY,WEIRTON,WV,,US,,,,United States Postal Service,Q668687
2606200028,usps_collection_boxes,USPS COLLECTION BOX - BLUE BOX,100 SAINT THOMAS DR,WEIRTON,WV,,US,,,,United States Postal Service,Q668687
2606200021,usps_collection_boxes,USPS COLLECTION BOX - BLUE BOX,317 PENCO RD,WEIRTON,WV,,US,,,,United States Postal Service,Q668687
2606200023,usps_collection_boxes,USPS COLLECTION BOX - BLUE BOX,317 PENCO RD,WEIRTON,WV,,US,,,,United States Postal Service,Q668687
2606200041,usps_collection_boxes,USPS COLLECTION BOX - PO LOBBY,317 PENCO RD,WEIRTON,WV,,US,,,,United States Postal Service,Q668687
2606200033,usps_collection_boxes,USPS COLLECTION BOX - PO LOBBY,317 PENCO RD-MAIN LOBBY,WEIRTON,WV,,US,,,,United States Postal Service,Q668687
2606200006,usps_collection_boxes,USPS COLLECTION BOX - BLUE BOX,2426 PENNSYLVANIA AVE,WEIRTON,WV,,US,,,,United States Postal Service,Q668687
2606200025,usps_collection_boxes,USPS COLLECTION BOX - BLUE BOX,3500 WEST ST,WEIRTON,WV,,US,,,,United States Postal Service,Q668687
2606200027,usps_collection_boxes,USPS COLLECTION BOX - BLUE BOX,3500 WEST ST,WEIRTON,WV,,US,,,,United States Postal Service,Q668687
2606200037,usps_collection_boxes,USPS COLLECTION BOX - PO LOBBY,3500 WEST ST,WEIRTON,WV,,US,,,,United States Postal Service,Q668687
2606200042,usps_collection_boxes,USPS COLLECTION BOX - PO LOBBY,115 MILDREN AVE,WEIRTON,WV,,US,,,,United States Postal Service,Q668687
2606200004,usps_collection_boxes,USPS COLLECTION BOX - BLUE BOX,3200 MAIN ST,WEIRTON,WV,,US,,,,United States Postal Service,Q668687
2606200039,usps_collection_boxes,USPS COLLECTION BOX - BLUE BOX,3126 WEST ST,WEIRTON,WV,,US,,,,United States Postal Service,Q668687
2606200010,usps_collection_boxes,USPS COLLECTION BOX - BLUE BOX,3901 BRIGHTWAY ST,WEIRTON,WV,,US,,,,United States Postal Service,Q668687
A00000176976,verizon_us,TCC Weirton,,WEIRTON,WV,,US,+1 304-740-5030,https://www.verizon.com/stores/details/west-virginia/weirton/tcc-weirton-1642622/,Mo-Sa 09:00-19:00; Su 11:00-17:00,Verizon,Q919641
,visa,,,WEIRTON,WV,,US,,,,,
,visa,,,VALLEY GROVE,WV,,US,,,,,
,visa,,,WEIRTON,WV,,US,,,,,
,visa,,,WEIRTON,WV,,US,,,,,
,visa,,,WEIRTON,WV,,US,,,,,
,visa,,,WEIRTON,WV,,US,,,,,
,visa,,,WEIRTON,WV,,US,,,,,
,visa,,,WEIRTON,WV,,US,,,,,
,visa,,,WEIRTON,WV,,US,,,,,
,visa,,,WEIRTON,WV,,US,,,,,
,visa,,,WEIRTON,WV,,US,,,,,
,visa,,,WEIRTON,WV,,US,,,,,
,visa,,,WEIRTON,WV,,US,,,,,
,visa,,,WEIRTON,WV,,US,,,,,
,visa,,,WEIRTON,WV,,US,,,,,
,visa,,,WEIRTON,WV,,US,,,,,
,visa,,,WEIRTON,WV,,US,,,,,
,visa,,,WEIRTON,WV,,US,,,,,
,visa,,,WEIRTON,WV,,US,,,,,
,visa,,,WEIRTON,WV,,US,,,,,
,visa,,,WEIRTON,WV,,US,,,,,
,visa,,,WEIRTON,WV,,US,,,,,
,visa,,,WEIRTON,WV,,US,,,,,
,visa,,,WEIRTON,WV,,US,,,,,
,visa,,,WEIRTON,WV,,US,,,,,
,visa,,,WEIRTON,WV,,US,,,,,
,visa,,,WEIRTON,WV,,US,,,,,
,visa,,,WEIRTON,WV,,US,,,,,
,visa,,,WEIRTON,WV,,US,,,,,
,visa,,,WEIRTON,WV,,US,,,,,
,visa,,,WEIRTON,WV,,US,,,,,
,visa,,,WEIRTON,WV,,US,,,,,
,visa,,,WEIRTON,WV,,US,,,,,
,visa,,,WEIRTON,WV,,US,,,,,
,visa,,,WEIRTON,WV,,US,,,,,
,visa,,,WEIRTON,WV,,US,,,,,
,visa,,,WEIRTON,WV,,US,,,,,
,visa,,,WEIRTON,WV,,US,,,,,
,visa,,,WEIRTON,WV,,US,,,,,
,visa,,,WEIRTON,WV,,US,,,,,
,visa,,,WEIRTON,WV,,US,,,,,
,visa,,,WEIRTON,WV,,US,,,,,
,visa,,,WEITTON,WV,,US,,,,,
,visa,,,WEIRTON,WV,,US,,,,,
,visa,,,WEIRTON,WV,,US,,,,,
,visa,,,WEIRTON,WV,,US,,,,,
,visa,,,WEIRTON,WV,,US,,,,,
,visa,,,WEIRTON,WV,,US,,,,,
,visa,,,WEIRTON,WV,,US,,,,,
,visa,,,WEIRTON,WV,,US,,,,,
,visa,,,WEIRTON,WV,,US,,,,,
,visa,,,WEIRTON,WV,,US,,,,,
,visa,,,WEIRTON,WV,,US,,,,,
,visa,,,WEIRTON,WV,,US,,,,,
,visa,,,WEIRTON,WV,,US,,,,,
,visa,,,WEIRTON,WV,,US,,,,,
,visa,,,WEIRTON,WV,,US,,,,,
,visa,,,WEIRTON,WV,,US,,,,,
,visa,,,WEIRTON,WV,,US,,,,,
,visa,,,WELRTON,WV,,US,,,,,
,visa,,,WEIRTON,WV,,US,,,,,
,visa,,,WEIRTON,WV,,US,,,,,
,visa,,,WEIRTON,WV,,US,,,,,
,visa,,,WEIRTON,WV,,US,,,,,
,visa,,,WEIRTON,WV,,US,,,,,
,visa,,,WEIRTON,WV,,US,,,,,
,visa,,,WEIRTON,WV,,US,,,,,
,visa,,,WEIRTON,WV,,US,,,,,
,visa,,,WEIRTON,WV,,US,,,,,
,visa,,,WEIRTON,WV,,US,,,,,
,visa,,,WEIRTON,WV,,US,,,,,
,visa,,,WIERTON,WV,,US,,,,,
,visa,,,WEIRTON,WV,,US,,,,,
,visa,,,WEIRTON,WV,,US,,,,,
,visa,,,WEIRTON,WV,,US,,,,,
,visa,,,WEIRTON,WV,,US,,,,,
,visa,,,WEIRTON,WV,,US,,,,,
,visa,,,WEIRTON,WV,,US,,,,,
,visa,,,WEIRTON,WV,,US,,,,,
,visa,,,WEIRTON,WV,,US,,,,,
,visa,,,WEIRTON,WV,,US,,,,,
,visa,,,WEIRTON,WV,,US,,,,,
,visa,,,WEIRTON,WV,,US,,,,,
,visa,,,WEIRTON,WV,,US,,,,,
,visa,,,WEIRTON,WV,,US,,,,,
,visa,,,WEIRTON,WV,,US,,,,,
,visa,,,WEIRTON,WV,,US,,,,,
,visa,,,WEIRTON,WV,,US,,,,,
,visa,,,WEIRTON,WV,,US,,,,,
,visa,,,WEIRTON,WV,,US,,,,,
,visa,,,WEIRTON,WV,,US,,,,,
,visa,,,WEIRTON,WV,,US,,,,,
,visa,,,WEIRTON,WV,,US,,,,,
,visa,,,WEIRTON,WV,,US,,,,,
,visa,,,WEIRTON,WV,,US,,,,,
,visa,,,WEIRTON,WV,,US,,,,,
,visa,,,WEIRTON,WV,,US,,,,,
,visa,,,WEIRTON,WV,,US,,,,,
,visa,,,WEIRTON,WV,,US,,,,,
,visa,,,WEIRTON,WV,,US,,,,,
,visa,,,WEIRTON,WV,,US,,,,,
,visa,,,WEIRTON,WV,,US,,,,,
,visa,,,WEIRTON,WV,,US,,,,,
,visa,,,WEIRTON,WV,,US,,,,,
,visa,,,WEIRTON,WV,,US,,,,,
,visa,,,WEIRTON,WV,,US,,,,,
,visa,,,WEIRTON,WV,,US,,,,,
,visa,,,WEIRTON,WV,,US,,,,,
,visa,,,WIERTON,WV,,US,,,,,
,visa,,,WEIRTON,WV,,US,,,,,
,visa,,,WEIRTON,WV,,US,,,,,
https://www.vocellipizza.com/weirton_wv,vocelli_pizza_us,Weirton,,Weirton,WV,,US,,https://www.vocellipizza.com/weirton_wv,,Vocelli Pizza,Q7939247
https://www.walgreens.com/locator/walgreens-1360+cove+rd-weirton-wv-26062/id=19676,walgreens,Walgreens,,Weirton,WV,,US,+1 304-723-2110,https://www.walgreens.com/locator/walgreens-1360+cove+rd-weirton-wv-26062/id=19676,Mo-Su 08:00-21:00,Walgreens,Q1591889
https://locations.wendys.com/#9256404,wendys,"Wendy's Weirton in Weirton, WV",,Weirton,WV,,US,+1 304-723-0326,https://locations.wendys.com/united-states/wv/weirton/205-three-springs-drive,"Mo-Su 06:30-10:30,08:00-22:00",Wendy's,Q550258
fc146fd5ef84882cb7a9029068f71aa0,western_union,WALMART #001948,,Weirton,WV,,US,+1 304-723-3445,https://location.westernunion.com/us/wv/weirton/fc146fd5ef84882cb7a9029068f71aa0,Mo-Su 07:00-21:00,Western Union,Q861042
2f759f02fc3a15c2a8fcc3306dfb586b,western_union,WALGREENS #19676,,Weirton,WV,,US,+1 304-723-2110,https://location.westernunion.com/us/wv/weirton/2f759f02fc3a15c2a8fcc3306dfb586b,Mo-Sa 08:00-21:00; Su 08:00-17:30,Western Union,Q861042
