Ref,Spider,Name,Address,City,State,Zipcode,Country,Phone,Website,Hours,Brand,WikiData
182985,bluerhino,Par Mar #105 (BP),,Williamstown,WV,,US,+1 304-375-2739,,,Blue Rhino,Q65681213
198416,bluerhino,Convenient Food Mart #47,,Williamstown,WV,,US,+1 304-375-5870,,,Blue Rhino,Q65681213
198174,bluerhino,WILLIAMSTOWN GO-MART 71,,Williamstown,WV,,US,+1 304-375-5996,,,Blue Rhino,Q65681213
17894025101352618700100000961334,bp,BP,,Williamstown,WV,,US,+1 304-464-5264,,Mo-Tu 06:00-23:00; We-Th 06:00-11:00; Fr-Sa 06:00-24:00; Su 06:00-23:00,BP,Q152057
56734174472012618700100000000000,bp,BP,,Williamstown,WV,,US,+1 304-375-2739,,Mo-Th 06:00-22:00; Fr 06:00-23:00; Sa 07:00-23:00; Su 07:00-22:00,BP,Q152057
0665,carpet_one_floor_and_home_us,Family Carpet One Floor & Home,,Williamstown,WV,,US,+1 304-375-7545,https://www.familycarpetoneboaz.com/,,Carpet One Floor & Home,Q121335910
16703,dollar_general,Dollar General,,Williamstown,WV,,US,+1 304-973-1096,https://www.dollargeneral.com/store-directory/wv/williamstown/16703,Mo-Su 08:00-22:00,Dollar General,Q145168
https://local.fedex.com/#25230403,fedex,,,Williamstown,WV,,US,+1 800-463-3339,https://local.fedex.com/en-us/wv/williamstown/pkbaj,,FedEx,Q459477
1387773,usps,WILLIAMSTOWN,,WILLIAMSTOWN,WV,,US,+1 304-375-6008,,Mo-We 08:30-16:30; Th 08:30-12:00; Fr 08:30-16:30; Sa 09:00-12:00,United States Postal Service,Q668687
2618700000,usps_collection_boxes,USPS COLLECTION BOX - BLUE BOX,420 OAKWOOD AVE,WILLIAMSTOWN,WV,,US,,,,United States Postal Service,Q668687
2618700002,usps_collection_boxes,USPS COLLECTION BOX - PO LOBBY,420 OAKWOOD AVE,WILLIAMSTOWN,WV,,US,,,,United States Postal Service,Q668687
2618700005,usps_collection_boxes,USPS COLLECTION BOX - PO LOBBY,420 OAKWOOD AVE,WILLIAMSTOWN,WV,,US,,,,United States Postal Service,Q668687
,visa,,,WILLIAMSTOWN,WV,,US,,,,,
,visa,,,WILLIAMSTOWN,WV,,US,,,,,
,visa,,,WILLIAMSTOWN,WV,,US,,,,,
,visa,,,WILLIAMSTOWN,WV,,US,,,,,
,visa,,,WILLIAMSTOWN,WV,,US,,,,,
,visa,,,WILLIAMSTOWN,WV,,US,,,,,
,visa,,,WILLIAMSTOWN,WV,,US,,,,,
,visa,,,WILLIAMSTOWN,WV,,US,,,,,
,visa,,,WILLIAMSTOWN,WV,,US,,,,,
,visa,,,WILLIAMSTOWN,WV,,US,,,,,
,visa,,,WILLIAMSTOWN,WV,,US,,,,,
,visa,,,WILLIAMSTOWN,WV,,US,,,,,
,visa,,,WILLIAMSTOWN,WV,,US,,,,,
,visa,,,WILLIAMSTOWN,WV,,US,,,,,
,visa,,,WILLIAMSTOWN,WV,,US,,,,,
,visa,,,WILLIAMSTOWN,WV,,US,,,,,
,visa,,,WILLIAMSTOWN,WV,,US,,,,,
,visa,,,WILLIAMSTOWN,WV,,US,,,,,
,visa,,,WILLIAMSTOWN,WV,,US,,,,,
,visa,,,WILLIAMSTOWN,WV,,US,,,,,
,visa,,,WILLIAMSTOWN,WV,,US,,,,,
,visa,,,WILLIAMSTOWN,WV,,US,,,,,
8c1dcc5ea940d46f0325776b73bf69c8,western_union,PAR MAR STORE #1105,,Williamstown,WV,,US,+1 304-375-2176,https://location.westernunion.com/us/wv/williamstown/8c1dcc5ea940d46f0325776b73bf69c8,,Western Union,Q861042
