Ref,Spider,Name,Address,City,State,Zipcode,Country,Phone,Website,Hours,Brand,WikiData
PH0637,hm,H&M Bataan,,Balanga,,,PH,+63 47 633 9137,,Mo-Su 10:00-20:00,H&M,Q188326
68306636,moneygram,METROBANK - BALANGA MAIN,,BALANGA,,,PH,28700700,,Mo-Fr 09:00-16:30; Sa-Su 00:00-24:00,MoneyGram,Q1944412
68310839,moneygram,METROBANK - EDSA POEA,,MANDALUYONG,,,PH,28700700,,Mo-Fr 09:00-16:30; Sa-Su 00:00-24:00,MoneyGram,Q1944412
68310842,moneygram,METROBANK - BALANGA-DON M. BANZON AVE.,,BALANGA,,,PH,28700700,,Mo-Fr 09:00-17:00; Sa-Su 00:00-24:00,MoneyGram,Q1944412
72570568,moneygram,USSC - #10441 - BATAAN - BALANGA PUREGOL,,BALANGA,,,PH,+63 44 237 9592,,Mo-Su 09:00-20:00,MoneyGram,Q1944412
72570571,moneygram,USSC - #10442 - BATAAN - BALANGA WALTERM,,BALANGA,,,PH,+63 933 522 9130,,Mo-Su 09:00-20:00,MoneyGram,Q1944412
72622791,moneygram,BDO - #1334 - WALTERMART  BALANGA,,BALANGA,,,PH,7026350,,Mo-Su 09:00-18:00,MoneyGram,Q1944412
73901974,moneygram,H VILLARICA PAWNSHOP - #PSF025 - H VILLA,,BALANGA,,,PH,87026350,,Mo-Sa 07:00-19:00; Su 08:00-17:00,MoneyGram,Q1944412
73900535,moneygram,VILLARICA PAWNSHOP - #PSE025 - VILLARICA,,BALANGA,,,PH,87026350,,Mo-Fr 07:30-18:00; Sa 07:30-17:00; Su 00:00-24:00,MoneyGram,Q1944412
66793157,moneygram,BANK OF COMMERCE,,BALANGA CITY,,,PH,+63 47 791 2454,,Mo-Fr 09:00-16:00; Sa-Su 00:00-24:00,MoneyGram,Q1944412
73712419,moneygram,TAMBUNTING SINCE 1896 - BALANGA - BALANG,,BALANGA,,,PH,+63 917 627 9971,,Mo-Su 07:00-19:00,MoneyGram,Q1944412
73957025,moneygram,PALAWAN PAWNSHOP - #ETP - BALANGA - BATA,,BALANGA,,,PH,+63 48 433 4110,,Mo-Su 08:00-17:30,MoneyGram,Q1944412
71602181,moneygram,CEBUANA LHUILLIER - #61657 - BALANGA CIT,,BALANGA CITY,,,PH,27799803,,Mo-Su 08:00-18:00,MoneyGram,Q1944412
72375802,moneygram,CEBUANA LHUILLIER - #62021 - BALANGA - C,,BALANGA,,,PH,7799807,,Mo-Su 07:00-23:00,MoneyGram,Q1944412
72497955,moneygram,CEBUANA LHUILLIER - #62021 - BALANGA - C,,BALANGA,,,PH,7799803,,Mo-Su 07:00-23:00,MoneyGram,Q1944412
70163566,moneygram,CEBUANA LHUILLIER - CLH BALANGA,,BALANGA CITY,,,PH,27799800,,Mo-Su 08:00-17:00,MoneyGram,Q1944412
70163579,moneygram,CEBUANA LHUILLIER - CLH BALANGA 2,,BALANGA CITY,,,PH,27799800,,Mo-Su 07:00-19:00,MoneyGram,Q1944412
70156094,moneygram,CEBUANA LHUILLIER - CLH BALANGA 3,,BALANGA CITY,,,PH,27799800,,Mo-Su 07:00-18:00,MoneyGram,Q1944412
70156146,moneygram,CEBUANA LHUILLIER - CLH BALANGA 4,,BALANGA CITY,,,PH,27799800,,Mo-Su 08:00-17:00,MoneyGram,Q1944412
70163728,moneygram,CEBUANA LHUILLIER - CLH BALANGA 5,,BALANGA CITY,,,PH,27799800,,Mo-Su 08:00-17:00,MoneyGram,Q1944412
70166152,moneygram,CEBUANA LHUILLIER - CLH BALANGA 6,,BALANGA CITY,,,PH,27799800,,Mo-Su 07:30-18:30,MoneyGram,Q1944412
70168697,moneygram,CEBUANA LHUILLIER - CLH BALANGA 7,,BALANGA CITY,,,PH,27799800,,Mo-Su 08:00-18:00,MoneyGram,Q1944412
73786063,moneygram,EBIZ - #10 - BALANGA CITY - EBIZ BALANGA,,BALANGA CITY,,,PH,6322439101,,Mo-Su 08:00-17:00,MoneyGram,Q1944412
73786694,moneygram,EBIZ - #72 - BALANGA CITY - EBIZ CAPITOL,,BALANGA CITY,,,PH,634383122043,,Mo-Su 08:00-18:00,MoneyGram,Q1944412
72507243,moneygram,LBC - #845 - BALANGA CITY - BALANGA,,BALANGA CITY,,,PH,8527239,,Mo-Sa 07:00-19:00; Su 08:00-17:00,MoneyGram,Q1944412
72507272,moneygram,LBC - #848 - BALANGA CITY - BANZON,,BALANGA CITY,,,PH,8527239,,Mo-Sa 08:00-17:00; Su 00:00-24:00,MoneyGram,Q1944412
72507298,moneygram,LBC - #850 - BALANGA CITY - GALERIA VICT,,BALANGA CITY,,,PH,8527239,,Mo-Su 09:00-21:00,MoneyGram,Q1944412
72507308,moneygram,LBC - #851 - BALANGA CITY - VISTA MALL,,BALANGA CITY,,,PH,8527239,,Mo-Su 10:00-21:00,MoneyGram,Q1944412
73777441,moneygram,LBC - #BTN07 - BALANGA - WALTERMART BALA,,BALANGA,,,PH,28527239,,Mo-Su 07:00-22:00,MoneyGram,Q1944412
74153501,moneygram,MERIDIEN BUSINESS LEADER INC. - #WM022 -,,BALANGA,,,PH,+63 2 8702 6350,,Mo-Su 10:00-19:00,MoneyGram,Q1944412
70214907,moneygram,M LHUILLIER - BALANGA 3 BATAAN,,BALANGA,,,PH,+63 32 348 9400,,Mo-Su 07:00-17:00,MoneyGram,Q1944412
74468995,moneygram,H VILLARICA - #PSF158 - BALANGA BATAAN,,BALANGA,,,PH,263287026350,,Mo-Sa 07:00-19:00; Su 08:00-17:00,MoneyGram,Q1944412
74543629,moneygram,SM FOREX DEPT. STORE - #FX575 - SM BATAA,,BALANGA,,,PH,+63 2 8702 6350,,Mo-Su 10:00-20:30,MoneyGram,Q1944412
74580750,moneygram,SM SUPERMARKET - #SU5034 - BATAAN,,BALANGA,,,PH,+63 2 8702 6350,,Mo-Su 09:00-20:00,MoneyGram,Q1944412
73785145,moneygram,PERAHUB - #BB2 - BALANGA - BALANGA 2,,BALANGA,,,PH,+63 47 237 5687,,Mo-Fr 08:00-18:00; Sa 08:00-17:00; Su 08:00-16:00,MoneyGram,Q1944412
70993079,moneygram,PALAWAN PAWNSHOP - BATAAN- BALANGA CITY,,BALANGA,,,PH,+63 48 433 4110,,Mo-Su 08:00-17:30,MoneyGram,Q1944412
71095303,moneygram,PALAWAN PAWNSHOP - BATAAN- BALANGA POBLA,,BALANGA,,,PH,+63 48 433 4110,,Mo-Su 08:00-17:30,MoneyGram,Q1944412
65264205,moneygram,BDO - #525 - BALANGA - A. BANZON,,BALANGA,,,PH,+63 44 791 4205,,Mo-Sa 08:30-18:00; Su 00:00-24:00,MoneyGram,Q1944412
65270448,moneygram,M LHUILLIER - BALANGA 1 BATAAN,,BALANGA,,,PH,+63 32 348 9400,,24/7,MoneyGram,Q1944412
66339401,moneygram,M LHUILLIER - BALANGA 2 BATAAN,,BALANGA,,,PH,+63 32 348 9400,,Mo-Su 07:00-19:00,MoneyGram,Q1944412
67935396,moneygram,BDO - #809 - BALANGA - CAPITOL DRIVE,,BALANGA,,,PH,027026000,,Mo-Fr 09:00-18:30; Sa-Su 00:00-24:00,MoneyGram,Q1944412
PH_046,totalenergies,Balanga,,Balanga City,,,PH,,https://store.totalenergies.fr/en_EN/PH_046,24/7,TotalEnergies,Q154037
PH_279,totalenergies,Balanga - Roman Hwy,,Balanga City,,,PH,+63 921 614 2461,https://store.totalenergies.fr/en_EN/PH_279,Mo-Su 05:00-21:00,TotalEnergies,Q154037
PH_450,totalenergies,Puerto Rivas,,Balanga City,,,PH,,https://store.totalenergies.fr/en_EN/PH_450,,TotalEnergies,Q154037
