Ref,Spider,Name,Address,City,State,Zipcode,Country,Phone,Website,Hours,Brand,WikiData
https://stores.aldi.us/#18238330,aldi_sud_us,ALDI  2844 S Alma School Rd,,Chandler,AZ,,US,+1 877-479-1156,https://stores.aldi.us/az/chandler/2844-s-alma-school-rd,"Mo-Su 09:00-20:00,09:00-21:00",ALDI,Q41171672
2769,autozone_us,AutoZone Auto Parts Chandler,,Chandler,AZ,,US,+1 480-722-2024,https://www.autozone.com/locations/az/chandler/1960-s-alma-school-rd.html,Mo-Sa 07:30-21:00; Su 08:00-20:00,AutoZone,Q4826087
https://www.avis.com/en/locations/us/az/chandler/k2l,avis,Avis U S A Chandler,,Chandler,AZ,,US,+1 480-899-1617,https://www.avis.com/en/locations/us/az/chandler/k2l,Mo-Fr 07:30-17:00; Sa 08:00-13:00; Su 09:00-13:00,Avis,Q791136
https://www.banfield.com/locations/veterinarians/az/chandler/ecr,banfield_pet_hospital,Chandler E,,Chandler,AZ,,US,+1 480-722-7527,https://www.banfield.com/locations/veterinarians/az/chandler/ecr,Mo-Fr 08:00-18:00; Sa 08:00-17:00; Su 00:00-24:00,Banfield Pet Hospital,Q2882416
https://locators.bankofamerica.com/az/chandler/atm-chandler-108946.html,bankofamerica,Bank of America Walk-Up ATM | Crossroads Towne Center,,Chandler,AZ,,US,+1 844-401-8500,https://locators.bankofamerica.com/az/chandler/atm-chandler-108946.html,,Bank of America,Q487907
https://www.bannerhealth.com/locations/chandler/banner-health-clinic-cardiology-alma-school,bannerhealth,Banner Health Clinic,,Chandler,AZ,,US,+1 480-733-7305,,Mo-Fr 08:00-17:00,Banner Health,Q4856918
https://www.bannerhealth.com/locations/chandler/banner-health-clinic-alma-school,bannerhealth,Banner Health Clinic,,Chandler,AZ,,US,+1 480-684-6157,,Mo-Fr 08:00-17:00,Banner Health,Q4856918
https://www.bannerhealth.com/locations/chandler/banner-ocotillo-medical-center,bannerhealth,Banner Ocotillo Medical Center,,Chandler,AZ,,US,+1 480-256-7000,,,Banner Health,Q4856918
https://www.bannerhealth.com/locations/chandler/banner-health-center-chandler,bannerhealth,Banner Health Center ,,Chandler,AZ,,US,+1 480-668-1600,,Mo-Th 07:00-19:00; Fr 07:00-17:00; Sa 08:00-13:00,Banner Health,Q4856918
153124,bluerhino,Walgreens #4793,,Chandler,AZ,,US,+1 480-722-1780,,,Blue Rhino,Q65681213
208386,bluerhino,WinCo Foods #129  (Chandler),,Chandler,AZ,,US,+1 623-463-8661,,,Blue Rhino,Q65681213
238878,bluerhino,Circle K #2705291,,Chandler,AZ,,US,+1 480-963-3733,,,Blue Rhino,Q65681213
238858,bluerhino,Circle K #2703377,,Chandler,AZ,,US,+1 480-895-3172,,,Blue Rhino,Q65681213
08222_1,bmw_group,Victory BMW,,Chandler,AZ,,US,+1 844-866-2677,https://www.ridenowchandler.com/,,BMW Motorrad,Q249173
1044,burlington_us,Burlington,,Chandler,AZ,,US,+1 480-786-5186,https://stores.burlington.com/az/chandler/1044,Mo-Th 08:00-23:00; Fr-Sa 09:00-24:00; Su 09:00-22:00,Burlington,Q4999220
36325,cadillac,"EARNHARDT CHANDLER CADILLAC, INC",,Chandler,AZ,,US,+1 480-945-1200,https://www.chandlercadillac.com,Mo-Sa 08:00-20:00; Su 10:00-18:00,Cadillac,Q27436
2040048,chase_us,Gilbert and Germann - New branch,,Chandler,AZ,,US,+1 480-782-8709,https://locator.chase.com/az/chandler/2790-e-germann-rd,Mo-Fr 09:00-17:00; Sa 09:00-14:00,Chase,Q524629
az_chandler_2895-s-alma-school-rd,chipotle, ,,Chandler,AZ,,US,+1 480-786-1122,https://locations.chipotle.com/az/chandler/2895-s-alma-school-rd,,Chipotle,Q465751
42137,citi,ATM Circle K,,Chandler,AZ,,US,,,,Citibank,Q857063
84433,citi,ATM TRANSFUND,,Chandler,AZ,,US,,,,Citibank,Q857063
42153,citi,ATM Circle K,,Chandler,AZ,,US,,,,Citibank,Q857063
40107,citi,ATM Circle K,,Chandler,AZ,,US,,,,Citibank,Q857063
84332,citi,ATM TRANSFUND,,Chandler,AZ,,US,,,,Citibank,Q857063
88557,citi,ATM Walgreens,,Chandler,AZ,,US,,,,Citibank,Q857063
57556,citi,ATM Fry's,,Chandler,AZ,,US,,,,Citibank,Q857063
chandler/3390,claires,Shop Ear Piercings & Jewelry at Claires Walmart Chandler,,CHANDLER,AZ,,US,+1 480-821-3566,https://stores.claires.com/us/az/chandler/3390.html,Mo-Su 12:00-20:00,Claire's,Q2974996
20912,coldstone_creamery,Cold Stone Creamery,,Chandler,AZ,,US,+1 480-821-1570,https://www.coldstonecreamery.com/stores/20912,,Cold Stone Creamery,Q1094923
20039,coldstone_creamery,Cold Stone Creamery,,Chandler,AZ,,US,+1 480-786-8506,https://www.coldstonecreamery.com/stores/20039,,Cold Stone Creamery,Q1094923
,credit_union_us,Arizona Financial CU,,Chandler,AZ,,US,+1 602-683-1000,,Mo-Th 09:00-05:00; Fr 09:00-06:00,,
684,culvers_us,"Culver's of Chandler, AZ - S Arizona Ave",,Chandler,AZ,,US,+1 480-792-1939,http://www.culvers.com/restaurants/chandler-az-s-arizona-rd,Mo-Th 10:00-22:00; Fr 10:00-23:00; Su 10:00-22:00,Culver's,Q1143589
5038,cvs_us,CVS Pharmacy,,Chandler,AZ,,US,+1 480-899-2183,https://www.cvs.com/store-locator/chandler-az-pharmacies/2010-s-dobson-rd-chandler-az-85286/storeid=5038,Mo-Su 07:00-23:00,CVS Pharmacy,Q2078880
7723,dollartree,DollarTree,,Chandler,AZ,,US,+1 480-383-4989,,Mo-Sa 09:00-21:00; Su 09:00-20:00,Dollar Tree,Q5289230
DB533,dutchbros,Gilbert Rd.,,Chandler,AZ,,US,,https://locations.dutchbros.com/dutch-bros-coffee-c15c736a5d3b,Mo-Su 05:00-23:00,Dutch Bros. Coffee,Q5317253
3005,eightyfour_lumber_us,CHANDLER,,CHANDLER,AZ,,US,+1 480-814-8484,https://www.84lumber.com/store-locator/store-detail/?storeId=3005,Mo-Fr 06:00-17:00; Sa 08:00-12:00,84 Lumber,Q4644779
2925-s-alma-school-rd,einsteinbros,Alma School & Queen Creek Einstein Bros. Bagels,,Chandler,AZ,,US,+1 480-899-4449,https://locations.einsteinbros.com/us/az/chandler/2925-s-alma-school-rd,Mo-Fr 05:00-14:00; Sa-Su 06:00-14:00,Einstein Bros. Bagels,Q5349788
210301,electrify_america,"Kroger Frys 69 (Chandler, AZ)",,Chandler,AZ,,US,,,,Electrify America,Q59773555
E150G9,enterprise,Chandler Alma School & Germann,,Chandler,AZ,,US,+1 480-899-3766,,,Enterprise Rent-A-Car,Q17085454
https://locations.fivebelow.com/az/chandler/2965-s-alma-school-road,five_below,Five Below Las Tiendas Village,,Chandler,AZ,,US,,https://locations.fivebelow.com/az/chandler/2965-s-alma-school-road,Mo-Sa 10:00-20:00; Su 11:00-18:00,Five Below,Q5455836
2837,gamestop_us,San Tan Gateway,,Chandler,AZ,,US,+1 480-726-1963,https://www.gamestop.com/search/?store=2837,Mo-Th 12:00-19:00; Fr-Sa 10:00-20:00; Su 12:00-19:00,GameStop,Q202210
https://stores.gnc.com/#24059980,gnc,GNC Las Tiendas Village,,,AZ,,US,+1 480-963-7184,https://stores.gnc.com/all-stores-arizona/chandler/2925-s-alma-school-rd,Mo-Sa 10:00-19:00; Su 11:00-18:00,GNC,Q4808595
5b7c84ee-9b5a-e711-b586-005056890337,goodwill,2880 S. Alma School Rd. Ste #1,,Chandler,AZ,,US,+1 480-398-7646,https://www.goodwill.org/locator/location/?store=NWI3Yzg0ZWUtOWI1YS1lNzExLWI1ODYtMDA1MDU2ODkwMzM3&lat=MzMuMjYzODI=&lng=LTExMS44NjEzOA==,,Goodwill,Q5583655
phxclhw-homewood-suites-phoenix-chandler-fashion-center,hilton,Homewood Suites by Hilton Phoenix Chandler Fashion Center,,,AZ,,US,+1 480-963-5700,https://www.hilton.com/ar/hotels/phxclhw-homewood-suites-phoenix-chandler-fashion-center/,,Homewood Suites by Hilton,Q5890701
phxcrhx-hampton-suites-phoenix-chandler-fashion-center-az,hilton,Hampton Inn & Suites Phoenix Chandler-Fashion Center AZ,,,AZ,,US,+1 480-917-9500,https://www.hilton.com/ar/hotels/phxcrhx-hampton-suites-phoenix-chandler-fashion-center-az/,,Hampton by Hilton,Q5646230
2017,h_r_block,H&R Block,,Chandler,AZ,,US,+1 480-821-8553,https://www.hrblock.com/local-tax-offices/arizona/chandler/1005-s-arizona-ave/2017/,,H&R Block,Q5627799
boa-gilbert,indigo,BOA - Gilbert,,Gilbert,AZ,,US,,,,Indigo,Q3559970
https://office.jacksonhewitt.com/#27575374,jackson_hewitt,Jackson Hewitt,,Chandler,AZ,,US,+1 480-586-3714,https://office.jacksonhewitt.com/tax-preparation-services-locations/en/az/chandler/2750-e-germann-rd/53360,Mo-Sa 11:00-19:00; Su 12:00-16:00,Jackson Hewitt,Q6117132
https://locations.jimmyjohns.com/az/chandler/sandwiches-2460.html,jimmy_johns,Jimmy John's,,Chandler,AZ,,US,+1 480-917-1125,https://locations.jimmyjohns.com/az/chandler/sandwiches-2460.html,,Jimmy John's,Q1689380
https://locations.jimmyjohns.com/az/chandler/sandwiches-2447.html,jimmy_johns,Jimmy John's,,Chandler,AZ,,US,+1 480-963-0000,https://locations.jimmyjohns.com/az/chandler/sandwiches-2447.html,,Jimmy John's,Q1689380
https://locations.jimmyjohns.com/az/chandler/sandwiches-2130.html,jimmy_johns,Jimmy John's,,Chandler,AZ,,US,+1 480-786-4444,https://locations.jimmyjohns.com/az/chandler/sandwiches-2130.html,,Jimmy John's,Q1689380
301721,kindercare,South Chandler KinderCare,,Chandler,AZ,,US,,https://www.kindercare.com/our-centers/chandler/az/301721,,KinderCare Learning Centers,Q6410551
619,kohls_us,Kohl's,,Chandler,AZ,,US,+1 480-782-5865,https://www.kohls.com/stores/az/chandler-619.shtml,Mo-Th 09:00-21:00; Fr-Sa 09:00-22:00; Su 09:00-21:00,Kohl's,Q967265
PHXCF,marriott,Courtyard Phoenix Chandler/Fashion Center,,Chandler,AZ,,US,+1 480-855-8600,https://www.marriott.com/PHXCF,,Courtyard by Marriott,Q1053170
PHXFF,marriott,Fairfield Inn & Suites Phoenix Chandler/Fashion Center,,Chandler,AZ,,US,+1 480-963-5300,https://www.marriott.com/PHXFF,,Fairfield by Marriott,Q5430314
PHXML,marriott,Marriott Phoenix Chandler,,Chandler,AZ,,US,+1 480-732-1600,https://www.marriott.com/PHXML,,Marriott Hotels & Resorts,Q3918608
https://locations.massageenvy.com/#1774404,massage_envy,Massage Envy Chandler Crossroads,,Chandler Chandler,AZ,,US,+1 480-857-8888,https://locations.massageenvy.com/arizona/chandler/2880-e-germann-rd.html,Mo-Fr 09:00-22:00; Sa-Su 09:00-19:00,Massage Envy,Q10327170
18054,mattress_firm_us,Mattress Firm Crossroads Town Center,,Chandler,AZ,,US,+1 480-855-7662,https://www.mattressfirm.com/en-us/stores/az/chandler/029163/,,Mattress Firm,Q6791878
17979,mattress_firm_us,Mattress Firm Arizona Avenue,,Chandler,AZ,,US,+1 480-899-9847,https://www.mattressfirm.com/en-us/stores/az/chandler/029157/,,Mattress Firm,Q6791878
NNA3331,nissan_europe,AUTONATION NISSAN CHANDLER,,CHANDLER,AZ,,US,+1 480-461-4300,https://www.autonationnissanchandler.com,Mo-Sa 09:00-21:00; Su 10:00-18:00,Nissan,Q20165
7182,old_chicago_us,Chandler,"2950 E. Germann Rd., Chandler, AZ 85286",CHANDLER,AZ,,US,,https://oldchicago.com/locations/chandler,Mo-Th 11:00-21:00; Fr-Sa 11:00-22:00; Su 11:00-21:00,Old Chicago,Q64411347
1611,orangetheory_fitness,"Chandler-Pecos Ranch, AZ",,Chandler,AZ,,US,+1 480-699-6115,,,Orangetheory Fitness,Q25005163
https://locations.oreillyauto.com/az/chandler/check-engine-light-testing-6267.html,oreilly,Your Chandler O'Reilly Auto Parts Store,,Chandler,AZ,,US,+1 602-851-8990,https://locations.oreillyauto.com/az/chandler/check-engine-light-testing-6267.html,Mo-Sa 07:00-23:00; Su 07:00-21:00,O'Reilly Auto Parts,Q7071951
https://locations.oreillyauto.com/az/chandler/wiper-installation-6267.html,oreilly,Your Chandler O'Reilly Auto Parts Store,,Chandler,AZ,,US,+1 602-851-8990,https://locations.oreillyauto.com/az/chandler/wiper-installation-6267.html,Mo-Sa 07:00-23:00; Su 07:00-21:00,O'Reilly Auto Parts,Q7071951
https://locations.oreillyauto.com/az/chandler/autopartes-6267.html,oreilly,O'Reilly Auto Parts,,Chandler,AZ,,US,+1 602-851-8990,https://locations.oreillyauto.com/az/chandler/autopartes-6267.html,Mo-Sa 07:00-23:00; Su 07:00-21:00,O'Reilly Auto Parts,Q7071951
https://locations.oreillyauto.com/az/chandler/battery-testing-6267.html,oreilly,Your Chandler O'Reilly Auto Parts Store,,Chandler,AZ,,US,+1 602-851-8990,https://locations.oreillyauto.com/az/chandler/battery-testing-6267.html,Mo-Sa 07:00-23:00; Su 07:00-21:00,O'Reilly Auto Parts,Q7071951
953,party_city,Crossroads Towne Center,,Chandler,AZ,,US,+1 623-257-3992,https://stores.partycity.com/us/az/chandler/party-store-pc953.html,,Party City,Q7140896
058633,penske,Germann Road Storage Solutions,,CHANDLER,AZ,,US,+1 480-941-4413,https://www.pensketruckrental.com/locations/us/arizona/chandler/058633/,,Penske,Q81234570
1868,pet_suites_us,PetSuites Chandler,,Chandler,AZ,,US,+1 480-480-2140,https://chandler.petsuitesofamerica.com/,Mo-Su 06:30-20:00,PetSuites,Q112037454
az_chandler_2960-s-alma-school-rd,pizza_hut_us,2960 S Alma School Rd.,,Chandler,AZ,,US,+1 480-963-5588,https://locations.pizzahut.com/az/chandler/2960-s-alma-school-rd,,Pizza Hut,Q191615
restaurant_84992,popeyes_us_fr,Popeyes,"2850 South Alma School Road Chandler, Arizona 85286 - USA",Chandler,AZ,,US,+1 480-821-1815,https://www.popeyes.com/store-locator/store/restaurant_84992,Mo-We 09:00-23:00; Th-Sa 09:00-00:00; Su 09:00-23:00,Popeyes,Q1330910
https://www.publicstorage.com/self-storage-az-chandler/5476.html,public_storage_us,Public Storage,,Chandler,AZ,,US,+1 480-887-9746,https://www.publicstorage.com/self-storage-az-chandler/5476.html,,Public Storage,Q1156045
https://locations.quiktrip.com/#16004265,quiktrip_us,QuikTrip Store #473 2975 S Gilbert Rd,,Chandler,AZ,,US,+1 480-899-7363,https://locations.quiktrip.com/az/chandler/2975-s-gilbert-rd,24/7,QuikTrip,Q7271953
https://locations.quiktrip.com/#16004457,quiktrip_us,QuikTrip Store #442 2010 S Arizona Ave,,Chandler,AZ,,US,+1 480-726-5202,https://locations.quiktrip.com/az/chandler/2010-s-arizona-ave,24/7,QuikTrip,Q7271953
3617,shellrecharge,DPX7,,Chandler,AZ,,US,,,,Shell Recharge,Q105883058
https://smashburger.com/locations/#64506779,smashburger,Smashburger,,Chandler,AZ,,US,+1 602-892-0658,https://smashburger.com/locations/us/az/chandler/2925-s-alma-school-rd,Mo-Th 10:00-22:00; Fr-Sa 10:00-23:00; Su 10:00-22:00,Smashburger,Q17061332
31889,smilebrands,Bright Now! Dental Chandler,1445 S Arizona Avenue,Chandler,AZ,,US,+1 480-857-8270,https://www.brightnow.com/dentist-near-me/chandler-dentist/40050/,,Smile Brands Inc.,Q108286823
683,sola_salon_studios,Gilbert,,Chandler,AZ,,US,+1 602-799-2422,https://www.solasalonstudios.com/locations/gilbert,,Sola Salon Studios,Q64337426
2840-e-germann-rd,staples,"Staples Chandler, AZ",,Chandler,AZ,,US,,https://stores.staples.com/az/chandler/2840-e-germann-rd,Mo-Fr 08:00-20:00; Sa 09:00-19:00; Su 11:00-17:00,Staples,Q785943
80449,supercuts,The Shoppes At Clemente Ranch,2040 S Alma School Rd,Chandler,AZ,,US,+1 480-899-4467,https://www.supercuts.com/checkin/80449,Tu-Su 10:00-18:00,Supercuts,Q7643239
052374,uhaul,Shoppers Supply,2880 S Alma School Rd,Chandler,AZ,,US,+1 480-899-9757,,Mo-Sa 00:00-19:00; Su 00:00-16:00,U-Haul,Q7862902
039006,uhaul,SSC Auto Repair,900 E Germann Rd,Chandler,AZ,,US,+1 480-899-0277,,Mo-Fr 00:00-16:00,U-Haul,Q7862902
8528600002,usps_collection_boxes,USPS COLLECTION BOX - BLUE BOX,2700 S PRICE RD,CHANDLER,AZ,,US,,,,United States Postal Service,Q668687
8528600008,usps_collection_boxes,USPS COLLECTION BOX - BLUE BOX,2820 S ALMA SCHOOL RD STE 21,CHANDLER,AZ,,US,,,,United States Postal Service,Q668687
8528600009,usps_collection_boxes,USPS COLLECTION BOX - BLUE BOX,1721 W SPRINGFIELD WAY,CHANDLER,AZ,,US,,,,United States Postal Service,Q668687
8528600004,usps_collection_boxes,USPS COLLECTION BOX - BLUE BOX,1375 S ARIZONA AVE,CHANDLER,AZ,,US,,,,United States Postal Service,Q668687
8528600003,usps_collection_boxes,USPS COLLECTION BOX - BLUE BOX,2021 S AIRPORT BLVD,CHANDLER,AZ,,US,,,,United States Postal Service,Q668687
8528600005,usps_collection_boxes,USPS COLLECTION BOX - BLUE BOX,1175 S ARIZONA AVE,CHANDLER,AZ,,US,,,,United States Postal Service,Q668687
8528600006,usps_collection_boxes,USPS COLLECTION BOX - BLUE BOX,2750 E GERMANN RD,CHANDLER,AZ,,US,,,,United States Postal Service,Q668687
R00000245544,verizon_us,Crossroads,,Chandler,AZ,,US,+1 480-726-1648,https://www.verizon.com/stores/details/arizona/chandler/crossroads-362867/,Mo-Fr 10:00-20:00; Sa 09:00-19:00; Su 11:00-18:00,Verizon,Q919641
,visa,,,CHANDLER,AZ,,US,,,,,
,visa,,,CHANDLER,AZ,,US,,,,,
,visa,,,CHANDLER,AZ,,US,,,,,
,visa,,,CHANDLER,AZ,,US,,,,,
,visa,,,CHANDLER,AZ,,US,,,,,
,visa,,,CHANDLER,AZ,,US,,,,,
,visa,,,CHANDLER,AZ,,US,,,,,
,visa,,,CHANDLER,AZ,,US,,,,,
,visa,,,CHANDLER,AZ,,US,,,,,
,visa,,,CHANDLER,AZ,,US,,,,,
,visa,,,CHANDLER,AZ,,US,,,,,
,visa,,,CHANDLER,AZ,,US,,,,,
,visa,,,CHANDLER,AZ,,US,,,,,
,visa,,,CHANDLER,AZ,,US,,,,,
,visa,,,CHANDLER,AZ,,US,,,,,
,visa,,,CHANDLER,AZ,,US,,,,,
,visa,,,CHANDLER,AZ,,US,,,,,
,visa,,,CHANDLER,AZ,,US,,,,,
,visa,,,CHANDLER,AZ,,US,,,,,
,visa,,,CHANDLER,AZ,,US,,,,,
,visa,,,CHANDLER,AZ,,US,,,,,
,visa,,,CHANDLER,AZ,,US,,,,,
,visa,,,CHANDLER,AZ,,US,,,,,
,visa,,,CHANDLER,AZ,,US,,,,,
https://www.walgreens.com/locator/walgreens-1975+s+alma+school+rd-chandler-az-85286/id=4793,walgreens,Walgreens,,Chandler,AZ,,US,+1 480-722-1780,https://www.walgreens.com/locator/walgreens-1975+s+alma+school+rd-chandler-az-85286/id=4793,Mo-Su 07:00-23:00,Walgreens,Q1591889
https://locations.wendys.com/#9251352,wendys,"Wendy's 1045 S. Arizona Ave in Chandler, AZ",,Chandler,AZ,,US,+1 480-917-6855,https://locations.wendys.com/united-states/az/chandler/1045-s-arizona-ave,"Mo-Su 06:30-10:30,07:00-22:00",Wendy's,Q550258
c8a74a4006b370094f5ee2f27fcb36aa,western_union,WINCO FOODS #129,,Chandler,AZ,,US,+1 623-463-8661,https://location.westernunion.com/us/az/chandler/c8a74a4006b370094f5ee2f27fcb36aa,Mo-Su 08:00-22:00,Western Union,Q861042
eccc7428840520baa3532a4d954ee2e6,western_union,WALMART #003360,,Chandler,AZ,,US,+1 480-812-2930,https://location.westernunion.com/us/az/chandler/eccc7428840520baa3532a4d954ee2e6,Mo-Su 07:00-21:00,Western Union,Q861042
932ad6dbb6e3b87c4153572efb8544e7,western_union,QUIKTRIP #473,,Chandler,AZ,,US,+1 480-899-7363,https://location.westernunion.com/us/az/chandler/932ad6dbb6e3b87c4153572efb8544e7,,Western Union,Q861042
f4918d0bea78e7b2dc546fd7b147fe05,western_union,WALMART #002671,,Chandler,AZ,,US,+1 480-726-0841,https://location.westernunion.com/us/az/chandler/f4918d0bea78e7b2dc546fd7b147fe05,Mo-Sa 08:00-20:00; Su 10:00-18:00,Western Union,Q861042
https://locations.whataburger.com/az/chandler/3077-e-queen-creek-rd.html,whataburger,E. Queen Creek Rd & Gilbert Rd,3077 E QUEEN CREEK RD,CHANDLER,AZ,,US,,https://locations.whataburger.com/az/chandler/3077-e-queen-creek-rd.html,,Whataburger,Q376627
