Ref,Spider,Name,Address,City,State,Zipcode,Country,Phone,Website,Hours,Brand,WikiData
https://local.albertsons.com/#5603159,albertsons,Albertsons,,Las Vegas,NV,,US,+1 702-889-2000,https://local.albertsons.com/nv/las-vegas/5975-w-tropicana-ave.html,Mo-Su 06:00-22:00,Albertsons,Q2831861
https://restaurants.applebees.com/en-us/nv/las-vegas/3501-south-rainbow-82069,applebees,Connect with this Applebee's,,Las Vegas,NV,,US,+1 702-220-3070,https://restaurants.applebees.com/en-us/nv/las-vegas/3501-south-rainbow-82069,Mo-Th 11:00-24:00; Fr-Sa 11:00-01:00; Su 11:00-24:00,Applebees,Q621532
https://locations.arbys.com/nv/lasvegas/6010-w-flamingo.html,arbys_us,"Arby's Fast-Food Drive Through Near You in Las Vegas, NV",,Las Vegas,NV,,US,+1 702-331-7202,https://locations.arbys.com/nv/lasvegas/6010-w-flamingo.html,Mo-Su 09:30-24:00,Arby's,Q630866
2204,autozone_us,AutoZone Auto Parts Las Vegas,,Las Vegas,NV,,US,+1 702-221-7695,https://www.autozone.com/locations/nv/las-vegas/4850-s-jones-blvd.html,Mo-Sa 07:30-22:00; Su 08:00-21:00,AutoZone,Q4826087
https://locators.bankofamerica.com/nv/lasvegas/financial-centers-las-vegas-11160.html,bankofamerica,Bank of America Financial Center & Drive-Thru ATM | Spring Mountain Jones,,Las Vegas,NV,,US,+1 702-654-3750,https://locators.bankofamerica.com/nv/lasvegas/financial-centers-las-vegas-11160.html,Mo-Fr 10:00-16:00,Bank of America,Q487907
https://locators.bankofamerica.com/nv/lasvegas/financial-centers-las-vegas-9159.html,bankofamerica,Bank of America Financial Center & Drive-Thru ATM | Tropicana/Decatur,,Las Vegas,NV,,US,+1 702-654-5000,https://locators.bankofamerica.com/nv/lasvegas/financial-centers-las-vegas-9159.html,Mo-Fr 09:00-17:00; Sa 09:00-14:00,Bank of America,Q487907
https://locators.bankofamerica.com/nv/lasvegas/atm-las-vegas-110257.html,bankofamerica,Bank of America Drive-Thru ATM | Flamingo And Decatur,,Las Vegas,NV,,US,+1 844-401-8500,https://locators.bankofamerica.com/nv/lasvegas/atm-las-vegas-110257.html,,Bank of America,Q487907
https://locations.baskinrobbins.com/nv/las-vegas/4500-w.-tropicana-ave-347634-br,baskin_robbins_us,Baskin-Robbins™,,Las Vegas,NV,,US,+1 702-365-7111,https://locations.baskinrobbins.com/nv/las-vegas/4500-w.-tropicana-ave-347634-br,Mo-Su 11:00-24:00,Baskin-Robbins,Q584601
226080,bluerhino,Sky Bridge Ace Hardware #18690,,Las Vegas,NV,,US,+1 702-331-7006,,,Blue Rhino,Q65681213
184013,bluerhino,NVAK dba Rebel #6195,,Las Vegas,NV,,US,+1 702-248-4144,,,Blue Rhino,Q65681213
146865,bluerhino,Green Valley Grocery #34,,Las Vegas,NV,,US,+1 702-215-0780,,,Blue Rhino,Q65681213
146839,bluerhino,Green Valley Grocery #7,,Las Vegas,NV,,US,+1 702-367-1019,,,Blue Rhino,Q65681213
145747,bluerhino,Smiths Food & Drug 304,,Las Vegas,NV,,US,+1 702-248-4400,,,Blue Rhino,Q65681213
156016,bluerhino,Walgreens #3873,,Las Vegas,NV,,US,+1 702-871-1623,,,Blue Rhino,Q65681213
146835,bluerhino,Green Valley Grocery #2,,Las Vegas,NV,,US,+1 702-362-2309,,,Blue Rhino,Q65681213
57065,bluerhino,Smiths Food & Drug 351,,Las Vegas,NV,,US,+1 702-871-0904,,,Blue Rhino,Q65681213
150032,bluerhino,Smiths Food & Drug 351 - Fuel Site,,Las Vegas,NV,,US,+1 702-871-0904,,,Blue Rhino,Q65681213
183959,bluerhino,NVAK dba Rebel #6144,,Las Vegas,NV,,US,+1 702-362-7101,,,Blue Rhino,Q65681213
183987,bluerhino,NVAK dba Rebel #6167,,Las Vegas,NV,,US,+1 702-220-3940,,,Blue Rhino,Q65681213
156031,bluerhino,Walgreens #5154,,Las Vegas,NV,,US,+1 702-889-0922,,,Blue Rhino,Q65681213
209381,bluerhino,City Express #8 LLC,,Las Vegas,NV,,US,+1 702-253-7101,,,Blue Rhino,Q65681213
146858,bluerhino,Green Valley Grocery #27,,Las Vegas,NV,,US,+1 702-895-7770,,,Blue Rhino,Q65681213
9107,burgerking,Burger King,,las vegas,NV,,US,+1 702-798-4364,https://www.bk.com/store-locator/store/restaurant_5131,Mo-Th 06:00-21:00; Fr-Su 07:00-21:00,Burger King,Q177054
5812,burgerking,Burger King,,Las Vegas,NV,,US,+1 702-876-3415,https://www.bk.com/store-locator/store/restaurant_3263,Mo-Su 06:00-22:00,Burger King,Q177054
2041362,chase_us,Tropicana and Jones - New branch,,Las Vegas,NV,,US,+1 702-248-4280,https://locator.chase.com/nv/las-vegas/6120-w-tropicana-ave,Mo-Fr 09:00-17:00; Sa 09:00-14:00,Chase,Q524629
82413,citi,ATM Target,,Las Vegas,NV,,US,,,,Citibank,Q857063
50841,citi,ATM CVS,,Las Vegas,NV,,US,,,,Citibank,Q857063
32105,citi,ATM 7ELEVEN-FCTI,,Las Vegas,NV,,US,,,,Citibank,Q857063
31651,citi,ATM 7ELEVEN-FCTI,,Las Vegas,NV,,US,,,,Citibank,Q857063
76200,citi,ATM Smiths,,Las Vegas,NV,,US,,,,Citibank,Q857063
92493,citi,ATM Walgreens,,Las Vegas,NV,,US,,,,Citibank,Q857063
30648,citi,ATM 7ELEVEN-FCTI,,Las Vegas,NV,,US,,,,Citibank,Q857063
51949,citi,ATM CVS,,Las Vegas,NV,,US,,,,Citibank,Q857063
90648,citi,ATM Walgreens,,Las Vegas,NV,,US,,,,Citibank,Q857063
30416,citi,ATM 7ELEVEN-FCTI,,Las Vegas,NV,,US,,,,Citibank,Q857063
30414,citi,ATM 7ELEVEN-FCTI,,Las Vegas,NV,,US,,,,Citibank,Q857063
30651,citi,ATM 7ELEVEN-FCTI,,Las Vegas,NV,,US,,,,Citibank,Q857063
91417,citi,ATM Walgreens,,Las Vegas,NV,,US,,,,Citibank,Q857063
70233234,cricket_wireless,Cricket Wireless Authorized Retailer,,Las Vegas,NV,,US,+1 702-471-7777,https://www.cricketwireless.com/stores/ll/US/NV/Las-Vegas/6160-W-Tropicana-Ave,Mo-Sa 10:00-19:00; Su 11:00-17:00,Cricket Wireless,Q5184987
16291,cvs_us,CVS Pharmacy,,Las Vegas,NV,,US,+1 702-252-4600,https://www.cvs.com/store-locator/las-vegas-nv-pharmacies/3550-s-rainbow-blvd-las-vegas-nv-89103/storeid=16291,"Mo-Fr 10:00-13:30,14:00-19:00",CVS Pharmacy,Q2078880
8809,cvs_us,CVS Pharmacy,,Las Vegas,NV,,US,+1 702-873-5917,https://www.cvs.com/store-locator/las-vegas-nv-pharmacies/4014-s-rainbow-blvd-las-vegas-nv-89103/storeid=8809,Mo-Su 08:00-22:00,CVS Pharmacy,Q2078880
8798,cvs_us,CVS Pharmacy,,Las Vegas,NV,,US,+1 702-252-0031,https://www.cvs.com/store-locator/las-vegas-nv-pharmacies/5985-w-tropicana-rd-las-vegas-nv-89103/storeid=8798,Mo-Su 07:00-22:00,CVS Pharmacy,Q2078880
247242,dennys,Denny's,,Las Vegas,NV,,US,+1 702-967-5280,https://locations.dennys.com/NV/LAS-VEGAS/247242,24/7,Denny's,Q1189695
249346,dennys,Denny's,,Las Vegas,NV,,US,+1 702-625-5371,https://locations.dennys.com/NV/LAS-VEGAS/249346,24/7,Denny's,Q1189695
9044,dominos_pizza_us,Domino's Pizza,,Las Vegas,NV,,US,+1 702-748-8820,https://pizza.dominos.com/nevada/las-vegas/3675-s-rainbow-blvd-ste-102,Mo 11:00-24:00; Tu 10:00-24:00; We 11:00-24:00; Th 10:00-24:00; Fr 11:00-01:00; Sa 10:00-01:00; Su 10:00-24:00,Domino's,Q839466
345933,dunkin_us,Dunkin',,Las Vegas,NV,,US,+1 702-889-1368,https://locations.dunkindonuts.com/en/nv/las-vegas/6795-tropicana-ave/345933,Mo-Th 05:00-19:00; Fr 05:00-18:00; Sa-Su 06:00-19:00,Dunkin',Q847743
2905,eightyfour_lumber_us,LAS VEGAS,,LAS VEGAS,NV,,US,+1 702-251-8498,https://www.84lumber.com/store-locator/store-detail/?storeId=2905,Mo-Fr 06:00-17:00; Sa 08:00-12:00,84 Lumber,Q4644779
5973,elpolloloco,El Pollo Loco,,Las Vegas,NV,,US,+1 702-871-7100,,,El Pollo Loco,Q2353849
E15415,enterprise,Las Vegas Exotics,,Las Vegas,NV,,US,+1 702-739-6299,,,Enterprise Rent-A-Car,Q17085454
E15425,enterprise,Las Vegas Decatur - Flamingo,,Las Vegas,NV,,US,+1 702-365-6662,,,Enterprise Rent-A-Car,Q17085454
E154MC,enterprise,Las Vegas Motorcycle,,Las Vegas,NV,,US,+1 702-257-0304,,,Enterprise Rent-A-Car,Q17085454
E15450,enterprise,The Orleans Hotel and Casino,,Las Vegas,NV,,US,+1 702-789-3702,,,Enterprise Rent-A-Car,Q17085454
501914,extra_space_storage,Las Vegas Self Storage at 6175 W Tropicana Ave,,Las Vegas,NV,,US,+1 702-367-0123,https://www.extraspace.com/storage/facilities/us/nevada/las_vegas/501914/,Mo-Su 06:00-22:00,Extra Space Storage,Q5422162
744344,firestone_auto_care,Firestone Complete Auto Care,,Las Vegas,NV,,US,+1 702-690-4671,https://local.firestonecompleteautocare.com/nevada/las-vegas/6760-w-flamingo-rd/,,Firestone,Q420837
2021,first_cash,Cash America Pawn,,Las Vegas,NV,,US,+1 702-739-6197,,,Cash America,Q5048636
2008,first_cash,Cash America Pawn,,Las Vegas,NV,,US,+1 702-252-7296,,,Cash America,Q5048636
https://www.fuddruckers.com/las-vegas-orleans-casino,fuddruckers,Las Vegas Orleans Casino,,Las Vegas,NV,,US,+1 702-256-3833,https://www.fuddruckers.com/las-vegas-orleans-casino,,Fuddruckers,Q5507056
https://salons.greatclips.com/us/nv/las-vegas/6125-w-tropicana-ave,greatclips,Great Clips,,Las Vegas,NV,,US,+1 702-227-7403,https://salons.greatclips.com/us/nv/las-vegas/6125-w-tropicana-ave,Mo-Fr 08:00-20:00; Sa 08:00-18:00; Su 09:00-18:00,Great Clips,Q5598967
https://salons.greatclips.com/us/nv/las-vegas/3675-s-rainbow-blvd,greatclips,Great Clips,,Las Vegas,NV,,US,+1 702-857-7858,https://salons.greatclips.com/us/nv/las-vegas/3675-s-rainbow-blvd,Mo-Fr 08:00-20:00; Sa-Su 08:00-19:00,Great Clips,Q5598967
https://www.harborfreight.com/storelocator/4740-s-decatur-blvd-las-vegas-89103?number=13,harborfreight,"Harbor Freight Tools Las Vegas, NV",,Las Vegas,NV,,US,+1 702-889-9380,https://www.harborfreight.com/storelocator/4740-s-decatur-blvd-las-vegas-89103?number=13,Mo-Sa 08:00-20:00; Su 09:00-18:00,Harbor Freight Tools,Q5654601
lasdmhw-homewood-suites-las-vegas-city-center,hilton,Homewood Suites by Hilton Las Vegas City Center,,,NV,,US,+1 702-598-0101,https://www.hilton.com/ar/hotels/lasdmhw-homewood-suites-las-vegas-city-center/,,Homewood Suites by Hilton,Q5890701
27864,h_r_block,H&R Block,,Las Vegas,NV,,US,+1 702-222-0189,https://www.hrblock.com/local-tax-offices/nevada/las-vegas/6170-w-flamingo-rd/27864/,,H&R Block,Q5627799
64114,h_r_block,H&R Block,,Las Vegas,NV,,US,+1 702-255-1040,https://www.hrblock.com/local-tax-offices/nevada/las-vegas/4750-w-flamingo-rd/64114/,,H&R Block,Q5627799
nv_las-vegas_breakfast-3595-s-rainbow-blvd-1606,ihop,IHOP Breakfast Restaurants Near You at 3595 S Rainbow Blvd,,Las Vegas,NV,,US,+1 702-365-1004,https://restaurants.ihop.com/en-us/nv/las-vegas/breakfast-3595-s-rainbow-blvd-1606,,IHOP,Q1185675
86,innout,Las Vegas (Dean Martin & Tropicana),,Las Vegas,NV,,US,,http://locations.in-n-out.com/86,,In-N-Out Burger,Q1205312
https://locations.jackinthebox.com/us/nv/las-vegas/3235-w-tropicana-ave,jackinthebox,Jack in the Box,,Las Vegas,NV,,US,+1 702-736-7458,https://locations.jackinthebox.com/us/nv/las-vegas/3235-w-tropicana-ave,Mo-Su 04:00-04:00,Jack in the Box,Q1538507
https://locations.jackinthebox.com/us/nv/las-vegas/4040-s-rainbow-blvd,jackinthebox,Jack in the Box,,Las Vegas,NV,,US,+1 702-227-1219,https://locations.jackinthebox.com/us/nv/las-vegas/4040-s-rainbow-blvd,Mo-Tu 06:00-01:00; We 06:00-04:00; Th-Su 04:00-04:00,Jack in the Box,Q1538507
https://locations.jackinthebox.com/us/nv/las-vegas/4860-s-decatur-blvd,jackinthebox,Jack in the Box,,Las Vegas,NV,,US,+1 702-876-0346,https://locations.jackinthebox.com/us/nv/las-vegas/4860-s-decatur-blvd,Mo-Su 04:00-04:00,Jack in the Box,Q1538507
https://office.jacksonhewitt.com/#27578484,jackson_hewitt,Jackson Hewitt,,Las Vegas,NV,,US,+1 702-444-3266,https://office.jacksonhewitt.com/tax-preparation-services-locations/en/nv/las-vegas/3625-s-rainbow-blvd/51584,Mo-Sa 11:00-19:00; Su 12:00-16:00,Jackson Hewitt,Q6117132
https://locations.jimmyjohns.com/nv/lasvegas/sandwiches-3704.html,jimmy_johns,Jimmy John's,,Las Vegas,NV,,US,+1 702-382-0700,https://locations.jimmyjohns.com/nv/lasvegas/sandwiches-3704.html,,Jimmy John's,Q1689380
300791,kindercare,Torrey Pines KinderCare,,Las Vegas,NV,,US,,https://www.kindercare.com/our-centers/las-vegas/nv/300791,,KinderCare Learning Centers,Q6410551
108257,little_free_library,The Shark Shack #108257 Las Vegas NV,,Las Vegas,NV,,US,,,,Little Free Library,Q6650101
134903,little_free_library,Little Blue Library #134903 Las Vegas NV,,Las Vegas,NV,,US,,,,Little Free Library,Q6650101
286731,marathon_petroleum_us,ARCO #66161,,Las Vegas,NV,,US,+1 702-798-5221,,,Arco,Q304769
286613,marathon_petroleum_us,ARCO #42407,,Las Vegas,NV,,US,+1 702-873-9327,,,Arco,Q304769
285861,marathon_petroleum_us,ARCO #66167,,Las Vegas,NV,,US,+1 702-220-3940,,,Arco,Q304769
65110579,moneygram,FUTURA - #NV100,,LAS VEGAS,NV,,US,+1 702-331-1778,,Mo-Su 09:00-19:00,MoneyGram,Q1944412
https://locations.oreillyauto.com/nv/lasvegas/check-engine-light-testing-6072.html,oreilly,Your Las Vegas O'Reilly Auto Parts Store,,Las Vegas,NV,,US,+1 702-970-5200,https://locations.oreillyauto.com/nv/lasvegas/check-engine-light-testing-6072.html,Mo-Sa 07:00-23:00; Su 07:00-22:00,O'Reilly Auto Parts,Q7071951
https://locations.oreillyauto.com/nv/lasvegas/wiper-installation-6072.html,oreilly,Your Las Vegas O'Reilly Auto Parts Store,,Las Vegas,NV,,US,+1 702-970-5200,https://locations.oreillyauto.com/nv/lasvegas/wiper-installation-6072.html,Mo-Sa 07:00-23:00; Su 07:00-22:00,O'Reilly Auto Parts,Q7071951
https://locations.oreillyauto.com/nv/lasvegas/battery-testing-6072.html,oreilly,Your Las Vegas O'Reilly Auto Parts Store,,Las Vegas,NV,,US,+1 702-970-5200,https://locations.oreillyauto.com/nv/lasvegas/battery-testing-6072.html,Mo-Sa 07:00-23:00; Su 07:00-22:00,O'Reilly Auto Parts,Q7071951
https://locations.oreillyauto.com/nv/lasvegas/autopartes-6072.html,oreilly,O'Reilly Auto Parts,,Las Vegas,NV,,US,+1 702-970-5200,https://locations.oreillyauto.com/nv/lasvegas/autopartes-6072.html,Mo-Sa 07:00-23:00; Su 07:00-22:00,O'Reilly Auto Parts,Q7071951
111401,pandaexpress,The Palms Casino,,Las Vegas,NV,,US,+1 702-507-9675,https://www.pandaexpress.com/locations/nv/las-vegas/4321-west-flamingo-road-#1241,Mo-Th 10:00-22:30; Fr-Sa 10:00-23:00; Su 10:00-22:30,Panda Express,Q1358690
111459,pandaexpress,Tropicana & Cameron,,Las Vegas,NV,,US,+1 702-876-9730,https://www.pandaexpress.com/locations/nv/las-vegas/4780-w-tropicana-ave,Mo-Th 09:00-21:30; Fr 08:30-21:30; Sa-Su 09:30-21:30,Panda Express,Q1358690
https://locations.papajohns.com/#10692446,papa_johns,Papa John's,,Las Vegas,NV,,US,+1 702-385-7272,https://locations.papajohns.com/united-states/nv/89103/las-vegas/5045-w-tropicana-ave,Mo-Th 10:00-24:00; Fr-Sa 10:00-01:00; Su 10:00-24:00,Papa John's Pizza,Q2759586
https://stores.petco.com/#27959902,petco,Petco Southwest Las Vegas,,Las Vegas,NV,,US,+1 702-253-7800,https://stores.petco.com/nv/lasvegas/pet-supplies-lasvegas-nv-573.html,Mo-Sa 09:00-21:00; Su 10:00-19:00,Petco,Q7171798
nv_las-vegas_6370-w-flamingo-rd,pizza_hut_us,6370 W Flamingo Rd.,,Las Vegas,NV,,US,+1 702-251-9011,https://locations.pizzahut.com/nv/las-vegas/6370-w-flamingo-rd,,Pizza Hut,Q191615
restaurant_85398,popeyes_us_fr,Popeyes,"4001 South Decatur Blvd Las Vegas, Nevada 89103 - USA",Las Vegas,NV,,US,+1 702-365-5030,https://www.popeyes.com/store-locator/store/restaurant_85398,Mo-Su 10:00-20:00,Popeyes,Q1330910
home-depot-3318-14166,ppgpaints,HOME DEPOT 3318,,"Las Vegas, ",NV,,US,+1 702-871-5035,https://www.ppgpaints.com/store-locator/us/nevada/las-vegas-paint-stores/home-depot-3318-14166,,PPG Paints,Q83891559
https://www.publicstorage.com/self-storage-nv-las-vegas/1503.html,public_storage_us,Public Storage,,Las Vegas,NV,,US,+1 702-482-9901,https://www.publicstorage.com/self-storage-nv-las-vegas/1503.html,,Public Storage,Q1156045
https://www.publicstorage.com/self-storage-nv-las-vegas/1478.html,public_storage_us,Public Storage,,Las Vegas,NV,,US,+1 702-979-4908,https://www.publicstorage.com/self-storage-nv-las-vegas/1478.html,,Public Storage,Q1156045
1871,rentacenter,Rent-A-Center,,Las Vegas,NV,,US,+1 702-362-8555,https://locations.rentacenter.com/nevada/las-vegas/6140-w-tropicana-ave/,Mo-Sa 10:00-18:00,Rent-A-Center,Q7313497
https://stations.sinclairoil.com/nv/las-vegas/3500-s-rainbow-blvd,sinclair_us,Sinclair Gas Station,,Las Vegas,NV,,US,+1 702-362-1207,https://stations.sinclairoil.com/nv/las-vegas/3500-s-rainbow-blvd,24/7,Sinclair,Q1290900
https://smashburger.com/locations/#64506671,smashburger,Smashburger,,Las Vegas,NV,,US,+1 702-763-9468,https://smashburger.com/locations/us/nv/las-vegas/3700-w-flamingo-rd,Mo-Th 10:00-22:00; Fr-Sa 10:00-23:00; Su 10:00-22:00,Smashburger,Q17061332
https://www.sprouts.com/store/nv/las-vegas/las-vegas-rainbow-blvd/,sprouts_farmer_market,Sprouts Farmers Market 502-Las Vegas &#8211; Rainbow Blvd.,,Las Vegas,NV,,US,+1 702-876-4888,https://www.sprouts.com/store/nv/las-vegas/las-vegas-rainbow-blvd/,Mo-Su 07:00-22:00,Sprouts Farmer Market,Q7581369
https://restaurants.subway.com/#14903109,subway,Subway,,Las Vegas Clark,NV,,US,+1 702-220-6731,https://restaurants.subway.com/united-states/nv/las-vegas/6105-w-flamingo-rd,,Subway,Q244457
https://restaurants.subway.com/#14906075,subway,Subway,,Las Vegas Clark,NV,,US,+1 702-248-4995,https://restaurants.subway.com/united-states/nv/las-vegas/6125-w-tropicana-ave,Mo-Su 07:00-20:00,Subway,Q244457
https://restaurants.subway.com/#14908146,subway,Subway Orleans Hotel & Casino,,Las Vegas Clark,NV,,US,+1 702-365-7111,https://restaurants.subway.com/united-states/nv/las-vegas/4500-w-tropicana-ave,Mo-Su 09:00-24:00,Subway,Q244457
https://restaurants.subway.com/#14912739,subway,Subway,,Las Vegas Clark,NV,,US,+1 702-876-5346,https://restaurants.subway.com/united-states/nv/las-vegas/4551-w-flamingo-rd,Mo-Th 07:00-21:30; Fr 07:00-22:00; Sa 08:00-21:00; Su 09:00-21:00,Subway,Q244457
https://restaurants.subway.com/#14893610,subway,Subway Gold Coast Hotel & Casino,,Las Vegas Clark,NV,,US,+1 702-367-7111,https://restaurants.subway.com/united-states/nv/las-vegas/4000-west-flamingo-rd,Mo-Th 08:00-22:00; Fr-Sa 08:00-23:00; Su 08:00-22:00,Subway,Q244457
https://restaurants.subway.com/#14901579,subway,Subway Centerpoint Business Park,,Las Vegas Clark,NV,,US,+1 702-734-6222,https://restaurants.subway.com/united-states/nv/las-vegas/3991-dean-martin-dr,Mo-We 07:00-22:00; Th 07:00-20:00; Fr 07:00-23:30; Sa 08:00-23:30; Su 09:00-22:00,Subway,Q244457
607,sun_loan_us,Sun Loan Company – Las Vegas,,Las Vegas,NV,,US,+1 702-362-0578,https://www.sunloan.com/find-a-branch/sun-loan-company-las-vegas-nevada-214/,Mo-Th 08:30-17:30; Fr 08:30-18:00; Sa 08:30-12:30,Sun Loan,Q118725658
82300,supercuts,Decatur Place,3650 S Decatur Blvd Ste 10,Las Vegas,NV,,US,+1 702-253-1866,https://www.supercuts.com/checkin/82300,Mo-Sa 09:00-19:00; Su 10:00-18:00,Supercuts,Q7643239
https://locations.tacobell.com/#6142843,taco_bell,Taco Bell,,Las Vegas,NV,,US,+1 702-221-6210,https://locations.tacobell.com/nv/las-vegas/6010-w--tropicana.html,,Taco Bell,Q752941
https://locations.tacobell.com/#6143324,taco_bell,Taco Bell,,Las Vegas,NV,,US,+1 702-871-0503,https://locations.tacobell.com/nv/las-vegas/4870-w-flamingo.html,,Taco Bell,Q752941
165,tmobile_us,Tropicana & Jones,,Las Vegas,NV,,US,+1 702-251-5644,https://www.t-mobile.com/store-locator/nv/las-vegas/tropicana-jones,,T-Mobile,Q3511885
4SIH,tmobile_us,Rainbow & Spring Mountain,,Las Vegas,NV,,US,+1 725-888-4879,https://www.t-mobile.com/store-locator/nv/las-vegas/rainbow-spring-mountain,,T-Mobile,Q3511885
1362540,usps,EMERALD,,LAS VEGAS,NV,,US,+1 702-889-1001,,Mo-Fr 08:30-17:00; Sa 09:00-15:00,United States Postal Service,Q668687
8910300022,usps_collection_boxes,USPS COLLECTION BOX - BLUE BOX,4845 S RAINBOW BLVD,LAS VEGAS,NV,,US,,,,United States Postal Service,Q668687
8910300082,usps_collection_boxes,USPS COLLECTION BOX - BLUE BOX,3615 S RAINBOW BLVD,LAS VEGAS,NV,,US,,,,United States Postal Service,Q668687
8910300020,usps_collection_boxes,USPS COLLECTION BOX - BLUE BOX,4016 S RAINBOW BLVD,LAS VEGAS,NV,,US,,,,United States Postal Service,Q668687
8910300017,usps_collection_boxes,USPS COLLECTION BOX - BLUE BOX,6105 W TROPICANA AVE,LAS VEGAS,NV,,US,,,,United States Postal Service,Q668687
8910300015,usps_collection_boxes,USPS COLLECTION BOX - BLUE BOX,4280 S JONES BLVD,LAS VEGAS,NV,,US,,,,United States Postal Service,Q668687
8910300007,usps_collection_boxes,USPS COLLECTION BOX - BLUE BOX,6130 W FLAMINGO RD,LAS VEGAS,NV,,US,,,,United States Postal Service,Q668687
8910300078,usps_collection_boxes,USPS COLLECTION BOX - APC,4030 S JONES BLVD,LAS VEGAS,NV,,US,,,,United States Postal Service,Q668687
8910300089,usps_collection_boxes,USPS COLLECTION BOX - PO LOBBY,4030 S JONES BLVD,LAS VEGAS,NV,,US,,,,United States Postal Service,Q668687
8910300005,usps_collection_boxes,USPS COLLECTION BOX - BLUE BOX,6025 W FLAMINGO RD,LAS VEGAS,NV,,US,,,,United States Postal Service,Q668687
8910300062,usps_collection_boxes,USPS COLLECTION BOX - BLUE BOX,4030 S JONES BLVD,LAS VEGAS,NV,,US,,,,United States Postal Service,Q668687
8910300012,usps_collection_boxes,USPS COLLECTION BOX - EXPRESS,4741 DEAN MARTIN DR,LAS VEGAS,NV,,US,,,,United States Postal Service,Q668687
8910300028,usps_collection_boxes,USPS COLLECTION BOX - BLUE BOX,4445 S VALLEY VIEW BLVD,LAS VEGAS,NV,,US,,,,United States Postal Service,Q668687
8910300013,usps_collection_boxes,USPS COLLECTION BOX - BLUE BOX,4741 DEAN MARTIN DR,LAS VEGAS,NV,,US,,,,United States Postal Service,Q668687
8910300067,usps_collection_boxes,USPS COLLECTION BOX - BLUE BOX,4830 PROCYON ST,LAS VEGAS,NV,,US,,,,United States Postal Service,Q668687
8910300072,usps_collection_boxes,USPS COLLECTION BOX - BLUE BOX,4425 DEAN MARTIN DR,LAS VEGAS,NV,,US,,,,United States Postal Service,Q668687
8910300073,usps_collection_boxes,USPS COLLECTION BOX - EXPRESS,4425 DEAN MARTIN DR,LAS VEGAS,NV,,US,,,,United States Postal Service,Q668687
8910300010,usps_collection_boxes,USPS COLLECTION BOX - BLUE BOX,4170 W HARMON AVE,LAS VEGAS,NV,,US,,,,United States Postal Service,Q668687
8910300055,usps_collection_boxes,USPS COLLECTION BOX - BLUE BOX,4001 S DECATUR BLVD,LAS VEGAS,NV,,US,,,,United States Postal Service,Q668687
8910300070,usps_collection_boxes,USPS COLLECTION BOX - BLUE BOX,5550 W FLAMINGO RD,LAS VEGAS,NV,,US,,,,United States Postal Service,Q668687
8910300057,usps_collection_boxes,USPS COLLECTION BOX - BLUE BOX,4850 W FLAMINGO RD,LAS VEGAS,NV,,US,,,,United States Postal Service,Q668687
8910300071,usps_collection_boxes,USPS COLLECTION BOX - BLUE BOX,3561 S VALLEY VIEW BLVD,LAS VEGAS,NV,,US,,,,United States Postal Service,Q668687
8910300004,usps_collection_boxes,USPS COLLECTION BOX - BLUE BOX,4310 W FLAMINGO RD,LAS VEGAS,NV,,US,,,,United States Postal Service,Q668687
8910300079,usps_collection_boxes,USPS COLLECTION BOX - BLUE BOX,4360 S DECATUR BLVD,LAS VEGAS,NV,,US,,,,United States Postal Service,Q668687
8910300011,usps_collection_boxes,USPS COLLECTION BOX - BLUE BOX,3695 S HIGHLAND DR,LAS VEGAS,NV,,US,,,,United States Postal Service,Q668687
8910300060,usps_collection_boxes,USPS COLLECTION BOX - BLUE BOX,4051 DEAN MARTIN DR,LAS VEGAS,NV,,US,,,,United States Postal Service,Q668687
8910300001,usps_collection_boxes,USPS COLLECTION BOX - BLUE BOX,4275 ARVILLE ST,LAS VEGAS,NV,,US,,,,United States Postal Service,Q668687
,visa,,,LAS VEGAS,NV,,US,,,,,
,visa,,,LAS VEGAS,NV,,US,,,,,
,visa,,,LAS VEGAS,NV,,US,,,,,
,visa,,,LAS VEGAS,NV,,US,,,,,
,visa,,,LAS VEGAS,NV,,US,,,,,
,visa,,,LAS VEGAS,NV,,US,,,,,
,visa,,,LAS VEGAS,NV,,US,,,,,
,visa,,,LAS VEGAS,NV,,US,,,,,
,visa,,,LAS VEGAS,NV,,US,,,,,
,visa,,,LAS VEGAS,NV,,US,,,,,
,visa,,,LAS VEGAS,NV,,US,,,,,
,visa,,,LAS VEGAS,NV,,US,,,,,
,visa,,,LAS VEGAS,NV,,US,,,,,
,visa,,,LAS VEGAS,NV,,US,,,,,
,visa,,,LAS VEGAS,NV,,US,,,,,
,visa,,,LAS VEGAS,NV,,US,,,,,
,visa,,,LAS VEGAS,NV,,US,,,,,
,visa,,,LAS VEGAS,NV,,US,,,,,
,visa,,,LAS VEGAS,NV,,US,,,,,
,visa,,,LAS VEGAS,NV,,US,,,,,
,visa,,,LAS VEGAS,NV,,US,,,,,
,visa,,,LAS VEGAS,NV,,US,,,,,
,visa,,,LAS VEGAS,NV,,US,,,,,
,visa,,,LAS VEGAS,NV,,US,,,,,
,visa,,,LAS VEGAS,NV,,US,,,,,
,visa,,,LAS VEGAS,NV,,US,,,,,
,visa,,,LAS VEGAS,NV,,US,,,,,
,visa,,,LAS VEGAS,NV,,US,,,,,
,visa,,,LAS VEGAS,NV,,US,,,,,
,visa,,,LAS VEGAS,NV,,US,,,,,
,visa,,,LAS VEGAS,NV,,US,,,,,
,visa,,,LAS VEGAS,NV,,US,,,,,
,visa,,,LAS VEGAS,NV,,US,,,,,
,visa,,,LAS VEGAS,NV,,US,,,,,
,visa,,,LAS VEGAS,NV,,US,,,,,
,visa,,,LAS VEGAS,NV,,US,,,,,
,visa,,,LAS VEGAS,NV,,US,,,,,
,visa,,,LAS VEGAS,NV,,US,,,,,
,visa,,,LAS VEGAS,NV,,US,,,,,
,visa,,,LAS VEGAS,NV,,US,,,,,
,visa,,,LAS VEGAS,NV,,US,,,,,
,visa,,,LAS VEGAS,NV,,US,,,,,
,visa,,,LAS VEGAS,NV,,US,,,,,
,visa,,,LAS VEGAS,NV,,US,,,,,
,visa,,,LAS VEGAS,NV,,US,,,,,
,visa,,,LAS VEGAS,NV,,US,,,,,
,visa,,,LAS VEGAS,NV,,US,,,,,
,visa,,,LAS VEGAS,NV,,US,,,,,
,visa,,,LAS VEGAS,NV,,US,,,,,
,visa,,,LAS VEGAS,NV,,US,,,,,
,visa,,,LAS VEGAS,NV,,US,,,,,
,visa,,,LAS VEGAS,NV,,US,,,,,
,visa,,,LAS VEGAS,NV,,US,,,,,
,visa,,,LAS VEGAS,NV,,US,,,,,
,visa,,,LAS VEGAS,NV,,US,,,,,
,visa,,,LAS VEGAS,NV,,US,,,,,
,visa,,,LAS VEGAS,NV,,US,,,,,
,visa,,,LAS VEGAS,NV,,US,,,,,
,visa,,,LAS VEGAS,NV,,US,,,,,
,visa,,,LAS VEGAS,NV,,US,,,,,
,visa,,,LAS VEGAS,NV,,US,,,,,
,visa,,,LAS VEGAS,NV,,US,,,,,
,visa,,,LAS VEGAS,NV,,US,,,,,
,visa,,,LAS VEGAS,NV,,US,,,,,
,visa,,,LAS VEGAS,NV,,US,,,,,
,visa,,,LAS VEGAS,NV,,US,,,,,
,visa,,,LAS VEGAS,NV,,US,,,,,
,visa,,,LAS VEGAS,NV,,US,,,,,
,visa,,,LAS VEGAS,NV,,US,,,,,
,visa,,,LAS VEGAS,NV,,US,,,,,
,visa,,,LAS VEGAS,NV,,US,,,,,
,visa,,,LASVEGAS,NV,,US,,,,,
,visa,,,LAS VEGAS,NV,,US,,,,,
,visa,,,LAS VEGAS,NV,,US,,,,,
,visa,,,LAS VEGAS,NV,,US,,,,,
,visa,,,LAS VEGAS,NV,,US,,,,,
,visa,,,LAS VEGAS,NV,,US,,,,,
,visa,,,LAS VEGAS,NV,,US,,,,,
,visa,,,LAS VEGAS,NV,,US,,,,,
,visa,,,LAS VEGAS,NV,,US,,,,,
,visa,,,LAS VEGAS,NV,,US,,,,,
,visa,,,LAS VEGAS,NV,,US,,,,,
,visa,,,LAS VEGAS,NV,,US,,,,,
,visa,,,LAS VEGAS,NV,,US,,,,,
,visa,,,LAS VEGAS,NV,,US,,,,,
,visa,,,LAS VEGAS,NV,,US,,,,,
,visa,,,LAS VEGAS,NV,,US,,,,,
,visa,,,LAS VEGAS,NV,,US,,,,,
,visa,,,LAS VEGAS,NV,,US,,,,,
,visa,,,LAS VEGAS,NV,,US,,,,,
,visa,,,LAS VEGAS,NV,,US,,,,,
,visa,,,LAS VEGAS,NV,,US,,,,,
,visa,,,LAS VEGAS,NV,,US,,,,,
,visa,,,LAS VEGAS,NV,,US,,,,,
,visa,,,LAS VEGAS,NV,,US,,,,,
,visa,,,LAS VEGAS,NV,,US,,,,,
,visa,,,LAS VEGAS,NV,,US,,,,,
,visa,,,LAS VEGAS,NV,,US,,,,,
,visa,,,LAS VEGAS,NV,,US,,,,,
,visa,,,LAS VEGAS,NV,,US,,,,,
,visa,,,LAS VEGAS,NV,,US,,,,,
,visa,,,LAS VEGAS,NV,,US,,,,,
,visa,,,LAS VEGAS,NV,,US,,,,,
,visa,,,LAS VEGAS,NV,,US,,,,,
,visa,,,LAS VEGAS,NV,,US,,,,,
,visa,,,LAS VEGAS,NV,,US,,,,,
,visa,,,LAS VEGAS,NV,,US,,,,,
,visa,,,LAS VEGAS,NV,,US,,,,,
,visa,,,LAS VEGAS,NV,,US,,,,,
,visa,,,LAS VEGAS,NV,,US,,,,,
,visa,,,LAS VEGAS,NV,,US,,,,,
,visa,,,LAS VEGAS,NV,,US,,,,,
,visa,,,LAS VEGAS,NV,,US,,,,,
,visa,,,LAS VEGAS,NV,,US,,,,,
,visa,,,LAS VEGAS,NV,,US,,,,,
,visa,,,LAS VEGAS,NV,,US,,,,,
,visa,,,LAS VEGAS,NV,,US,,,,,
,visa,,,LAS VEGAS,NV,,US,,,,,
,visa,,,LAS VEGAS,NV,,US,,,,,
,visa,,,LAS VEGAS,NV,,US,,,,,
,visa,,,LAS VEGAS,NV,,US,,,,,
,visa,,,LAS VEGAS,NV,,US,,,,,
,visa,,,LAS VEGAS,NV,,US,,,,,
,visa,,,LAS VEGAS,NV,,US,,,,,
,visa,,,LAS VEGAS,NV,,US,,,,,
,visa,,,LAS VEGAS,NV,,US,,,,,
,visa,,,LAS VEGAS,NV,,US,,,,,
,visa,,,LAS VEGAS,NV,,US,,,,,
,visa,,,LAS VEGAS,NV,,US,,,,,
,visa,,,LAS VEGAS,NV,,US,,,,,
,visa,,,LAS VEGAS,NV,,US,,,,,
,visa,,,LAS VEGAS,NV,,US,,,,,
,visa,,,LAS VEGAS,NV,,US,,,,,
,visa,,,LAS VEGAS,NV,,US,,,,,
,visa,,,LAS VEGAS,NV,,US,,,,,
,visa,,,LAS VEGAS,NV,,US,,,,,
,visa,,,LAS VEGAS,NV,,US,,,,,
,visa,,,LAS VEGAS,NV,,US,,,,,
,visa,,,LAS VEGAS,NV,,US,,,,,
,visa,,,LAS VEGAS,NV,,US,,,,,
,visa,,,LAS VEGAS,NV,,US,,,,,
,visa,,,LAS VEGAS,NV,,US,,,,,
,visa,,,LAS VEGAS,NV,,US,,,,,
,visa,,,LAS VEGAS,NV,,US,,,,,
,visa,,,LAS VEGAS,NV,,US,,,,,
,visa,,,LAS VEGAS,NV,,US,,,,,
,visa,,,LAS VEGAS,NV,,US,,,,,
,visa,,,LAS VEGAS,NV,,US,,,,,
,visa,,,LAS VEGAS,NV,,US,,,,,
,visa,,,LAS VEGAS,NV,,US,,,,,
,visa,,,LAS VEGAS,NV,,US,,,,,
,visa,,,LAS VEGAS,NV,,US,,,,,
,visa,,,LAS VEGAS,NV,,US,,,,,
,visa,,,LAS VEGAS,NV,,US,,,,,
,visa,,,LAS VEGAS,NV,,US,,,,,
,visa,,,LAS VEGAS,NV,,US,,,,,
,visa,,,LAS VEGAS,NV,,US,,,,,
,visa,,,LAS VEGAS,NV,,US,,,,,
,visa,,,LAS VEGAS,NV,,US,,,,,
,visa,,,LAS VEGAS,NV,,US,,,,,
,visa,,,LAS VEGAS,NV,,US,,,,,
,visa,,,LAS VEGAS,NV,,US,,,,,
,visa,,,LAS VEGAS,NV,,US,,,,,
,visa,,,LAS VEGAS,NV,,US,,,,,
,visa,,,LAS VEGAS,NV,,US,,,,,
,visa,,,LAS VEGAS,NV,,US,,,,,
,visa,,,LAS VEGAS,NV,,US,,,,,
,visa,,,LAS VEGAS,NV,,US,,,,,
,visa,,,LAS VEGAS,NV,,US,,,,,
,visa,,,LAS VEGAS,NV,,US,,,,,
,visa,,,LAS VEGAS,NV,,US,,,,,
,visa,,,LAS VEGAS,NV,,US,,,,,
,visa,,,LAS VEGAS,NV,,US,,,,,
,visa,,,LAS VEGAS,NV,,US,,,,,
,visa,,,LAS VEGAS,NV,,US,,,,,
https://www.walgreens.com/locator/walgreens-4905+w+tropicana+ave-las+vegas-nv-89103/id=5154,walgreens,Walgreens,,Las Vegas,NV,,US,+1 702-889-0922,https://www.walgreens.com/locator/walgreens-4905+w+tropicana+ave-las+vegas-nv-89103/id=5154,24/7,Walgreens,Q1591889
https://www.walgreens.com/locator/walgreens-6865+w+tropicana+ave-las+vegas-nv-89103/id=3873,walgreens,Walgreens,,Las Vegas,NV,,US,+1 702-871-1623,https://www.walgreens.com/locator/walgreens-6865+w+tropicana+ave-las+vegas-nv-89103/id=3873,24/7,Walgreens,Q1591889
https://www.walgreens.com/locator/walgreens-3821+w+flamingo+rd-las+vegas-nv-89103/id=21159,walgreens,Walgreens,,Las Vegas,NV,,US,+1 702-854-2178,https://www.walgreens.com/locator/walgreens-3821+w+flamingo+rd-las+vegas-nv-89103/id=21159,24/7,Walgreens,Q1591889
6111__W__TROPICANA_LAS__VEGAS_NV_89103,wellsfargo,,6111 W TROPICANA,LAS VEGAS,NV,,US,+1 800-869-3557,https://www.wellsfargo.com/locator/bank/6111__W__TROPICANA_LAS__VEGAS_NV_89103/,,Wells Fargo,Q744149
5975__W__TROPICANA__AVE_LAS__VEGAS_NV_89103,wellsfargo,,5975 W TROPICANA AVE,LAS VEGAS,NV,,US,+1 800-869-3557,https://www.wellsfargo.com/locator/bank/5975__W__TROPICANA__AVE_LAS__VEGAS_NV_89103/,,Wells Fargo,Q744149
4016__S__RAINBOW__BLVD_LAS__VEGAS_NV_89103,wellsfargo,Wells Fargo,4016 S RAINBOW BLVD,LAS VEGAS,NV,,US,+1 702-765-2375,https://www.wellsfargo.com/locator/bank/4016__S__RAINBOW__BLVD_LAS__VEGAS_NV_89103/,Mo-Fr 09:00-17:00,Wells Fargo,Q744149
4001__S__DECATUR__BLVD_LAS__VEGAS_NV_89103,wellsfargo,,4001 S DECATUR BLVD,LAS VEGAS,NV,,US,+1 800-869-3557,https://www.wellsfargo.com/locator/bank/4001__S__DECATUR__BLVD_LAS__VEGAS_NV_89103/,,Wells Fargo,Q744149
3555__S__JONES__BLVD_LAS__VEGAS_NV_89103,wellsfargo,Wells Fargo,3555 S JONES BLVD,LAS VEGAS,NV,,US,+1 702-362-7657,https://www.wellsfargo.com/locator/bank/3555__S__JONES__BLVD_LAS__VEGAS_NV_89103/,Mo-Fr 09:00-17:00,Wells Fargo,Q744149
https://locations.wendys.com/#9253520,wendys,"Wendy's Flamingo #15 in Las Vegas, NV",,Las Vegas,NV,,US,+1 702-362-0111,https://locations.wendys.com/united-states/nv/las-vegas/6198-w-flamingo-road,"Mo-Su 06:30-10:30,07:30-22:00",Wendy's,Q550258
https://locations.wendys.com/#9253512,wendys,"Wendy's W Tropicana #16 in Las Vegas, NV",,Las Vegas,NV,,US,+1 702-795-7791,https://locations.wendys.com/united-states/nv/las-vegas/3333-w-tropicana-ave,"Mo-Su 06:30-10:30,07:30-22:00",Wendy's,Q550258
f7046c45710c966e8bdd69992bece462,western_union,WALMART #001584,,Las Vegas,NV,,US,+1 702-367-9999,https://location.westernunion.com/us/nv/las-vegas/f7046c45710c966e8bdd69992bece462,Mo-Sa 08:00-20:00; Su 10:00-18:00,Western Union,Q861042
d259022c2de2c6941db04add4b427241,western_union,7-ELEVEN #16370,,Las Vegas,NV,,US,+1 702-876-6463,https://location.westernunion.com/us/nv/las-vegas/d259022c2de2c6941db04add4b427241,,Western Union,Q861042
f211caa33acd968e1811d977288d271d,western_union,ADVANCE AMERICA #01175,,Las Vegas,NV,,US,+1 702-251-1536,https://location.westernunion.com/us/nv/las-vegas/f211caa33acd968e1811d977288d271d,Mo-Fr 10:00-18:00; Sa 10:00-15:00,Western Union,Q861042
c259c6235f680d657b83a76f31d35dac,western_union,ALBERTSONS #129,,Las Vegas,NV,,US,+1 702-889-2000,https://location.westernunion.com/us/nv/las-vegas/c259c6235f680d657b83a76f31d35dac,Mo-Su 08:00-20:00,Western Union,Q861042
f08dc08a9899d40129e5957536877ccd,western_union,ADVANCE AMERICA #01176,,Las Vegas,NV,,US,+1 702-251-1532,https://location.westernunion.com/us/nv/las-vegas/f08dc08a9899d40129e5957536877ccd,Mo-Fr 10:00-18:00; Sa 10:00-15:00,Western Union,Q861042
ea2d4dcab99c95a7ef3dd7a6f3ca62fe,western_union,"EFICAZ, LLC",,Las Vegas,NV,,US,+1 702-912-0317,https://location.westernunion.com/us/nv/las-vegas/ea2d4dcab99c95a7ef3dd7a6f3ca62fe,Mo-Su 08:00-20:00,Western Union,Q861042
59c8b59b1d42fa4728583b801b4974f8,western_union,7-ELEVEN #26637,,Las Vegas,NV,,US,+1 702-362-4974,https://location.westernunion.com/us/nv/las-vegas/59c8b59b1d42fa4728583b801b4974f8,,Western Union,Q861042
3fb0ea4e815f61adef436b4b787cac95,western_union,GOOLIT MART,,Las Vegas,NV,,US,+1 702-248-0523,https://location.westernunion.com/us/nv/las-vegas/3fb0ea4e815f61adef436b4b787cac95,Mo-Su 09:00-23:00,Western Union,Q861042
3f89e9b64230f29027f366e314887187,western_union,7-ELEVEN #29633,,Las Vegas,NV,,US,+1 702-871-5179,https://location.westernunion.com/us/nv/las-vegas/3f89e9b64230f29027f366e314887187,,Western Union,Q861042
1e54e4395c5596c1aed09220320cbd1d,western_union,EDEN TRUCKING,,Las Vegas,NV,,US,+1 702-637-6010,https://location.westernunion.com/us/nv/las-vegas/1e54e4395c5596c1aed09220320cbd1d,Mo-Sa 09:00-19:00,Western Union,Q861042
f6ed3a20aa2c6a0ebf069062b52751eb,western_union,EDEN TRUCKING,,Las Vegas,NV,,US,+1 702-637-6010,https://location.westernunion.com/us/nv/las-vegas/f6ed3a20aa2c6a0ebf069062b52751eb,Mo-Sa 09:00-19:00,Western Union,Q861042
9248e32d628b69950f98f4364357280d,western_union,XPRESS MULTISERVICE,,Las Vegas,NV,,US,+1 702-849-8301,https://location.westernunion.com/us/nv/las-vegas/9248e32d628b69950f98f4364357280d,Mo-Su 09:00-20:00,Western Union,Q861042
6f03ff5c57b67c1652042a255434efb3,western_union,WALGREENS #21159,,Las Vegas,NV,,US,+1 702-854-2178,https://location.westernunion.com/us/nv/las-vegas/6f03ff5c57b67c1652042a255434efb3,Mo-Su 08:00-21:00,Western Union,Q861042
9319,wingstop,Wingstop Las Vegas Tropicana,5045 W Tropicana Ave Ste 110,Las Vegas,NV,,US,+1 702-316-9464,,,Wingstop,Q8025339
