Ref,Spider,Name,Address,City,State,Zipcode,Country,Phone,Website,Hours,Brand,WikiData
https://restaurants.applebees.com/en-us/nv/las-vegas/2070-n-rainbow-blvd-82070,applebees,Connect with this Applebee's,,Las Vegas,NV,,US,+1 702-648-1065,https://restaurants.applebees.com/en-us/nv/las-vegas/2070-n-rainbow-blvd-82070,Mo-Su 11:00-24:00,Applebees,Q621532
2207,autozone_us,AutoZone Auto Parts Las Vegas,,Las Vegas,NV,,US,+1 702-647-3773,https://www.autozone.com/locations/nv/las-vegas/4930-vegas-dr.html,,AutoZone,Q4826087
5743,autozone_us,AutoZone Auto Parts Las Vegas,,Las Vegas,NV,,US,+1 702-655-1466,https://www.autozone.com/locations/nv/las-vegas/3051-n-rainbow-blvd.html,Mo-Sa 07:30-22:00; Su 07:30-21:00,AutoZone,Q4826087
https://www.banfield.com/locations/veterinarians/nv/las-vegas/lvs,banfield_pet_hospital,Las Vegas Rainbow,,Las Vegas,NV,,US,+1 702-647-6880,https://www.banfield.com/locations/veterinarians/nv/las-vegas/lvs,Mo-Sa 08:00-17:00; Su 00:00-24:00,Banfield Pet Hospital,Q2882416
https://locators.bankofamerica.com/nv/lasvegas/financial-centers-las-vegas-10962.html,bankofamerica,Bank of America Financial Center & Drive-Thru ATM | Rainbow Ridge,,Las Vegas,NV,,US,+1 702-654-3636,https://locators.bankofamerica.com/nv/lasvegas/financial-centers-las-vegas-10962.html,Mo-Fr 09:00-17:00; Sa 09:00-14:00,Bank of America,Q487907
https://locators.bankofamerica.com/nv/lasvegas/atm-las-vegas-103984.html,bankofamerica,Bank of America Drive-Thru ATM | North Decatur Remote,,Las Vegas,NV,,US,+1 844-401-8500,https://locators.bankofamerica.com/nv/lasvegas/atm-las-vegas-103984.html,,Bank of America,Q487907
BBW02543,bathandbodyworks_us,BEST IN THE WEST,,LAS VEGAS,NV,,US,+1 725-724-4255,,Mo-Sa 10:00-20:00; Su 11:00-18:00,Bath & Body Works,Q810773
https://stores.bestbuy.com/nv/las-vegas/2050-n-rainbow-blvd-122.html,bestbuy,Best Buy Las Vegas Ii,,Las Vegas,NV,,US,+1 702-631-4645,https://stores.bestbuy.com/nv/las-vegas/2050-n-rainbow-blvd-122.html,,Best Buy,Q533415
97636,bluerhino,Speedee Mart #116,,Las Vegas,NV,,US,+1 702-645-4445,,,Blue Rhino,Q65681213
183966,bluerhino,NVAK dba Rebel #6157,,Las Vegas,NV,,US,+1 702-645-4205,,,Blue Rhino,Q65681213
61569,bluerhino,Smiths Food & Drug 370,,Las Vegas,NV,,US,+1 702-658-6880,,,Blue Rhino,Q65681213
156027,bluerhino,Walgreens #4855,,Las Vegas,NV,,US,+1 702-396-0917,,,Blue Rhino,Q65681213
194592,bluerhino,La Islena Market,,Las Vegas,NV,,US,+1 702-645-3046,,,Blue Rhino,Q65681213
146868,bluerhino,Green Valley Grocery #37,,Las Vegas,NV,,US,+1 702-655-8435,,,Blue Rhino,Q65681213
186676,bluerhino,Sun City Express,,Las Vegas,NV,,US,+1 702-631-0770,,,Blue Rhino,Q65681213
183995,bluerhino,NVAK dba Rebel #6177,,Las Vegas,NV,,US,+1 702-648-0403,,,Blue Rhino,Q65681213
152681,bluerhino,Walgreens #3841,,Las Vegas,NV,,US,+1 702-648-2732,,,Blue Rhino,Q65681213
239073,bluerhino,Circle K #2708656,,Las Vegas,NV,,US,+1 702-646-7389,,,Blue Rhino,Q65681213
188039,bluerhino,"Orchid Stop N Shop (Shaubzada, LLC)",,Las Vegas,NV,,US,+1 760-556-8760,,,Blue Rhino,Q65681213
61570,bluerhino,Smiths Food & Drug 372,,Las Vegas,NV,,US,+1 702-631-1932,,,Blue Rhino,Q65681213
239081,bluerhino,Circle K #2701246,,Las Vegas,NV,,US,+1 702-647-3949,,,Blue Rhino,Q65681213
179594,bluerhino,La Favorita Ranch dba (Nevada Ranch),,Las Vegas,NV,,US,+1 702-489-4649,,,Blue Rhino,Q65681213
9449,burgerking,Burger King,,Las Vegas,NV,,US,+1 702-631-1846,https://www.bk.com/store-locator/store/restaurant_5320,Mo-Su 06:00-22:00,Burger King,Q177054
6411,burgerking,Burger King,,Las Vegas,NV,,US,+1 702-658-0700,https://www.bk.com/store-locator/store/restaurant_3645,Mo-Su 06:00-22:00,Burger King,Q177054
1189,burlington_us,Burlington,,Las Vegas,NV,,US,+1 702-273-3949,https://stores.burlington.com/nv/las-vegas/1189,Mo-Sa 09:00-24:00; Su 09:00-23:00,Burlington,Q4999220
2041393,chase_us,Lake Mead and Torrey Pines - New branch,,Las Vegas,NV,,US,+1 702-646-5858,https://locator.chase.com/nv/las-vegas/6430-w-lake-mead-blvd,Mo-Fr 09:00-17:00; Sa 09:00-14:00,Chase,Q524629
001.005.0519,chilis,Summerlin – Lake Mead & Rainbow,,Las Vegas,NV,,US,+1 702-638-1482,https://www.chilis.com/locations/us/nevada/las-vegas/summerlin-lake-mead-rainbow/,Mo-Th 10:45-22:00; Fr-Sa 10:45-23:00; Su 10:45-22:00,Chili's,Q1072948
32031,citi,ATM 7ELEVEN-FCTI,,Las Vegas,NV,,US,,,,Citibank,Q857063
92066,citi,ATM Walgreens,,Las Vegas,NV,,US,,,,Citibank,Q857063
42418,citi,ATM Circle K,,Las Vegas,NV,,US,,,,Citibank,Q857063
27856,citi,ATM 7ELEVEN-FCTI,,Las Vegas,NV,,US,,,,Citibank,Q857063
52205,citi,ATM CVS,,Las Vegas,NV,,US,,,,Citibank,Q857063
27208,citi,ATM 7ELEVEN-FCTI,,Las Vegas,NV,,US,,,,Citibank,Q857063
92151,citi,ATM Walgreens,,Las Vegas,NV,,US,,,,Citibank,Q857063
76191,citi,ATM Smiths,,Las Vegas,NV,,US,,,,Citibank,Q857063
27292,citi,ATM 7ELEVEN-FCTI,,Las Vegas,NV,,US,,,,Citibank,Q857063
43281,citi,ATM Circle K,,Las Vegas,NV,,US,,,,Citibank,Q857063
26266,citi,ATM 7ELEVEN-FCTI,,Las Vegas,NV,,US,,,,Citibank,Q857063
89315,citi,ATM Walgreens,,Las Vegas,NV,,US,,,,Citibank,Q857063
nv_las-vegas_2151-north-rainbow-blvd,costplus_worldmarket,World Market West Las Vegas,,Las Vegas,NV,,US,+1 702-638-8844,https://stores.worldmarket.com/nv/las-vegas/2151-north-rainbow-blvd.html,Mo-Sa 10:00-20:00; Su 11:00-18:00,Cost Plus World Market,Q5174750
80193661,cricket_wireless,Cricket Wireless Authorized Retailer,,Las Vegas,NV,,US,+1 702-638-0016,https://www.cricketwireless.com/stores/ll/US/NV/Las-Vegas/1911-N-Decatur-Blvd,Mo-Sa 10:00-19:00; Su 12:00-18:00,Cricket Wireless,Q5184987
70233324,cricket_wireless,Cricket Wireless Authorized Retailer,,Las Vegas,NV,,US,+1 702-998-1681,https://www.cricketwireless.com/stores/ll/US/NV/Las-Vegas/3121-N-Rainbow-Blvd,Mo-Sa 10:00-19:00; Su 11:00-17:00,Cricket Wireless,Q5184987
70233190,cricket_wireless,Cricket Wireless Authorized Retailer,,Las Vegas,NV,,US,+1 702-586-7777,https://www.cricketwireless.com/stores/ll/US/NV/Las-Vegas/1506-N-Jones-Blvd,Mo-Sa 10:00-19:00; Su 11:00-17:00,Cricket Wireless,Q5184987
70233394,cricket_wireless,Cricket Wireless Authorized Retailer,,Las Vegas,NV,,US,+1 702-998-7978,https://www.cricketwireless.com/stores/ll/US/NV/Las-Vegas/6010-W-Cheyenne-Ave,Mo-Sa 10:00-19:00; Su 11:00-17:00,Cricket Wireless,Q5184987
70233421,cricket_wireless,Cricket Wireless Authorized Retailer,,Las Vegas,NV,,US,+1 702-268-7239,https://www.cricketwireless.com/stores/ll/US/NV/Las-Vegas/2101-N-Rainbow-Blvd,Mo-Sa 10:00-19:00; Su 11:00-17:00,Cricket Wireless,Q5184987
2990,cvs_us,CVS Pharmacy,,Las Vegas,NV,,US,+1 702-631-7095,https://www.cvs.com/store-locator/las-vegas-nv-pharmacies/6391-w-lake-mead-blvd-las-vegas-nv-89108/storeid=2990,Mo-Th 08:00-22:00; Fr-Sa 08:00-23:00; Su 08:00-22:00,CVS Pharmacy,Q2078880
7460,dominos_pizza_us,Domino's Pizza,,Las Vegas,NV,,US,+1 702-648-3030,https://pizza.dominos.com/nevada/las-vegas/2085-n-jones-blvd-unit-6,Mo-Th 10:00-24:00; Fr-Sa 10:00-01:00; Su 10:00-24:00,Domino's,Q839466
Best in the West,dsw,DSW,,Las Vegas,NV,,US,+1 702-636-2060,https://stores.dsw.com/usa/nv/lasvegas/dsw-designer-shoe-warehouse-best-in-the-west.html,Mo-Sa 10:00-19:00; Su 11:00-19:00,Designer Shoe Warehouse,Q5206207
6075,elpolloloco,El Pollo Loco,,Las Vegas,NV,,US,+1 702-293-7009,,,El Pollo Loco,Q2353849
900289,extra_space_storage,Las Vegas Self Storage at 3225 N Jones Blvd,,Las Vegas,NV,,US,+1 702-395-3874,https://www.extraspace.com/storage/facilities/us/nevada/las_vegas/900289/,Mo-Su 06:00-22:00,Extra Space Storage,Q5422162
501542,extra_space_storage,Las Vegas Self Storage at 1399 N Rainbow Blvd,,Las Vegas,NV,,US,+1 702-258-0083,https://www.extraspace.com/storage/facilities/us/nevada/las_vegas/501542/,Mo-Fr 09:30-18:00; Sa 09:00-17:30,Extra Space Storage,Q5422162
200323094,exxonmobil,ORCHID STOP AND SHOP,,LAS VEGAS,NV,,US,+1 702-816-3411,https://www.exxon.com/en/find-station/mobil-lasvegas-nv-orchidstopandshop-200323094,24/7,Mobil,Q109676002
26312,family_dollar_us,FAMILY DOLLAR #6312,,Las Vegas,NV,,US,+1 702-577-9815,https://www.familydollar.com/locations/nv/las-vegas/26312/,Mo-Su 08:00-22:00,Family Dollar,Q5433101
2013,first_cash,Cash America Pawn,,Las Vegas,NV,,US,+1 702-438-2123,,,Cash America,Q5048636
2004,first_cash,Cash America Pawn,,Las Vegas,NV,,US,+1 702-655-4498,,,Cash America,Q5048636
https://locations.fivebelow.com/nv/las-vegas/2152-n-rainbow-blvd,five_below,Five Below Best in the West,,Las Vegas,NV,,US,,https://locations.fivebelow.com/nv/las-vegas/2152-n-rainbow-blvd,Mo-Sa 10:00-20:00; Su 11:00-18:00,Five Below,Q5455836
d67bb79c-8c0c-ea11-80e3-00505689ac90,goodwill,Goodwill Retail Store and Donation Center - Cheyenne Commons,,Las Vegas,NV,,US,+1 702-214-1641,https://www.goodwill.org/locator/location/?store=ZDY3YmI3OWMtOGMwYy1lYTExLTgwZTMtMDA1MDU2ODlhYzkw&lat=MzYuMjE3MDU=&lng=LTExNS4yNDIzMg==,,Goodwill,Q5583655
https://salons.greatclips.com/us/nv/las-vegas/3101-n-rainbow-blvd,greatclips,Great Clips,,Las Vegas,NV,,US,+1 702-534-7540,https://salons.greatclips.com/us/nv/las-vegas/3101-n-rainbow-blvd,Mo-Fr 08:00-20:00; Sa-Su 08:00-19:00,Great Clips,Q5598967
27837,h_r_block,H&R Block,,Las Vegas,NV,,US,+1 702-658-0425,https://www.hrblock.com/local-tax-offices/nevada/las-vegas/3011-n-rainbow-blvd/27837/,,H&R Block,Q5627799
27840,h_r_block,H&R Block,,Las Vegas,NV,,US,+1 702-646-4720,https://www.hrblock.com/local-tax-offices/nevada/las-vegas/1455-n-jones-blvd/27840/,,H&R Block,Q5627799
nv_las-vegas_breakfast-6870-w-cheyenne-ave-1607,ihop,IHOP Breakfast Restaurants Near You at 6870 W Cheyenne Ave,,Las Vegas,NV,,US,+1 702-656-3220,https://restaurants.ihop.com/en-us/nv/las-vegas/breakfast-6870-w-cheyenne-ave-1607,,IHOP,Q1185675
https://office.jacksonhewitt.com/#27579506,jackson_hewitt,Jackson Hewitt,,Las Vegas,NV,,US,+1 702-444-3271,https://office.jacksonhewitt.com/tax-preparation-services-locations/en/nv/las-vegas/6120-west-lake-mead-blvd/11007,Mo-Sa 11:00-19:00; Su 12:00-16:00,Jackson Hewitt,Q6117132
https://office.jacksonhewitt.com/#27577767,jackson_hewitt,Jackson Hewitt,,Las Vegas,NV,,US,+1 702-444-3280,https://office.jacksonhewitt.com/tax-preparation-services-locations/en/nv/las-vegas/3041-n-rainbow-blvd/51838,Mo-Sa 11:00-19:00; Su 12:00-16:00,Jackson Hewitt,Q6117132
https://locations.kfc.com/#11247226,kfc,Chicken Nuggets Near Las Vegas,,Las Vegas,NV,,US,,https://locations.kfc.com/nv/las-vegas/6181-west-lake-mead-blvd/chickennugget,Mo-Th 10:00-22:30; Fr-Sa 10:00-23:00; Su 10:00-22:30,KFC,Q524757
142876,little_free_library,Gazelle Lil’ Library #142876 Las Vegas NV,,Las Vegas,NV,,US,,,,Little Free Library,Q6650101
30107,little_free_library,Little Free Library #30107 #30107 Las Vegas NV,,Las Vegas,NV,,US,,,,Little Free Library,Q6650101
977,little_free_library,Don Stormoen #977 Las Vegas NV,,Las Vegas,NV,,US,,,,Little Free Library,Q6650101
285979,marathon_petroleum_us,ARCO #66157,,Las Vegas,NV,,US,+1 702-645-4205,,,Arco,Q304769
18344,mattress_firm_us,Mattress Firm Best in the West,,Las Vegas,NV,,US,+1 702-647-0246,https://www.mattressfirm.com/en-us/stores/nv/las-vegas/054030/,,Mattress Firm,Q6791878
71470009,moneygram,WAL-MART - #1838,,LAS VEGAS,NV,,US,+1 702-656-0199,,Mo-Su 07:00-21:00,MoneyGram,Q1944412
https://stores.nordstromrack.com/#92895860,nordstrom_rack,Nordstrom Rack at Best in the West Las Vegas,,Las Vegas,NV,,US,+1 702-854-3955,https://stores.nordstromrack.com/us/nv/las-vegas/2060-north-rainbow-blvd,Mo-Sa 10:00-21:00; Su 11:00-19:00,Nordstrom Rack,Q21463374
https://locations.oreillyauto.com/nv/lasvegas/check-engine-light-testing-2848.html,oreilly,Your Las Vegas O'Reilly Auto Parts Store,,Las Vegas,NV,,US,+1 702-395-4432,https://locations.oreillyauto.com/nv/lasvegas/check-engine-light-testing-2848.html,Mo-Su 07:30-23:00,O'Reilly Auto Parts,Q7071951
https://locations.oreillyauto.com/nv/lasvegas/wiper-installation-2848.html,oreilly,Your Las Vegas O'Reilly Auto Parts Store,,Las Vegas,NV,,US,+1 702-395-4432,https://locations.oreillyauto.com/nv/lasvegas/wiper-installation-2848.html,Mo-Su 07:30-23:00,O'Reilly Auto Parts,Q7071951
https://locations.oreillyauto.com/nv/lasvegas/battery-testing-2848.html,oreilly,Your Las Vegas O'Reilly Auto Parts Store,,Las Vegas,NV,,US,+1 702-395-4432,https://locations.oreillyauto.com/nv/lasvegas/battery-testing-2848.html,Mo-Su 07:30-23:00,O'Reilly Auto Parts,Q7071951
https://locations.oreillyauto.com/nv/lasvegas/autopartes-2848.html,oreilly,Tu tienda O'Reilly Auto Parts en Las Vegas,,Las Vegas,NV,,US,+1 702-395-4432,https://locations.oreillyauto.com/nv/lasvegas/autopartes-2848.html,Mo-Su 07:30-23:00,O'Reilly Auto Parts,Q7071951
https://locations.outback.com/#15502153,outbacksteakhouse,Outback Steakhouse,,Las Vegas,NV,,US,+1 702-647-1035,https://locations.outback.com/nevada/las-vegas/1950-north-rainbow-boulevard,Mo-Th 11:00-22:00; Fr-Sa 11:00-23:00; Su 11:00-21:30,Outback Steakhouse,Q1064893
https://locations.papajohns.com/#10692457,papa_johns,Papa John's,,Las Vegas,NV,,US,+1 702-638-7272,https://locations.papajohns.com/united-states/nv/89108/las-vegas/1411-north-jones-boulevard-100,Mo-Th 10:00-23:00; Fr-Sa 10:00-24:00; Su 10:00-23:00,Papa John's Pizza,Q2759586
550,party_city,Rainbow Promenade Shopping Center,,Las Vegas,NV,,US,+1 702-802-0994,https://stores.partycity.com/us/nv/lasvegas/party-store-pc550.html,,Party City,Q7140896
0000891448,phillips_66_conoco_76,GAS 2 GO,,LAS VEGAS,NV,,US,+1 702-749-6450,,,Conoco,Q109341187
0000868737,phillips_66_conoco_76,SPEEDEE MART 116,,LAS VEGAS,NV,,US,+1 702-645-4445,,24/7,U76,Q1658320
nv_las-vegas_6130-w-lake-mead-blvd,pizza_hut_us,6130 W Lake Mead Blvd,,Las Vegas,NV,,US,+1 702-648-9011,https://locations.pizzahut.com/nv/las-vegas/6130-w-lake-mead-blvd,,Pizza Hut,Q191615
restaurant_83876,popeyes_us_fr,Popeyes,"6121 Vegas Dr Las Vegas, Nevada 89108 - USA",Las Vegas,NV,,US,+1 702-631-1975,https://www.popeyes.com/store-locator/store/restaurant_83876,Mo-Su 10:00-21:00,Popeyes,Q1330910
https://www.publicstorage.com/self-storage-nv-las-vegas/1507.html,public_storage_us,Public Storage,,Las Vegas,NV,,US,+1 702-979-4080,https://www.publicstorage.com/self-storage-nv-las-vegas/1507.html,,Public Storage,Q1156045
https://www.publicstorage.com/self-storage-nv-las-vegas/5474.html,public_storage_us,Public Storage,,Las Vegas,NV,,US,+1 702-827-0501,https://www.publicstorage.com/self-storage-nv-las-vegas/5474.html,,Public Storage,Q1156045
https://www.publicstorage.com/self-storage-nv-las-vegas/1505.html,public_storage_us,Public Storage,,Las Vegas,NV,,US,+1 702-979-4774,https://www.publicstorage.com/self-storage-nv-las-vegas/1505.html,,Public Storage,Q1156045
1872,rentacenter,Rent-A-Center,,Las Vegas,NV,,US,+1 702-631-1889,https://locations.rentacenter.com/nevada/las-vegas/1411-n-jones-blvd/,Mo-Sa 10:00-18:00,Rent-A-Center,Q7313497
245,ross_dress_for_less_us,NW Las Vegas,,Las Vegas,NV,,US,+1 702-645-5530,,Mo-Th 09:00-22:00; Fr-Sa 09:00-23:00; Su 09:00-21:30,Ross Dress for Less,Q3442791
https://locations.scrubsandbeyond.com/nv/lasvegas/scrubs-las-vegas-nv-250.html,scrubs_and_beyond,Nursing Uniforms & Medical Scrubs at 3067 N. Rainbow Blvd | Scrubs & Beyond Near Me,,Las Vegas,NV,,US,+1 702-870-0531,https://locations.scrubsandbeyond.com/nv/lasvegas/scrubs-las-vegas-nv-250.html,Mo-Sa 10:00-21:00; Su 10:00-17:00,Scrubs and Beyond,Q119972011
38415,seven_eleven_ca_us,7-Eleven Store,,Las Vegas,NV,,US,+1 702-335-6030,,,7-Eleven,Q259340
https://stations.sinclairoil.com/nv/las-vegas/2745-n-rainbow-blvd,sinclair_us,Sinclair,,Las Vegas,NV,,US,+1 702-829-6214,https://stations.sinclairoil.com/nv/las-vegas/2745-n-rainbow-blvd,24/7,Sinclair,Q1290900
https://stations.sinclairoil.com/nv/las-vegas/6050-smoke-ranch-rd,sinclair_us,Sinclair Gas Station,,Las Vegas,NV,,US,+1 702-631-0770,https://stations.sinclairoil.com/nv/las-vegas/6050-smoke-ranch-rd,24/7,Sinclair,Q1290900
627,sola_salon_studios,Lake Mead & Jones,,Las Vegas,NV,,US,+1 702-468-9529,https://www.solasalonstudios.com/locations/lake-mead-jones,,Sola Salon Studios,Q64337426
https://restaurants.subway.com/#14898732,subway,Subway,,Las Vegas Clark,NV,,US,+1 702-656-2968,https://restaurants.subway.com/united-states/nv/las-vegas/6621-w-cheyenne-ave,,Subway,Q244457
https://restaurants.subway.com/#14897326,subway,Subway WalMart #1838,,Las Vegas Clark,NV,,US,+1 702-834-7139,https://restaurants.subway.com/united-states/nv/las-vegas/3041-north-rainbow-blvd,Mo-Su 08:30-21:30,Subway,Q244457
https://restaurants.subway.com/#14895585,subway,Subway,,Las Vegas Clark,NV,,US,+1 702-631-1479,https://restaurants.subway.com/united-states/nv/las-vegas/1940-n-decatur-blvd,Mo-Fr 08:00-22:00; Sa 09:00-22:00; Su 09:00-21:00,Subway,Q244457
https://locations.tacobell.com/#6142740,taco_bell,Taco Bell,,Las Vegas,NV,,US,+1 702-636-9060,https://locations.tacobell.com/nv/las-vegas/6200-west-lake-mead.html,Mo-Su 07:00-03:00,Taco Bell,Q752941
https://locations.tacobell.com/#6144218,taco_bell,Taco Bell,,Las Vegas,NV,,US,+1 702-395-2473,https://locations.tacobell.com/nv/las-vegas/3221-north-rancho-drive.html,,Taco Bell,Q752941
10800,tjx,Las Vegas,2174 N Rainbow Blvd,Las Vegas,NV,,US,+1 702-647-4031,,Mo-Sa 09:30-21:30; Su 10:00-20:00,Marshalls,Q15903261
08117,tjx,Las Vegas,2190 N Rainbow Blvd,Las Vegas,NV,,US,+1 702-636-9454,,Mo-Sa 09:30-21:30; Su 10:00-20:00,TJ Maxx,Q10860683
1SLQ,tmobile_us,Rainbow & Lake Mead,,Las Vegas,NV,,US,+1 702-631-8944,https://www.t-mobile.com/store-locator/nv/las-vegas/rainbow-lake-mead,,T-Mobile,Q3511885
1433505,usps,TOPAZ,,LAS VEGAS,NV,,US,+1 702-647-6348,,Mo-Fr 08:30-17:00; Sa 09:00-15:00,United States Postal Service,Q668687
8910800028,usps_collection_boxes,USPS COLLECTION BOX - BLUE BOX,2675 N DECATUR BLVD,LAS VEGAS,NV,,US,,,,United States Postal Service,Q668687
8910800030,usps_collection_boxes,USPS COLLECTION BOX - PO LOBBY,2675 N DECATUR BLVD,LAS VEGAS,NV,,US,,,,United States Postal Service,Q668687
8910800031,usps_collection_boxes,USPS COLLECTION BOX - PO LOBBY,2675 N DECATUR BLVD,LAS VEGAS,NV,,US,,,,United States Postal Service,Q668687
8910800037,usps_collection_boxes,USPS COLLECTION BOX - PO LOBBY,2675 N DECATUR BLVD,LAS VEGAS,NV,,US,,,,United States Postal Service,Q668687
8910800001,usps_collection_boxes,USPS COLLECTION BOX - BLUE BOX,6000 W CHEYENNE AVE,LAS VEGAS,NV,,US,,,,United States Postal Service,Q668687
8910800010,usps_collection_boxes,USPS COLLECTION BOX - BLUE BOX,2420 N MICHAEL WAY,LAS VEGAS,NV,,US,,,,United States Postal Service,Q668687
8910800005,usps_collection_boxes,USPS COLLECTION BOX - BLUE BOX,1941 N DECATUR BLVD,LAS VEGAS,NV,,US,,,,United States Postal Service,Q668687
8910800015,usps_collection_boxes,USPS COLLECTION BOX - BLUE BOX,3190 N RAINBOW BLVD,LAS VEGAS,NV,,US,,,,United States Postal Service,Q668687
8910800012,usps_collection_boxes,USPS COLLECTION BOX - BLUE BOX,3041 N RAINBOW BLVD,LAS VEGAS,NV,,US,,,,United States Postal Service,Q668687
8910800007,usps_collection_boxes,USPS COLLECTION BOX - BLUE BOX,2003 N JONES BLVD,LAS VEGAS,NV,,US,,,,United States Postal Service,Q668687
8910800018,usps_collection_boxes,USPS COLLECTION BOX - BLUE BOX,2200 N TORREY PINES DR,LAS VEGAS,NV,,US,,,,United States Postal Service,Q668687
8910800013,usps_collection_boxes,USPS COLLECTION BOX - BLUE BOX,2534 N RAINBOW BLVD,LAS VEGAS,NV,,US,,,,United States Postal Service,Q668687
8910800006,usps_collection_boxes,USPS COLLECTION BOX - BLUE BOX,1512 N JONES BLVD,LAS VEGAS,NV,,US,,,,United States Postal Service,Q668687
https://vcahospitals.com/decatur,vca,VCA Decatur Animal Hospital,,Las Vegas,NV,,US,+1 702-646-3777,https://vcahospitals.com/decatur,Mo-Fr 08:00-18:00; Sa 08:00-14:00,VCA,Q7906620
R00000260716,verizon_us,Rainbow North,,Las Vegas,NV,,US,+1 702-258-8899,https://www.verizon.com/stores/details/nevada/las-vegas/rainbow-north-1020691/,Mo-Sa 10:00-19:00; Su 10:00-17:00,Verizon,Q919641
,visa,,,LAS VEGAS,NV,,US,,,,,
,visa,,,LAS VEGAS,NV,,US,,,,,
,visa,,,HENDERSON,NV,,US,,,,,
,visa,,,LAS VEGAS,NV,,US,,,,,
,visa,,,SOUTH LAS VEGAS,NV,,US,,,,,
,visa,,,LAS VEGAS,NV,,US,,,,,
,visa,,,LAS VEGAS,NV,,US,,,,,
,visa,,,LAS VEGAS,NV,,US,,,,,
,visa,,,LAS VEGAS,NV,,US,,,,,
,visa,,,LAS VEGAS,NV,,US,,,,,
,visa,,,LAS VEGAS,NV,,US,,,,,
,visa,,,LAS VEGAS,NV,,US,,,,,
,visa,,,LAS VEGAS,NV,,US,,,,,
,visa,,,LAS VEGAS,NV,,US,,,,,
,visa,,,LAS VEGAS,NV,,US,,,,,
,visa,,,LAS VEGAS,NV,,US,,,,,
,visa,,,LAS VEGAS,NV,,US,,,,,
,visa,,,LAS VEGAS,NV,,US,,,,,
,visa,,,LAS VEGAS,NV,,US,,,,,
,visa,,,LAS VEGAS,NV,,US,,,,,
,visa,,,LAS VEGAS,NV,,US,,,,,
,visa,,,LAS VEGAS,NV,,US,,,,,
,visa,,,LAS VEGAS,NV,,US,,,,,
,visa,,,LAS VEGAS,NV,,US,,,,,
,visa,,,LAS VEGAS,NV,,US,,,,,
,visa,,,LAS VEGAS,NV,,US,,,,,
,visa,,,LAS VEGAS,NV,,US,,,,,
,visa,,,LAS VEGAS,NV,,US,,,,,
,visa,,,LAS VEGAS,NV,,US,,,,,
,visa,,,LAS VEGAS,NV,,US,,,,,
,visa,,,LAS VEGAS,NV,,US,,,,,
,visa,,,LAS VEGAS,NV,,US,,,,,
,visa,,,LAS VEGAS,NV,,US,,,,,
,visa,,,LAS VEGAS,NV,,US,,,,,
,visa,,,LAS VEGAS,NV,,US,,,,,
,visa,,,LAS VEGAS,NV,,US,,,,,
,visa,,,LAS VEGAS,NV,,US,,,,,
,visa,,,LAS VEGAS,NV,,US,,,,,
,visa,,,LAS VEGAS,NV,,US,,,,,
,visa,,,LAS VEGAS,NV,,US,,,,,
,visa,,,LAS VEGAS,NV,,US,,,,,
,visa,,,LAS VEGAS,NV,,US,,,,,
,visa,,,LAS VEGAS,NV,,US,,,,,
,visa,,,LAS VEGAS,NV,,US,,,,,
,visa,,,LAS VEGAS,NV,,US,,,,,
,visa,,,LAS VEGAS,NV,,US,,,,,
,visa,,,LAS VEGAS,NV,,US,,,,,
,visa,,,LAS VEGAS,NV,,US,,,,,
,visa,,,LAS VEGAS,NV,,US,,,,,
,visa,,,LAS VEGAS,NV,,US,,,,,
,visa,,,LAS VEGAS,NV,,US,,,,,
,visa,,,LAS VEGAS,NV,,US,,,,,
,visa,,,LAS VEGAS,NV,,US,,,,,
,visa,,,LAS VEGAS,NV,,US,,,,,
,visa,,,LAS VEGAS,NV,,US,,,,,
,visa,,,LAS VEGAS,NV,,US,,,,,
,visa,,,LAS VEGAS,NV,,US,,,,,
,visa,,,LAS VEGAS,NV,,US,,,,,
,visa,,,LAS VEGAS,NV,,US,,,,,
,visa,,,LAS VEGAS,NV,,US,,,,,
,visa,,,LAS VEGAS,NV,,US,,,,,
,visa,,,LAS VEGAS,NV,,US,,,,,
,visa,,,LAS VEGAS,NV,,US,,,,,
,visa,,,LAS VEGAS,NV,,US,,,,,
,visa,,,LAS VEGAS,NV,,US,,,,,
,visa,,,LAS VEGAS,NV,,US,,,,,
,visa,,,LAS VEGAS,NV,,US,,,,,
,visa,,,LAS VEGAS,NV,,US,,,,,
,visa,,,LAS VEGAS,NV,,US,,,,,
,visa,,,LAS VEGAS,NV,,US,,,,,
,visa,,,LAS VEGAS,NV,,US,,,,,
,visa,,,LAS VEGAS,NV,,US,,,,,
,visa,,,LAS VEGAS,NV,,US,,,,,
,visa,,,LAS VEGAS,NV,,US,,,,,
,visa,,,LAS VEGAS,NV,,US,,,,,
,visa,,,LAS VEGAS,NV,,US,,,,,
,visa,,,LAS VEGAS,NV,,US,,,,,
,visa,,,LAS VEGAS,NV,,US,,,,,
,visa,,,LAS VEGAS,NV,,US,,,,,
,visa,,,LAS VEGAS,NV,,US,,,,,
,visa,,,LAS VEGAS,NV,,US,,,,,
,visa,,,LAS VEGAS,NV,,US,,,,,
,visa,,,LAS VEGAS,NV,,US,,,,,
,visa,,,LAS VEGAS,NV,,US,,,,,
,visa,,,LAS VEGAS,NV,,US,,,,,
,visa,,,LAS VEGAS,NV,,US,,,,,
,visa,,,LAS VEGAS,NV,,US,,,,,
,visa,,,LAS VEGAS,NV,,US,,,,,
,visa,,,LAS VEGAS,NV,,US,,,,,
,visa,,,LAS VEGAS,NV,,US,,,,,
,visa,,,LAS VEGAS,NV,,US,,,,,
,visa,,,LAS VEGAS,NV,,US,,,,,
,visa,,,LAS VEGAS,NV,,US,,,,,
,visa,,,LAS VEGAS,NV,,US,,,,,
,visa,,,WINNEMUCCA,NV,,US,,,,,
https://www.walgreens.com/locator/walgreens-6001+w+cheyenne+ave-las+vegas-nv-89108/id=4855,walgreens,Walgreens,,Las Vegas,NV,,US,+1 702-396-0917,https://www.walgreens.com/locator/walgreens-6001+w+cheyenne+ave-las+vegas-nv-89108/id=4855,Mo-Su 08:00-22:00,Walgreens,Q1591889
https://www.walgreens.com/locator/walgreens-6101+w+lake+mead+blvd-las+vegas-nv-89108/id=3841,walgreens,Walgreens,,Las Vegas,NV,,US,+1 702-648-2732,https://www.walgreens.com/locator/walgreens-6101+w+lake+mead+blvd-las+vegas-nv-89108/id=3841,Mo-Su 08:00-22:00,Walgreens,Q1591889
6110__W__CHEYENNE__AVE_LAS__VEGAS_NV_89108,wellsfargo,Wells Fargo,6110 W CHEYENNE AVE,LAS VEGAS,NV,,US,+1 702-515-2340,https://www.wellsfargo.com/locator/bank/6110__W__CHEYENNE__AVE_LAS__VEGAS_NV_89108/,Mo-Fr 09:00-17:00,Wells Fargo,Q744149
6101__VEGAS__DR_LAS__VEGAS_NV_89108,wellsfargo,,6101 VEGAS DR,LAS VEGAS,NV,,US,+1 800-869-3557,https://www.wellsfargo.com/locator/bank/6101__VEGAS__DR_LAS__VEGAS_NV_89108/,,Wells Fargo,Q744149
3104__N__RAINBOW__BLVD_LAS__VEGAS_NV_89108,wellsfargo,,3104 N RAINBOW BLVD,LAS VEGAS,NV,,US,+1 800-869-3557,https://www.wellsfargo.com/locator/bank/3104__N__RAINBOW__BLVD_LAS__VEGAS_NV_89108/,,Wells Fargo,Q744149
1775__N__DECATUR__BLVD_LAS__VEGAS_NV_89108,wellsfargo,Wells Fargo,1775 N DECATUR BLVD,LAS VEGAS,NV,,US,+1 702-765-2801,https://www.wellsfargo.com/locator/bank/1775__N__DECATUR__BLVD_LAS__VEGAS_NV_89108/,Mo-Fr 09:00-17:00,Wells Fargo,Q744149
https://locations.wendys.com/#9253521,wendys,"Wendy's W. Cheyenne #17 in Las Vegas, NV",,Las Vegas,NV,,US,+1 702-658-0900,https://locations.wendys.com/united-states/nv/las-vegas/6732-w-cheyenne,"Mo-Su 06:30-10:30,07:30-22:00",Wendy's,Q550258
6148b73111db14a24ae9a52f9f88ddfe,western_union,WALMART #001838,,Las Vegas,NV,,US,+1 702-656-0199,https://location.westernunion.com/us/nv/las-vegas/6148b73111db14a24ae9a52f9f88ddfe,Mo-Su 07:00-21:00,Western Union,Q861042
0098c24646f5470f01b0cc9dcb9c3651,western_union,BETTY'S ENVIOS Y PAQUETERIA,,Las Vegas,NV,,US,+1 725-895-9402,https://location.westernunion.com/us/nv/las-vegas/0098c24646f5470f01b0cc9dcb9c3651,Mo-Sa 10:00-17:30,Western Union,Q861042
1406ea5df9211f940208195689216ef5,western_union,ENVIOS MI LUPITA,,Las Vegas,NV,,US,+1 702-820-8868,https://location.westernunion.com/us/nv/las-vegas/1406ea5df9211f940208195689216ef5,Mo-Su 10:00-19:30,Western Union,Q861042
4fc4f72a39c07d6032990b4e51104827,western_union,WALMART #005259,,Las Vegas,NV,,US,+1 702-631-1962,https://location.westernunion.com/us/nv/las-vegas/4fc4f72a39c07d6032990b4e51104827,Mo-Su 07:00-21:00,Western Union,Q861042
