Ref,Spider,Name,Address,City,State,Zipcode,Country,Phone,Website,Hours,Brand,WikiData
3044,action,Münsingen,,Münsingen,,,DE,,https://www.action.com/de-de/laden/munsingen-lichtensteinstr/,,Action,Q2634111
AIC-29,aldi_sud_de,,"Gewerbestraße 18, 72525, Münsingen, Deutschland",Münsingen,,,DE,,,Mo-Sa 08:00-20:00,ALDI Süd,Q41171672
https://vertretung.allianz.de/herzog.markus/,allianz_de,Allianz Versicherung Herzog GbR GENERALVERTRETUNG,,Münsingen,,,DE,+49 7381 9329960,https://vertretung.allianz.de/herzog.markus/,Mo-Fr 09:00-12:00,Allianz SE,Q487292
00114_4,bmw_group,Hermann Menton GmbH & Co KG,,Münsingen,,,DE,+49 7381 756990,http://bmw-menton.de/de/home,,BMW,Q26678
48.41089.50542,dpd_de,Getränke Maier,,Münsingen,,,DE,,,,DPD,Q541030
48.41092769.5116941,dpd_de,Taiga,,Münsingen,,,DE,,,,DPD,Q541030
48.4121259.494161,dpd_de,Schwenk Mode,,Münsingen,,,DE,,,,DPD,Q541030
FordGK1U4C0  DEU,ford,Scheschowitz Automobile GmbH & Co. KG,,Münsingen,,,DE,+49 7381 400280,ford-scheschowitz-muensingen.de,,Ford,Q44294
2760206409,gls_de,KfZ Burger Paketshop - Tüv - Autohaus,,Münsingen,,,DE,+49 7381 6281,,"Mo-Fr 08:00-11:00,14:00-18:00; Sa 08:00-11:00",General Logistics Systems,Q46495823
2760917310,gls_de,Schwenk Mode,,Münsingen,,,DE,+49 7381 93870,,Mo-Fr 09:30-18:00,General Logistics Systems,Q46495823
1849,jysk,Münsingen,,Münsingen,,,DE,+49 7381 1824260,https://jysk.de/filialen?storeId=1849,Mo-Fr 10:00-18:30; Sa 09:30-18:00,JYSK,Q138913
DE8220,kaufland,Kaufland Münsingen,,Münsingen-Auingen,,,DE,+49 7381 1824250,https://filiale.kaufland.de/service/filiale/frankfurt-oder-spitzkrug-multi-center-muensingen-8220.html,Mo-Sa 07:00-22:00,Kaufland,Q685967
6989,kik,KiK,,Münsingen,,,DE,+49 7381 5017290,,Mo-Fr 09:00-19:00; Sa 09:00-18:00,KiK,Q883965
4658,lidl_de,Auingen,,Münsingen,,,DE,,,Mo-Sa 07:00-21:00,Lidl,Q151954
3814,mueller,Müller,,Münsingen,,,DE,+49 7381 93780,https://www.mueller.de/meine-filiale/muensingen/lichtensteinstrasse-36/,,Müller,Q1958759
48.40963_9.50571,norma_de,NORMA,,Münsingen,,,DE,,,Mo-Sa 07:00-21:00,Norma,Q450180
40871,seat_de,Jllig Automobile GmbH + Co. KG,,Münsingen,,,DE,+49 7381 93030,,,SEAT,Q188217
136922,sparkasse_de,"Kreissparkasse Reutlingen Geldautomat Münsingen, Fachmarktzentrum - Gewerbestraße (24/7 geöffnet)",,Münsingen,,,DE,+49 7381 1840,https://www.sparkasse.de/standorte/geldautomaten/kreissparkasse-reutlingen-geldautomat-muensingen-fachmarktzentrum-gewerbestrasse-24-7-geoeffnet-136922,24/7,Sparkasse,Q13601825
136918,sparkasse_de,Kreissparkasse Reutlingen Geldautomat Münsingen (24/7),,Münsingen,,,DE,+49 7381 1840,https://www.sparkasse.de/standorte/geldautomaten/kreissparkasse-reutlingen-geldautomat-muensingen-24-7-136918,24/7,Sparkasse,Q13601825
140359,sparkasse_de,Kreissparkasse Reutlingen Baufinanzierungsberatung Münsingen,,Münsingen,,,DE,+49 7381 1840,https://www.sparkasse.de/standorte/filialen/kreissparkasse-reutlingen-baufinanzierungsberatung-muensingen-140359,"Mo-Tu 09:30-12:30,14:00-17:00; We 09:30-12:30; Th-Fr 09:30-12:30,14:00-17:00",Sparkasse,Q13601825
140355,sparkasse_de,Kreissparkasse Reutlingen Immobilienvermittlung Münsingen,,Münsingen,,,DE,+49 7381 1840,https://www.sparkasse.de/standorte/filialen/kreissparkasse-reutlingen-immobilienvermittlung-muensingen-140355,"Mo-Tu 09:30-12:30,14:00-17:00; We 09:30-12:30; Th-Fr 09:30-12:30,14:00-17:00",Sparkasse,Q13601825
140354,sparkasse_de,Kreissparkasse Reutlingen Private Banking Münsingen,,Münsingen,,,DE,+49 7381 1840,https://www.sparkasse.de/standorte/filialen/kreissparkasse-reutlingen-private-banking-muensingen-140354,"Mo-Tu 09:30-12:30,14:00-17:00; We 09:30-12:30; Th-Fr 09:30-12:30,14:00-17:00",Sparkasse,Q13601825
140357,sparkasse_de,Kreissparkasse Reutlingen Unternehmenskundenberatung Münsingen,,Münsingen,,,DE,+49 7381 1840,https://www.sparkasse.de/standorte/filialen/kreissparkasse-reutlingen-unternehmenskundenberatung-muensingen-140357,"Mo-Tu 09:30-12:30,14:00-17:00; We 09:30-12:30; Th-Fr 09:30-12:30,14:00-17:00",Sparkasse,Q13601825
14169,sparkasse_de,Kreissparkasse Reutlingen Filiale Münsingen,,Münsingen,,,DE,+49 7381 1840,https://www.sparkasse.de/standorte/filialen/kreissparkasse-reutlingen-filiale-muensingen-14169,"Mo-Tu 09:30-12:30,14:00-17:00; We 09:30-12:30; Th-Fr 09:30-12:30,14:00-17:00",Sparkasse,Q13601825
176549,sparkasse_de,Kreissparkasse Reutlingen Geldautomat Buttenhausen (24/7 geöffnet),,Münsingen,,,DE,+49 7121 3310,https://www.sparkasse.de/standorte/geldautomaten/kreissparkasse-reutlingen-geldautomat-buttenhausen-24-7-geoeffnet-176549,,Sparkasse,Q13601825
DE_EXT_12208,totalenergies,Agip Muensingen,,Muensingen,,,DE,,https://store.totalenergies.fr/en_EN/DE_EXT_12208,,Agip,Q377915
3832,valora,Cigo,,Münsingen,,,DE,,,,Cigo,Q113290782
https://www.vlh.de/bst/7282/Oeffnungszeiten.html,vhl_de,VLH-Berater Ernst Krehl in Münsingen,,Münsingen,,,DE,+49 7381 931420,https://www.vlh.de/bst/7282/,,Vereinigte Lohnsteuerhilfe e.V.,Q15852617
,visa,,,MUENSINGEN,,,DE,,,,,
,visa,,,MUENSINGEN,,,DE,,,,,
,visa,,,MUENSINGEN,,,DE,,,,,
,visa,,,MUENSINGEN,,,DE,,,,,
,visa,,,MUENSINGEN,,,DE,,,,,
6DE05026,volvo,Scheschowitz Automobile GmbH & Co. KG,,Münsingen,,,DE,,http://www.volvocars-haendler.de/scheschowitz/,,Volvo,Q215293
https://www.vr.de/standorte/M/volksbank-muensingen-eg-5904.html,vr_bank,Volksbank Münsingen eG,,Münsingen,,,DE,+49 7381 4060,https://www.volksbank-muensingen.de,"Mo-Tu 08:30-12:30,14:00-17:00; We 08:30-12:30; Th-Fr 08:30-12:30,14:00-17:00",,
