Ref,Spider,Name,Address,City,State,Zipcode,Country,Phone,Website,Hours,Brand,WikiData
https://locations.auntieannes.com/#5821,auntie_annes,Auntie Anne's Fort Leonard Wood,,Fort Leonard Wood,MO,,US,+1 573-329-2070,https://locations.auntieannes.com/mo/fort-leonard-wood/143-replacement-drive,Mo-We 10:00-16:00; Th 10:00-19:00; Fr 10:00-16:00; Sa-Su 09:00-16:00,Auntie Anne's,Q4822010
55653,bluerhino,AAFES - Shoppette Class6,,Fort Leonard Wood,MO,,US,+1 573-329-0691,,,Blue Rhino,Q65681213
76893,bluerhino,AAFES - South Shoppette,,Fort Leonard Wood,MO,,US,+1 573-329-2323,,,Blue Rhino,Q65681213
,credit_union_us,Infuze CU,,Fort Leonard Wood,MO,,US,+1 573-329-3151,,Mo-Fr 09:00-05:00; Sa 09:00-12:00,,
vba_331a,department_veterans_affairs,Veteran Readiness and Employment Office and Pre-Discharge Site at Fort Leonard Wood,,Fort Leonard Wood,MO,,US,+1 800-827-1039,,,Department Veterans Affairs,Q592576
363253,dunkin_us,Dunkin',,Fort Leonard Wood,MO,,US,+1 573-586-4515,https://locations.dunkindonuts.com/en/mo/fort-leonard-wood/143-replacement-ave/363253,Mo-Fr 09:00-14:00; Sa 07:00-15:00; Su 07:00-16:00,Dunkin',Q847743
354257,dunkin_us,Dunkin',,Fort Leonard Wood,MO,,US,+1 573-329-0698,https://locations.dunkindonuts.com/en/mo/fort-leonard-wood/2624-missouri-ave/354257,Mo-Fr 05:00-15:00; Sa-Su 07:00-15:00,Dunkin',Q847743
143-replacement-ave,einsteinbros,Ft Leonard Wood Einstein Bros. Bagels,,Fort Leonard Wood,MO,,US,+1 573-329-2731,https://locations.einsteinbros.com/us/mo/fort-leonard-wood/143-replacement-ave,Mo-Fr 07:00-12:00,Einstein Bros. Bagels,Q5349788
592803,firestone_auto_care,Firestone Complete Auto Care,,Fort Leonard Wood,MO,,US,+1 573-586-4107,https://local.firestonecompleteautocare.com/missouri/fort-leonard-wood/150-missouri-ave/,,Firestone,Q420837
https://stores.gnc.com/#24059662,gnc,GNC Fort Leanard Wood Mini Mall,,,MO,,US,+1 573-329-5500,https://stores.gnc.com/all-stores-missouri/fort-leonard-wood/14145-n-dakota-ave,Mo-Sa 09:00-19:00; Su 09:00-18:00,GNC,Q4808595
https://stores.gnc.com/#24058329,gnc,GNC Ft Leonard Wood,,,MO,,US,+1 573-329-4897,https://stores.gnc.com/all-stores-missouri/fort-leonard-wood/1403-replacement-ave,Mo-Sa 09:00-19:00; Su 09:00-18:00,GNC,Q4808595
19125,h_r_block,H&R Block,,Fort Leonard Wood,MO,,US,+1 573-329-5310,https://www.hrblock.com/local-tax-offices/missouri/fort-leonard-wood/233-illinois-ave/19125/,,H&R Block,Q5627799
https://locations.jimmyjohns.com/mo/ft-leonardwood/sandwiches-2030.html,jimmy_johns,Jimmy John's,,Ft. Leonard Wood,MO,,US,+1 573-329-0505,https://locations.jimmyjohns.com/mo/ft-leonardwood/sandwiches-2030.html,,Jimmy John's,Q1689380
mo_fort-leonard-wood_building-1711-cooley-avenue,pizza_hut_us,Building 1711 Cooley Avenue,,Fort Leonard Wood,MO,,US,+1 573-329-0270,https://locations.pizzahut.com/mo/fort-leonard-wood/building-1711-cooley-avenue,,Pizza Hut,Q191615
restaurant_85193,popeyes_us_fr,Popeyes,"(Military Post Access Required) 266 Replacement Road Fort Leonard Wood, Missouri 65473 - USA",Fort Leonard Wood,MO,,US,+1 573-329-6051,https://www.popeyes.com/store-locator/store/restaurant_85193,Mo-Sa 10:00-20:00; Su 10:00-18:00,Popeyes,Q1330910
https://locations.qdoba.com/us/mo/fort-leonard-wood/14145-n-dakota-ave.html,qdoba,QDOBA Ft Leonard Wood,,Fort Leonard Wood,MO,,US,,https://locations.qdoba.com/us/mo/fort-leonard-wood/14145-n-dakota-ave.html,Mo-Su 11:00-16:00,Qdoba,Q1363885
https://stores.sunglasshut.com/us/mo/ft-leonard-wood/bldg-487-143-replacement-ave,sunglass_hut_1,Sunglass Hut at Aafes,,Ft Leonard Wood,MO,,US,+1 573-329-4170,https://stores.sunglasshut.com/us/mo/ft-leonard-wood/bldg-487-143-replacement-ave,Mo-Sa 09:00-19:00; Su 10:00-18:00,Sunglass Hut,Q136311
1A16,tmobile_us,AAFES Ft Leonard Wood MO,,Ft Leonard Wood,MO,,US,,https://www.t-mobile.com/store-locator/mo/ft-leonard-wood/aafes-ft-leonard-wood-mo,,T-Mobile,Q3511885
1A17,tmobile_us,AAFES Ft Leonard Wood S MO,,Ft Leonard Wood,MO,,US,,https://www.t-mobile.com/store-locator/mo/ft-leonard-wood/aafes-ft-leonard-wood-s-mo,,T-Mobile,Q3511885
6400,upsstore,Fort Leonard Wood Main Exchange,143 Replacement Ave Bldg 487,Fort Leonard Wood,MO,,US,+1 573-329-0733,https://locations.theupsstore.com/mo/fort-leonard-wood/143-replacement-ave,,UPS Store,Q7771029
1363801,usps,FORT LEONARD WOOD,,FORT LEONARD WOOD,MO,,US,+1 573-329-5909,,Mo-Fr 08:00-16:30; Sa 09:30-13:30,United States Postal Service,Q668687
6547300001,usps_collection_boxes,USPS COLLECTION BOX - BLUE BOX,233 ILLINOIS AVE,FT LEONARD WD,MO,,US,,,,United States Postal Service,Q668687
6547300002,usps_collection_boxes,USPS COLLECTION BOX - PO LOBBY,233 ILLINOIS AVE,FT LEONARD WD,MO,,US,,,,United States Postal Service,Q668687
6547300003,usps_collection_boxes,USPS COLLECTION BOX - PO LOBBY,233 ILLINOIS AVE,FT LEONARD WD,MO,,US,,,,United States Postal Service,Q668687
6547300010,usps_collection_boxes,USPS COLLECTION BOX - BLUE BOX,12994 12TH ST,FT LEONARD WD,MO,,US,,,,United States Postal Service,Q668687
6547300008,usps_collection_boxes,USPS COLLECTION BOX - BLUE BOX,4110 PINEY HILLS DR,FT LEONARD WD,MO,,US,,,,United States Postal Service,Q668687
6547300011,usps_collection_boxes,USPS COLLECTION BOX - BLUE BOX,5107 NEBRASKA AVE,FT LEONARD WD,MO,,US,,,,United States Postal Service,Q668687
6547300005,usps_collection_boxes,USPS COLLECTION BOX - BLUE BOX,2100 OKLAHOMA AVE,FT LEONARD WD,MO,,US,,,,United States Postal Service,Q668687
6547300007,usps_collection_boxes,USPS COLLECTION BOX - BLUE BOX,3200 MSCOE LOOP,FT LEONARD WD,MO,,US,,,,United States Postal Service,Q668687
,visa,,,FORT LEONARD WOOD,MO,,US,,,,,
,visa,,,FT LEONARD WOOD,MO,,US,,,,,
,visa,,,FT LEONARDWOO,MO,,US,,,,,
,visa,,,FT LEONARD WD,MO,,US,,,,,
,visa,,,FT LEONARD WOOD,MO,,US,,,,,
,visa,,,FORT LEONARD WOOD,MO,,US,,,,,
,visa,,,FT LEONARDWOO,MO,,US,,,,,
,visa,,,FT LEONARDWOO,MO,,US,,,,,
,visa,,,FORT LEONARDW,MO,,US,,,,,
,visa,,,FORT LEONARD WOOD,MO,,US,,,,,
,visa,,,FT LEONARD WD,MO,,US,,,,,
,visa,,,FT LEONARDWOO,MO,,US,,,,,
,visa,,,FT LEONARDWOO,MO,,US,,,,,
,visa,,,FT LEONARDWOO,MO,,US,,,,,
,visa,,,FT LEONARD WOOD,MO,,US,,,,,
,visa,,,FORT LEONARD WOOD,MO,,US,,,,,
,visa,,,FORT LEONARD WOOD,MO,,US,,,,,
,visa,,,FT LEONARD WOOD,MO,,US,,,,,
,visa,,,FORT LEONARDW,MO,,US,,,,,
f2206f29a9b435504f16c49e7a8fd26d,western_union,CER- FT LEONARD WOOD MX,,Fort Leonard Wood,MO,,US,+1 573-329-2200,https://location.westernunion.com/us/mo/fort-leonard-wood/f2206f29a9b435504f16c49e7a8fd26d,,Western Union,Q861042
armed-services-ymca-missouri,ymca,Armed Services YMCA of Missouri,PO Box 18,Fort Leonard Wood,MO,,US,+1 573-329-4513,https://www.ymca.org/locations/armed-services-ymca-missouri,Mo-Fr 08:30-17:00,YMCA,Q157169
