Ref,Spider,Name,Address,City,State,Zipcode,Country,Phone,Website,Hours,Brand,WikiData
12329,dominos_pizza_mx,Domino's,,Puebla,Puebla,,MX,+52 222 454 0120,,,Domino's Pizza,Q839466
1385,first_cash,First Cash Pawn,,Heroica Puebla De Zaragoza,Puebla,,MX,+52 222 228 6214,,,First Cash Pawn,
,visa,,,PUEBLA,PUEBLA,,MX,,,,,
,visa,,,PUEBLA,PUEBLA,,MX,,,,,
10ef9e581d680a9585d27319e017f8db,western_union,OXXO 3A SUR PBF,,Puebla,PUEBLA,,MX,+52 81 8389 2121,https://location.westernunion.com/mx/puebla/puebla/10ef9e581d680a9585d27319e017f8db,Mo-Su 08:00-22:00,Western Union,Q861042
67a4d82a77b0fef5c179cbd911c40fc5,western_union,OXXO 3A SUR PBF,,Puebla,PUEBLA,,MX,+52 81 8389 2121,https://location.westernunion.com/mx/puebla/puebla/67a4d82a77b0fef5c179cbd911c40fc5,Mo-Su 08:00-22:00,Western Union,Q861042
ab09174c8b330a156b44b08c193a1e1e,western_union,FARM GUAD PROLOG 16 DE SEPT,,Puebla,PUEBLA,,MX,+52 800 833 4700,https://location.westernunion.com/mx/puebla/puebla/ab09174c8b330a156b44b08c193a1e1e,Mo-Su 08:00-20:00,Western Union,Q861042
9170d2a77f74a9f8e3b31d422cdc7f74,western_union,FARM GUAD PROLOG 16 DE SEPT,,Puebla,PUEBLA,,MX,+52 800 833 4700,https://location.westernunion.com/mx/puebla/puebla/9170d2a77f74a9f8e3b31d422cdc7f74,Mo-Su 08:00-20:00,Western Union,Q861042
879ae0dda5b74df9f6c64274bd08ab4b,western_union,FARM GUAD PROLOG 16 DE SEPT,,Puebla,PUEBLA,,MX,+52 800 833 4700,https://location.westernunion.com/mx/puebla/puebla/879ae0dda5b74df9f6c64274bd08ab4b,Mo-Su 08:00-20:00,Western Union,Q861042
ede5c374f1a1d59b4d58a08842871b68,western_union,OXXO 16 SEP PBF,,Puebla,PUEBLA,,MX,+52 81 8389 2121,https://location.westernunion.com/mx/puebla/puebla/ede5c374f1a1d59b4d58a08842871b68,Mo-Su 08:00-22:00,Western Union,Q861042
f9f42b1aea083f7c170b5db88577b986,western_union,BANCOPPEL 139 TORRECILLAS,,Puebla,PUEBLA,,MX,+52 951 133 3070,https://location.westernunion.com/mx/puebla/puebla/f9f42b1aea083f7c170b5db88577b986,Mo-Fr 10:00-20:00; Sa 10:00-20:30; Su 11:00-20:00,Western Union,Q861042
9773bf1a96afa3ca7809d33c097954d4,western_union,BANCOPPEL 139 TORRECILLAS,,Puebla,PUEBLA,,MX,+52 951 133 3070,https://location.westernunion.com/mx/puebla/puebla/9773bf1a96afa3ca7809d33c097954d4,Mo-Fr 10:00-20:00; Sa 10:00-20:30; Su 11:00-20:00,Western Union,Q861042
b03fa1fddb287c42a6e56517c92b342b,western_union,BANCOPPEL 139 TORRECILLAS,,Puebla,PUEBLA,,MX,+52 951 133 3070,https://location.westernunion.com/mx/puebla/puebla/b03fa1fddb287c42a6e56517c92b342b,Mo-Fr 10:00-20:00; Sa 10:00-20:30; Su 11:00-20:00,Western Union,Q861042
057145f243800d4ec413bbaae3e34032,western_union,ELEKTRA EKT 9729,,Puebla,PUEBLA,,MX,+52 55 1720 8177,https://location.westernunion.com/mx/puebla/puebla/057145f243800d4ec413bbaae3e34032,Mo-Su 09:00-21:00,Western Union,Q861042
03c8e91faeb0417c95fb8f198401fd17,western_union,ELEKTRA EKT 9729,,Puebla,PUEBLA,,MX,+52 55 1720 8177,https://location.westernunion.com/mx/puebla/puebla/03c8e91faeb0417c95fb8f198401fd17,Mo-Su 09:00-21:00,Western Union,Q861042
3fd4621d71ab6b1b6f12023d785dd45e,western_union,AURRERA AV D LAS TORRES PUEBLA 2788,,Puebla,PUEBLA,,MX,+52 800 833 4700,https://location.westernunion.com/mx/puebla/puebla/3fd4621d71ab6b1b6f12023d785dd45e,Mo-Su 07:00-23:00,Western Union,Q861042
1af51ea5780729ec00de3d4c1afffbc2,western_union,AURRERA AV D LAS TORRES PUEBLA 2788,,Puebla,PUEBLA,,MX,+52 800 833 4700,https://location.westernunion.com/mx/puebla/puebla/1af51ea5780729ec00de3d4c1afffbc2,Mo-Su 07:00-23:00,Western Union,Q861042
d76776837977e4b4eb90acee2a7ebcbf,western_union,AURRERA AV D LAS TORRES PUEBLA 2788,,Puebla,PUEBLA,,MX,+52 800 833 4700,https://location.westernunion.com/mx/puebla/puebla/d76776837977e4b4eb90acee2a7ebcbf,Mo-Su 07:00-23:00,Western Union,Q861042
e6e3eee960259a2846dc3a030e1f50d7,western_union,OXXO 16 SEP PBF,,Puebla,PUEBLA,,MX,+52 81 8389 2121,https://location.westernunion.com/mx/puebla/puebla/e6e3eee960259a2846dc3a030e1f50d7,Mo-Su 08:00-22:00,Western Union,Q861042
76055a9945cac0e80e700b693bbcab36,western_union,OXXO 16 SEP PBF,,Puebla,PUEBLA,,MX,+52 81 8389 2121,https://location.westernunion.com/mx/puebla/puebla/76055a9945cac0e80e700b693bbcab36,Mo-Su 08:00-22:00,Western Union,Q861042
