Ref,Spider,Name,Address,City,State,Zipcode,Country,Phone,Website,Hours,Brand,WikiData
1811,first_cash,Plaza Sur,,Heroica Puebla De Zaragoza,Puebla,,MX,+52 222 285 7308,,,,
GS0015459,mercedes_benz,"Reyes Huerta Angelópolis, S.A. de C.V.",,San Andrés Cholula,Puebla,,MX,+52 222 130 8888,https://www.mercedes-benz-reyeshuerta.com.mx/,"Mo-Sa 09:00-13:00,14:00-18:00",Mercedes-Benz,Q36008
,visa,,,PUEBLA,PUEBLA,,MX,,,,,
,visa,,,IZUCAR DE MATAMOROS,PUEBLA,,MX,,,,,
df94c4d884cc06c046f7e4fdc9bd3319,western_union,FARM GUAD SAN BERNABE TEMOXTITLA,,Puebla,PUEBLA,,MX,+52 800 833 4700,https://location.westernunion.com/mx/puebla/puebla/df94c4d884cc06c046f7e4fdc9bd3319,Mo-Su 08:00-20:00,Western Union,Q861042
6404b3829feffad759881a455ee9b481,western_union,FARM GUAD SAN BERNABE TEMOXTITLA,,Puebla,PUEBLA,,MX,+52 800 833 4700,https://location.westernunion.com/mx/puebla/puebla/6404b3829feffad759881a455ee9b481,Mo-Su 08:00-20:00,Western Union,Q861042
b26b582d4964e5b205b40c72780fe64f,western_union,OXXO SAN ANDRES PBF,,Puebla,PUEBLA,,MX,+52 81 8389 2121,https://location.westernunion.com/mx/puebla/puebla/b26b582d4964e5b205b40c72780fe64f,Mo-Su 08:00-22:00,Western Union,Q861042
3040b8a3044426acbf1aef7512422fc3,western_union,OXXO EL TRIUNFO PBF,,Puebla,PUEBLA,,MX,+52 81 8389 2121,https://location.westernunion.com/mx/puebla/puebla/3040b8a3044426acbf1aef7512422fc3,Mo-Su 08:00-22:00,Western Union,Q861042
8a24e497416e7f1081fcc8cc13dee56f,western_union,OXXO EL TRIUNFO PBF,,Puebla,PUEBLA,,MX,+52 81 8389 2121,https://location.westernunion.com/mx/puebla/puebla/8a24e497416e7f1081fcc8cc13dee56f,Mo-Su 08:00-22:00,Western Union,Q861042
6f7cfa83361d5eb5c92c5d9e4e64ae97,western_union,OXXO EL TRIUNFO PBF,,Puebla,PUEBLA,,MX,+52 81 8389 2121,https://location.westernunion.com/mx/puebla/puebla/6f7cfa83361d5eb5c92c5d9e4e64ae97,Mo-Su 08:00-22:00,Western Union,Q861042
f5b914ecdbff2cc70eda6ee47b10a7c8,western_union,OXXO SAN ANDRES PBF,,Puebla,PUEBLA,,MX,+52 81 8389 2121,https://location.westernunion.com/mx/puebla/puebla/f5b914ecdbff2cc70eda6ee47b10a7c8,Mo-Su 08:00-22:00,Western Union,Q861042
56d4bb9facc15075b470b19795a90545,western_union,OXXO NEVADO DE TOLUCA PBF,,Puebla,PUEBLA,,MX,+52 81 8389 2121,https://location.westernunion.com/mx/puebla/puebla/56d4bb9facc15075b470b19795a90545,Mo-Su 08:00-22:00,Western Union,Q861042
1d27df203e0ba21f9bf4c3cff9f83576,western_union,OXXO NEVADO DE TOLUCA PBF,,Puebla,PUEBLA,,MX,+52 81 8389 2121,https://location.westernunion.com/mx/puebla/puebla/1d27df203e0ba21f9bf4c3cff9f83576,Mo-Su 08:00-22:00,Western Union,Q861042
ddf68bd3cc91546a3eae8636316dc067,western_union,OXXO NEVADO DE TOLUCA PBF,,Puebla,PUEBLA,,MX,+52 81 8389 2121,https://location.westernunion.com/mx/puebla/puebla/ddf68bd3cc91546a3eae8636316dc067,Mo-Su 08:00-22:00,Western Union,Q861042
4654dfe963b63bcab8fb9d10bd0feb3f,western_union,TIENDAS NETO NAYARIT 8959,,Puebla,PUEBLA,,MX,+52 222 944 5606,https://location.westernunion.com/mx/puebla/puebla/4654dfe963b63bcab8fb9d10bd0feb3f,Mo-Su 07:00-22:00,Western Union,Q861042
9824c9d715139ff81e0c232c84abb0db,western_union,TIENDAS NETO NAYARIT 8959,,Puebla,PUEBLA,,MX,+52 222 944 5606,https://location.westernunion.com/mx/puebla/puebla/9824c9d715139ff81e0c232c84abb0db,Mo-Su 07:00-22:00,Western Union,Q861042
9bae394216559eff03f283c1ab9259f4,western_union,TIENDAS NETO NAYARIT 8959,,Puebla,PUEBLA,,MX,+52 222 944 5606,https://location.westernunion.com/mx/puebla/puebla/9bae394216559eff03f283c1ab9259f4,Mo-Su 07:00-22:00,Western Union,Q861042
1d41b6dc79bf2923eb344b91f77e0c14,western_union,OXXO COATEPEC PBF,,Puebla,PUEBLA,,MX,+52 81 8389 2121,https://location.westernunion.com/mx/puebla/puebla/1d41b6dc79bf2923eb344b91f77e0c14,Mo-Su 08:00-22:00,Western Union,Q861042
88ecb69f787f5285f6bfb3ede89edcaa,western_union,OXXO COATEPEC PBF,,Puebla,PUEBLA,,MX,+52 81 8389 2121,https://location.westernunion.com/mx/puebla/puebla/88ecb69f787f5285f6bfb3ede89edcaa,Mo-Su 08:00-22:00,Western Union,Q861042
1bb585128b09bae04de565add3fea8e4,western_union,OXXO COATEPEC PBF,,Puebla,PUEBLA,,MX,+52 81 8389 2121,https://location.westernunion.com/mx/puebla/puebla/1bb585128b09bae04de565add3fea8e4,Mo-Su 08:00-22:00,Western Union,Q861042
59c3b6af00adef6b8f76657e2d05828f,western_union,OXXO TORRECILLAS PBF,,Puebla,PUEBLA,,MX,+52 81 8389 2121,https://location.westernunion.com/mx/puebla/puebla/59c3b6af00adef6b8f76657e2d05828f,Mo-Su 08:00-22:00,Western Union,Q861042
1f14e30c5dba455b49fce90eed1ad837,western_union,AURRERA EXPRESS RANCHO XAXALPA 2633,,Puebla,PUEBLA,,MX,+52 800 833 4700,https://location.westernunion.com/mx/puebla/puebla/1f14e30c5dba455b49fce90eed1ad837,Mo-Su 08:00-22:00,Western Union,Q861042
31d9ed8520531b73a745f67c168bb7b1,western_union,AURRERA EXPRESS RANCHO XAXALPA 2633,,Puebla,PUEBLA,,MX,+52 800 833 4700,https://location.westernunion.com/mx/puebla/puebla/31d9ed8520531b73a745f67c168bb7b1,Mo-Su 08:00-22:00,Western Union,Q861042
bc13004f8e067be933df4483ade3cae1,western_union,AURRERA EXPRESS RANCHO XAXALPA 2633,,Puebla,PUEBLA,,MX,+52 800 833 4700,https://location.westernunion.com/mx/puebla/puebla/bc13004f8e067be933df4483ade3cae1,Mo-Su 08:00-22:00,Western Union,Q861042
d3020921601e5ca81aba38e49b1c103b,western_union,OXXO PUEBLA TEXTIL PBF,,Puebla,PUEBLA,,MX,+52 81 8389 2121,https://location.westernunion.com/mx/puebla/puebla/d3020921601e5ca81aba38e49b1c103b,Mo-Su 08:00-22:00,Western Union,Q861042
0a280057bfd4fe03abde250c38021286,western_union,OXXO PUEBLA TEXTIL PBF,,Puebla,PUEBLA,,MX,+52 81 8389 2121,https://location.westernunion.com/mx/puebla/puebla/0a280057bfd4fe03abde250c38021286,Mo-Su 08:00-22:00,Western Union,Q861042
f8dd09c064d47efdd6cd134e800a34ea,western_union,OXXO PUEBLA TEXTIL PBF,,Puebla,PUEBLA,,MX,+52 81 8389 2121,https://location.westernunion.com/mx/puebla/puebla/f8dd09c064d47efdd6cd134e800a34ea,Mo-Su 08:00-22:00,Western Union,Q861042
8261cc7938f8ce89b4661d62873f58e3,western_union,OXXO INDEPENDENCIA 24 PBF,,Puebla,PUEBLA,,MX,+52 81 8389 2121,https://location.westernunion.com/mx/puebla/puebla/8261cc7938f8ce89b4661d62873f58e3,Mo-Su 08:00-22:00,Western Union,Q861042
447d7fe12acb5ff244f01480f0ce7a74,western_union,OXXO INDEPENDENCIA 24 PBF,,Puebla,PUEBLA,,MX,+52 81 8389 2121,https://location.westernunion.com/mx/puebla/puebla/447d7fe12acb5ff244f01480f0ce7a74,Mo-Su 08:00-22:00,Western Union,Q861042
b554f6e3bfb7ae0b1481c208150efd8f,western_union,OXXO INDEPENDENCIA 24 PBF,,Puebla,PUEBLA,,MX,+52 81 8389 2121,https://location.westernunion.com/mx/puebla/puebla/b554f6e3bfb7ae0b1481c208150efd8f,Mo-Su 08:00-22:00,Western Union,Q861042
fb727e9c95e91623b4324e5061d63a83,western_union,OXXO VENUSTIANO PBF,,Puebla,PUEBLA,,MX,+52 81 8389 2121,https://location.westernunion.com/mx/puebla/puebla/fb727e9c95e91623b4324e5061d63a83,Mo-Su 06:00-22:00,Western Union,Q861042
2d712fb4f47e741f5f299ff732453572,western_union,AURRERA EXPRESS CONSTITUCION PUEBLA 3494,,Puebla,PUEBLA,,MX,+52 800 833 4700,https://location.westernunion.com/mx/puebla/puebla/2d712fb4f47e741f5f299ff732453572,Mo-Su 08:00-22:00,Western Union,Q861042
c8464469b9ca96a812d292d8e2036589,western_union,AURRERA EXPRESS CONSTITUCION PUEBLA 3494,,Puebla,PUEBLA,,MX,+52 800 833 4700,https://location.westernunion.com/mx/puebla/puebla/c8464469b9ca96a812d292d8e2036589,Mo-Su 08:00-22:00,Western Union,Q861042
35d45f530afb407a8631bd1ab1450096,western_union,AURRERA EXPRESS CONSTITUCION PUEBLA 3494,,Puebla,PUEBLA,,MX,+52 800 833 4700,https://location.westernunion.com/mx/puebla/puebla/35d45f530afb407a8631bd1ab1450096,Mo-Su 08:00-22:00,Western Union,Q861042
b23de8bd75b385b9dbd22490770c908b,western_union,FARM GUAD LOMA LINDA,,Puebla,PUEBLA,,MX,+52 800 833 4700,https://location.westernunion.com/mx/puebla/puebla/b23de8bd75b385b9dbd22490770c908b,Mo-Su 08:00-20:00,Western Union,Q861042
b2dc6636be2aa388bbc8973da5ffca5e,western_union,FARM GUAD LOMA LINDA,,Puebla,PUEBLA,,MX,+52 800 833 4700,https://location.westernunion.com/mx/puebla/puebla/b2dc6636be2aa388bbc8973da5ffca5e,Mo-Su 08:00-20:00,Western Union,Q861042
94b1ac1b7bc73c417042a05e5fdf6331,western_union,FARM GUAD LOMA LINDA,,Puebla,PUEBLA,,MX,+52 800 833 4700,https://location.westernunion.com/mx/puebla/puebla/94b1ac1b7bc73c417042a05e5fdf6331,Mo-Su 08:00-20:00,Western Union,Q861042
a1525ef215c899261f400914dd261487,western_union,OXXO SAN ANDRES PBF,,Puebla,PUEBLA,,MX,+52 81 8389 2121,https://location.westernunion.com/mx/puebla/puebla/a1525ef215c899261f400914dd261487,Mo-Su 08:00-22:00,Western Union,Q861042
71816c91d60397503279029563ba90db,western_union,FARM GUAD SAN BERNABE TEMOXTITLA,,Puebla,PUEBLA,,MX,+52 800 833 4700,https://location.westernunion.com/mx/puebla/puebla/71816c91d60397503279029563ba90db,Mo-Su 08:00-20:00,Western Union,Q861042
