Ref,Spider,Name,Address,City,State,Zipcode,Country,Phone,Website,Hours,Brand,WikiData
https://stores.advanceautoparts.com/mi/port-huron/1409-24th-st,advance_auto_parts_us,Advance Auto Parts,,Port Huron,MI,,US,+1 810-966-3960,https://stores.advanceautoparts.com/mi/port-huron/1409-24th-st,Mo-Sa 07:30-21:00; Su 09:00-20:00,Advance Auto Parts,Q4686051
https://restaurants.applebees.com/en-us/mi/port-huron/3700-pine-grove-ave.-80067,applebees,Connect with this Applebee's,,Port Huron,MI,,US,+1 810-984-5682,https://restaurants.applebees.com/en-us/mi/port-huron/3700-pine-grove-ave.-80067,Mo-Th 11:00-24:00; Fr-Sa 11:00-01:00; Su 11:00-23:00,Applebees,Q621532
2179,autozone_us,AutoZone Auto Parts Port Huron,,Port Huron,MI,,US,+1 810-966-8930,https://www.autozone.com/locations/mi/port-huron/1401-32nd-st.html,Mo-Th 07:30-21:00; Fr-Sa 07:30-22:00; Su 09:00-20:00,AutoZone,Q4826087
https://local.biglots.com/#13191095,biglots,Big Lots - Port Huron,,Port Huron,MI,,US,+1 810-982-1188,https://local.biglots.com/mi/port-huron/659-24th-st,Mo-Sa 09:00-21:00; Su 10:00-19:00,Big Lots,Q4905973
152041,bluerhino,Walgreens #6053,,Port Huron,MI,,US,+1 810-987-4621,,,Blue Rhino,Q65681213
24261,bluerhino,Kroger #515 - Michigan,,Port Huron,MI,,US,+1 810-987-9820,,,Blue Rhino,Q65681213
165321,bluerhino,Interstate Shell,,Port Huron,MI,,US,+1 810-966-4526,,,Blue Rhino,Q65681213
206078,bluerhino,Rite Aid #04574,,Port Huron,MI,,US,+1 810-987-3663,,,Blue Rhino,Q65681213
74452,bluerhino,Speedway #8825,,Port Huron,MI,,US,+1 810-982-8752,,,Blue Rhino,Q65681213
201805,bluerhino,Menards - PORT HURON #3307,,PORT HURON,MI,,US,+1 810-987-2966,,,Blue Rhino,Q65681213
24366,bluerhino,Kroger #715 - Michigan,,Port Huron,MI,,US,+1 810-987-9420,,,Blue Rhino,Q65681213
158975,bluerhino,Kroger #715 - Michigan - Fuel Site,,Port Huron,MI,,US,+1 810-987-9420,,,Blue Rhino,Q65681213
206934,bluerhino,Rite Aid #04409,,PORT HURON,MI,,US,+1 810-984-5108,,,Blue Rhino,Q65681213
74451,bluerhino,Speedway #8824,,Port Huron,MI,,US,+1 810-985-5520,,,Blue Rhino,Q65681213
152039,bluerhino,Walgreens #5595,,Port Huron,MI,,US,+1 810-987-5083,,,Blue Rhino,Q65681213
74453,bluerhino,Speedway #8826,,Port Huron,MI,,US,+1 810-364-4046,,,Blue Rhino,Q65681213
47024,bobevans_us,Port Huron,,Port Huron,MI,,US,+1 810-984-4455,https://www.bobevans.com/locations/port-huron,Mo-Su 07:00-21:00,Bob Evans,Q4932386
81677980493194806000100000000000,bp,BP,,Port Huron,MI,,US,+1 810-984-5350,,Mo-Fr 05:00-24:00; Sa-Su 06:00-22:00,BP,Q152057
03993320358564806000100000961334,bp,Amoco,,Port Huron,MI,,US,+1 810-966-4526,,,BP,Q152057
49724780255394806000100000000000,bp,BP,,Port Huron,MI,,US,+1 810-987-2500,,Mo-We 05:00-22:00; Th-Fr 05:00-23:00; Sa 06:00-23:00; Su 06:00-22:00,BP,Q152057
487,burgerking,Burger King,,Port Huron,MI,,US,+1 810-987-6799,https://www.bk.com/store-locator/store/restaurant_251,Mo-Su 07:00-21:00,Burger King,Q177054
6462,burgerking,Burger King,,Port Huron,MI,,US,+1 810-987-6462,https://www.bk.com/store-locator/store/restaurant_3678,Mo-Su 07:00-21:00,Burger King,Q177054
0294,carpet_one_floor_and_home_us,Biernot's Carpet One Floor & Home,,Port Huron,MI,,US,+1 810-982-3794,https://www.biernotscarpetoneporthuron.com/,,Carpet One Floor & Home,Q121335910
2042407,chase_us,Pine Grove Garfield - New branch,,Port Huron,MI,,US,+1 810-982-8979,https://locator.chase.com/mi/port-huron/1657-garfield-st,Mo-Fr 09:00-17:00; Sa 09:00-13:00,Chase,Q524629
2042409,chase_us,Port Huron 24th St - New branch,,Port Huron,MI,,US,+1 810-982-9042,https://locator.chase.com/mi/port-huron/1226-24th-st,Mo-Fr 09:00-17:00; Sa 09:00-13:00,Chase,Q524629
77673,citi,ATM Speedway,,Port Huron,MI,,US,,,,Citibank,Q857063
79666,citi,ATM SPEEDWAY #8826,,Port Huron,MI,,US,,,,Citibank,Q857063
80539,citi,ATM SPEEDY Q MARKET 302,,Port Huron,MI,,US,,,,Citibank,Q857063
77542,citi,ATM Speedway,,Port Huron,MI,,US,,,,Citibank,Q857063
79664,citi,ATM SPEEDWAY #8824,,Port Huron,MI,,US,,,,Citibank,Q857063
72879,citi,ATM Rite Aid,,Port Huron,MI,,US,,,,Citibank,Q857063
60966,citi,ATM Kroger,,Port Huron,MI,,US,,,,Citibank,Q857063
88009,citi,ATM Walgreens,,Port Huron,MI,,US,,,,Citibank,Q857063
80528,citi,ATM SPEEDY Q MARKET 207,,Port Huron,MI,,US,,,,Citibank,Q857063
53421,citi,ATM CVS,,Port Huron,MI,,US,,,,Citibank,Q857063
80527,citi,ATM SPEEDY Q MARKET 206,,Port Huron,MI,,US,,,,Citibank,Q857063
77682,citi,ATM Speedway,,Port Huron,MI,,US,,,,Citibank,Q857063
79665,citi,ATM SPEEDWAY #8825,,Port Huron,MI,,US,,,,Citibank,Q857063
90757,citi,ATM Walgreens,,Port Huron,MI,,US,,,,Citibank,Q857063
61264,citi,ATM Kroger,,Port Huron,MI,,US,,,,Citibank,Q857063
ATM-2479,citizens_us,,,Port Huron,MI,,US,,,,Citizens,Q5122694
80444101,cricket_wireless,Cricket Wireless Authorized Retailer,,Port Huron,MI,,US,+1 810-479-9607,https://www.cricketwireless.com/stores/ll/US/MI/Port-Huron/1343-24th-St,Mo-Sa 10:00-19:00; Su 12:00-17:00,Cricket Wireless,Q5184987
8301,cvs_us,CVS Pharmacy,,Port Huron,MI,,US,+1 810-982-4721,https://www.cvs.com/store-locator/port-huron-mi-pharmacies/940-lapeer-ave-port-huron-mi-48060/storeid=8301,Mo-Su 09:00-21:00,CVS Pharmacy,Q2078880
nca_062,department_veterans_affairs,Lakeside Cemetery Soldiers' Lot,,Port Huron,MI,,US,+1 248-328-0386,https://www.cem.va.gov/cems/lots/Lakeside.asp,,Department Veterans Affairs,Q592576
20798,dollar_general,Dollar General,,Port Huron,MI,,US,+1 810-294-0411,https://www.dollargeneral.com/store-directory/mi/port-huron/20798,Mo-Su 08:00-22:00,Dollar General,Q145168
https://www.edwardjones.com/us-en/financial-advisor/iggy-villalobos,edwardjones,Iggy Villalobos,,Port Huron,MI,,US,+1 810-320-0203,https://www.edwardjones.com/us-en/financial-advisor/iggy-villalobos,Mo 09:00-17:00; Tu 08:30-17:00; We 09:00-17:00; Th 08:30-17:00; Fr 08:30-16:30,Edward Jones,Q5343830
200322322,exxonmobil,BLUE WATER FUELS,,PORT HURON,MI,,US,+1 810-662-3313,https://www.exxon.com/en/find-station/exxon-porthuron-mi-bluewaterfuels-200322322,24/7,Exxon,Q109675651
200315708,exxonmobil,PORT HURON MOBIL,,PORT HURON,MI,,US,+1 810-982-4298,https://www.exxon.com/en/find-station/mobil-porthuron-mi-porthuronmobil-200315708,Mo-Su 06:00-22:00,Mobil,Q109676002
387407,follett,SC4 Bookstore,,Port Huron,MI,,US,+1 810-989-5725,https://www.bkstr.com/stclaircountyccstore/home,,,
Motorcraft4358USAEnglish,ford,"Northgate Ford, Inc.",,Michigan,MI,,US,+1 810-984-5011,,,Ford,Q44294
https://www.ford.com/dealerships/dealer-details/mi/port-huron/northgate-ford-inc/,ford_dealers_us,"Northgate Ford, Inc.",,Port Huron,MI,,US,+1 810-479-4085,https://www.ford.com/dealerships/dealer-details/mi/port-huron/northgate-ford-inc/,Mo 09:00-19:00; Tu-We 09:00-18:00; Th 09:00-19:00; Fr 09:00-18:00; Sa 09:00-14:00,Ford Motor Company,Q44294
2589,fresenius_kidney_care_us,Fresenius Kidney Care Port Huron,,Port Huron,MI,,US,+1 800-881-5101,https://www.freseniuskidneycare.com/dialysis-centers/michigan/2589,Mo 05:30-19:30; Tu 05:30-16:00; We 05:30-19:30; Th 05:30-16:00; Fr 05:30-19:30; Sa 05:30-16:00,,
f80e5125-7e14-e711-ae30-005056890337,goodwill,Port Huron,,Port Huron,MI,,US,+1 810-987-9333,https://www.goodwill.org/locator/location/?store=ZjgwZTUxMjUtN2UxNC1lNzExLWFlMzAtMDA1MDU2ODkwMzM3&lat=NDIuOTcyNQ==&lng=LTgyLjQ1NTc1,,Goodwill,Q5583655
6151053a-458a-e111-8dde-005056934050,goodwill,"Goodwill Industries of St. Clair County, Inc.",,Port Huron,MI,,US,+1 810-987-9333,https://www.goodwill.org/locator/location/?store=NjE1MTA1M2EtNDU4YS1lMTExLThkZGUtMDA1MDU2OTM0MDUw&lat=NDIuOTcyNQ==&lng=LTgyLjQ1NTc1,,Goodwill,Q5583655
https://salons.greatclips.com/us/mi/port-huron/1420-24th-street,greatclips,Great Clips,,Port Huron,MI,,US,+1 810-294-5594,https://salons.greatclips.com/us/mi/port-huron/1420-24th-street,Mo-Fr 09:00-20:00; Sa 09:00-19:00; Su 10:00-18:00,Great Clips,Q5598967
phntedt-doubletree-port-huron,hilton,DoubleTree by Hilton Hotel Port Huron,,,MI,,US,+1 810-984-8000,https://www.hilton.com/ar/hotels/phntedt-doubletree-port-huron/,,DoubleTree by Hilton,Q2504643
4116,honey_baked,HoneyBaked Ham Holiday Express,,Port Huron,MI,,US,+1 470-231-0435,https://www.honeybaked.com/stores/4116,,Honey Baked Ham,Q5893363
30000,huntingtonbank,Port Huron Water St,,Port Huron,MI,,US,+1 810-990-1850,https://www.huntington.com/Community/branch-info?locationId=30000,Mo-Fr 09:00-17:00; Sa-Su 00:00-00:00,Huntington Bank,Q798819
29998,huntingtonbank,Port Huron Lapeer Rd,,Port Huron Township,MI,,US,+1 810-984-1578,https://www.huntington.com/Community/branch-info?locationId=29998,Mo-Fr 09:00-17:00; Sa 09:00-12:00; Su 00:00-00:00,Huntington Bank,Q798819
29996,huntingtonbank,Port Huron Hancock,,Port Huron,MI,,US,+1 810-985-5181,https://www.huntington.com/Community/branch-info?locationId=29996,Mo-Fr 09:00-17:00; Sa-Su 00:00-00:00,Huntington Bank,Q798819
20978,h_r_block,H&R Block,,Port Huron,MI,,US,+1 810-987-7860,https://www.hrblock.com/local-tax-offices/michigan/port-huron/1299-24th-st/20978/,,H&R Block,Q5627799
https://locations.jimmyjohns.com/mi/porthuron/sandwiches-2419.html,jimmy_johns,Jimmy John's,,Port Huron,MI,,US,+1 810-990-8639,https://locations.jimmyjohns.com/mi/porthuron/sandwiches-2419.html,,Jimmy John's,Q1689380
https://locations.kfc.com/#11246838,kfc,Chicken Nuggets Near Port Huron,,Port Huron,MI,,US,,https://locations.kfc.com/mi/port-huron/608-24th-street/chickennugget,Mo-Th 10:30-22:00; Fr-Su 10:30-23:00,KFC,Q524757
160097,marathon_petroleum_us,AAA Fuel and More Inc,,PORT HURON,MI,,US,+1 313-985-8555,,,Marathon,Q458363
159668,marathon_petroleum_us,Industrial Park Party Store Inc.,,Port Huron,MI,,US,+1 810-984-5888,,,Marathon,Q458363
160761,marathon_petroleum_us,SUNRISE Stores LLC 26,,PORT HURON,MI,,US,+1 810-982-4268,,,Marathon,Q458363
PRHFI,marriott,Fairfield Inn Port Huron,,Port Huron,MI,,US,+1 810-982-8500,https://www.marriott.com/PRHFI,,Fairfield by Marriott,Q5430314
3307,menards,PORT HURON,"2800 INDIAN DR, PORT HURON, MI 48060",PORT HURON,MI,,US,,https://www.menards.com/main/storeDetails.html?store=3307,,Menards,Q1639897
346,ollies_bargain_outlet,Ollie's Bargain Outlet,,Port Huron,MI,,US,+1 810-662-3915,https://www.ollies.us/locations/1247-24th-street-port-huron-mi/,Mo-Sa 09:00-21:00; Su 10:00-19:00,Ollie's Bargain Outlet,Q7088304
https://locations.oreillyauto.com/mi/porthurontownship/check-engine-light-testing-3854.html,oreilly,Your Port Huron Township O'Reilly Auto Parts Store,,Port Huron Township,MI,,US,+1 810-987-3159,https://locations.oreillyauto.com/mi/porthurontownship/check-engine-light-testing-3854.html,Mo-Sa 07:30-22:00; Su 08:30-20:00,O'Reilly Auto Parts,Q7071951
https://locations.oreillyauto.com/mi/porthurontownship/wiper-installation-3854.html,oreilly,Your Port Huron Township O'Reilly Auto Parts Store,,Port Huron Township,MI,,US,+1 810-987-3159,https://locations.oreillyauto.com/mi/porthurontownship/wiper-installation-3854.html,Mo-Sa 07:30-22:00; Su 08:30-20:00,O'Reilly Auto Parts,Q7071951
https://locations.oreillyauto.com/mi/porthurontownship/battery-testing-3854.html,oreilly,Your Port Huron Township O'Reilly Auto Parts Store,,Port Huron Township,MI,,US,+1 810-987-3159,https://locations.oreillyauto.com/mi/porthurontownship/battery-testing-3854.html,Mo-Sa 07:30-22:00; Su 08:30-20:00,O'Reilly Auto Parts,Q7071951
https://locations.oreillyauto.com/mi/porthurontownship/autopartes-3854.html,oreilly,Tu tienda O'Reilly Auto Parts en Port Huron Township,,Port Huron Township,MI,,US,+1 810-987-3159,https://locations.oreillyauto.com/mi/porthurontownship/autopartes-3854.html,Mo-Sa 07:30-22:00; Su 08:30-20:00,O'Reilly Auto Parts,Q7071951
013465,penske,Solo Storage,,PORT HURON,MI,,US,+1 810-364-2882,https://www.pensketruckrental.com/locations/us/michigan/port_huron/013465/,,Penske,Q81234570
978,rentacenter,Rent-A-Center,,Port Huron,MI,,US,+1 810-987-9811,https://locations.rentacenter.com/michigan/port-huron/1337-24th-street/,Mo-Sa 10:00-18:00,Rent-A-Center,Q7313497
04574,rite_aid_us,Rite Aid #04574 Port Huron,,Port Huron,MI,,US,+1 810-987-3663,https://locations2.riteaid.com.yext-cdn.com/mi/port-huron/2910-pine-grove-avenue.html,Mo-Su 08:00-24:00,Rite Aid,Q3433273
04409,rite_aid_us,Rite Aid #04409 Port Huron,,Port Huron,MI,,US,+1 810-984-5108,https://locations2.riteaid.com.yext-cdn.com/mi/port-huron/1607-24th-street.html,Mo-Fr 08:00-21:00; Sa-Su 09:00-19:00,Rite Aid,Q3433273
6660,sams_club,Port Huron Sam's Club,,Port Huron,MI,,US,+1 810-984-5355,https://www.samsclub.com/club/port-huron-mi-sams-club/6660,Mo 10:00-20:00; Sa 09:00-20:00; Su 10:00-18:00,Sam's Club,Q1972120
https://restaurants.subway.com/#14901622,subway,Subway,,Port Huron Saint Clair,MI,,US,+1 810-985-4777,https://restaurants.subway.com/united-states/mi/port-huron/1011-24th-street,Mo-Su 09:00-22:00,Subway,Q244457
https://restaurants.subway.com/#14916307,subway,Subway,,Port Huron Saint Clair,MI,,US,+1 810-985-7781,https://restaurants.subway.com/united-states/mi/port-huron/3845-pine-grove-ave,Mo-Su 09:00-22:00,Subway,Q244457
https://locations.tacobell.com/#3917219,taco_bell,Taco Bell,,Port Huron,MI,,US,+1 810-987-3509,https://locations.tacobell.com/mi/port-huron/729-24th-street.html,Mo-Su 06:00-03:00,Taco Bell,Q752941
919298,tim_hortons,Tim Hortons,,Port Huron,MI,,US,+1 810-982-4047,,Mo-We 07:00-18:00; Fr-Su 07:00-18:00,Tim Hortons,Q175106
5B42,tmobile_us,Sam's Club Port Huron MI,,Port Huron,MI,,US,+1 810-775-8674,https://www.t-mobile.com/store-locator/mi/port-huron/sams-club-port-huron-mi,,T-Mobile,Q3511885
3ESA,tmobile_us,24th St & Chestnut St,,Port Huron,MI,,US,+1 810-966-2590,https://www.t-mobile.com/store-locator/mi/port-huron/24th-st-chestnut-st,,T-Mobile,Q3511885
1643,upsstore,Port Huron,2014 Holland Ave,Port Huron,MI,,US,+1 810-985-3400,https://locations.theupsstore.com/mi/port-huron/2014-holland-ave,,UPS Store,Q7771029
4806000035,usps_collection_boxes,USPS COLLECTION BOX - BLUE BOX,2907 KRAFFT RD,PORT HURON,MI,,US,,,,United States Postal Service,Q668687
4806000030,usps_collection_boxes,USPS COLLECTION BOX - BLUE BOX,1600 GARFIELD ST,PORT HURON,MI,,US,,,,United States Postal Service,Q668687
4806000032,usps_collection_boxes,USPS COLLECTION BOX - BLUE BOX,1600 GARFIELD ST,PORT HURON,MI,,US,,,,United States Postal Service,Q668687
4806000020,usps_collection_boxes,USPS COLLECTION BOX - BLUE BOX,1630 STONE ST,PORT HURON,MI,,US,,,,United States Postal Service,Q668687
4806000018,usps_collection_boxes,USPS COLLECTION BOX - BLUE BOX,1221 PINE GROVE AVE,PORT HURON,MI,,US,,,,United States Postal Service,Q668687
4806000016,usps_collection_boxes,USPS COLLECTION BOX - BLUE BOX,1200 STONE ST,PORT HURON,MI,,US,,,,United States Postal Service,Q668687
4806000001,usps_collection_boxes,USPS COLLECTION BOX - BLUE BOX,100 MCMORRAN BLVD,PORT HURON,MI,,US,,,,United States Postal Service,Q668687
4806000004,usps_collection_boxes,USPS COLLECTION BOX - BLUE BOX,201 MCMORRAN BLVD,PORT HURON,MI,,US,,,,United States Postal Service,Q668687
4806000046,usps_collection_boxes,USPS COLLECTION BOX - BLUE BOX,511 FORT ST,PORT HURON,MI,,US,,,,United States Postal Service,Q668687
4806000056,usps_collection_boxes,USPS COLLECTION BOX - BLUE BOX,220 FORT ST,PORT HURON,MI,,US,,,,United States Postal Service,Q668687
4806000007,usps_collection_boxes,USPS COLLECTION BOX - BLUE BOX,526 WATER ST,PORT HURON,MI,,US,,,,United States Postal Service,Q668687
4806000057,usps_collection_boxes,USPS COLLECTION BOX - BLUE BOX,1121 MILITARY ST,PORT HURON,MI,,US,,,,United States Postal Service,Q668687
4806000005,usps_collection_boxes,USPS COLLECTION BOX - BLUE BOX,615 UNION UN,PORT HURON,MI,,US,,,,United States Postal Service,Q668687
4806000014,usps_collection_boxes,USPS COLLECTION BOX - BLUE BOX,1002 COURT CT,PORT HURON,MI,,US,,,,United States Postal Service,Q668687
4806000023,usps_collection_boxes,USPS COLLECTION BOX - BLUE BOX,2302 COURT CT,PORT HURON,MI,,US,,,,United States Postal Service,Q668687
4806000025,usps_collection_boxes,USPS COLLECTION BOX - BLUE BOX,1215 24TH ST,PORT HURON,MI,,US,,,,United States Postal Service,Q668687
4806000051,usps_collection_boxes,USPS COLLECTION BOX - BLUE BOX,1179 32ND ST,PORT HURON,MI,,US,,,,United States Postal Service,Q668687
4806000052,usps_collection_boxes,USPS COLLECTION BOX - BLUE BOX,2601 ELECTRIC AVE,PORT HURON,MI,,US,,,,United States Postal Service,Q668687
4806000037,usps_collection_boxes,USPS COLLECTION BOX - BLUE BOX,3415 28TH ST,PORT HURON,MI,,US,,,,United States Postal Service,Q668687
,visa,,,PORT HURON,MI,,US,,,,,
,visa,,,PORT HURON,MI,,US,,,,,
,visa,,,PORT HURON,MI,,US,,,,,
,visa,,,PORT HURON,MI,,US,,,,,
,visa,,,PORT HURON,MI,,US,,,,,
,visa,,,PORT HURON,MI,,US,,,,,
,visa,,,PORT HURON,MI,,US,,,,,
,visa,,,PORT HURON,MI,,US,,,,,
,visa,,,PORT HURON,MI,,US,,,,,
,visa,,,PORT HURON,MI,,US,,,,,
,visa,,,PORT HURON,MI,,US,,,,,
,visa,,,PORT HURON,MI,,US,,,,,
,visa,,,PORT HURON,MI,,US,,,,,
,visa,,,PORT HURON,MI,,US,,,,,
,visa,,,PORT HURON,MI,,US,,,,,
,visa,,,PORT HURON,MI,,US,,,,,
,visa,,,PORT HURON,MI,,US,,,,,
,visa,,,PORT HURON,MI,,US,,,,,
,visa,,,PORT HURON,MI,,US,,,,,
,visa,,,PORT HURON,MI,,US,,,,,
,visa,,,PORT HURON,MI,,US,,,,,
,visa,,,PORT HURON,MI,,US,,,,,
,visa,,,PORT HURON,MI,,US,,,,,
,visa,,,PORT HURON,MI,,US,,,,,
,visa,,,PORT HURON,MI,,US,,,,,
,visa,,,PORT HURON,MI,,US,,,,,
,visa,,,PORT HURON,MI,,US,,,,,
,visa,,,PORT HURON,MI,,US,,,,,
,visa,,,PORT HURON,MI,,US,,,,,
,visa,,,PORT HURON,MI,,US,,,,,
,visa,,,PORT HURON,MI,,US,,,,,
,visa,,,PORT HURON,MI,,US,,,,,
,visa,,,PORT HURON,MI,,US,,,,,
,visa,,,PORT HURON,MI,,US,,,,,
,visa,,,PORT HURON,MI,,US,,,,,
,visa,,,PORT HURON,MI,,US,,,,,
,visa,,,PORT HURON,MI,,US,,,,,
,visa,,,PORT HURON,MI,,US,,,,,
,visa,,,PORT HURON,MI,,US,,,,,
,visa,,,PORT HURON,MI,,US,,,,,
,visa,,,PORT HURON,MI,,US,,,,,
,visa,,,PORT HURON,MI,,US,,,,,
,visa,,,PORT HURON,MI,,US,,,,,
,visa,,,PORT HURON,MI,,US,,,,,
,visa,,,PORT HURON,MI,,US,,,,,
,visa,,,PORT HURON,MI,,US,,,,,
,visa,,,PORT HURON,MI,,US,,,,,
,visa,,,PORT HURON,MI,,US,,,,,
,visa,,,PORT HURON,MI,,US,,,,,
,visa,,,PORT HURON,MI,,US,,,,,
,visa,,,PORT HURON,MI,,US,,,,,
,visa,,,PORT HURON,MI,,US,,,,,
,visa,,,PORT HURON,MI,,US,,,,,
,visa,,,PORT HURON,MI,,US,,,,,
,visa,,,PORT HURON,MI,,US,,,,,
,visa,,,PORT HURON,MI,,US,,,,,
,visa,,,PORT HURON,MI,,US,,,,,
,visa,,,PORT HURON,MI,,US,,,,,
,visa,,,PORT HURON,MI,,US,,,,,
,visa,,,PORT HURON,MI,,US,,,,,
,visa,,,PORT HURON,MI,,US,,,,,
,visa,,,PORT HURON,MI,,US,,,,,
,visa,,,PORT HURON,MI,,US,,,,,
,visa,,,PORT HURON,MI,,US,,,,,
,visa,,,PORT HURON,MI,,US,,,,,
,visa,,,PORT HURON,MI,,US,,,,,
,visa,,,PORT HURON,MI,,US,,,,,
,visa,,,PORT HURON,MI,,US,,,,,
,visa,,,PORT HURON,MI,,US,,,,,
,visa,,,PORT HURON,MI,,US,,,,,
,visa,,,PORT HURON,MI,,US,,,,,
,visa,,,PORT HURON,MI,,US,,,,,
,visa,,,PORT HURON,MI,,US,,,,,
,visa,,,PORT HURON,MI,,US,,,,,
,visa,,,PORT HURON,MI,,US,,,,,
,visa,,,PORT HURON,MI,,US,,,,,
,visa,,,PORT HURON,MI,,US,,,,,
,visa,,,PORT HURON,MI,,US,,,,,
,visa,,,PORT HURON,MI,,US,,,,,
,visa,,,PORT HURON,MI,,US,,,,,
,visa,,,PORT HURON,MI,,US,,,,,
,visa,,,PORT HURON,MI,,US,,,,,
,visa,,,PORT HURON,MI,,US,,,,,
,visa,,,PORT HURON,MI,,US,,,,,
,visa,,,PORT HURON,MI,,US,,,,,
,visa,,,PORT HURON,MI,,US,,,,,
,visa,,,PORT HURON,MI,,US,,,,,
,visa,,,LAKEPORT,MI,,US,,,,,
,visa,,,ALGONAC,MI,,US,,,,,
https://www.walgreens.com/locator/walgreens-1221+pine+grove+ave-port+huron-mi-48060/id=21232,walgreens,Walgreens,,Port Huron,MI,,US,+1 810-989-3455,https://www.walgreens.com/locator/walgreens-1221+pine+grove+ave-port+huron-mi-48060/id=21232,Mo-Fr 09:00-18:00; Sa-Su 00:00-24:00,Walgreens,Q1591889
https://www.walgreens.com/locator/walgreens-1617+10th+st-port+huron-mi-48060/id=5595,walgreens,Walgreens,,Port Huron,MI,,US,+1 810-987-5083,https://www.walgreens.com/locator/walgreens-1617+10th+st-port+huron-mi-48060/id=5595,Mo-Sa 08:00-21:00; Su 09:00-21:00,Walgreens,Q1591889
https://www.walgreens.com/locator/walgreens-3990+24th+ave-port+huron-mi-48060/id=6053,walgreens,Walgreens,,Port Huron,MI,,US,+1 810-987-4679,https://www.walgreens.com/locator/walgreens-3990+24th+ave-port+huron-mi-48060/id=6053,Mo-Sa 08:00-22:00; Su 09:00-21:00,Walgreens,Q1591889
https://locations.wendys.com/#9255037,wendys,"Wendy's Port Huron 2 in Port Huron, MI",,Port Huron,MI,,US,+1 810-985-5255,https://locations.wendys.com/united-states/mi/port-huron/2323-oak-street,"Mo-Su 06:30-10:30,09:00-22:00",Wendy's,Q550258
https://locations.wendys.com/#9255036,wendys,"Wendy's Port Huron in Port Huron, MI",,Port Huron,MI,,US,+1 810-982-0688,https://locations.wendys.com/united-states/mi/port-huron/1700-hancock-st,"Mo-Su 06:30-10:30,09:00-22:00",Wendy's,Q550258
6452a0f118b02710d6bb28f1b34726a1,western_union,DOLLAR GENERAL #21502,,Port Huron,MI,,US,+1 810-294-4360,https://location.westernunion.com/us/mi/port-huron/6452a0f118b02710d6bb28f1b34726a1,Mo-Su 08:00-22:00,Western Union,Q861042
c395009ce57795e91f6bcba9311e97d1,western_union,WOLVERINE MARKET,,Port Huron,MI,,US,+1 810-982-0966,https://location.westernunion.com/us/mi/port-huron/c395009ce57795e91f6bcba9311e97d1,Mo-Th 09:00-22:00; Fr-Sa 09:00-23:00; Su 12:00-17:00,Western Union,Q861042
81a5bf01f3563fc802947157148cbb46,western_union,ADVANCE AMERICA #01330,,Port Huron,MI,,US,+1 810-982-0902,https://location.westernunion.com/us/mi/port-huron/81a5bf01f3563fc802947157148cbb46,Mo-Th 10:00-18:00; Fr 09:00-18:00; Sa 10:00-14:00,Western Union,Q861042
ymca-blue-water-area,ymca,YMCA of the Blue Water Area,1525 Third Street,Port Huron,MI,,US,+1 810-987-6400,https://www.ymca.org/locations/ymca-blue-water-area,Mo-Fr 05:00-21:00; Sa 07:00-20:00; Su 10:00-17:00,YMCA,Q157169
