Ref,Spider,Name,Address,City,State,Zipcode,Country,Phone,Website,Hours,Brand,WikiData
2139942214,bp,bp VILANOVA - AV EDUARDO TOLDRA,,VILANOVA I LA GELTRU,,,ES,+34 938 14 01 23,,24/7,BP,Q152057
795855250,bp,bp VILANOVA - AV BALMES,,VILANOVA I LA GELTRU,,,ES,+34 938 15 87 92,,24/7,BP,Q152057
22543,burger_king_es_pt,Burger King,"Carrer de la Vilanoveta, 4, 08800, Vilanova i la Geltrú, Barcelona",Vilanova,,,ES,+34 938 53 30 13,,Mo-Th 12:30-24:00; Fr-Sa 12:00-01:00; Su 12:00-00:30,Burger King,Q177054
vilanovailageltrbarcelona/8151,claires,Compra piercings de oreja y bisutería en Vilanova I La Geltru,,Vilanova I La Geltr Barcelona,,,ES,+34 938 93 12 33,https://stores.claires.com/es/es-cm/vilanovailageltrbarcelona/8151.html,Mo-Sa 10:00-21:00,Claire's,Q2974996
0070038500385,decathlon_es,Vilanova i la Geltrú,,Vilanova i la Geltrú,,,ES,+34 938 14 48 30,https://www.decathlon.es/es/store-view/tienda-de-deportes-vilanova-i-la-geltru-0070038500385,Mo-Su 09:00-21:00,Decathlon,Q509349
1002900,dia_es,,,Vilanova i la Geltrú,,,ES,,,"Mo-Sa 09:00-14:00,16:30-20:30",Dia,Q925132
1002850,dia_es,,,Vilanova i la Geltrú,,,ES,,,Mo-Sa 09:00-20:30,Dia,Q925132
1002140,dia_es,,,Vilanova i la Geltrú,,,ES,,,"Mo-Sa 09:15-14:00,17:00-20:00",Dia,Q925132
1001808,dia_es,,,Vilanova i la Geltrú,,,ES,,,Mo-Sa 08:30-20:30; Su 10:00-14:00,Dia,Q925132
60795,dia_es,,,Vilanova i la Geltrú,,,ES,,,Mo-Sa 09:00-20:30,Dia,Q925132
2562,dia_es,,,Vilanova i la Geltrú,,,ES,,,Sa 09:00-21:00; Su 09:30-14:30,Dia,Q925132
FordSK10592  ESP,ford,"NICOLAS, S.L. Concesion",,VILANOVA I LA GELTRÚ,,,ES,+34 938 93 26 66,http://www.nicolas-sa.es,,Ford,Q44294
4210,jysk,Vilanova i la Geltru,,Vilanova i la Geltru,,,ES,+34 937 00 67 55,https://jysk.es/tiendas?storeId=4210,Mo-Su 10:00-21:00,JYSK,Q138913
2049,lidl_es,Lidl,,Vilanova i la Geltrú,,,ES,,,Mo-Sa 09:15-21:30,Lidl,Q151954
42800,man_truck_and_bus,TALLERES ROSET,,Vilanova y La Geltru,,,ES,+34 938 15 50 29,,,MAN Truck & Bus,Q708667
68480358,moneygram,LOCUTORI INTERNET - #10533,,VILANOVA I LA GELTRU,,,ES,+34 931 81 96 94,,Mo-Su 08:00-24:00,MoneyGram,Q1944412
69181494,moneygram,LOCUTORIO SAID - #15059,,VILANOVA I LA GELTRU,,,ES,+34 610 88 51 42,,Mo-Su 08:00-24:00,MoneyGram,Q1944412
73801304,moneygram,SAM MOBILES & COMPUTERS - #14902,,VILANOVA I LA GELTRU,,,ES,+34 938 16 55 12,,Mo-Su 09:00-23:00,MoneyGram,Q1944412
74162754,moneygram,INFOMOBILE - #15285,,VILANOVA I LA GELTRU,,,ES,+34 931 42 31 67,,Mo-Sa 09:30-21:00; Su 00:00-24:00,MoneyGram,Q1944412
70382457,moneygram,INFONET - #12421,,VILANOVA I LA GELTRU,,,ES,+34 931 81 92 55,,Mo-Su 08:00-24:00,MoneyGram,Q1944412
67282117,moneygram,LOCUTORI TELEFONIC,,VILANOVA I LA GELTRU,,,ES,+34 931 18 86 42,,Mo-Su 10:00-23:00,MoneyGram,Q1944412
2201,ovs,OVS Kids Vilanova Caputxins,,Barcelona,,,ES,,https://stores.ovsfashion.com/es/spain/barcelona-carrer-dels-caputxins,,OVS,Q2042514
72405236_001-renault,renault,"REMM GUITART,S.L.(VILANOVA)",,VILANOVA I LA GELTRU,,,ES,+34 938 15 32 50,,,Renault,Q6686
72405236_001-dacia,renault,"REMM GUITART,S.L.(VILANOVA)",,VILANOVA I LA GELTRU,,,ES,+34 938 15 32 50,,,Dacia,Q27460
INTER-PSIG5VILG,the_north_face_eu,INTERSPORT OLARIA,,Vilanova i la Geltrú,,,ES,+34 938 14 14 36,,,The North Face,Q152784
13566,totalenergies,VILANOVA-3,,VILLANUEVA Y GELTRU,,,ES,,https://store.totalenergies.fr/en_EN/13566,,Cepsa,Q608819
ES_EXT_3198,totalenergies,SENA,,VILANOVA I LA GELTRU,,,ES,,https://store.totalenergies.fr/en_EN/ES_EXT_3198,,Cepsa,Q608819
EXT_CE_02298,totalenergies,VILANOVA-4,,VILLANUEVA Y GELTRU,,,ES,,https://store.totalenergies.fr/en_EN/EXT_CE_02298,,Cepsa,Q608819
N400224,united_colors_of_benetton,Benetton Vilanova I La Geltru,,VILANOVA I LA GELTRU,,,ES,null,,Mo-Fr 10:00-20:30; Sa 10:00-21:00,United Colors of Benetton,Q817139
,visa,,,VILANOVA I LA GELTRU,,,ES,,,,,
,visa,,,VILANOVA I LA GELTRU,,,ES,,,,,
,visa,,,VILANOVA I LA GELTRU,,,ES,,,,,
,visa,,,VILANOVA I LA GELTRU,,,ES,,,,,
,visa,,,VILANOVA I LA GERTRU,,,ES,,,,,
,visa,,,VILANOVA I LA GELTRU,,,ES,,,,,
,visa,,,VILANOVA I LA GELTRU,,,ES,,,,,
,visa,,,VILANOVA I LA GELTRU,,,ES,,,,,
,visa,,,VILANOVA I GELTRU,,,ES,,,,,
,visa,,,VILANOVA I LA GELTRU,,,ES,,,,,
,visa,,,VILANOVA I LA GELTRU,,,ES,,,,,
