Ref,Spider,Name,Address,City,State,Zipcode,Country,Phone,Website,Hours,Brand,WikiData
https://locations.99only.com/az/scottsdale/discount-store-164.html,99_cents_only_us,99 Cents Only Stores,,Scottsdale,AZ,,US,+1 480-946-7999,https://locations.99only.com/az/scottsdale/discount-store-164.html,Mo 08:00-21:00; Tu 07:00-21:00; We 08:00-21:00; Th 07:00-21:00; Fr-Su 08:00-21:00,99 Cents Only Stores,Q4646294
https://storelocations.ae.com/#1726334,american_eagle_outfitters,American Eagle Store Scottsdale Fashion Square,,Scottsdale,AZ,,US,+1 480-874-1022,https://storelocations.ae.com/us/az/scottsdale/7014-2060-e-camelback-rd.html,Mo-Sa 10:00-21:00; Su 11:00-18:00,American Eagle Store,Q2842931
d120ae73-e11d-e611-80c5-005056aa8521,amf_bowling,Bowlero Old Town,,Scottsdale,AZ,,US,+1 480-946-5308,https://www.bowlero.com/location/bowlero-old-town,,Bowlero,Q17102967
R031,apple,Apple Scottsdale Fashion Square,,Scottsdale,AZ,,US,+1 602-606-1470,https://www.apple.com/retail/scottsdalefashionsquare,Mo-Sa 10:00-21:00; Su 11:00-18:00,Apple,Q421253
23414,asics_us,DICK'S Sporting Goods  - Scottsdale ,7014 E Camelback Rd,Scottsdale,AZ,,US,+1 480-240-4409,,Mo-Sa 09:00-21:00; Su 10:00-19:00,asics,Q327247
61984,asics_us,Lady Foot Locker,7014 E Camelback Rd,Scottsdale,AZ,,US,+1 480-481-0958,,,asics,Q327247
159647,asics_us,Macy's,7014 E Camelback Rd Ste 5000,Scottsdale,AZ,,US,+1 480-840-0333,,,asics,Q327247
22455,asics_us,Foot Locker,7014 E Camelback Rd,Scottsdale,AZ,,US,+1 480-946-6910,,,asics,Q327247
14536,asics_us,Nordstrom Scottsdale Fashion Square,7055 E Camelback Rd,Scottsdale,AZ,,US,+1 480-946-4111,,,asics,Q327247
https://locations.atipt.com/scottsdale-az,ati_physical_therapy,ATI Physical Therapy Scottsdale 7508,,Scottsdale,AZ,,US,+1 480-222-0655,https://locations.atipt.com/scottsdale-az,,ATI Physical Therapy,Q50039703
2325,att_us,AZ SCOTTSDALE RENAISSANCE - SM06,,Scottsdale,AZ,,US,+1 480-970-3063,https://www.att.com/stores/arizona/scottsdale/2325,Mo-Sa 10:00-20:00; Su 10:00-18:00,AT&T,Q298594
https://locations.auntieannes.com/#7029,auntie_annes,Auntie Anne's Scottsdale Fashion Square,,Scottsdale,AZ,,US,+1 480-941-6900,https://locations.auntieannes.com/az/scottsdale/7014-e-camelback-rd,Mo-Sa 10:00-21:00; Su 11:00-18:00,Auntie Anne's,Q4822010
https://www.banfield.com/locations/veterinarians/az/scottsdale/ots,banfield_pet_hospital,Old Town Scottsdale,,Scottsdale,AZ,,US,+1 480-429-1188,https://www.banfield.com/locations/veterinarians/az/scottsdale/ots,Mo-Fr 07:00-18:00; Sa 07:00-17:00; Su 00:00-24:00,Banfield Pet Hospital,Q2882416
https://locators.bankofamerica.com/az/scottsdale/financial-centers-scottsdale-11091.html,bankofamerica,Bank of America Financial Center & Drive-Thru ATM | Scottsdale Earll,,Scottsdale,AZ,,US,+1 480-429-4741,https://locators.bankofamerica.com/az/scottsdale/financial-centers-scottsdale-11091.html,Mo-Fr 09:00-17:00; Sa 09:00-14:00,Bank of America,Q487907
https://locators.bankofamerica.com/az/scottsdale/atm-scottsdale-107815.html,bankofamerica,Bank of America Walk-Up ATM | Shades Of The West,,Scottsdale,AZ,,US,+1 844-401-8500,https://locators.bankofamerica.com/az/scottsdale/atm-scottsdale-107815.html,,Bank of America,Q487907
https://www.bannerhealth.com/locations/scottsdale/banner-behavioral-health-hospital,bannerhealth,Banner Behavioral Health Hospital,,Scottsdale,AZ,,US,+1 480-448-7500,,,Banner Health,Q4856918
117020,bashas_us,Bashas’ Supermarket:  Hayden & Indian School,8035 E. INDIAN SCHOOL RD.,SCOTTSDALE,AZ,,US,+1 480-946-6821,https://www.bashas.com/stores/bashas-supermarket-hayden-indian-school/,,Bashas',Q4866786
BBW00085,bathandbodyworks_us,SCOTTSDALE FASHION SQUARE MALL,,SCOTTSDALE,AZ,,US,+1 480-947-4236,,Mo-Sa 10:00-21:00; Su 11:00-18:00,Bath & Body Works,Q810773
https://www.benihana.com/locations/old-town/,benihana,"Old Town, AZ",, Old Town,AZ,,US,+1 480-270-8401,https://www.benihana.com/locations/old-town/,,Benihana,Q4887996
238674,bluerhino,Circle K #2700079,,Scottsdale,AZ,,US,+1 480-945-9035,,,Blue Rhino,Q65681213
238676,bluerhino,Circle K #2700248,,Scottsdale,AZ,,US,+1 480-947-9827,,,Blue Rhino,Q65681213
213207,bluerhino,Chevron Gas-WCP Newport LLC,,Scottsdale,AZ,,US,+1 480-687-4075,,,Blue Rhino,Q65681213
153280,bluerhino,Walgreens #3163,,Scottsdale,AZ,,US,+1 480-941-0915,,,Blue Rhino,Q65681213
238675,bluerhino,Circle K #2700127,,Scottsdale,AZ,,US,+1 480-945-9174,,,Blue Rhino,Q65681213
128822,bluerhino,Fry's #025,,Scottsdale,AZ,,US,+1 480-994-0145,,,Blue Rhino,Q65681213
243203,bluerhino,Circle K #2709169,,Scottsdale,AZ,,US,+1 480-947-4337,,,Blue Rhino,Q65681213
238680,bluerhino,Circle K #2703745,,Scottsdale,AZ,,US,+1 480-990-7435,,,Blue Rhino,Q65681213
153288,bluerhino,Walgreens #4506,,Scottsdale,AZ,,US,+1 480-990-0202,,,Blue Rhino,Q65681213
238677,bluerhino,Circle K #2701613,,Scottsdale,AZ,,US,+1 480-947-7837,,,Blue Rhino,Q65681213
63026,botteg_aveneta,Scottsdale - Fashion Square,,Scottsdale,AZ,,US,+1 480-947-0153,https://www.bottegaveneta.com/de-de/storelocator/scottsdale-fashionsquare,Mo-Sa 10:00-21:00; Su 11:00-18:00,BottegAveneta,Q894874
https://local.buckle.com/az/scottsdale/clothing-431.html,buckle_us,Scottsdale Men’s & Women’s Clothing,,Scottsdale,AZ,,US,+1 480-947-4782,https://local.buckle.com/az/scottsdale/clothing-431.html,Mo-Sa 10:00-21:00; Su 11:00-18:00,Buckle,Q4983306
4985,burgerking,Burger King,,Scottsdale,AZ,,US,+1 480-946-2399,https://www.bk.com/store-locator/store/restaurant_2783,Mo 07:00-22:00; Tu-We 06:00-22:00; Th 06:00-21:00; Fr 06:00-22:00; Sa-Su 07:00-22:00,Burger King,Q177054
csa,caesars,Caesars Republic Scottsdale,,Scottsdale,AZ,,US,+1 480-903-4747,https://www.caesars.com/caesars-republic-scottsdale,,Caesars Entertainment,Q18636524
A78A,capital_one_us,Capital One Cafe - Scottsdale Fashion Square,,Scottsdale,AZ,,US,,https://locations.capitalone.com/atm/AZ/scottsdale-atm-A78A,,Capital One,Q1034654
65127,capital_one_us,Scottsdale Fashion Square,,Scottsdale,AZ,,US,+1 480-573-4433,https://locations.capitalone.com/bank/AZ/-Scottsdale-Fashion-Square-cafe-65127,Mo-Sa 09:00-21:00; Su 11:00-18:00,Capital One,Q1034654
70079,casper_us,Casper - Scottsdale Fashion Square,,Scottsdale,AZ,,US,+1 480-527-0023,https://stores.casper.com/casper-scottsdale-fashion-square-c5b0c32227ea,Mo-Sa 10:00-21:00; Su 11:00-18:00,Casper,Q20539294
2040095,chase_us,Scottsdale Main - New branch,,Scottsdale,AZ,,US,+1 480-970-7014,https://locator.chase.com/az/scottsdale/4031-n-scottsdale-rd,Mo-Fr 09:00-17:00,Chase,Q524629
az_scottsdale_7014-e-camelback-rd,chipotle, ,,Scottsdale,AZ,,US,+1 480-941-4786,https://locations.chipotle.com/az/scottsdale/7014-e-camelback-rd,,Chipotle,Q465751
az_scottsdale_4513-n-scottsdale-rd,chipotle, ,,Scottsdale,AZ,,US,+1 480-684-1090,https://locations.chipotle.com/az/scottsdale/4513-n-scottsdale-rd,,Chipotle,Q465751
44026,citi,ATM Circle K,,Scottsdale,AZ,,US,,,,Citibank,Q857063
44027,citi,ATM Circle K,,Scottsdale,AZ,,US,,,,Citibank,Q857063
52832,citi,ATM CVS,,Scottsdale,AZ,,US,,,,Citibank,Q857063
42401,citi,ATM Circle K,,Scottsdale,AZ,,US,,,,Citibank,Q857063
92997,citi,ATM Walgreens,,Scottsdale,AZ,,US,,,,Citibank,Q857063
42754,citi,ATM Circle K,,Scottsdale,AZ,,US,,,,Citibank,Q857063
52740,citi,ATM CVS,,Scottsdale,AZ,,US,,,,Citibank,Q857063
90352,citi,ATM Walgreens,,Scottsdale,AZ,,US,,,,Citibank,Q857063
42165,citi,ATM Circle K,,Scottsdale,AZ,,US,,,,Citibank,Q857063
42905,citi,ATM Circle K,,Scottsdale,AZ,,US,,,,Citibank,Q857063
55890,citi,ATM FIRST INTERSTATE BANK,,Scottsdale,AZ,,US,,,,Citibank,Q857063
43728,citi,ATM Circle K,,Scottsdale,AZ,,US,,,,Citibank,Q857063
81127,citi,ATM SUNWEST BANK,,Scottsdale,AZ,,US,,,,Citibank,Q857063
33950,citi,ATM ACADEMY BANK,,Scottsdale,AZ,,US,,,,Citibank,Q857063
33949,citi,ATM ACADEMY BANK,,Scottsdale,AZ,,US,,,,Citibank,Q857063
38797,citi,ATM Capital One Cafe - Scottsdale Fashion Square,,Scottsdale,AZ,,US,,,,Citibank,Q857063
38796,citi,ATM Capital One Cafe - Scottsdale Fashion Square,,Scottsdale,AZ,,US,,,,Citibank,Q857063
38798,citi,ATM Capital One Cafe - Scottsdale Fashion Square,,Scottsdale,AZ,,US,,,,Citibank,Q857063
55836,citi,ATM FIRST INTERSTATE BANK,,Scottsdale,AZ,,US,,,,Citibank,Q857063
scottsdale/1138,claires,Shop Ear Piercings & Jewelry at Scottsdale Fashion Square,,SCOTTSDALE,AZ,,US,+1 480-946-2490,https://stores.claires.com/us/az/scottsdale/1138.html,Mo-Sa 10:00-21:00; Su 11:00-18:00,Claire's,Q2974996
https://www.coach.com/stores/#17277299,coach_us,COACH,,Scottsdale,AZ,,US,+1 480-525-6883,https://www.coach.com/stores/az/scottsdale/7014-e-camelback-rd,Mo-Sa 10:00-21:00; Su 11:00-18:00,Coach,Q727697
6WZsBTh7evJWMDkgvLWfHI,corepower_yoga_us,Old Town Scottsdale,,Scottsdale,AZ,,US,,https://www.corepoweryoga.com/yoga-studios/az/phoenix/old-town-scottsdale,,Corepower Yoga,Q21015663
,credit_union_us,Arizona Financial CU,,Scottsdale,AZ,,US,+1 602-683-1000,,Mo-Th 09:00-05:00; Fr 09:00-06:00,,
70053114,cricket_wireless,Cricket Wireless Authorized Retailer,,Scottsdale,AZ,,US,+1 480-970-1292,https://www.cricketwireless.com/stores/ll/US/AZ/Scottsdale/2910-N-Hayden-Rd,Mo-Sa 10:00-19:00; Su 11:00-16:00,Cricket Wireless,Q5184987
9328,cvs_us,CVS Pharmacy,,Scottsdale,AZ,,US,+1 480-945-0396,https://www.cvs.com/store-locator/scottsdale-az-pharmacies/7901-e-thomas-road-scottsdale-az-85251/storeid=9328,Mo-Sa 07:00-23:00; Su 08:00-23:00,CVS Pharmacy,Q2078880
7845,cvs_us,CVS Pharmacy,,Scottsdale,AZ,,US,+1 480-945-6660,https://www.cvs.com/store-locator/scottsdale-az-pharmacies/7552-e-indian-school-rd-scottsdale-az-85251/storeid=7845,Mo-Su 07:00-00:00,CVS Pharmacy,Q2078880
249584,dennys,Denny's,,Scottsdale,AZ,,US,+1 480-946-4754,https://locations.dennys.com/AZ/SCOTTSDALE/249584,24/7,Denny's,Q1189695
1194,dickssportinggoods,"DICK'S Sporting Goods Store in Scottsdale, AZ | 1194",,Scottsdale,AZ,,US,+1 480-240-4409,https://stores.dickssportinggoods.com/az/scottsdale/1194/,Mo-Sa 09:00-21:00; Su 10:00-19:00,Dick's Sporting Goods,Q5272601
0902,dillards,"Dillard's Scottsdale Fashion Square in Scottsdale, Arizona",,Scottsdale,AZ,,US,+1 480-949-5869,https://www.dillards.com/stores/arizona/scottsdale-fashion-square-scottsdale/0902,Mo-Sa 11:00-20:00; Su 12:00-18:00,Dillard's,Q844805
7659,dominos_pizza_us,Domino's Pizza,,Scottsdale,AZ,,US,+1 602-952-9300,https://pizza.dominos.com/arizona/scottsdale/2902-n-68th-st,Mo-Th 10:00-24:00; Fr-Sa 10:00-01:00; Su 10:00-24:00,Domino's,Q839466
358005,dunkin_us,Dunkin',,Scottsdale,AZ,,US,+1 480-970-1945,https://locations.dunkindonuts.com/en/az/scottsdale/7919-e-thomas-rd/358005,Mo-Fr 04:30-21:00; Sa-Su 05:00-21:00,Dunkin',Q847743
https://www.edwardjones.com/us-en/financial-advisor/justin-aisoff,edwardjones,Justin P Aisoff,,Scottsdale,AZ,,US,+1 480-423-8064,https://www.edwardjones.com/us-en/financial-advisor/justin-aisoff,Mo-Fr 07:30-15:30,Edward Jones,Q5343830
7014-e-camelback-road,express,Scottsdale Fashion Square,,Scottsdale,AZ,,US,+1 480-990-2993,https://stores.express.com/us/az/scottsdale/7014-e-camelback-road,Mo-Sa 10:00-21:00; Su 11:00-18:00,Express,Q1384784
24929,firestone_auto_care,Firestone Complete Auto Care,,Scottsdale,AZ,,US,+1 480-845-6412,https://local.firestonecompleteautocare.com/arizona/scottsdale/7531-e-camelback-rd/,,Firestone,Q420837
3713,first_cash,Pawn 1St,,Scottsdale,AZ,,US,+1 480-990-3739,,,,
3728,first_cash,Pawn 1St,,Scottsdale,AZ,,US,+1 480-874-0054,,,,
https://restaurants.fiveguys.com/#15553379,five_guys_us,Five Guys Scottsdale Fashion Square,,Scottsdale,AZ,,US,+1 480-945-1928,https://restaurants.fiveguys.com/7014-590-east-camelback-road,"Mo-Sa 11:00-21:30,11:00-22:00; Su 11:00-18:30,11:00-19:00",Five Guys,Q1131810
https://stores.footlocker.com/az/scottsdale/7014-east-camelback-road-8174.html,footlocker,"Foot Locker in Scottsdale: Scottsdale, Arizona | Approved | Own It",,Scottsdale,AZ,,US,+1 480-946-6910,https://stores.footlocker.com/az/scottsdale/7014-east-camelback-road-8174.html,Mo-Sa 10:00-21:00; Su 11:00-18:00,Foot Locker,Q63335
https://www.ford.com/dealerships/dealer-details/az/scottsdale/chapman-ford/,ford_dealers_us,Chapman Ford,,Scottsdale,AZ,,US,+1 602-888-9391,https://www.ford.com/dealerships/dealer-details/az/scottsdale/chapman-ford/,Mo-Fr 08:00-21:00; Sa 08:00-19:00,Ford Motor Company,Q44294
https://locations.forever21.com/#35646959,forever21_us,Scottsdale Fashion Square,,Scottsdale,AZ,,US,+1 480-627-8991,https://locations.forever21.com/us/stores/az/scottsdale/7014-e-camelback-rd,Mo-Th 10:00-19:00; Fr-Sa 10:00-20:00; Su 11:00-18:00,Forever 21,Q1060537
6834,fresenius_kidney_care_us,Fresenius Kidney Care Old Town Scottsdale,,Scottsdale,AZ,,US,+1 800-881-5101,https://www.freseniuskidneycare.com/dialysis-centers/arizona/6834,Mo 05:00-21:00; We 05:00-21:00; Fr 05:00-21:00,,
https://www.grimaldispizzeria.com/location/old-town/,grimaldis_pizzeria,Grimaldi&#039;s Pizzeria,,Scottsdale,AZ,,US,+1 480-994-1100,https://www.grimaldispizzeria.com/location/old-town/,Mo-Th 11:00-21:00; Fr-Sa 11:00-22:00; Su 11:00-21:00,Grimaldi's Pizzeria,Q564256
https://stores.guess.com/us/en/az/scottsdale/7014-e-camelback-road-5023.html,guess,Scottsdale AZ Guess Clothing Stores | Women's & Men's Jeans,,Scottsdale,AZ,,US,+1 480-941-2500,https://stores.guess.com/us/en/az/scottsdale/7014-e-camelback-road-5023.html,Mo-Sa 10:00-21:00; Su 11:00-18:00,Guess,Q2470307
https://www.harborfreight.com/storelocator/3340-n-hayden-road-scottsdale-85251?number=3494,harborfreight,"Harbor Freight Tools Scottsdale, AZ",,Scottsdale,AZ,,US,+1 480-916-3939,https://www.harborfreight.com/storelocator/3340-n-hayden-road-scottsdale-85251?number=3494,Mo-Sa 08:00-20:00; Su 09:00-18:00,Harbor Freight Tools,Q5654601
phxotpy-canopy-scottsdale-old-town,hilton,Canopy by Hilton Scottsdale Old Town,,,AZ,,US,+1 480-590-3864,https://www.hilton.com/ar/hotels/phxotpy-canopy-scottsdale-old-town/,,Canopy by Hilton,Q30632909
sctgigi-hilton-garden-inn-scottsdale-old-town,hilton,Hilton Garden Inn Scottsdale Old Town,,,AZ,,US,+1 480-481-0400,https://www.hilton.com/ar/hotels/sctgigi-hilton-garden-inn-scottsdale-old-town/,,Hilton Garden Inn,Q1162859
US0209,hm,Scottsdale Fashion Square,,Scottsdale,AZ,,US,+1 855-466-7467,,Mo-Sa 11:00-21:00; Su 11:00-18:00,H&M,Q188326
9925609,hugo_boss,BOSS Menswear Shop,,Scottsdale,AZ,,US,,https://www.hugoboss.com/us/storedetail?storeid=9925609,,Hugo Boss,Q491627
9923126,hugo_boss,BOSS Store,,Scottsdale,AZ,,US,+1 480-970-3393,https://www.hugoboss.com/us/storedetail?storeid=9923126,Mo-Sa 11:00-21:00; Su 11:00-19:00,Hugo Boss,Q491627
https://office.jacksonhewitt.com/#27579720,jackson_hewitt,Jackson Hewitt,,Scottsdale,AZ,,US,+1 480-853-5263,https://office.jacksonhewitt.com/tax-preparation-services-locations/en/az/scottsdale/4915-n-pima-rd/52112,Mo-Fr 09:00-17:00; Sa 11:00-17:00,Jackson Hewitt,Q6117132
https://stores.jdsports.com/az/scottsdale/scottsdale-fashion-square.html,jdsports_us,JD Sports,,Scottsdale,AZ,,US,+1 623-748-7756,https://stores.jdsports.com/az/scottsdale/scottsdale-fashion-square.html,Mo-Sa 10:00-21:00; Su 11:00-18:00,JD Sports,Q6108019
https://locations.jimmyjohns.com/az/scottsdale/sandwiches-2503.html,jimmy_johns,Jimmy John's,,Scottsdale,AZ,,US,+1 480-285-1311,https://locations.jimmyjohns.com/az/scottsdale/sandwiches-2503.html,,Jimmy John's,Q1689380
https://locations.kfc.com/#11246892,kfc,Chicken Nuggets Near Scottsdale,,Scottsdale,AZ,,US,,https://locations.kfc.com/az/scottsdale/8050-e-indian-school-rd/chickennugget,Mo-Su 10:00-22:00,KFC,Q524757
https://stores.kiehls.com/az/scottsdale/7014-e-camelback-rd.html,kiehls_us,Kiehl's scottsdale fashion square,,Scottsdale,AZ,,US,+1 480-994-1039,https://stores.kiehls.com/az/scottsdale/7014-e-camelback-rd.html,Mo-Sa 10:00-21:00; Su 11:00-18:00,Kiehl's,Q3196447
SFQAZ,life_time,Scottsdale Fashion Square,,Scottsdale,AZ,,US,+1 480-791-0635,https://my.lifetime.life/clubs/az/scottsdale-fashion-square.html,Mo-Th 04:00-23:00; Fr 04:00-22:00; Sa-Su 05:00-21:00,Life Time,Q6545004
US062,longchamp_us,Nordstrom (Scottsdale Fashion Square),,SCOTTSDALE,AZ,,US,+1 480-946-4111,,,Longchamp,Q1869471
Scottsdale Fashion Square,lululemon,Lululemon,"7014 East Camelback Rd, Unit B144, Scottsdale, AZ, US, 85251",Scottsdale,AZ,,US,+1 480-405-5987,https://shop.lululemon.com/stores/us/scottsdale/scottsdalefs,Mo-Sa 10:00-21:00; Su 11:00-18:00,Lululemon,Q6702957
https://stores.madewell.com/#1974781,madewell_us,Madewell,,Scottsdale,AZ,,US,+1 480-946-3641,https://stores.madewell.com/us/az/scottsdale/7014-e-camelback-rd,Mo-Sa 10:00-21:00; Su 11:00-18:00,Madewell,Q64026213
157601,marathon_petroleum_us,Emerald Mart,,Scottsdale,AZ,,US,+1 480-423-5460,,,Marathon,Q458363
PHXSD,marriott,Aloft Scottsdale,,Scottsdale,AZ,,US,+1 480-253-3700,https://www.marriott.com/PHXSD,,Aloft Hotels,Q4734166
PHXSC,marriott,Courtyard Scottsdale Old Town,,Scottsdale,AZ,,US,+1 480-429-7785,https://www.marriott.com/PHXSC,,Courtyard by Marriott,Q1053170
PHXST,marriott,Scottsdale Marriott Old Town,,Scottsdale,AZ,,US,+1 480-945-1550,https://www.marriott.com/PHXST,,Marriott Hotels & Resorts,Q3918608
17654,mattress_firm_us,Mattress Firm Fashion Square,,Scottsdale,AZ,,US,+1 480-246-8895,https://www.mattressfirm.com/en-us/stores/az/scottsdale/029134/,,Mattress Firm,Q6791878
https://locations.michaelkors.com/us/az/scottsdale/7014-east-camelback-rd.html,michaelkors,Michael Kors SCOTTSDALE,,Scottsdale,AZ,,US,+1 480-941-8400,https://locations.michaelkors.com/us/az/scottsdale/7014-east-camelback-rd.html,Mo-Sa 10:00-21:00; Su 11:00-18:00,Michael Kors,Q19572998
https://locations.michaelkors.com/fr/us/az/scottsdale/7014-east-camelback-rd.html,michaelkors,Michael Kors SCOTTSDALE,,Scottsdale,AZ,,US,+1 480-941-8400,https://locations.michaelkors.com/fr/us/az/scottsdale/7014-east-camelback-rd.html,Mo-Sa 10:00-21:00; Su 11:00-18:00,Michael Kors,Q19572998
42721,modern_market_us,Old Town Scottsdale (near Fashion square),,Scottsdale,AZ,,US,+1 602-610-2442,,Mo-Th 10:00-21:00; Sa-Su 10:00-21:00,Modern Market,Q123370165
66035624,moneygram,CVS - #9328,,SCOTTSDALE,AZ,,US,+1 480-945-0396,,Mo-Su 08:00-22:00,MoneyGram,Q1944412
1029,neiman_marcus,Neiman Marcus,,Scottsdale,AZ,,US,+1 480-322-9468,https://stores.neimanmarcus.com/stores/scottsdale/az/scottsdale/1029,Mo-Sa 11:00-19:00; Su 11:00-18:00,Neiman Marcus,Q743497
380,nordstrom,Nordstrom Scottsdale Fashion Square,,Scottsdale,AZ,,US,+1 480-946-4111,https://www.nordstrom.com/store-details/nordstrom-scottsdale-fashion-square,,Nordstrom,Q174310
1669,orangetheory_fitness,"Old Town Scottsdale, AZ",,Scottsdale,AZ,,US,+1 480-405-2683,,,Orangetheory Fitness,Q25005163
112497,pandaexpress,Scottsdale & Thomas,,Scottsdale,AZ,,US,+1 480-970-6699,https://www.pandaexpress.com/locations/az/scottsdale/2931-n-scottsdale-road,Mo-Sa 09:00-22:00; Su 10:00-22:00,Panda Express,Q1358690
111234,pandaexpress,Scottsdale Mall,,Scottsdale,AZ,,US,+1 480-423-5526,https://www.pandaexpress.com/locations/az/scottsdale/7014-e-camelback-#569,Mo-Sa 09:30-21:00; Su 10:30-18:00,Panda Express,Q1358690
https://www.pfchangs.com/locations/#5265356,pf_changs,P.F. Chang's The Waterfront,,Scottsdale,AZ,,US,+1 480-949-2610,https://www.pfchangs.com/locations/us/az/scottsdale/7135-e-camelback-rd/9978-the-waterfront.html,"Mo-Th 11:00-22:00,15:00-18:00; Fr 11:00-23:00,15:00-18:00; Sa 11:00-23:00; Su 11:00-22:00",P. F. Chang's China Bistro,Q5360181
az_scottsdale_4436-n-miller-road,pizza_hut_us,4436 N. Miller Road,,Scottsdale,AZ,,US,+1 480-941-8032,https://locations.pizzahut.com/az/scottsdale/4436-n-miller-road,,Pizza Hut,Q191615
https://www.publicstorage.com/self-storage-az-scottsdale/1072.html,public_storage_us,Public Storage,,Scottsdale,AZ,,US,+1 480-447-2399,https://www.publicstorage.com/self-storage-az-scottsdale/1072.html,,Public Storage,Q1156045
https://stores.saloncentric.com/#29173784,salon_centric_us,SalonCentric,,,AZ,,US,+1 480-941-3012,https://stores.saloncentric.com/az/scottsdale/5712,Mo 08:00-18:30; Tu-Fr 08:00-18:00; Sa 08:30-16:00,SalonCentric,Q124339481
582,sola_salon_studios,Scottsdale Old Town,,Scottsdale,AZ,,US,+1 415-699-1556,https://www.solasalonstudios.com/locations/old-town,,Sola Salon Studios,Q64337426
https://www.sprouts.com/store/az/scottsdale/scottsdale-miller-rd/,sprouts_farmer_market,Sprouts Farmers Market 19-Scottsdale &#8211; Miller Rd.,,Scottsdale,AZ,,US,+1 480-941-6001,https://www.sprouts.com/store/az/scottsdale/scottsdale-miller-rd/,Mo-Su 07:00-22:00,Sprouts Farmer Market,Q7581369
3550-north-goldwater-blvd,staples,"Staples Scottsdale, AZ",,Scottsdale,AZ,,US,,https://stores.staples.com/az/scottsdale/3550-north-goldwater-blvd,Mo-Fr 08:00-20:00; Sa 10:00-19:00; Su 11:00-18:00,Staples,Q785943
https://restaurants.subway.com/#14912196,subway,Subway Wal-Mart #2112,,Scottsdale Maricopa,AZ,,US,+1 480-278-8999,https://restaurants.subway.com/united-states/az/scottsdale/4915-no-pima-road,Mo-Sa 09:00-21:00; Su 09:00-20:00,Subway,Q244457
https://stores.sunglasshut.com/us/az/scottsdale/7014-e-camelback-rd-5556,sunglass_hut_1,Sunglass Hut,,Scottsdale,AZ,,US,+1 480-994-1229,https://stores.sunglasshut.com/us/az/scottsdale/7014-e-camelback-rd-5556,Mo-Sa 10:00-21:00; Su 11:00-18:00,Sunglass Hut,Q136311
https://stores.sunglasshut.com/us/az/scottsdale/7014-e-camelback-rd-5887,sunglass_hut_1,Sunglass Hut at Macy's,,Scottsdale,AZ,,US,+1 480-941-6933,https://stores.sunglasshut.com/us/az/scottsdale/7014-e-camelback-rd-5887,Mo-Sa 10:00-21:00; Su 11:00-19:00,Sunglass Hut,Q136311
https://locations.tacobell.com/#6142371,taco_bell,Taco Bell,,Scottsdale,AZ,,US,+1 480-947-4463,https://locations.tacobell.com/az/scottsdale/7153-e-thomas-rd.html,Mo-Th 07:00-01:00; Fr-Sa 07:00-02:00; Su 07:00-01:00,Taco Bell,Q752941
08703,tjx,Scottsdale,4370 North Miller Road,Scottsdale,AZ,,US,+1 480-945-8898,,Mo-Sa 09:30-21:30; Su 10:00-20:00,TJ Maxx,Q10860683
401,tmobile_us,Scottsdale Fashion Square,,Scottsdale,AZ,,US,+1 480-941-0032,https://www.t-mobile.com/store-locator/az/scottsdale/scottsdale-fashion-square,,T-Mobile,Q3511885
100071,two_men_and_truck,Scottsdale South,7039 East 6th Street,Scottsdale,AZ,,US,+1 480-991-1805,https://twomenandatruck.com/movers/az/phoenix/scottsdale-south,,Two Men and a Truck,Q7859087
https://www.asurion.com/repairs/tech/locations/southscottsdale,ubreakifix,uBreakiFix by Asurion - South Scottsdale,,Scottsdale,AZ,,US,+1 480-702-0149,https://www.asurion.com/repairs/tech/locations/southscottsdale,Mo-Sa 11:00-19:00,Asurion Tech Repair & Solutions,Q4811938
822084,uhaul,U-Haul of Old Town Scottsdale,3033 N Scottsdale Rd,Scottsdale,AZ,,US,+1 480-941-0483,,Mo-Th 00:00-19:00; Fr 00:00-20:00; Sa 00:00-19:00; Su 00:00-17:00,U-Haul,Q7862902
8525100031,usps_collection_boxes,USPS COLLECTION BOX - BLUE BOX,3875 N 89TH STREET,SCOTTSDALE,AZ,,US,,,,United States Postal Service,Q668687
8525100049,usps_collection_boxes,USPS COLLECTION BOX - BLUE BOX,3875 N 89TH STREET,SCOTTSDALE,AZ,,US,,,,United States Postal Service,Q668687
8525100023,usps_collection_boxes,USPS COLLECTION BOX - BLUE BOX,8035 E INDIAN SCHOOL RD,SCOTTSDALE,AZ,,US,,,,United States Postal Service,Q668687
8525100101,usps_collection_boxes,USPS COLLECTION BOX - BLUE BOX,8027 E INDIAN SCHOOL RD,SCOTTSDALE,AZ,,US,,,,United States Postal Service,Q668687
8525100006,usps_collection_boxes,USPS COLLECTION BOX - BLUE BOX,3370 N HAYDEN RD,SCOTTSDALE,AZ,,US,,,,United States Postal Service,Q668687
8525100030,usps_collection_boxes,USPS COLLECTION BOX - BLUE BOX,3370 N HAYDEN RD,SCOTTSDALE,AZ,,US,,,,United States Postal Service,Q668687
8525100015,usps_collection_boxes,USPS COLLECTION BOX - BLUE BOX,7919 E THOMAS RD,SCOTTSDALE,AZ,,US,,,,United States Postal Service,Q668687
8525100018,usps_collection_boxes,USPS COLLECTION BOX - BLUE BOX,7628 E INDIAN SCHOOL RD,SCOTTSDALE,AZ,,US,,,,United States Postal Service,Q668687
8525100021,usps_collection_boxes,USPS COLLECTION BOX - BLUE BOX,4390 N MILLER RD,SCOTTSDALE,AZ,,US,,,,United States Postal Service,Q668687
8525100001,usps_collection_boxes,USPS COLLECTION BOX - BLUE BOX,3939 N 75TH ST,SCOTTSDALE,AZ,,US,,,,United States Postal Service,Q668687
8525100095,usps_collection_boxes,USPS COLLECTION BOX - BLUE BOX,7447 E INDIAN SCHOOL RD,SCOTTSDALE,AZ,,US,,,,United States Postal Service,Q668687
8525100082,usps_collection_boxes,USPS COLLECTION BOX - BLUE BOX,7398 E 2ND ST,SCOTTSDALE,AZ,,US,,,,United States Postal Service,Q668687
8525100077,usps_collection_boxes,USPS COLLECTION BOX - BLUE BOX,3080 N CIVIC CENTER PLZ,SCOTTSDALE,AZ,,US,,,,United States Postal Service,Q668687
8525100096,usps_collection_boxes,USPS COLLECTION BOX - BLUE BOX,4343 N SCOTTSDALE RD,SCOTTSDALE,AZ,,US,,,,United States Postal Service,Q668687
8525100074,usps_collection_boxes,USPS COLLECTION BOX - BLUE BOX,7331 E OSBORN DR,SCOTTSDALE,AZ,,US,,,,United States Postal Service,Q668687
8525100048,usps_collection_boxes,USPS COLLECTION BOX - BLUE BOX,4110 N SCOTTSDALE RD,SCOTTSDALE,AZ,,US,,,,United States Postal Service,Q668687
8525100087,usps_collection_boxes,USPS COLLECTION BOX - BLUE BOX,4110 N SCOTTSDALE RD,SCOTTSDALE,AZ,,US,,,,United States Postal Service,Q668687
8525100055,usps_collection_boxes,USPS COLLECTION BOX - BLUE BOX,7121 E 5TH AVE,SCOTTSDALE,AZ,,US,,,,United States Postal Service,Q668687
8525100003,usps_collection_boxes,USPS COLLECTION BOX - BLUE BOX,7060 E MAIN ST,SCOTTSDALE,AZ,,US,,,,United States Postal Service,Q668687
8525100037,usps_collection_boxes,USPS COLLECTION BOX - BLUE BOX,1776 N SCOTTSDALE RD,SCOTTSDALE,AZ,,US,,,,United States Postal Service,Q668687
8525100086,usps_collection_boxes,USPS COLLECTION BOX - BLUE BOX,7100 E 2ND ST,SCOTTSDALE,AZ,,US,,,,United States Postal Service,Q668687
8525100040,usps_collection_boxes,USPS COLLECTION BOX - BLUE BOX,4130 N GOLDWATER BLVD,SCOTTSDALE,AZ,,US,,,,United States Postal Service,Q668687
8525100012,usps_collection_boxes,USPS COLLECTION BOX - BLUE BOX,6925 E 5TH AVE,SCOTTSDALE,AZ,,US,,,,United States Postal Service,Q668687
8525100039,usps_collection_boxes,USPS COLLECTION BOX - BLUE BOX,6991 E CAMELBACK RD,SCOTTSDALE,AZ,,US,,,,United States Postal Service,Q668687
8525100071,usps_collection_boxes,USPS COLLECTION BOX - BLUE BOX,6991 E CAMELBACK RD,SCOTTSDALE,AZ,,US,,,,United States Postal Service,Q668687
8525100019,usps_collection_boxes,USPS COLLECTION BOX - BLUE BOX,6991 E CAMELBACK RD,SCOTTSDALE,AZ,,US,,,,United States Postal Service,Q668687
8525100038,usps_collection_boxes,USPS COLLECTION BOX - BLUE BOX,1776 N SCOTTSDALE RD,SCOTTSDALE,AZ,,US,,,,United States Postal Service,Q668687
8525100085,usps_collection_boxes,USPS COLLECTION BOX - PO LOBBY,1776 N SCOTTSDALE RD,SCOTTSDALE,AZ,,US,,,,United States Postal Service,Q668687
8525100100,usps_collection_boxes,USPS COLLECTION BOX - APC,1776 N SCOTTSDALE RD,SCOTTSDALE,AZ,,US,,,,United States Postal Service,Q668687
8525100027,usps_collection_boxes,USPS COLLECTION BOX - BLUE BOX,4800 N 68TH ST,SCOTTSDALE,AZ,,US,,,,United States Postal Service,Q668687
8525100076,usps_collection_boxes,USPS COLLECTION BOX - BLUE BOX,6740 E CAMELBACK RD,SCOTTSDALE,AZ,,US,,,,United States Postal Service,Q668687
8525100065,usps_collection_boxes,USPS COLLECTION BOX - BLUE BOX,6320 E THOMAS RD,SCOTTSDALE,AZ,,US,,,,United States Postal Service,Q668687
USA287,vans,Vans Store - SCOTTSDALE FASHION SQUARE,,Scottsdale,AZ,,US,+1 480-946-0176,https://www.vans.com/en-us/stores/az/scottsdale/usa287,Mo-Sa 10:00-21:00; Su 11:00-18:00,Vans,Q1135366
,visa,,,CHANDLER,AZ,,US,,,,,
,visa,,,SCOTTSDALE,AZ,,US,,,,,
,visa,,,SCOTTSDALE,AZ,,US,,,,,
,visa,,,SCOTTSDALE,AZ,,US,,,,,
,visa,,,SCOTTSDALE,AZ,,US,,,,,
,visa,,,SCOTTSDALE,AZ,,US,,,,,
,visa,,,PICHACHO,AZ,,US,,,,,
,visa,,,SCOTTSDALE,AZ,,US,,,,,
,visa,,,PHOENIX,AZ,,US,,,,,
,visa,,,SCOTTSDALE,AZ,,US,,,,,
,visa,,,SCOTTSDALE,AZ,,US,,,,,
,visa,,,SCOTTSDALE,AZ,,US,,,,,
,visa,,,SCOTTSDALE,AZ,,US,,,,,
,visa,,,SCOTTSDALE,AZ,,US,,,,,
,visa,,,SCOTTSDALE,AZ,,US,,,,,
,visa,,,SCOTTSDALE,AZ,,US,,,,,
,visa,,,SCOTTSDALE,AZ,,US,,,,,
,visa,,,SCOTTSDALE,AZ,,US,,,,,
,visa,,,SCOTTSDALE,AZ,,US,,,,,
,visa,,,SCOTTSDALE,AZ,,US,,,,,
,visa,,,SCOTTSDALE,AZ,,US,,,,,
,visa,,,SCOTTSDALE,AZ,,US,,,,,
,visa,,,SCOTTSDALE,AZ,,US,,,,,
,visa,,,SCOTTSDALE,AZ,,US,,,,,
,visa,,,SCOTTSDALE,AZ,,US,,,,,
,visa,,,SCOTTSDALE,AZ,,US,,,,,
,visa,,,SCOTTSDALE,AZ,,US,,,,,
,visa,,,SCOTTSDALE,AZ,,US,,,,,
,visa,,,SCOTTSDALE,AZ,,US,,,,,
,visa,,,SCOTTSDALE,AZ,,US,,,,,
,visa,,,SCOTTSDALE,AZ,,US,,,,,
,visa,,,SCOTTSDALE,AZ,,US,,,,,
,visa,,,SCOTTSDALE,AZ,,US,,,,,
,visa,,,SCOTTSDALE,AZ,,US,,,,,
,visa,,,SCOTTSDALE,AZ,,US,,,,,
,visa,,,SCOTTSDALE,AZ,,US,,,,,
,visa,,,SCOTTSDALE,AZ,,US,,,,,
,visa,,,SCOTTSDALE,AZ,,US,,,,,
,visa,,,SCOTTSDALE,AZ,,US,,,,,
,visa,,,SCOTTSDALE,AZ,,US,,,,,
,visa,,,SCOTTSDALE,AZ,,US,,,,,
,visa,,,SCOTTSDALE,AZ,,US,,,,,
,visa,,,SCOTTSDALE,AZ,,US,,,,,
,visa,,,SCOTTSDALE,AZ,,US,,,,,
,visa,,,SCOTTSDALE,AZ,,US,,,,,
,visa,,,SCOTTSDALE,AZ,,US,,,,,
,visa,,,SCOTTSDALE,AZ,,US,,,,,
,visa,,,SCOTTSDALE,AZ,,US,,,,,
,visa,,,SCOTTSDALE,AZ,,US,,,,,
,visa,,,SCOTTSDALE,AZ,,US,,,,,
,visa,,,SCOTTSDALE,AZ,,US,,,,,
,visa,,,SCOTTSDALE,AZ,,US,,,,,
,visa,,,SCOTTSDALE,AZ,,US,,,,,
,visa,,,SCOTTSDALE,AZ,,US,,,,,
,visa,,,SCOTTSDALE,AZ,,US,,,,,
,visa,,,SCOTTSDALE,AZ,,US,,,,,
,visa,,,SCOTTSDALE,AZ,,US,,,,,
,visa,,,SCOTTSDALE,AZ,,US,,,,,
,visa,,,SCOTTSDALE,AZ,,US,,,,,
,visa,,,SCOTTSDALE,AZ,,US,,,,,
,visa,,,SCOTTSDALE,AZ,,US,,,,,
,visa,,,SCOTTSDALE,AZ,,US,,,,,
,visa,,,SCOTTSDALE,AZ,,US,,,,,
,visa,,,SCOTTSDALE,AZ,,US,,,,,
,visa,,,SCOTTSDALE,AZ,,US,,,,,
,visa,,,SCOTTSDALE,AZ,,US,,,,,
,visa,,,SCOTTSDALE,AZ,,US,,,,,
,visa,,,SCOTTSDALE,AZ,,US,,,,,
,visa,,,SCOTTSDALE,AZ,,US,,,,,
,visa,,,SCOTTSDALE,AZ,,US,,,,,
,visa,,,SCOTTSDALE,AZ,,US,,,,,
,visa,,,SCOTTSDALE,AZ,,US,,,,,
,visa,,,SCOTTSDALE,AZ,,US,,,,,
,visa,,,SCOTTSDALE,AZ,,US,,,,,
,visa,,,SCOTTSDALE,AZ,,US,,,,,
,visa,,,SCOTTSDALE,AZ,,US,,,,,
,visa,,,TEMPE,AZ,,US,,,,,
,visa,,,SCOTTSDALE,AZ,,US,,,,,
,visa,,,SCOTTSDALE,AZ,,US,,,,,
,visa,,,SCOTTSDALE,AZ,,US,,,,,
,visa,,,SCOTTSDALE,AZ,,US,,,,,
,visa,,,SCOTTSDALE,AZ,,US,,,,,
,visa,,,SCOTTSDALE,AZ,,US,,,,,
,visa,,,SCOTTSDALE,AZ,,US,,,,,
,visa,,,SCOTTSDALE,AZ,,US,,,,,
,visa,,,SCOTTSDALE,AZ,,US,,,,,
,visa,,,SCOTTSDALE,AZ,,US,,,,,
,visa,,,SCOTTSDALE,AZ,,US,,,,,
,visa,,,SCOTTSDALE,AZ,,US,,,,,
,visa,,,SCOTTSDALE,AZ,,US,,,,,
,visa,,,SCOTTSDALE,AZ,,US,,,,,
,visa,,,SCOTTSDALE,AZ,,US,,,,,
,visa,,,SCOTTSDALE,AZ,,US,,,,,
,visa,,,SCOTTSDALE,AZ,,US,,,,,
,visa,,,SCOTTSDALE,AZ,,US,,,,,
,visa,,,SCOTTSDALE,AZ,,US,,,,,
,visa,,,SCOTTSDALE,AZ,,US,,,,,
,visa,,,SCOTTSDALE,AZ,,US,,,,,
,visa,,,SCOTTSDALE,AZ,,US,,,,,
,visa,,,SCOTTSDALE,AZ,,US,,,,,
,visa,,,SCOTTSDALE,AZ,,US,,,,,
,visa,,,SCOTTSDALE,AZ,,US,,,,,
,visa,,,SCOTTSDALE,AZ,,US,,,,,
,visa,,,SCOTTSDALE,AZ,,US,,,,,
,visa,,,SCOTTSDALE,AZ,,US,,,,,
,visa,,,SCOTTSDALE,AZ,,US,,,,,
,visa,,,SCOTTSDALE,AZ,,US,,,,,
,visa,,,SCOTTSDALE,AZ,,US,,,,,
,visa,,,SCOTTSDALE,AZ,,US,,,,,
,visa,,,SCOTTSDALE,AZ,,US,,,,,
,visa,,,SCOTTSDALE,AZ,,US,,,,,
,visa,,,SCOTTSDALE,AZ,,US,,,,,
,visa,,,SCOTTSDALE,AZ,,US,,,,,
,visa,,,SCOTTSDALE,AZ,,US,,,,,
,visa,,,SCOTTSDALE,AZ,,US,,,,,
,visa,,,SCOTTSDALE,AZ,,US,,,,,
,visa,,,SCOTTSDALE,AZ,,US,,,,,
,visa,,,SCOTTSDALE,AZ,,US,,,,,
,visa,,,SCOTTSDALE,AZ,,US,,,,,
,visa,,,SCOTTSDALE,AZ,,US,,,,,
,visa,,,SCOTTSDALE,AZ,,US,,,,,
,visa,,,SCOTTSDALE,AZ,,US,,,,,
,visa,,,SCOTTSDALE,AZ,,US,,,,,
,visa,,,SCOTTSDALE,AZ,,US,,,,,
,visa,,,SCOTTSDALE,AZ,,US,,,,,
,visa,,,SCOTTSDALE,AZ,,US,,,,,
,visa,,,SCOTTSDALE,AZ,,US,,,,,
,visa,,,SCOTTSDALE,AZ,,US,,,,,
,visa,,,SCOTTSDALE,AZ,,US,,,,,
,visa,,,SCOTTSDALE,AZ,,US,,,,,
,visa,,,SCOTTSDALE,AZ,,US,,,,,
,visa,,,SCOTTSDALE,AZ,,US,,,,,
,visa,,,SCOTTSDALE,AZ,,US,,,,,
,visa,,,SCOTTSDALE,AZ,,US,,,,,
,visa,,,SCOTTSDALE,AZ,,US,,,,,
,visa,,,SCOTTSDALE,AZ,,US,,,,,
,visa,,,SCOTTSDALE,AZ,,US,,,,,
,visa,,,SCOTTSDALE,AZ,,US,,,,,
,visa,,,SCOTTSDALE,AZ,,US,,,,,
,visa,,,SCOTTSDALE,AZ,,US,,,,,
,visa,,,SCOTTSDALE,AZ,,US,,,,,
,visa,,,SCOTTSDALE,AZ,,US,,,,,
,visa,,,SCOTTSDALE,AZ,,US,,,,,
,visa,,,SCOTTSDALE,AZ,,US,,,,,
,visa,,,TEMPE,AZ,,US,,,,,
,visa,,,OATMAN,AZ,,US,,,,,
https://www.walgreens.com/locator/walgreens-8015+e+indian+school+rd-scottsdale-az-85251/id=4506,walgreens,Walgreens,,Scottsdale,AZ,,US,+1 480-990-0202,https://www.walgreens.com/locator/walgreens-8015+e+indian+school+rd-scottsdale-az-85251/id=4506,Mo-Su 07:00-22:00,Walgreens,Q1591889
https://www.walgreens.com/locator/walgreens-3420+n+scottsdale+rd-scottsdale-az-85251/id=3163,walgreens,Walgreens,,Scottsdale,AZ,,US,+1 480-941-0915,https://www.walgreens.com/locator/walgreens-3420+n+scottsdale+rd-scottsdale-az-85251/id=3163,24/7,Walgreens,Q1591889
6770__E__CAMELBACK__RD_SCOTTSDALE_AZ_85251,wellsfargo,Wells Fargo,6770 E CAMELBACK RD,SCOTTSDALE,AZ,,US,+1 480-858-8280,https://www.wellsfargo.com/locator/bank/6770__E__CAMELBACK__RD_SCOTTSDALE_AZ_85251/,Mo-Fr 09:00-17:00,Wells Fargo,Q744149
https://locations.wendys.com/#9255576,wendys,"Wendy's 4815 N Pima Road in Scottsdale, AZ",,Scottsdale,AZ,,US,+1 480-945-1445,https://locations.wendys.com/united-states/az/scottsdale/4815-n-pima-road,"Mo-Su 06:30-10:30,07:00-22:00",Wendy's,Q550258
https://locations.wendys.com/#9255575,wendys,"Wendy's Scottsdale in Scottsdale, AZ",,Scottsdale,AZ,,US,+1 480-945-5575,https://locations.wendys.com/united-states/az/scottsdale/3014-n-scottsdale-rd,"Mo-Su 06:30-10:30,07:30-22:00",Wendy's,Q550258
7982b3eacac38f5d84d41e910b7d5122,western_union,WALMART #002112,,Scottsdale,AZ,,US,+1 480-941-0333,https://location.westernunion.com/us/az/scottsdale/7982b3eacac38f5d84d41e910b7d5122,Mo-Su 07:00-21:00,Western Union,Q861042
https://locations.whataburger.com/az/scottsdale/7134-e-thomas-rd.html,whataburger,E Thomas Rd & N Scottsdale Rd,7134 E THOMAS RD,SCOTTSDALE,AZ,,US,,https://locations.whataburger.com/az/scottsdale/7134-e-thomas-rd.html,,Whataburger,Q376627
2668,whitehouseblackmarket,Scottsdale Fashion Square,"7014 590 E Camelback Rd, Ste 1032",Scottsdale,AZ,,US,+1 480-922-7161,,Mo-Sa 10:00-21:00; Su 11:00-18:00,White House Black Market,Q7994858
37,windsor_us,Scottsdale Fashion Square,,Scottsdale,AZ,,US,+1 480-420-3708,https://www.windsorstore.com/pages/az-scottsdale-scottsdale-fashion-square,,Windsor,Q72981668
