Ref,Spider,Name,Address,City,State,Zipcode,Country,Phone,Website,Hours,Brand,WikiData
72026834,moneygram,JAMUNA BANK LIMITED - #129 - DHAKA - NAW,,DHAKA,,,BD,+880 1711-388650,,Mo-Th 10:00-16:00; Fr-Sa 00:00-24:00; Su 10:00-16:00,MoneyGram,Q1944412
67430338,moneygram,FSIBL - Ladies Branch Chittagong,,CHITTAGONG,,,BD,22582025,,24/7,MoneyGram,Q1944412
68161949,moneygram,JBL - ARMANITOLA-0328,,DAKA SADAR HO,,,BD,9520010000,,24/7,MoneyGram,Q1944412
68161923,moneygram,JBL - BANGSHAL ROAD-0113,,DAKA SADAR HO,,,BD,+880 2-7126270,,24/7,MoneyGram,Q1944412
68161994,moneygram,JBL - ISLAMPUR ROAD-0167,,DAKA SADAR HO,,,BD,+880 2-7391602,,24/7,MoneyGram,Q1944412
68161978,moneygram,JBL - NAZIMUDDIN ROAD-0234,,DAKA SADAR HO,,,BD,+880 2-7316403,,24/7,MoneyGram,Q1944412
68161981,moneygram,JBL - ABUL HASNAT ROAD-0492,,DAKA SADAR HO,,,BD,+880 2-7314857,,24/7,MoneyGram,Q1944412
68161910,moneygram,JBL - I.W.T.A.-0178,,DAKA SADAR HO,,,BD,+880 2-7113197,,24/7,MoneyGram,Q1944412
68161907,moneygram,JBL - LAXMI BAZAR-0229,,DAKA SADAR HO,,,BD,+880 2-7115017,,24/7,MoneyGram,Q1944412
68161884,moneygram,JBL - MITFORD ROAD-0230,,DAKA SADAR HO,,,BD,9520010000,,24/7,MoneyGram,Q1944412
68162045,moneygram,JBL - NAWABPUR ROAD CORP.-0024,,DAKA SADAR HO,,,BD,+880 2-7118967,,24/7,MoneyGram,Q1944412
68162003,moneygram,JBL - SADARGHAT-0020,,DAKA SADAR HO,,,BD,+880 2-7391002,,24/7,MoneyGram,Q1944412
68162032,moneygram,JBL - TIPU SULTAN ROAD-0240,,DAKA SADAR HO,,,BD,+880 2-7120630,,24/7,MoneyGram,Q1944412
68162016,moneygram,JBL - CHAMPATALI-0491,,DAKA SADAR HO,,,BD,+880 2-7317464,,24/7,MoneyGram,Q1944412
68161952,moneygram,JBL - CHAWK BAZAR(DHAKA)-0093,,DAKA SADAR HO,,,BD,+880 2-7313954,,24/7,MoneyGram,Q1944412
68161897,moneygram,JBL - FARASHGANJ-0056,,DAKA SADAR HO,,,BD,+880 2-7119317,,24/7,MoneyGram,Q1944412
68161936,moneygram,JBL - MOKIM KATRA-0330,,DAKA SADAR HO,,,BD,+880 2-7313501,,24/7,MoneyGram,Q1944412
68161965,moneygram,JBL - VICTORIA PARK-0241,,DAKA SADAR HO,,,BD,+880 2-7117108,,24/7,MoneyGram,Q1944412
67429242,moneygram,ONE BANK LTD - IMAMGONJ BRANCH,,DHAKA,,,BD,+880 2-7316477,,24/7,MoneyGram,Q1944412
69187139,moneygram,IBBL - DHOLAIKHAL BRANCH,,DHAKA,,,BD,+880 1787-676757,,24/7,MoneyGram,Q1944412
73782300,moneygram,AB BANK LIMITED - UTTARA BRANCH-ABBL,,SYLHET,,,BD,+880 2-58950865,,Mo-Th 10:00-16:00; Fr-Sa 00:00-24:00; Su 10:00-16:00,MoneyGram,Q1944412
73995207,moneygram,IFIC BANK - #451005 - ISLAMPUR BRANCH-IF,,DHAKA,,,BD,+880 9666-716250,,Mo-Th 10:00-18:00; Fr 00:00-24:00; Sa 10:00-15:00; Su 10:00-17:00,MoneyGram,Q1944412
73995728,moneygram,IFIC BANK - #451028 - NORTH B. HALL ROAD,,DHAKA,,,BD,+880 9666-716250,,Mo-Th 10:00-18:00; Fr-Sa 00:00-24:00; Su 10:00-17:00,MoneyGram,Q1944412
73995663,moneygram,IFIC BANK - #451029 - NAWABPUR ROAD BRAN,,DHAKA,,,BD,+880 9666-716250,,Mo-Th 10:00-18:00; Fr 00:00-24:00; Sa 10:00-15:00; Su 10:00-17:00,MoneyGram,Q1944412
68162029,moneygram,JBL - ENGLISH ROAD-0387,,DAKA SADAR HO,,,BD,+880 2-7120934,,24/7,MoneyGram,Q1944412
74078550,moneygram,CHAMAK INTERNATIONAL - DHAKA - CHAMAK IN,,DHAKA,,,BD,+880 1708-574204,,Mo-Th 09:30-17:00; Fr-Sa 00:00-24:00; Su 09:30-17:00,MoneyGram,Q1944412
74272204,moneygram,PREMIER BANK - #66106 - IMAMAGANJ-PBL,,DHAKA,,,BD,+880 2-7317752,,Mo-Th 10:00-18:00; Fr 00:00-24:00; Sa 10:00-13:00; Su 10:00-18:00,MoneyGram,Q1944412
74273494,moneygram,PREMIER BANK - #6611901 - GENDARIA UPO S,,DHAKA,,,BD,+880 2-9569738,,Mo-Th 10:00-18:00; Fr 00:00-24:00; Sa 10:00-13:00; Su 10:00-18:00,MoneyGram,Q1944412
74272534,moneygram,PREMIER BANK - #66139 - NAWABPUR ROAD-PB,,DHAKA,,,BD,+880 2-9556647,,Mo-Th 10:00-18:00; Fr 00:00-24:00; Sa 10:00-13:00; Su 10:00-18:00,MoneyGram,Q1944412
74273164,moneygram,PREMIER BANK - #66502 - BANGLA BAZAR SME,,DHAKA,,,BD,880029515732,,Mo-Th 10:00-18:00; Fr 00:00-24:00; Sa 10:00-13:00; Su 10:00-18:00,MoneyGram,Q1944412
74575105,moneygram,SJIBL - #4076 - DARUS SALAM-SJIBL,,DHAKA,,,BD,+880 1755-556438,,Mo-Th 10:00-17:00; Fr-Sa 00:00-24:00; Su 10:00-17:00,MoneyGram,Q1944412
44797201,moneygram,TCBL,,DHAKA,,,BD,7316498,,24/7,MoneyGram,Q1944412
44797272,moneygram,TCBL,,DHAKA,,,BD,7391920,,24/7,MoneyGram,Q1944412
44797311,moneygram,TCBL,,DHAKA,,,BD,7115439,,24/7,MoneyGram,Q1944412
44798572,moneygram,TCBL,,DHAKA,,,BD,9558087,,24/7,MoneyGram,Q1944412
44798640,moneygram,TCBL,,DHAKA,,,BD,7318221,,24/7,MoneyGram,Q1944412
44798666,moneygram,TCBL,,DHAKA,,,BD,7122714,,24/7,MoneyGram,Q1944412
65234510,moneygram,AGRANI BANK,,DHAKA,,,BD,0,,Mo-Th 09:00-16:00; Fr 00:00-24:00; Sa-Su 09:00-16:00,MoneyGram,Q1944412
65234811,moneygram,AGRANI BANK,,DHAKA,,,BD,7316686,,Mo-Th 09:00-16:00; Fr 00:00-24:00; Sa-Su 09:00-16:00,MoneyGram,Q1944412
65234905,moneygram,AGRANI BANK,,DHAKA,,,BD,7318700,,Mo-Th 09:00-16:00; Fr 00:00-24:00; Sa-Su 09:00-16:00,MoneyGram,Q1944412
65234950,moneygram,AGRANI BANK,,DHAKA,,,BD,7314426,,Mo-Th 09:00-16:00; Fr 00:00-24:00; Sa-Su 09:00-16:00,MoneyGram,Q1944412
65235153,moneygram,AGRANI BANK,,DHAKA,,,BD,7316479,,Mo-Th 09:00-16:00; Fr 00:00-24:00; Sa-Su 09:00-16:00,MoneyGram,Q1944412
65235179,moneygram,AGRANI BANK,,DHAKA,,,BD,7312713,,Mo-Th 09:00-16:00; Fr 00:00-24:00; Sa-Su 09:00-16:00,MoneyGram,Q1944412
65236165,moneygram,AGRANI BANK,,DHAKA,,,BD,7317779,,Mo-Th 09:00-16:00; Fr 00:00-24:00; Sa-Su 09:00-16:00,MoneyGram,Q1944412
65236194,moneygram,AGRANI BANK,,DHAKA,,,BD,731537,,Mo-Th 09:00-16:00; Fr 00:00-24:00; Sa-Su 09:00-16:00,MoneyGram,Q1944412
65407884,moneygram,AIBL - #03,,DHAKA,,,BD,+880 2-7313900,,24/7,MoneyGram,Q1944412
65408074,moneygram,AIBL - #14,,DHAKA,,,BD,+880 2-7110708,,24/7,MoneyGram,Q1944412
65408090,moneygram,AIBL - #16,,DHAKA,,,BD,+880 2-7167682,,24/7,MoneyGram,Q1944412
65408540,moneygram,AIBL - #41,,DHAKA,,,BD,+880 2-7393800,,24/7,MoneyGram,Q1944412
66645195,moneygram,BRAC BANK LTD - #1523 - DHAKA - SADARGHA,,DHAKA,,,BD,7125030,,24/7,MoneyGram,Q1944412
66892443,moneygram,EXIM - DHAKA - NAWABPUR BR,,DHAKA,,,BD,+880 2-7167058,,24/7,MoneyGram,Q1944412
67109685,moneygram,BCBL - MOULVIBAZAR,,DHAKA,,,BD,+880 2-7311051,,24/7,MoneyGram,Q1944412
67217849,moneygram,NBL - Babu Bazar Branch,,DHAKA,,,BD,+880 1713-388870,,24/7,MoneyGram,Q1944412
67218149,moneygram,NBL - Imamgonj Branch,,DHAKA,,,BD,+880 1713-388869,,24/7,MoneyGram,Q1944412
67218408,moneygram,NBL - Islampur Branch,,DHAKA,,,BD,+880 1713-388877,,24/7,MoneyGram,Q1944412
67219012,moneygram,NBL - North Brook Hall Road Branch,,DHAKA,,,BD,+880 1713-388879,,24/7,MoneyGram,Q1944412
67429750,moneygram,FSIBL - Bangshal Branch,,DHAKA,,,BD,+880 2-7176747,,24/7,MoneyGram,Q1944412
67429909,moneygram,FSIBL - Azampur Branch,,DHAKA,,,BD,+880 2-7911307,,24/7,MoneyGram,Q1944412
67429475,moneygram,ONE BANK LTD - BANGSHAL BRANCH,,DHAKA,,,BD,+880 2-7111677,,24/7,MoneyGram,Q1944412
67489512,moneygram,IBBL - WISEGHAT      BRANCH,,DHAKA,,,BD,+880 1755-629464,,24/7,MoneyGram,Q1944412
67429514,moneygram,ONE BANK LTD - RAMGONJ BRANCH,,LAXMIPUR,,,BD,382475041,,24/7,MoneyGram,Q1944412
67429938,moneygram,FSIBL - Savar Branch,,DHAKA,,,BD,27744658,,24/7,MoneyGram,Q1944412
67430228,moneygram,FSIBL - Pather Hat Branch,,CHITTAGONG,,,BD,+880 3125-72441,,24/7,MoneyGram,Q1944412
67430299,moneygram,FSIBL - Mohra SME KRISHI Branch,,CHITTAGONG,,,BD,+880 3125-72006,,24/7,MoneyGram,Q1944412
67430341,moneygram,FSIBL - Bandar Tila Branch,,CHITTAGONG,,,BD,+880 31-742175,,24/7,MoneyGram,Q1944412
67429488,moneygram,ONE BANK LTD - CDA AVENUE BRANCH,,CHITTAGONG,,,BD,312858151,,24/7,MoneyGram,Q1944412
67429255,moneygram,ONE BANK LTD - JOYPARA BRANCH,,DHAKA,,,BD,27554801,,24/7,MoneyGram,Q1944412
67501047,moneygram,BRAC BANK LTD - #1550 - DHAKA - ISLAMPUR,,DHAKA,,,BD,+880 1713-090101,,24/7,MoneyGram,Q1944412
67429491,moneygram,ONE BANK LTD - NANUPUR BRANCH,,CHITTAGONG,,,BD,43511730323092,,24/7,MoneyGram,Q1944412
67430260,moneygram,FSIBL - Patiya Branch,,CHITTAGONG,,,BD,303556695,,24/7,MoneyGram,Q1944412
67430273,moneygram,FSIBL - Ranir Hat SME KRISHI Branch,,CHITTAGONG,,,BD,21744655655,,24/7,MoneyGram,Q1944412
67430286,moneygram,FSIBL - PAHARTOLI CHOWMOHANI,,CHITTAGONG,,,BD,+880 3127-73041,,24/7,MoneyGram,Q1944412
67429925,moneygram,FSIBL - Zirabo Branch,,DHAKA,,,BD,27792370,,24/7,MoneyGram,Q1944412
67430176,moneygram,FSIBL - Andorkillah Branch,,CHITTAGONG,,,BD,312858651,,24/7,MoneyGram,Q1944412
67109821,moneygram,BCBL - UTTARA TOUCH-POINTS,,DHAKA,,,BD,+880 2-8921555,,24/7,MoneyGram,Q1944412
67430192,moneygram,FSIBL - Hathazari Branch,,CHITTAGONG,,,BD,+880 3126-01362,,24/7,MoneyGram,Q1944412
67430309,moneygram,FSIBL - Nazir Hat Branch,,CHITTAGONG,,,BD,311720060872,,24/7,MoneyGram,Q1944412
67430231,moneygram,FSIBL - Lohagara Branch,,CHITTAGONG,,,BD,303456591,,24/7,MoneyGram,Q1944412
67109818,moneygram,BCBL - UTTARA,,DHAKA,,,BD,+880 2-8921555,,24/7,MoneyGram,Q1944412
67430354,moneygram,FSIBL - Ladies Branch Patiya,,CHITTAGONG,,,BD,303556584,,24/7,MoneyGram,Q1944412
