Ref,Spider,Name,Address,City,State,Zipcode,Country,Phone,Website,Hours,Brand,WikiData
https://stores.advanceautoparts.com/ga/augusta/1933-walton-way,advance_auto_parts_us,Advance Auto Parts,,Augusta,GA,,US,+1 706-738-7760,https://stores.advanceautoparts.com/ga/augusta/1933-walton-way,Mo-Sa 07:30-21:00; Su 09:00-20:00,Advance Auto Parts,Q4686051
https://locations.arbys.com/ga/augusta/2733-washington-rd.html,arbys_us,"Arby's Fast-Food Drive Through Near You in Augusta, GA",,Augusta,GA,,US,+1 706-733-5418,https://locations.arbys.com/ga/augusta/2733-washington-rd.html,Mo-Th 10:00-23:00; Fr-Sa 10:00-24:00; Su 10:00-23:00,Arby's,Q630866
https://locations.arbys.com/ga/augusta/1813-gordon-hwy.html,arbys_us,"Arby's Fast-Food Drive Through Near You in Augusta, GA",,Augusta,GA,,US,+1 706-733-1360,https://locations.arbys.com/ga/augusta/1813-gordon-hwy.html,Mo-We 10:00-24:00; Th-Sa 10:00-01:00; Su 10:00-24:00,Arby's,Q630866
403,autozone_us,AutoZone Auto Parts Augusta,,Augusta,GA,,US,+1 706-738-1666,https://www.autozone.com/locations/ga/augusta/2318-milledgeville.html,Mo-Sa 07:30-21:00; Su 09:00-20:00,AutoZone,Q4826087
236375,bluerhino,Circle K #2705337,,Augusta,GA,,US,+1 706-733-9581,,,Blue Rhino,Q65681213
236377,bluerhino,Circle K #2705581,,Augusta,GA,,US,+1 706-738-7419,,,Blue Rhino,Q65681213
236348,bluerhino,Circle K #2703178,,Augusta,GA,,US,+1 706-738-0104,,,Blue Rhino,Q65681213
226741,bluerhino,Gas Express - Central,,Augusta,GA,,US,+1 732-798-3333,,,Blue Rhino,Q65681213
236370,bluerhino,Circle K #2703171,,Augusta,GA,,US,+1 706-733-6336,,,Blue Rhino,Q65681213
226732,bluerhino,Gas Express - Walton,,Augusta,GA,,US,+1 732-798-3333,,,Blue Rhino,Q65681213
226742,bluerhino,Gas Express - Laney Walker,,Augusta,GA,,US,+1 732-798-3333,,,Blue Rhino,Q65681213
ga/augusta/1457-walton-way,bojangles,"Bojangles Augusta, GA",,Augusta,GA,,US,+1 706-722-1380,https://locations.bojangles.com/ga/augusta/1457-walton-way.html,,Bojangles',Q891163
15460904240133090400100000000000,bp,BP,,Augusta,GA,,US,1111111111,,24/7,BP,Q152057
99818240735103090400100000000000,bp,Amoco,,Augusta,GA,,US,+1 706-364-4132,,24/7,BP,Q152057
23976,burgerking,Burger King,,Augusta,GA,,US,+1 706-723-9481,https://www.bk.com/store-locator/store/restaurant_76470,Mo-Sa 06:00-21:00; Su 07:00-21:00,Burger King,Q177054
381590,chevron,Chevron Station #381590,502 HIGHLAND AVE,AUGUSTA,GA,,US,,,,Chevron,Q319642
https://schools.childcarenetwork.com/ga/augusta/2131-wrightsboro-road,childcare_network_us,Childcare Network,,Augusta,GA,,US,+1 706-733-4913,https://schools.childcarenetwork.com/ga/augusta/2131-wrightsboro-road,,Childcare Network,Q121356406
90613,citi,ATM Walgreens,,Cleveland,GA,,US,,,,Citibank,Q857063
41867,citi,ATM Circle K,,Augusta,GA,,US,,,,Citibank,Q857063
48098,citi,ATM CVS,,Augusta,GA,,US,,,,Citibank,Q857063
41123,citi,ATM Circle K,,Augusta,GA,,US,,,,Citibank,Q857063
64314,citi,ATM MAA,,Augusta,GA,,US,,,,Citibank,Q857063
64307,citi,ATM MAA,,Augusta,GA,,US,,,,Citibank,Q857063
41868,citi,ATM Circle K,,Augusta,GA,,US,,,,Citibank,Q857063
41913,citi,ATM Circle K,,Augusta,GA,,US,,,,Citibank,Q857063
42207,citi,ATM Circle K,,Augusta,GA,,US,,,,Citibank,Q857063
42539,citi,ATM Circle K,,Augusta,GA,,US,,,,Citibank,Q857063
357,cookout,Augusta,,Augusta,GA,,US,,https://www.facebook.com/Cook-Out-Augusta-GA-1374858229417176/,Mo-Th 10:30-03:00; Fr-Sa 10:30-04:00; Su 10:30-03:00,Cookout,Q5166992
80193413,cricket_wireless,Cricket Wireless Authorized Retailer,,Augusta,GA,,US,+1 706-426-5185,https://www.cricketwireless.com/stores/ll/US/GA/Augusta/1712-Walton-Way,Mo-Sa 10:00-20:00; Su 12:00-18:00,Cricket Wireless,Q5184987
3378,cvs_us,CVS Pharmacy,,Augusta,GA,,US,+1 706-724-0598,https://www.cvs.com/store-locator/augusta-ga-pharmacies/1520-walton-way-augusta-ga-30904/storeid=3378,Mo-Su 07:00-00:00,CVS Pharmacy,Q2078880
vc_0346V,department_veterans_affairs,Augusta Vet Center,,Augusta,GA,,US,+1 706-729-5762,https://www.va.gov/augusta-vet-center/,,Department Veterans Affairs,Q592576
vba_316b,department_veterans_affairs,Veteran Readiness and Employment Office at Augusta VA Medical Center - Uptown,,Augusta,GA,,US,+1 706-733-0188 ext. 6809,,,Department Veterans Affairs,Q592576
354417,dunkin_us,Dunkin',,Augusta,GA,,US,+1 706-922-7741,https://locations.dunkindonuts.com/en/ga/augusta/1640-walton-way/354417,Mo-Fr 05:00-20:00; Sa-Su 06:00-20:00,Dunkin',Q847743
E12681,enterprise,Augusta Gordon Hwy.,,Augusta,GA,,US,+1 706-733-5008,,,Enterprise Rent-A-Car,Q17085454
E126G2,enterprise,2611 Com Rates,,Augusta,GA,,US,+1 706-733-8705,,,Enterprise Rent-A-Car,Q17085454
https://local.fedex.com/#91876278,fedex,,,Augusta,GA,,US,+1 800-463-3339,https://local.fedex.com/en-us/ga/augusta/agsap,,FedEx,Q459477
3332,fresenius_kidney_care_us,Fresenius Kidney Care New Bailie,,Augusta,GA,,US,+1 800-881-5101,https://www.freseniuskidneycare.com/dialysis-centers/georgia/3332,Mo 04:00-15:30; Tu 05:00-18:00; We 04:00-15:30; Th 05:00-18:00; Fr 04:00-15:30; Sa 05:00-18:00,,
100030,fresenius_kidney_care_us,Fresenius Kidney Care Augusta Home Dialysis,,Augusta,GA,,US,+1 800-881-5101,https://www.freseniuskidneycare.com/dialysis-centers/georgia/100030,Mo-Fr 08:00-16:30,,
https://locations.kfc.com/#11246588,kfc,Chicken Nuggets Near Augusta,,Augusta,GA,,US,,https://locations.kfc.com/ga/augusta/1816-walton-way/chickennugget,Mo-Th 10:00-22:00; Fr-Sa 10:00-23:00; Su 10:00-22:00,KFC,Q524757
usb1f3c75a,pandora,About Pandora Jewelry Authorized Retailer - WINDSOR JEWELERS/AUGUSTA,,Augusta,GA,,US,+1 706-738-6803,https://stores.pandora.net/ga/augusta/pandora-jewelry-usb1f3c75a.html,,Pandora,Q2241604
https://locations.papajohns.com/#10692556,papa_johns,Papa John's,,Augusta,GA,,US,+1 706-733-7272,https://locations.papajohns.com/united-states/ga/30904/augusta/1827-walton-way,Mo-Su 10:00-23:00,Papa John's Pizza,Q2759586
ga_augusta_2500-walton-way,pizza_hut_us,2500 Walton Way,,Augusta,GA,,US,,https://locations.pizzahut.com/ga/augusta/2500-walton-way,,Pizza Hut,Q191615
ppg-paints-8147-21474,ppgpaints,PPG Paints 8147,,"Augusta, ",GA,,US,+1 706-738-1491,https://www.ppgpaints.com/store-locator/us/georgia/augusta-paint-stores/ppg-paints-8147-21474,,PPG Paints,Q83891559
https://restaurants.subway.com/#14903477,subway,Subway,,Augusta Richmond,GA,,US,+1 706-426-6094,https://restaurants.subway.com/united-states/ga/augusta/2164-central-avenue,Mo-Su 08:30-20:00,Subway,Q244457
https://restaurants.subway.com/#14916493,subway,Subway,,Augusta Richmond,GA,,US,+1 706-737-8205,https://restaurants.subway.com/united-states/ga/augusta/1569-walton-way,Mo-Su 08:00-21:00,Subway,Q244457
1366979,usps,HILL STATION,,AUGUSTA,GA,,US,+1 706-738-9822,,Mo-Fr 09:00-17:00,United States Postal Service,Q668687
3090400008,usps_collection_boxes,USPS COLLECTION BOX - BLUE BOX,2260 WRIGHTSBORO RD,AUGUSTA,GA,,US,,,,United States Postal Service,Q668687
3090400058,usps_collection_boxes,USPS COLLECTION BOX - BLUE BOX,1434 STOVALL ST,AUGUSTA,GA,,US,,,,United States Postal Service,Q668687
3090400060,usps_collection_boxes,USPS COLLECTION BOX - PO LOBBY,1434 STOVALL ST,AUGUSTA,GA,,US,,,,United States Postal Service,Q668687
3090400057,usps_collection_boxes,USPS COLLECTION BOX - BLUE BOX,1125 TROUPE ST,AUGUSTA,GA,,US,,,,United States Postal Service,Q668687
3090400005,usps_collection_boxes,USPS COLLECTION BOX - BLUE BOX,1 FREEDOM WAY,AUGUSTA,GA,,US,,,,United States Postal Service,Q668687
3090400056,usps_collection_boxes,USPS COLLECTION BOX - PO LOBBY,1434 STOVALL ST,AUGUSTA,GA,,US,,,,United States Postal Service,Q668687
3090400026,usps_collection_boxes,USPS COLLECTION BOX - BLUE BOX,705 EVE ST,AUGUSTA,GA,,US,,,,United States Postal Service,Q668687
3090400045,usps_collection_boxes,USPS COLLECTION BOX - BLUE BOX,2500 WALTON WAY,AUGUSTA,GA,,US,,,,United States Postal Service,Q668687
3090400032,usps_collection_boxes,USPS COLLECTION BOX - BLUE BOX,207 MILLEDGE RD,AUGUSTA,GA,,US,,,,United States Postal Service,Q668687
3090400034,usps_collection_boxes,USPS COLLECTION BOX - BLUE BOX,2623 WASHINGTON RD,AUGUSTA,GA,,US,,,,United States Postal Service,Q668687
,visa,,,AUGUSTA,GA,,US,,,,,
,visa,,,AUGUSTA,GA,,US,,,,,
,visa,,,AUGUSTA,GA,,US,,,,,
,visa,,,AUGUSTA,GA,,US,,,,,
,visa,,,AUGUSTA,GA,,US,,,,,
,visa,,,AUGUSTA,GA,,US,,,,,
,visa,,,AUGUSTA,GA,,US,,,,,
,visa,,,AUGUSTA,GA,,US,,,,,
,visa,,,AUGUSTA,GA,,US,,,,,
,visa,,,AUGUSTA,GA,,US,,,,,
,visa,,,AUGUSTA,GA,,US,,,,,
,visa,,,AUGUSTA,GA,,US,,,,,
,visa,,,AUGUSTA,GA,,US,,,,,
,visa,,,AUGUSTA,GA,,US,,,,,
,visa,,,AUGUSTA,GA,,US,,,,,
,visa,,,AUGUSTA,GA,,US,,,,,
,visa,,,AUGUSTA,GA,,US,,,,,
,visa,,,AUGUSTA,GA,,US,,,,,
,visa,,,AUGUSTA,GA,,US,,,,,
,visa,,,AUGUSTA,GA,,US,,,,,
,visa,,,AUGUSTA,GA,,US,,,,,
,visa,,,AUGUSTA,GA,,US,,,,,
,visa,,,AUGUSTA,GA,,US,,,,,
,visa,,,AUGUSTA,GA,,US,,,,,
,visa,,,AUGUSTA,GA,,US,,,,,
,visa,,,AUGUSTA,GA,,US,,,,,
,visa,,,AUGUSTA,GA,,US,,,,,
,visa,,,AUGUSTA,GA,,US,,,,,
,visa,,,AUGUSTA,GA,,US,,,,,
,visa,,,AUGUSTA,GA,,US,,,,,
,visa,,,AUGUSTA,GA,,US,,,,,
,visa,,,AUGUSTA,GA,,US,,,,,
,visa,,,AUGUSTA,GA,,US,,,,,
,visa,,,AUGUSTA,GA,,US,,,,,
,visa,,,AUGUSTA,GA,,US,,,,,
,visa,,,AUGUSTA,GA,,US,,,,,
,visa,,,AUGUSTA,GA,,US,,,,,
,visa,,,AUGUSTA,GA,,US,,,,,
,visa,,,AUGUSTA,GA,,US,,,,,
,visa,,,AUGUSTA,GA,,US,,,,,
,visa,,,AUGUSTA,GA,,US,,,,,
,visa,,,AUGUSTA,GA,,US,,,,,
,visa,,,AUGUSTA,GA,,US,,,,,
,visa,,,AUGUSTA,GA,,US,,,,,
,visa,,,AUGUSTA,GA,,US,,,,,
,visa,,,AUGUSTA,GA,,US,,,,,
,visa,,,AUGUSTA,GA,,US,,,,,
,visa,,,EVANS,GA,,US,,,,,
2305,waffle_house_us,Waffle House #2305,,AUGUSTA,GA,,US,+1 706-434-9134,https://locations.wafflehouse.com/augusta-ga-2305,24/7,Waffle House,Q1701206
2600__DEANS__BRIDGE__RD_AUGUSTA_GA_30904,wellsfargo,,2600 DEANS BRIDGE RD,AUGUSTA,GA,,US,+1 800-869-3557,https://www.wellsfargo.com/locator/bank/2600__DEANS__BRIDGE__RD_AUGUSTA_GA_30904/,,Wells Fargo,Q744149
https://locations.wendys.com/#9250720,wendys,"Wendy's Waltonway in Augusta, GA",,Augusta,GA,,US,+1 706-619-1400,https://locations.wendys.com/united-states/ga/augusta/1730-walton-way,"Mo-Su 06:30-10:30,07:00-21:00",Wendy's,Q550258
