Ref,Spider,Name,Address,City,State,Zipcode,Country,Phone,Website,Hours,Brand,WikiData
9b2006ca11b8f126b5501515810dc99d,western_union,SREYPEN,,Dangkao,THMEI,,KH,+855 10 740 780,https://location.westernunion.com/kh/thmei/dangkao/9b2006ca11b8f126b5501515810dc99d,,Western Union,Q861042
f4a5af9859ec071acaccc46040f11696,western_union,SOEUR SONY,,Dangkao,THMEI,,KH,+855 16 636 194,https://location.westernunion.com/kh/thmei/dangkao/f4a5af9859ec071acaccc46040f11696,,Western Union,Q861042
209c639d2118cfec86393d520c4765d7,western_union,YENG YA,,Char Chhuk,THMEI,,KH,+855 92 348 380,https://location.westernunion.com/kh/thmei/char-chhuk/209c639d2118cfec86393d520c4765d7,,Western Union,Q861042
b8e44d98fb769c67ad175525ec4dafd5,western_union,KHENG EYCHHEAN,,Tnaot,THMEI,,KH,+855 88 764 6913,https://location.westernunion.com/kh/thmei/tnaot/b8e44d98fb769c67ad175525ec4dafd5,,Western Union,Q861042
1876691660d05a4d5b3aeb746ca13d88,western_union,LY LEYMA,,Tnaot Chum,THMEI,,KH,+855 87 775 471,https://location.westernunion.com/kh/thmei/tnaot-chum/1876691660d05a4d5b3aeb746ca13d88,,Western Union,Q861042
49d31f91d45832f65784cc07e9f315a7,western_union,RATHANA,,Trapeang Tav,THMEI,,KH,+855 71 536 6363,https://location.westernunion.com/kh/thmei/trapeang-tav/49d31f91d45832f65784cc07e9f315a7,,Western Union,Q861042
17eed61fb2d50db969b8ecc35737e21c,western_union,HORT SOKLEANG,,Ta Khmau,THMEI,,KH,+855 98 414 226,https://location.westernunion.com/kh/thmei/ta-khmau/17eed61fb2d50db969b8ecc35737e21c,,Western Union,Q861042
3731847b60f8037f0d34c300fdfdd567,western_union,SYNICH SOPHEAK,,Svay Dankum,THMEI,,KH,+855 78 951 533,https://location.westernunion.com/kh/thmei/svay-dankum/3731847b60f8037f0d34c300fdfdd567,,Western Union,Q861042
4335c07dcf203aa204f1a66244b61a23,western_union,Mak Lihour,,Svay Dankum,Thmei,,KH,+855 61 223 445,https://location.westernunion.com/kh/thmei/svay-dankum/4335c07dcf203aa204f1a66244b61a23,,Western Union,Q861042
4031229a4608b30a7aa34a930ea29406,western_union,SARAT MENGCHAY,,Svay Ampear,THMEI,,KH,+855 96 241 2742,https://location.westernunion.com/kh/thmei/svay-ampear/4031229a4608b30a7aa34a930ea29406,,Western Union,Q861042
a72f854f4681156d01f15b4abaf90236,western_union,MENG HOUY,,Dangkao,THMEI,,KH,+855 12 608 384,https://location.westernunion.com/kh/thmei/dangkao/a72f854f4681156d01f15b4abaf90236,,Western Union,Q861042
bed6a80a8efd0134d0730947397c86b7,western_union,KIM GECH,,Dangkao,THMEI,,KH,+855 17 885 868,https://location.westernunion.com/kh/thmei/dangkao/bed6a80a8efd0134d0730947397c86b7,,Western Union,Q861042
5ea8192c1952af785a7d960c1285fd73,western_union,KIM POLET,,Dangkao,THMEI,,KH,+855 12 900 050,https://location.westernunion.com/kh/thmei/dangkao/5ea8192c1952af785a7d960c1285fd73,,Western Union,Q861042
9a64caba6649443e8814a5ec166cd86d,western_union,SAO LENG,,Dangkao,THMEI,,KH,+855 77 555 484,https://location.westernunion.com/kh/thmei/dangkao/9a64caba6649443e8814a5ec166cd86d,,Western Union,Q861042
a328e0de0f93045284fd97ddba471366,western_union,SOKUNTHEA,,Stueng Mean Chey 1,THMEI,,KH,+855 16 526 956,https://location.westernunion.com/kh/thmei/stueng-mean-chey-1/a328e0de0f93045284fd97ddba471366,,Western Union,Q861042
0e4a0d7adccac58404879134cb0f3080,western_union,SREY OUN,,Stueng Mean Chey 1,THMEI,,KH,+855 10 661 267,https://location.westernunion.com/kh/thmei/stueng-mean-chey-1/0e4a0d7adccac58404879134cb0f3080,,Western Union,Q861042
d0da7de8976480197407b42c04e19f03,western_union,SOLIKA,,Stueng Mean Chey 1,THMEI,,KH,+855 12 983 636,https://location.westernunion.com/kh/thmei/stueng-mean-chey-1/d0da7de8976480197407b42c04e19f03,,Western Union,Q861042
8a1a9ea0d2742f23c0a53a72ad36987c,western_union,SREYMOM,,Stueng Mean Chey 1,THMEI,,KH,+855 31 444 6466,https://location.westernunion.com/kh/thmei/stueng-mean-chey-1/8a1a9ea0d2742f23c0a53a72ad36987c,,Western Union,Q861042
4d8410274de9476fb919df20bba61929,western_union,MAK NIKA KANHA,,Chrey Thum,THMEI,,KH,+855 17 534 460,https://location.westernunion.com/kh/thmei/chrey-thum/4d8410274de9476fb919df20bba61929,,Western Union,Q861042
57a426f6e2862b75759b2e62c0909509,western_union,CHAN YAYI,,Chheu Kmau,THMEI,,KH,+855 97 490 9493,https://location.westernunion.com/kh/thmei/chheu-kmau/57a426f6e2862b75759b2e62c0909509,,Western Union,Q861042
e8f2e2daccda881632736195811b105b,western_union,SAN SOPHEAP,,Thna Thnong,THMEI,,KH,+855 71 209 6998,https://location.westernunion.com/kh/thmei/thna-thnong/e8f2e2daccda881632736195811b105b,,Western Union,Q861042
549ecba3d7cca62d46a4d61c8b89a701,western_union,SOT SOCHEA,,Krang Leav,THMEI,,KH,+855 70 293 972,https://location.westernunion.com/kh/thmei/krang-leav/549ecba3d7cca62d46a4d61c8b89a701,,Western Union,Q861042
217e52b1ce8bdc6bc5679d53d6d11817,western_union,PISETH CHANNA,,Preaek Anteah,THMEI,,KH,+855 96 733 3056,https://location.westernunion.com/kh/thmei/preaek-anteah/217e52b1ce8bdc6bc5679d53d6d11817,,Western Union,Q861042
7fc77736cce38091a8833f2432486541,western_union,VIREAK SOK SIM,,Pongro Kraom,THMEI,,KH,+855 71 308 2839,https://location.westernunion.com/kh/thmei/pongro-kraom/7fc77736cce38091a8833f2432486541,,Western Union,Q861042
497937abef00881ceee9298bc2529cd1,western_union,PONLUE DARA,,Roleang Kaen,THMEI,,KH,+855 12 800 723,https://location.westernunion.com/kh/thmei/roleang-kaen/497937abef00881ceee9298bc2529cd1,,Western Union,Q861042
7dffbe333ff016decd61bda3523809de,western_union,KONG THORN,,Doung,THMEI,,KH,+855 71 804 7670,https://location.westernunion.com/kh/thmei/doung/7dffbe333ff016decd61bda3523809de,,Western Union,Q861042
23f64ea652513611155c4733197730c9,western_union,SAMOUN SOKMEAN,,Svay Ampear,THMEI,,KH,+855 69 639 553,https://location.westernunion.com/kh/thmei/svay-ampear/23f64ea652513611155c4733197730c9,,Western Union,Q861042
f0c47dae6e5f29f91383e5264e24f142,western_union,THOU SITHORN,,Soutib,THMEI,,KH,+855 81 949 390,https://location.westernunion.com/kh/thmei/soutib/f0c47dae6e5f29f91383e5264e24f142,,Western Union,Q861042
83f3be99aadb02c63622ee8056241fbf,western_union,SONITA,,Ta Khmau,THMEI,,KH,+855 96 667 6867,https://location.westernunion.com/kh/thmei/ta-khmau/83f3be99aadb02c63622ee8056241fbf,,Western Union,Q861042
5ba195dc9879b0546744371d55af5490,western_union,NUT NUN,,Sangkhoar,THMEI,,KH,+855 10 734 555,https://location.westernunion.com/kh/thmei/sangkhoar/5ba195dc9879b0546744371d55af5490,,Western Union,Q861042
9d6240063b86af7528aba0005d67d81e,western_union,SOMPHATTEYA,,Sameakki,THMEI,,KH,+855 97 337 5099,https://location.westernunion.com/kh/thmei/sameakki/9d6240063b86af7528aba0005d67d81e,,Western Union,Q861042
21108ec21f9a04f0cd16a03807f384d7,western_union,MAT MEYSAN,,Popel,THMEI,,KH,+855 96 708 8905,https://location.westernunion.com/kh/thmei/popel/21108ec21f9a04f0cd16a03807f384d7,,Western Union,Q861042
e6583229920808935631d59895c8cf07,western_union,KY SREYTY,,Vihear Luong,THMEI,,KH,+855 96 404 0178,https://location.westernunion.com/kh/thmei/vihear-luong/e6583229920808935631d59895c8cf07,,Western Union,Q861042
0d86713c86756cbd1dc0015abea26f39,western_union,SRENG BORA,,Ti Pou,THMEI,,KH,+855 97 998 4371,https://location.westernunion.com/kh/thmei/ti-pou/0d86713c86756cbd1dc0015abea26f39,,Western Union,Q861042
1a6af6470aff5be30a72995599309d85,western_union,SOVAN DET,,Kampong Pranak,THMEI,,KH,+855 81 792 336,https://location.westernunion.com/kh/thmei/kampong-pranak/1a6af6470aff5be30a72995599309d85,,Western Union,Q861042
b5d3d3d6b1ea73cfa6f8d0b9a97f6a68,western_union,HEA TONG,,Thmei,THMEI,,KH,+855 81 636 745,https://location.westernunion.com/kh/thmei/thmei/b5d3d3d6b1ea73cfa6f8d0b9a97f6a68,,Western Union,Q861042
253fe8c6dfef341aaf274379d5f015f9,western_union,MATH MARY,,Labansiek,THMEI,,KH,+855 11 527 329,https://location.westernunion.com/kh/thmei/labansiek/253fe8c6dfef341aaf274379d5f015f9,,Western Union,Q861042
5e02a61dbfb427dd15d438c8f4c64141,western_union,LOCUH CHAMREUN,,Labansiek,THMEI,,KH,+855 12 573 357,https://location.westernunion.com/kh/thmei/labansiek/5e02a61dbfb427dd15d438c8f4c64141,,Western Union,Q861042
062199e28230ec22fa12d63d32c0652f,western_union,CHAM PANHA,,Tnaot Chum,THMEI,,KH,+855 78 341 800,https://location.westernunion.com/kh/thmei/tnaot-chum/062199e28230ec22fa12d63d32c0652f,,Western Union,Q861042
e897cbb92bea69382a722a6001ebb47e,western_union,PA AH HOUNG,,Samraong,THMEI,,KH,+855 70 693 069,https://location.westernunion.com/kh/thmei/samraong/e897cbb92bea69382a722a6001ebb47e,,Western Union,Q861042
63c843ef42cfb15a27d1bc3625395d6d,western_union,BUN LEAB,,Ta Phou,THMEI,,KH,+855 11 508 491,https://location.westernunion.com/kh/thmei/ta-phou/63c843ef42cfb15a27d1bc3625395d6d,,Western Union,Q861042
2725c2cd50cc1cf9d098c7b5ed5f08f7,western_union,KHAN SOKNIM,,Sanlung,THMEI,,KH,+855 85 279 987,https://location.westernunion.com/kh/thmei/sanlung/2725c2cd50cc1cf9d098c7b5ed5f08f7,,Western Union,Q861042
364eda178121158fe86899a80cff00b6,western_union,LY MENG,,Tuol Prech,THMEI,,KH,+855 85 414 244,https://location.westernunion.com/kh/thmei/tuol-prech/364eda178121158fe86899a80cff00b6,,Western Union,Q861042
503e348019815c22f8aa97d412bcccc2,western_union,SAMNANG CHANNY,,Chumpu Voan,THMEI,,KH,+855 16 366 917,https://location.westernunion.com/kh/thmei/chumpu-voan/503e348019815c22f8aa97d412bcccc2,,Western Union,Q861042
c82892750dbf894d440cc7800762dc96,western_union,HUONG SOUR ENG,,Prey Thum,THMEI,,KH,+855 12 841 993,https://location.westernunion.com/kh/thmei/prey-thum/c82892750dbf894d440cc7800762dc96,,Western Union,Q861042
93725017afc93c652fb5ca0b72551cf6,western_union,MAK SU ER 3,,Prey Thum,THMEI,,KH,+855 97 212 2245,https://location.westernunion.com/kh/thmei/prey-thum/93725017afc93c652fb5ca0b72551cf6,,Western Union,Q861042
c454a6034d7bd5779517ec1a1d190670,western_union,RAVORN,,Bansay Traeng,THMEI,,KH,+855 17 441 211,https://location.westernunion.com/kh/thmei/bansay-traeng/c454a6034d7bd5779517ec1a1d190670,,Western Union,Q861042
974ae5d3a2c9a8313cb1a1f79aa8611e,western_union,VAN SOPHORS,,Thmei,THMEI,,KH,+855 97 389 5594,https://location.westernunion.com/kh/thmei/thmei/974ae5d3a2c9a8313cb1a1f79aa8611e,,Western Union,Q861042
af5092ab79a199df9bfb382aed7895e9,western_union,AN PISEY,,Kampong Prieng,THMEI,,KH,+855 96 760 1039,https://location.westernunion.com/kh/thmei/kampong-prieng/af5092ab79a199df9bfb382aed7895e9,,Western Union,Q861042
b34bb4a11f89c651fd03c71777bf5766,western_union,SOK VATHANAKA,,Ta Kream,THMEI,,KH,+855 81 282 847,https://location.westernunion.com/kh/thmei/ta-kream/b34bb4a11f89c651fd03c71777bf5766,,Western Union,Q861042
8fd458c929208edda18af1e114846f56,western_union,MANH SREYPOV,,Chi Phoch,THMEI,,KH,+855 93 690 384,https://location.westernunion.com/kh/thmei/chi-phoch/8fd458c929208edda18af1e114846f56,,Western Union,Q861042
a5a596dd5bb76938257eca6e784c9ffc,western_union,THYDA SREY PICH,,Trang,THMEI,,KH,+855 11 718 330,https://location.westernunion.com/kh/thmei/trang/a5a596dd5bb76938257eca6e784c9ffc,,Western Union,Q861042
a9c9c3f6079cacc9fe887b46def0c61c,western_union,VIMEAN SINITH,,Ou Da,THMEI,,KH,+855 97 794 4480,https://location.westernunion.com/kh/thmei/ou-da/a9c9c3f6079cacc9fe887b46def0c61c,,Western Union,Q861042
28998663293c54eb108ec9c5ceeb212f,western_union,DARA SITHA,,Trang,THMEI,,KH,+855 97 402 2268,https://location.westernunion.com/kh/thmei/trang/28998663293c54eb108ec9c5ceeb212f,,Western Union,Q861042
668e43137d0021aab9d002e90faae020,western_union,PHEA LA,,Sanlung,THMEI,,KH,+855 92 980 118,https://location.westernunion.com/kh/thmei/sanlung/668e43137d0021aab9d002e90faae020,,Western Union,Q861042
dd98f6c724f4122e167afabd9f16eead,western_union,LAI MON,,Chrouy Pras,THMEI,,KH,+855 96 916 8351,https://location.westernunion.com/kh/thmei/chrouy-pras/dd98f6c724f4122e167afabd9f16eead,,Western Union,Q861042
